{"type": "FeatureCollection", "features": [{"type": "Feature", "id": "IV.CIMA", "properties": {"code": "CIMA", "name": "CIMA", "instrumentType": "UNK", "source": "IV", "network": "IV", "commType": "UNK", "location": "", "intensity": 3.7, "intensity_flag": "", "intensity_stddev": 0.63, "pga": 0.3496, "pgv": 1.2653, "distance": 310.904, "elev": null, "vs30": 760.0, "channels": [{"name": "--.HNE", "amplitudes": [{"name": "pga", "value": 0.3496, "units": "%g", "flag": "0", "ln_sigma": 0.0}, {"name": "pgv", "value": 0.8637, "units": "cm/s", "flag": "0", "ln_sigma": 0.0}, {"name": "sa(0.3)", "value": 0.4438, "units": "%g", "flag": "0", "ln_sigma": 0.0}, {"name": "sa(1.0)", "value": 1.2092, "units": "%g", "flag": "0", "ln_sigma": 0.0}, {"name": "sa(3.0)", "value": 0.428, "units": "%g", "flag": "0", "ln_sigma": 0.0}]}, {"name": "--.HNN", "amplitudes": [{"name": "pga", "value": 0.3443, "units": "%g", "flag": "0", "ln_sigma": 0.0}, {"name": "pgv", "value": 1.2653, "units": "cm/s", "flag": "0", "ln_sigma": 0.0}, {"name": "sa(0.3)", "value": 0.4736, "units": "%g", "flag": "0", "ln_sigma": 0.0}, {"name": "sa(1.0)", "value": 0.7191, "units": "%g", "flag": "0", "ln_sigma": 0.0}, {"name": "sa(3.0)", "value": 0.4547, "units": "%g", "flag": "0", "ln_sigma": 0.0}]}, {"name": "--.HNZ", "amplitudes": [{"name": "pga", "value": 0.1213, "units": "%g", "flag": "0", "ln_sigma": 0.0}, {"name": "pgv", "value": 0.4097, "units": "cm/s", "flag": "0", "ln_sigma": 0.0}, {"name": "sa(0.3)", "value": 0.1681, "units": "%g", "flag": "0", "ln_sigma": 0.0}, {"name": "sa(1.0)", "value": 0.2389, "units": "%g", "flag": "0", "ln_sigma": 0.0}, {"name": "sa(3.0)", "value": 0.2197, "units": "%g", "flag": "0", "ln_sigma": 0.0}]}], "station_type": "seismic", "nresp": "null", "predictions": [{"name": "sa(3.0)", "value": 0.1061, "value_rock": 0.1061, "value_soil": 0.3408, "units": "%g", "ln_tau": 0.4393, "ln_phi": 0.6696, "ln_sigma": 0.8008, "ln_sigma_rock": 0.8035, "ln_sigma_soil": 0.8035, "ln_bias": 0.0742, "ln_bias_sigma": 0.2081}, {"name": "pgv", "value": 0.3476, "value_rock": 0.3476, "value_soil": 0.9588, "units": "cm/s", "ln_tau": 0.3922, "ln_phi": 0.6062, "ln_sigma": 0.722, "ln_sigma_rock": 0.7269, "ln_sigma_soil": 0.723, "ln_bias": 0.3335, "ln_bias_sigma": 0.1681}, {"name": "sa(1.0)", "value": 0.3425, "value_rock": 0.3425, "value_soil": 1.3738, "units": "%g", "ln_tau": 0.4311, "ln_phi": 0.6851, "ln_sigma": 0.8095, "ln_sigma_rock": 0.8119, "ln_sigma_soil": 0.8104, "ln_bias": 0.213, "ln_bias_sigma": 0.1927}, {"name": "sa(0.3)", "value": 0.5166, "value_rock": 0.5166, "value_soil": 1.4516, "units": "%g", "ln_tau": 0.3875, "ln_phi": 0.6712, "ln_sigma": 0.775, "ln_sigma_rock": 0.7765, "ln_sigma_soil": 0.7734, "ln_bias": 0.307, "ln_bias_sigma": 0.1822}, {"name": "pga", "value": 0.2607, "value_rock": 0.2607, "value_soil": 0.4363, "units": "%g", "ln_tau": 0.4017, "ln_phi": 0.5967, "ln_sigma": 0.7193, "ln_sigma_rock": 0.7218, "ln_sigma_soil": 0.7184, "ln_bias": 0.3983, "ln_bias_sigma": 0.1642}, {"name": "mmi", "value": 2.8533, "value_rock": 2.8533, "value_soil": 3.5012, "units": "intensity", "tau": 0.2504, "phi": 0.7394, "sigma": 0.7806, "sigma_rock": 0.7825, "sigma_soil": 0.781, "bias": 0.4388, "bias_sigma": 0.1607}], "mmi_from_pgm": [{"name": "sa(3.0)", "value": 3.72, "sigma": 0.89, "flag": "0"}, {"name": "pgv", "value": 3.68, "sigma": 0.63, "flag": "0"}, {"name": "sa(1.0)", "value": 3.32, "sigma": 0.75, "flag": "0"}, {"name": "sa(0.3)", "value": 2.82, "sigma": 0.82, "flag": "0"}, {"name": "pga", "value": 3.14, "sigma": 0.66, "flag": "0"}], "distance_stddev": 0.0, "distances": {"repi": 312.729, "rhypo": 312.889, "rjb": 310.995, "rjb_var": 0.0, "rrup": 310.904, "rrup_var": 0.0, "rx": 311.192, "ry0": 0.0, "rvolc": 0.0}}, "geometry": {"type": "Point", "coordinates": [13.670091, 43.305297]}}, {"type": "Feature", "id": "IV.COR1", "properties": {"code": "COR1", "name": "COR1", "instrumentType": "UNK", "source": "IV", "network": "IV", "commType": "UNK", "location": "", "intensity": 3.5, "intensity_flag": "", "intensity_stddev": 0.63, "pga": 0.2771, "pgv": 0.8891, "distance": 323.256, "elev": null, "vs30": 760.0, "channels": [{"name": "--.HNE", "amplitudes": [{"name": "pga", "value": 0.202, "units": "%g", "flag": "0", "ln_sigma": 0.0}, {"name": "pgv", "value": 0.8891, "units": "cm/s", "flag": "0", "ln_sigma": 0.0}, {"name": "sa(0.3)", "value": 0.3753, "units": "%g", "flag": "0", "ln_sigma": 0.0}, {"name": "sa(1.0)", "value": 0.6742, "units": "%g", "flag": "0", "ln_sigma": 0.0}, {"name": "sa(3.0)", "value": 0.2893, "units": "%g", "flag": "0", "ln_sigma": 0.0}]}, {"name": "--.HNN", "amplitudes": [{"name": "pga", "value": 0.2771, "units": "%g", "flag": "0", "ln_sigma": 0.0}, {"name": "pgv", "value": 0.8019, "units": "cm/s", "flag": "0", "ln_sigma": 0.0}, {"name": "sa(0.3)", "value": 0.3068, "units": "%g", "flag": "0", "ln_sigma": 0.0}, {"name": "sa(1.0)", "value": 0.6238, "units": "%g", "flag": "0", "ln_sigma": 0.0}, {"name": "sa(3.0)", "value": 0.3086, "units": "%g", "flag": "0", "ln_sigma": 0.0}]}, {"name": "--.HNZ", "amplitudes": [{"name": "pga", "value": 0.1232, "units": "%g", "flag": "0", "ln_sigma": 0.0}, {"name": "pgv", "value": 0.3605, "units": "cm/s", "flag": "0", "ln_sigma": 0.0}, {"name": "sa(0.3)", "value": 0.1715, "units": "%g", "flag": "0", "ln_sigma": 0.0}, {"name": "sa(1.0)", "value": 0.31, "units": "%g", "flag": "0", "ln_sigma": 0.0}, {"name": "sa(3.0)", "value": 0.1427, "units": "%g", "flag": "0", "ln_sigma": 0.0}]}], "station_type": "seismic", "nresp": "null", "predictions": [{"name": "sa(3.0)", "value": 0.1018, "value_rock": 0.1018, "value_soil": 0.3269, "units": "%g", "ln_tau": 0.4393, "ln_phi": 0.6696, "ln_sigma": 0.8008, "ln_sigma_rock": 0.8035, "ln_sigma_soil": 0.8035, "ln_bias": 0.0742, "ln_bias_sigma": 0.2081}, {"name": "pgv", "value": 0.3309, "value_rock": 0.3309, "value_soil": 0.9133, "units": "cm/s", "ln_tau": 0.3922, "ln_phi": 0.6062, "ln_sigma": 0.722, "ln_sigma_rock": 0.7269, "ln_sigma_soil": 0.723, "ln_bias": 0.3335, "ln_bias_sigma": 0.1681}, {"name": "sa(1.0)", "value": 0.3267, "value_rock": 0.3267, "value_soil": 1.3111, "units": "%g", "ln_tau": 0.4311, "ln_phi": 0.6851, "ln_sigma": 0.8095, "ln_sigma_rock": 0.8119, "ln_sigma_soil": 0.8104, "ln_bias": 0.213, "ln_bias_sigma": 0.1927}, {"name": "sa(0.3)", "value": 0.4807, "value_rock": 0.4807, "value_soil": 1.3521, "units": "%g", "ln_tau": 0.3875, "ln_phi": 0.6712, "ln_sigma": 0.775, "ln_sigma_rock": 0.7765, "ln_sigma_soil": 0.7734, "ln_bias": 0.307, "ln_bias_sigma": 0.1822}, {"name": "pga", "value": 0.241, "value_rock": 0.241, "value_soil": 0.4036, "units": "%g", "ln_tau": 0.4017, "ln_phi": 0.5967, "ln_sigma": 0.7193, "ln_sigma_rock": 0.7218, "ln_sigma_soil": 0.7184, "ln_bias": 0.3983, "ln_bias_sigma": 0.1642}, {"name": "mmi", "value": 2.822, "value_rock": 2.822, "value_soil": 3.4701, "units": "intensity", "tau": 0.2504, "phi": 0.7394, "sigma": 0.7806, "sigma_rock": 0.7825, "sigma_soil": 0.781, "bias": 0.4388, "bias_sigma": 0.1607}], "mmi_from_pgm": [{"name": "sa(3.0)", "value": 3.53, "sigma": 0.89, "flag": "0"}, {"name": "pgv", "value": 3.45, "sigma": 0.63, "flag": "0"}, {"name": "sa(1.0)", "value": 2.94, "sigma": 0.75, "flag": "0"}, {"name": "sa(0.3)", "value": 2.65, "sigma": 0.82, "flag": "0"}, {"name": "pga", "value": 2.98, "sigma": 0.66, "flag": "0"}], "distance_stddev": 0.0, "distances": {"repi": 326.133, "rhypo": 326.286, "rjb": 323.356, "rjb_var": 0.0, "rrup": 323.256, "rrup_var": 0.0, "rx": 316.716, "ry0": 64.831, "rvolc": 0.0}}, "geometry": {"type": "Point", "coordinates": [13.0003, 43.6318]}}, {"type": "Feature", "id": "IV.FANO", "properties": {"code": "FANO", "name": "FANO", "instrumentType": "UNK", "source": "IV", "network": "IV", "commType": "UNK", "location": "", "intensity": 3.3, "intensity_flag": "", "intensity_stddev": 0.63, "pga": 0.2641, "pgv": 0.6522, "distance": 307.588, "elev": null, "vs30": 760.0, "channels": [{"name": "--.HNE", "amplitudes": [{"name": "pga", "value": 0.2641, "units": "%g", "flag": "0", "ln_sigma": 0.0}, {"name": "pgv", "value": 0.6522, "units": "cm/s", "flag": "0", "ln_sigma": 0.0}, {"name": "sa(0.3)", "value": 0.3845, "units": "%g", "flag": "0", "ln_sigma": 0.0}, {"name": "sa(1.0)", "value": 0.7286, "units": "%g", "flag": "0", "ln_sigma": 0.0}, {"name": "sa(3.0)", "value": 0.2713, "units": "%g", "flag": "0", "ln_sigma": 0.0}]}, {"name": "--.HNN", "amplitudes": [{"name": "pga", "value": 0.2277, "units": "%g", "flag": "0", "ln_sigma": 0.0}, {"name": "pgv", "value": 0.6109, "units": "cm/s", "flag": "0", "ln_sigma": 0.0}, {"name": "sa(0.3)", "value": 0.3981, "units": "%g", "flag": "0", "ln_sigma": 0.0}, {"name": "sa(1.0)", "value": 1.0784, "units": "%g", "flag": "0", "ln_sigma": 0.0}, {"name": "sa(3.0)", "value": 0.2252, "units": "%g", "flag": "0", "ln_sigma": 0.0}]}, {"name": "--.HNZ", "amplitudes": [{"name": "pga", "value": 0.104, "units": "%g", "flag": "0", "ln_sigma": 0.0}, {"name": "pgv", "value": 0.2911, "units": "cm/s", "flag": "0", "ln_sigma": 0.0}, {"name": "sa(0.3)", "value": 0.1358, "units": "%g", "flag": "0", "ln_sigma": 0.0}, {"name": "sa(1.0)", "value": 0.2671, "units": "%g", "flag": "0", "ln_sigma": 0.0}, {"name": "sa(3.0)", "value": 0.1196, "units": "%g", "flag": "0", "ln_sigma": 0.0}]}], "station_type": "seismic", "nresp": "null", "predictions": [{"name": "sa(3.0)", "value": 0.1074, "value_rock": 0.1074, "value_soil": 0.3447, "units": "%g", "ln_tau": 0.4393, "ln_phi": 0.6696, "ln_sigma": 0.8008, "ln_sigma_rock": 0.8035, "ln_sigma_soil": 0.8035, "ln_bias": 0.0742, "ln_bias_sigma": 0.2081}, {"name": "pgv", "value": 0.3523, "value_rock": 0.3523, "value_soil": 0.9717, "units": "cm/s", "ln_tau": 0.3922, "ln_phi": 0.6062, "ln_sigma": 0.722, "ln_sigma_rock": 0.7269, "ln_sigma_soil": 0.723, "ln_bias": 0.3335, "ln_bias_sigma": 0.1681}, {"name": "sa(1.0)", "value": 0.347, "value_rock": 0.347, "value_soil": 1.3915, "units": "%g", "ln_tau": 0.4311, "ln_phi": 0.6851, "ln_sigma": 0.8095, "ln_sigma_rock": 0.8119, "ln_sigma_soil": 0.8104, "ln_bias": 0.213, "ln_bias_sigma": 0.1927}, {"name": "sa(0.3)", "value": 0.5268, "value_rock": 0.5268, "value_soil": 1.48, "units": "%g", "ln_tau": 0.3875, "ln_phi": 0.6712, "ln_sigma": 0.775, "ln_sigma_rock": 0.7765, "ln_sigma_soil": 0.7734, "ln_bias": 0.307, "ln_bias_sigma": 0.1822}, {"name": "pga", "value": 0.2663, "value_rock": 0.2663, "value_soil": 0.4457, "units": "%g", "ln_tau": 0.4017, "ln_phi": 0.5967, "ln_sigma": 0.7193, "ln_sigma_rock": 0.7218, "ln_sigma_soil": 0.7184, "ln_bias": 0.3983, "ln_bias_sigma": 0.1642}, {"name": "mmi", "value": 2.8619, "value_rock": 2.8619, "value_soil": 3.5097, "units": "intensity", "tau": 0.2504, "phi": 0.7394, "sigma": 0.7806, "sigma_rock": 0.7825, "sigma_soil": 0.781, "bias": 0.4388, "bias_sigma": 0.1607}], "mmi_from_pgm": [{"name": "sa(3.0)", "value": 3.46, "sigma": 0.89, "flag": "0"}, {"name": "pgv", "value": 3.26, "sigma": 0.63, "flag": "0"}, {"name": "sa(1.0)", "value": 3.25, "sigma": 0.75, "flag": "0"}, {"name": "sa(0.3)", "value": 2.7, "sigma": 0.82, "flag": "0"}, {"name": "pga", "value": 2.95, "sigma": 0.66, "flag": "0"}], "distance_stddev": 0.0, "distances": {"repi": 310.744, "rhypo": 310.905, "rjb": 307.677, "rjb_var": 0.0, "rrup": 307.588, "rrup_var": 0.0, "rx": 297.426, "ry0": 78.369, "rvolc": 0.0}}, "geometry": {"type": "Point", "coordinates": [13.018354, 43.843471]}}, {"type": "Feature", "id": "IV.FCOR", "properties": {"code": "FCOR", "name": "FCOR", "instrumentType": "UNK", "source": "IV", "network": "IV", "commType": "UNK", "location": "", "intensity": 3.0, "intensity_flag": "", "intensity_stddev": 0.63, "pga": 0.2092, "pgv": 0.4351, "distance": 325.672, "elev": null, "vs30": 760.0, "channels": [{"name": "--.HNE", "amplitudes": [{"name": "pga", "value": 0.1539, "units": "%g", "flag": "0", "ln_sigma": 0.0}, {"name": "pgv", "value": 0.3066, "units": "cm/s", "flag": "0", "ln_sigma": 0.0}, {"name": "sa(0.3)", "value": 0.2154, "units": "%g", "flag": "0", "ln_sigma": 0.0}, {"name": "sa(1.0)", "value": 0.3861, "units": "%g", "flag": "0", "ln_sigma": 0.0}, {"name": "sa(3.0)", "value": 0.0942, "units": "%g", "flag": "0", "ln_sigma": 0.0}]}, {"name": "--.HNN", "amplitudes": [{"name": "pga", "value": 0.2092, "units": "%g", "flag": "0", "ln_sigma": 0.0}, {"name": "pgv", "value": 0.4351, "units": "cm/s", "flag": "0", "ln_sigma": 0.0}, {"name": "sa(0.3)", "value": 0.2187, "units": "%g", "flag": "0", "ln_sigma": 0.0}, {"name": "sa(1.0)", "value": 0.2992, "units": "%g", "flag": "0", "ln_sigma": 0.0}, {"name": "sa(3.0)", "value": 0.1873, "units": "%g", "flag": "0", "ln_sigma": 0.0}]}, {"name": "--.HNZ", "amplitudes": [{"name": "pga", "value": 0.0626, "units": "%g", "flag": "0", "ln_sigma": 0.0}, {"name": "pgv", "value": 0.1395, "units": "cm/s", "flag": "0", "ln_sigma": 0.0}, {"name": "sa(0.3)", "value": 0.1555, "units": "%g", "flag": "0", "ln_sigma": 0.0}, {"name": "sa(1.0)", "value": 0.1423, "units": "%g", "flag": "0", "ln_sigma": 0.0}, {"name": "sa(3.0)", "value": 0.0346, "units": "%g", "flag": "0", "ln_sigma": 0.0}]}], "station_type": "seismic", "nresp": "null", "predictions": [{"name": "sa(3.0)", "value": 0.101, "value_rock": 0.101, "value_soil": 0.3243, "units": "%g", "ln_tau": 0.4393, "ln_phi": 0.6696, "ln_sigma": 0.8008, "ln_sigma_rock": 0.8035, "ln_sigma_soil": 0.8035, "ln_bias": 0.0742, "ln_bias_sigma": 0.2081}, {"name": "pgv", "value": 0.3278, "value_rock": 0.3278, "value_soil": 0.9048, "units": "cm/s", "ln_tau": 0.3922, "ln_phi": 0.6062, "ln_sigma": 0.722, "ln_sigma_rock": 0.7269, "ln_sigma_soil": 0.723, "ln_bias": 0.3335, "ln_bias_sigma": 0.1681}, {"name": "sa(1.0)", "value": 0.3237, "value_rock": 0.3237, "value_soil": 1.2994, "units": "%g", "ln_tau": 0.4311, "ln_phi": 0.6851, "ln_sigma": 0.8095, "ln_sigma_rock": 0.8119, "ln_sigma_soil": 0.8104, "ln_bias": 0.213, "ln_bias_sigma": 0.1927}, {"name": "sa(0.3)", "value": 0.4741, "value_rock": 0.4741, "value_soil": 1.3337, "units": "%g", "ln_tau": 0.3875, "ln_phi": 0.6712, "ln_sigma": 0.775, "ln_sigma_rock": 0.7765, "ln_sigma_soil": 0.7734, "ln_bias": 0.307, "ln_bias_sigma": 0.1822}, {"name": "pga", "value": 0.2374, "value_rock": 0.2374, "value_soil": 0.3976, "units": "%g", "ln_tau": 0.4017, "ln_phi": 0.5967, "ln_sigma": 0.7193, "ln_sigma_rock": 0.7218, "ln_sigma_soil": 0.7184, "ln_bias": 0.3983, "ln_bias_sigma": 0.1642}, {"name": "mmi", "value": 2.816, "value_rock": 2.816, "value_soil": 3.4641, "units": "intensity", "tau": 0.2504, "phi": 0.7394, "sigma": 0.7806, "sigma_rock": 0.7825, "sigma_soil": 0.781, "bias": 0.4388, "bias_sigma": 0.1607}], "mmi_from_pgm": [{"name": "sa(3.0)", "value": 3.27, "sigma": 0.89, "flag": "0"}, {"name": "pgv", "value": 3.0, "sigma": 0.63, "flag": "0"}, {"name": "sa(1.0)", "value": 2.57, "sigma": 0.75, "flag": "0"}, {"name": "sa(0.3)", "value": 2.22, "sigma": 0.82, "flag": "0"}, {"name": "pga", "value": 2.79, "sigma": 0.66, "flag": "0"}], "distance_stddev": 0.0, "distances": {"repi": 328.863, "rhypo": 329.015, "rjb": 325.773, "rjb_var": 0.0, "rrup": 325.672, "rrup_var": 0.0, "rx": 314.045, "ry0": 86.017, "rvolc": 0.0}}, "geometry": {"type": "Point", "coordinates": [12.81459, 43.76911]}}, {"type": "Feature", "id": "IV.FRE8", "properties": {"code": "FRE8", "name": "FRE8", "instrumentType": "UNK", "source": "IV", "network": "IV", "commType": "UNK", "location": "", "intensity": 3.1, "intensity_flag": "", "intensity_stddev": 0.63, "pga": 0.3533, "pgv": 0.5087, "distance": 303.939, "elev": null, "vs30": 760.0, "channels": [{"name": "--.HNE", "amplitudes": [{"name": "pga", "value": 0.3533, "units": "%g", "flag": "0", "ln_sigma": 0.0}, {"name": "pgv", "value": 0.5087, "units": "cm/s", "flag": "0", "ln_sigma": 0.0}, {"name": "sa(0.3)", "value": 0.8581, "units": "%g", "flag": "0", "ln_sigma": 0.0}, {"name": "sa(1.0)", "value": 0.5678, "units": "%g", "flag": "0", "ln_sigma": 0.0}, {"name": "sa(3.0)", "value": 0.1158, "units": "%g", "flag": "0", "ln_sigma": 0.0}]}, {"name": "--.HNN", "amplitudes": [{"name": "pga", "value": 0.1522, "units": "%g", "flag": "0", "ln_sigma": 0.0}, {"name": "pgv", "value": 0.3247, "units": "cm/s", "flag": "0", "ln_sigma": 0.0}, {"name": "sa(0.3)", "value": 0.3631, "units": "%g", "flag": "0", "ln_sigma": 0.0}, {"name": "sa(1.0)", "value": 0.3587, "units": "%g", "flag": "0", "ln_sigma": 0.0}, {"name": "sa(3.0)", "value": 0.0844, "units": "%g", "flag": "0", "ln_sigma": 0.0}]}, {"name": "--.HNZ", "amplitudes": [{"name": "pga", "value": 0.1524, "units": "%g", "flag": "0", "ln_sigma": 0.0}, {"name": "pgv", "value": 0.2487, "units": "cm/s", "flag": "0", "ln_sigma": 0.0}, {"name": "sa(0.3)", "value": 0.3253, "units": "%g", "flag": "0", "ln_sigma": 0.0}, {"name": "sa(1.0)", "value": 0.2059, "units": "%g", "flag": "0", "ln_sigma": 0.0}, {"name": "sa(3.0)", "value": 0.0718, "units": "%g", "flag": "0", "ln_sigma": 0.0}]}], "station_type": "seismic", "nresp": "null", "predictions": [{"name": "sa(3.0)", "value": 0.1088, "value_rock": 0.1088, "value_soil": 0.3491, "units": "%g", "ln_tau": 0.4393, "ln_phi": 0.6696, "ln_sigma": 0.8008, "ln_sigma_rock": 0.8035, "ln_sigma_soil": 0.8035, "ln_bias": 0.0742, "ln_bias_sigma": 0.2081}, {"name": "pgv", "value": 0.3576, "value_rock": 0.3576, "value_soil": 0.9863, "units": "cm/s", "ln_tau": 0.3922, "ln_phi": 0.6062, "ln_sigma": 0.722, "ln_sigma_rock": 0.7269, "ln_sigma_soil": 0.723, "ln_bias": 0.3335, "ln_bias_sigma": 0.1681}, {"name": "sa(1.0)", "value": 0.352, "value_rock": 0.352, "value_soil": 1.4115, "units": "%g", "ln_tau": 0.4311, "ln_phi": 0.6851, "ln_sigma": 0.8095, "ln_sigma_rock": 0.8119, "ln_sigma_soil": 0.8104, "ln_bias": 0.213, "ln_bias_sigma": 0.1927}, {"name": "sa(0.3)", "value": 0.5384, "value_rock": 0.5384, "value_soil": 1.512, "units": "%g", "ln_tau": 0.3875, "ln_phi": 0.6712, "ln_sigma": 0.775, "ln_sigma_rock": 0.7765, "ln_sigma_soil": 0.7734, "ln_bias": 0.307, "ln_bias_sigma": 0.1822}, {"name": "pga", "value": 0.2727, "value_rock": 0.2727, "value_soil": 0.4563, "units": "%g", "ln_tau": 0.4017, "ln_phi": 0.5967, "ln_sigma": 0.7193, "ln_sigma_rock": 0.7218, "ln_sigma_soil": 0.7184, "ln_bias": 0.3983, "ln_bias_sigma": 0.1642}, {"name": "mmi", "value": 2.8715, "value_rock": 2.8715, "value_soil": 3.5192, "units": "intensity", "tau": 0.2504, "phi": 0.7394, "sigma": 0.7806, "sigma_rock": 0.7825, "sigma_soil": 0.781, "bias": 0.4388, "bias_sigma": 0.1607}], "mmi_from_pgm": [{"name": "sa(3.0)", "value": 3.03, "sigma": 0.89, "flag": "0"}, {"name": "pgv", "value": 3.1, "sigma": 0.63, "flag": "0"}, {"name": "sa(1.0)", "value": 2.83, "sigma": 0.75, "flag": "0"}, {"name": "sa(0.3)", "value": 3.26, "sigma": 0.82, "flag": "0"}, {"name": "pga", "value": 3.15, "sigma": 0.66, "flag": "0"}], "distance_stddev": 0.0, "distances": {"repi": 309.933, "rhypo": 310.094, "rjb": 304.025, "rjb_var": 0.0, "rrup": 303.939, "rrup_var": 0.0, "rx": 140.257, "ry0": 268.944, "rvolc": 0.0}}, "geometry": {"type": "Point", "coordinates": [12.3552, 46.015]}}, {"type": "Feature", "id": "IV.FREG", "properties": {"code": "FREG", "name": "FREG", "instrumentType": "UNK", "source": "IV", "network": "IV", "commType": "UNK", "location": "", "intensity": 3.4, "intensity_flag": "", "intensity_stddev": 0.63, "pga": 0.7486, "pgv": 0.7709, "distance": 307.073, "elev": null, "vs30": 760.0, "channels": [{"name": "--.HNE", "amplitudes": [{"name": "pga", "value": 0.7486, "units": "%g", "flag": "0", "ln_sigma": 0.0}, {"name": "pgv", "value": 0.5441, "units": "cm/s", "flag": "0", "ln_sigma": 0.0}, {"name": "sa(0.3)", "value": 1.9389, "units": "%g", "flag": "0", "ln_sigma": 0.0}, {"name": "sa(1.0)", "value": 0.4193, "units": "%g", "flag": "0", "ln_sigma": 0.0}, {"name": "sa(3.0)", "value": 0.1649, "units": "%g", "flag": "0", "ln_sigma": 0.0}]}, {"name": "--.HNN", "amplitudes": [{"name": "pga", "value": 0.5536, "units": "%g", "flag": "0", "ln_sigma": 0.0}, {"name": "pgv", "value": 0.7709, "units": "cm/s", "flag": "0", "ln_sigma": 0.0}, {"name": "sa(0.3)", "value": 2.1584, "units": "%g", "flag": "0", "ln_sigma": 0.0}, {"name": "sa(1.0)", "value": 0.5356, "units": "%g", "flag": "0", "ln_sigma": 0.0