{
   "type":"FeatureCollection",
   "features":[
      {
         "type":"Feature",
         "id":"US.AH",
         "properties":{
            "code":"AH",
            "name":"Ahuachapan",
            "instrumentType":"UNK",
            "source":"US",
            "network":"US",
            "commType":"UNK",
            "location":"",
            "intensity":6.8,
            "intensity_flag":"",
            "intensity_stddev":0.63,
            "pga":20.0116,
            "pgv":24.0819,
            "distance":120.343,
            "elev":null,
            "vs30":689.48,
            "channels":[
               {
                  "name":"HN1",
                  "amplitudes":[
                     {
                        "name":"sa(0.3)",
                        "value":20.1963,
                        "units":"%g",
                        "flag":"0",
                        "ln_sigma":0.0
                     },
                     {
                        "name":"sa(1.0)",
                        "value":35.118,
                        "units":"%g",
                        "flag":"0",
                        "ln_sigma":0.0
                     },
                     {
                        "name":"sa(3.0)",
                        "value":4.8521,
                        "units":"%g",
                        "flag":"0",
                        "ln_sigma":0.0
                     },
                     {
                        "name":"pga",
                        "value":20.0116,
                        "units":"%g",
                        "flag":"0",
                        "ln_sigma":0.0
                     },
                     {
                        "name":"pgv",
                        "value":24.0819,
                        "units":"cm/s",
                        "flag":"0",
                        "ln_sigma":0.0
                     }
                  ]
               },
               {
                  "name":"HN2",
                  "amplitudes":[
                     {
                        "name":"sa(0.3)",
                        "value":14.7531,
                        "units":"%g",
                        "flag":"0",
                        "ln_sigma":0.0
                     },
                     {
                        "name":"sa(1.0)",
                        "value":32.9608,
                        "units":"%g",
                        "flag":"0",
                        "ln_sigma":0.0
                     },
                     {
                        "name":"sa(3.0)",
                        "value":5.3921,
                        "units":"%g",
                        "flag":"0",
                        "ln_sigma":0.0
                     },
                     {
                        "name":"pga",
                        "value":14.5882,
                        "units":"%g",
                        "flag":"0",
                        "ln_sigma":0.0
                     },
                     {
                        "name":"pgv",
                        "value":17.9206,
                        "units":"cm/s",
                        "flag":"0",
                        "ln_sigma":0.0
                     }
                  ]
               },
               {
                  "name":"HNZ",
                  "amplitudes":[
                     {
                        "name":"sa(0.3)",
                        "value":12.875,
                        "units":"%g",
                        "flag":"0",
                        "ln_sigma":0.0
                     },
                     {
                        "name":"sa(1.0)",
                        "value":15.3246,
                        "units":"%g",
                        "flag":"0",
                        "ln_sigma":0.0
                     },
                     {
                        "name":"sa(3.0)",
                        "value":2.9144,
                        "units":"%g",
                        "flag":"0",
                        "ln_sigma":0.0
                     },
                     {
                        "name":"pga",
                        "value":11.5338,
                        "units":"%g",
                        "flag":"0",
                        "ln_sigma":0.0
                     },
                     {
                        "name":"pgv",
                        "value":9.0613,
                        "units":"cm/s",
                        "flag":"0",
                        "ln_sigma":0.0
                     }
                  ]
               }
            ],
            "station_type":"seismic",
            "nresp":"null",
            "predictions":[
               {
                  "name":"pga",
                  "value":12.8019,
                  "value_rock":12.6586,
                  "value_soil":15.5703,
                  "units":"%g",
                  "ln_tau":0.3379,
                  "ln_phi":0.4882,
                  "ln_sigma":0.5937,
                  "ln_sigma_rock":0.5656,
                  "ln_sigma_soil":0.5714,
                  "ln_bias":-0.0312,
                  "ln_bias_sigma":0.1761
               },
               {
                  "name":"sa(0.3)",
                  "value":21.736,
                  "value_rock":21.3007,
                  "value_soil":35.3264,
                  "units":"%g",
                  "ln_tau":0.2874,
                  "ln_phi":0.5364,
                  "ln_sigma":0.6085,
                  "ln_sigma_rock":0.5851,
                  "ln_sigma_soil":0.5979,
                  "ln_bias":-0.3897,
                  "ln_bias_sigma":0.1772
               },
               {
                  "name":"sa(3.0)",
                  "value":2.8251,
                  "value_rock":2.7641,
                  "value_soil":5.5918,
                  "units":"%g",
                  "ln_tau":0.2924,
                  "ln_phi":0.5364,
                  "ln_sigma":0.6109,
                  "ln_sigma_rock":0.5817,
                  "ln_sigma_soil":0.5817,
                  "ln_bias":0.1617,
                  "ln_bias_sigma":0.1816
               },
               {
                  "name":"pgv",
                  "value":7.7965,
                  "value_rock":7.5875,
                  "value_soil":16.7095,
                  "units":"cm/s",
                  "ln_tau":0.3207,
                  "ln_phi":0.6931,
                  "ln_sigma":0.7637,
                  "ln_sigma_rock":0.7209,
                  "ln_sigma_soil":0.7268,
                  "ln_bias":0.2101,
                  "ln_bias_sigma":0.2161
               },
               {
                  "name":"sa(1.0)",
                  "value":8.2554,
                  "value_rock":8.0342,
                  "value_soil":17.6931,
                  "units":"%g",
                  "ln_tau":0.3207,
                  "ln_phi":0.5405,
                  "ln_sigma":0.6285,
                  "ln_sigma_rock":0.5925,
                  "ln_sigma_soil":0.5974,
                  "ln_bias":0.3516,
                  "ln_bias_sigma":0.1859
               },
               {
                  "name":"mmi",
                  "value":6.1371,
                  "value_rock":6.119,
                  "value_soil":6.4517,
                  "units":"intensity",
                  "tau":0.543,
                  "phi":1.0252,
                  "sigma":1.1601,
                  "sigma_rock":1.1233,
                  "sigma_soil":1.1308,
                  "bias":-0.0748,
                  "bias_sigma":0.3615
               }
            ],
            "mmi_from_pgm":[
               {
                  "name":"pga",
                  "value":6.85,
                  "sigma":0.66,
                  "flag":"0"
               },
               {
                  "name":"sa(0.3)",
                  "value":5.56,
                  "sigma":0.82,
                  "flag":"0"
               },
               {
                  "name":"sa(3.0)",
                  "value":6.37,
                  "sigma":0.89,
                  "flag":"0"
               },
               {
                  "name":"pgv",
                  "value":6.84,
                  "sigma":0.63,
                  "flag":"0"
               },
               {
                  "name":"sa(1.0)",
                  "value":6.69,
                  "sigma":0.75,
                  "flag":"0"
               }
            ],
            "distance_stddev":0.0,
            "distances":{
               "repi":157.531,
               "rhypo":168.57,
               "rjb":101.103,
               "rjb_var":0.0,
               "rrup":120.343,
               "rrup_var":0.0,
               "rvolc":0.0
            }
         },
         "geometry":{
            "type":"Point",
            "coordinates":[
               -89.805,
               13.925
            ]
         }
      },
      {
         "type":"Feature",
         "id":"US.CA",
         "properties":{
            "code":"CA",
            "name":"Acajutia Cepa",
            "instrumentType":"UNK",
            "source":"US",
            "network":"US",
            "commType":"UNK",
            "location":"",
            "intensity":7.0,
            "intensity_flag":"",
            "intensity_stddev":0.63,
            "pga":11.0559,
            "pgv":27.0055,
            "distance":91.688,
            "elev":null,
            "vs30":301.03,
            "channels":[
               {
                  "name":"HN1",
                  "amplitudes":[
                     {
                        "name":"sa(0.3)",
                        "value":11.2014,
                        "units":"%g",
                        "flag":"0",
                        "ln_sigma":0.0
                     },
                     {
                        "name":"sa(1.0)",
                        "value":30.3836,
                        "units":"%g",
                        "flag":"0",
                        "ln_sigma":0.0
                     },
                     {
                        "name":"sa(3.0)",
                        "value":4.6086,
                        "units":"%g",
                        "flag":"0",
                        "ln_sigma":0.0
                     },
                     {
                        "name":"pga",
                        "value":11.0559,
                        "units":"%g",
                        "flag":"0",
                        "ln_sigma":0.0
                     },
                     {
                        "name":"pgv",
                        "value":19.1451,
                        "units":"cm/s",
                        "flag":"0",
                        "ln_sigma":0.0
                     }
                  ]
               },
               {
                  "name":"HN2",
                  "amplitudes":[
                     {
                        "name":"sa(0.3)",
                        "value":10.2518,
                        "units":"%g",
                        "flag":"0",
                        "ln_sigma":0.0
                     },
                     {
                        "name":"sa(1.0)",
                        "value":20.5546,
                        "units":"%g",
                        "flag":"0",
                        "ln_sigma":0.0
                     },
                     {
                        "name":"sa(3.0)",
                        "value":7.178,
                        "units":"%g",
                        "flag":"0",
                        "ln_sigma":0.0
                     },
                     {
                        "name":"pga",
                        "value":10.1768,
                        "units":"%g",
                        "flag":"0",
                        "ln_sigma":0.0
                     },
                     {
                        "name":"pgv",
                        "value":27.0055,
                        "units":"cm/s",
                        "flag":"0",
                        "ln_sigma":0.0
                     }
                  ]
               },
               {
                  "name":"HNZ",
                  "amplitudes":[
                     {
                        "name":"sa(0.3)",
                        "value":4.5549,
                        "units":"%g",
                        "flag":"0",
                        "ln_sigma":0.0
                     },
                     {
                        "name":"sa(1.0)",
                        "value":8.6444,
                        "units":"%g",
                        "flag":"0",
                        "ln_sigma":0.0
                     },
                     {
                        "name":"sa(3.0)",
                        "value":1.1687,
                        "units":"%g",
                        "flag":"0",
                        "ln_sigma":0.0
                     },
                     {
                        "name":"pga",
                        "value":4.4672,
                        "units":"%g",
                        "flag":"0",
                        "ln_sigma":0.0
                     },
                     {
                        "name":"pgv",
                        "value":9.1252,
                        "units":"cm/s",
                        "flag":"0",
                        "ln_sigma":0.0
                     }
                  ]
               }
            ],
            "station_type":"seismic",
            "nresp":"null",
            "predictions":[
               {
                  "name":"pga",
                  "value":21.8287,
                  "value_rock":17.9905,
                  "value_soil":21.6679,
                  "units":"%g",
                  "ln_tau":0.3379,
                  "ln_phi":0.4882,
                  "ln_sigma":0.5937,
                  "ln_sigma_rock":0.5656,
                  "ln_sigma_soil":0.5714,
                  "ln_bias":-0.0312,
                  "ln_bias_sigma":0.1761
               },
               {
                  "name":"sa(0.3)",
                  "value":46.1343,
                  "value_rock":30.0116,
                  "value_soil":47.652,
                  "units":"%g",
                  "ln_tau":0.2874,
                  "ln_phi":0.5364,
                  "ln_sigma":0.6085,
                  "ln_sigma_rock":0.5851,
                  "ln_sigma_soil":0.5979,
                  "ln_bias":-0.3897,
                  "ln_bias_sigma":0.1772
               },
               {
                  "name":"sa(3.0)",
                  "value":5.4951,
                  "value_rock":3.7079,
                  "value_soil":7.5011,
                  "units":"%g",
                  "ln_tau":0.2924,
                  "ln_phi":0.5364,
                  "ln_sigma":0.6109,
                  "ln_sigma_rock":0.5817,
                  "ln_sigma_soil":0.5817,
                  "ln_bias":0.1617,
                  "ln_bias_sigma":0.1816
               },
               {
                  "name":"pgv",
                  "value":17.4853,
                  "value_rock":10.601,
                  "value_soil":23.1526,
                  "units":"cm/s",
                  "ln_tau":0.3207,
                  "ln_phi":0.6931,
                  "ln_sigma":0.7637,
                  "ln_sigma_rock":0.7209,
                  "ln_sigma_soil":0.7268,
                  "ln_bias":0.2101,
                  "ln_bias_sigma":0.2161
               },
               {
                  "name":"sa(1.0)",
                  "value":18.508,
                  "value_rock":11.221,
                  "value_soil":24.5068,
                  "units":"%g",
                  "ln_tau":0.3207,
                  "ln_phi":0.5405,
                  "ln_sigma":0.6285,
                  "ln_sigma_rock":0.5925,
                  "ln_sigma_soil":0.5974,
                  "ln_bias":0.3516,
                  "ln_bias_sigma":0.1859
               },
               {
                  "name":"mmi",
                  "value":6.8741,
                  "value_rock":6.5634,
                  "value_soil":6.8623,
                  "units":"intensity",
                  "tau":0.543,
                  "phi":1.0252,
                  "sigma":1.1601,
                  "sigma_rock":1.1233,
                  "sigma_soil":1.1308,
                  "bias":-0.0748,
                  "bias_sigma":0.3615
               }
            ],
            "mmi_from_pgm":[
               {
                  "name":"pga",
                  "value":5.78,
                  "sigma":0.66,
                  "flag":"0"
               },
               {
                  "name":"sa(0.3)",
                  "value":4.84,
                  "sigma":0.82,
                  "flag":"0"
               },
               {
                  "name":"sa(3.0)",
                  "value":6.81,
                  "sigma":0.89,
                  "flag":"0"
               },
               {
                  "name":"pgv",
                  "value":7.0,
                  "sigma":0.63,
                  "flag":"0"
               },
               {
                  "name":"sa(1.0)",
                  "value":6.57,
                  "sigma":0.75,
                  "flag":"0"
               }
            ],
            "distance_stddev":0.0,
            "distances":{
               "repi":139.386,
               "rhypo":151.751,
               "rjb":76.387,
               "rjb_var":0.0,
               "rrup":91.688,
               "rrup_var":0.0,
               "rvolc":0.0
            }
         },
         "geometry":{
            "type":"Point",
            "coordinates":[
               -89.833,
               13.567
            ]
         }
      },
      {
         "type":"Feature",
         "id":"US.DB",
         "properties":{
            "code":"DB",
            "name":"Ciudadela Don Bosco",
            "instrumentType":"UNK",
            "source":"US",
            "network":"US",
            "commType":"UNK",
            "location":"",
            "intensity":7.0,
            "intensity_flag":"",
            "intensity_stddev":0.63,
            "pga":24.1088,
            "pgv":26.7877,
            "distance":90.555,
            "elev":null,
            "vs30":332.8,
            "channels":[
               {
                  "name":"HN1",
                  "amplitudes":[
                     {
                        "name":"sa(0.3)",
                        "value":23.9765,
                        "units":"%g",
                        "flag":"0",
                        "ln_sigma":0.0
                     },
                     {
                        "name":"sa(1.0)",
                        "value":54.3738,
                        "units":"%g",
                        "flag":"0",
                        "ln_sigma":0.0
                     },
                     {
                        "name":"sa(3.0)",
                        "value":5.4125,
                        "units":"%g",
                        "flag":"0",
                        "ln_sigma":0.0
                     },
                     {
                        "name":"pga",
                        "value":23.5043,
                        "units":"%g",
                        "flag":"0",
                        "ln_sigma":0.0
                     },
                     {
                        "name":"pgv",
                        "value":26.7877,
                        "units":"cm/s",
                        "flag":"0",
                        "ln_sigma":0.0
                     }
                  ]
               },
               {
                  "name":"HN2",
                  "amplitudes":[
                     {
                        "name":"sa(0.3)",
                        "value":25.5725,
                        "units":"%g",
                        "flag":"0",
                        "ln_sigma":0.0
                     },
                     {
