{"type": "FeatureCollection", "features": [{"type": "Feature", "id": "GNS.OXZ", "properties": {"code": "OXZ", "name": "Oxford", "instrumentType": "UNK", "source": "GNS", "network": "GNS", "commType": "UNK", "location": "", "intensity": 4.7, "intensity_flag": "", "intensity_stddev": 0.63, "pga": 5.6, "pgv": 4.18, "distance": 56.583, "elev": null, "vs30": 315.75, "channels": [{"name": "HN1", "amplitudes": [{"name": "pga", "value": 4.43, "units": "%g", "flag": "0", "ln_sigma": 0.0}, {"name": "sa(0.3)", "value": 9.18, "units": "%g", "flag": "0", "ln_sigma": 0.0}, {"name": "pgv", "value": 3.2, "units": "cm/s", "flag": "0", "ln_sigma": 0.0}, {"name": "sa(3.0)", "value": 0.44, "units": "%g", "flag": "0", "ln_sigma": 0.0}, {"name": "sa(1.0)", "value": 6.99, "units": "%g", "flag": "0", "ln_sigma": 0.0}]}, {"name": "HN2", "amplitudes": [{"name": "pga", "value": 5.6, "units": "%g", "flag": "0", "ln_sigma": 0.0}, {"name": "sa(0.3)", "value": 9.77, "units": "%g", "flag": "0", "ln_sigma": 0.0}, {"name": "pgv", "value": 4.18, "units": "cm/s", "flag": "0", "ln_sigma": 0.0}, {"name": "sa(3.0)", "value": 0.66, "units": "%g", "flag": "0", "ln_sigma": 0.0}, {"name": "sa(1.0)", "value": 5.46, "units": "%g", "flag": "0", "ln_sigma": 0.0}]}, {"name": "HNZ", "amplitudes": [{"name": "pga", "value": 4.14, "units": "%g", "flag": "0", "ln_sigma": 0.0}, {"name": "sa(0.3)", "value": 7.4, "units": "%g", "flag": "0", "ln_sigma": 0.0}, {"name": "pgv", "value": 2.84, "units": "cm/s", "flag": "0", "ln_sigma": 0.0}, {"name": "sa(3.0)", "value": 0.42, "units": "%g", "flag": "0", "ln_sigma": 0.0}, {"name": "sa(1.0)", "value": 1.67, "units": "%g", "flag": "0", "ln_sigma": 0.0}]}], "station_type": "seismic", "nresp": "null", "predictions": [{"name": "sa(3.0)", "value": 0.7463, "value_rock": 0.3317, "value_soil": 1.2707, "units": "%g", "ln_tau": 0.4121, "ln_phi": 0.5974, "ln_sigma": 0.7257, "ln_sigma_rock": 0.727, "ln_sigma_soil": 0.7264, "ln_bias": 0.3416, "ln_bias_sigma": 0.1512}, {"name": "sa(1.0)", "value": 3.7753, "value_rock": 1.7096, "value_soil": 6.0175, "units": "%g", "ln_tau": 0.3485, "ln_phi": 0.6117, "ln_sigma": 0.704, "ln_sigma_rock": 0.7089, "ln_sigma_soil": 0.6912, "ln_bias": 0.2604, "ln_bias_sigma": 0.1443}, {"name": "pgv", "value": 3.4079, "value_rock": 1.747, "value_soil": 5.0437, "units": "cm/s", "ln_tau": 0.3351, "ln_phi": 0.6533, "ln_sigma": 0.7342, "ln_sigma_rock": 0.7403, "ln_sigma_soil": 0.7188, "ln_bias": 0.1538, "ln_bias_sigma": 0.151}, {"name": "sa(0.3)", "value": 10.0866, "value_rock": 5.4215, "value_soil": 14.0856, "units": "%g", "ln_tau": 0.309, "ln_phi": 0.5836, "ln_sigma": 0.6603, "ln_sigma_rock": 0.6759, "ln_sigma_soil": 0.6314, "ln_bias": 0.2495, "ln_bias_sigma": 0.1281}, {"name": "pga", "value": 4.1897, "value_rock": 2.9552, "value_soil": 5.1222, "units": "%g", "ln_tau": 0.3132, "ln_phi": 0.5215, "ln_sigma": 0.6083, "ln_sigma_rock": 0.62, "ln_sigma_soil": 0.5854, "ln_bias": 0.2388, "ln_bias_sigma": 0.1183}, {"name": "mmi", "value": 4.3747, "value_rock": 3.9382, "value_soil": 4.9127, "units": "intensity", "tau": 0.4599, "phi": 1.0958, "sigma": 1.1884, "sigma_rock": 0.7876, "sigma_soil": 1.1705, "bias": 0.1802, "bias_sigma": 0.2201}], "mmi_from_pgm": [{"name": "sa(3.0)", "value": 4.39, "sigma": 0.89, "flag": "0"}, {"name": "sa(1.0)", "value": 5.17, "sigma": 0.75, "flag": "0"}, {"name": "pgv", "value": 4.65, "sigma": 0.63, "flag": "0"}, {"name": "sa(0.3)", "value": 4.61, "sigma": 0.82, "flag": "0"}, {"name": "pga", "value": 4.68, "sigma": 0.66, "flag": "0"}], "distance_stddev": 0.0, "distances": {"repi": 59.09, "rhypo": 59.384, "rjb": 56.579, "rjb_var": 0.0, "rrup": 56.583, "rrup_var": 0.0, "rx": -48.549, "ry0": 28.821}}, "geometry": {"type": "Point", "coordinates": [172.0381, -43.3275]}}, {"type": "Feature", "id": "GNS.DORC", "properties": {"code": "DORC", "name": "Dorie", "instrumentType": "UNK", "source": "GNS", "network": "GNS", "commType": "UNK", "location": "", "intensity": 4.3, "intensity_flag": "", "intensity_stddev": 0.63, "pga": 4.63, "pgv": 3.07, "distance": 59.116, "elev": null, "vs30": 259.59, "channels": [{"name": "HN1", "amplitudes": [{"name": "pga", "value": 3.19, "units": "%g", "flag": "0", "ln_sigma": 0.0}, {"name": "sa(0.3)", "value": 7.67, "units": "%g", "flag": "0", "ln_sigma": 0.0}, {"name": "pgv", "value": 2.63, "units": "cm/s", "flag": "0", "ln_sigma": 0.0}, {"name": "sa(3.0)", "value": 0.74, "units": "%g", "flag": "0", "ln_sigma": 0.0}, {"name": "sa(1.0)", "value": 2.81, "units": "%g", "flag": "0", "ln_sigma": 0.0}]}, {"name": "HN2", "amplitudes": [{"name": "pga", "value": 4.63, "units": "%g", "flag": "0", "ln_sigma": 0.0}, {"name": "sa(0.3)", "value": 8.77, "units": "%g", "flag": "0", "ln_sigma": 0.0}, {"name": "pgv", "value": 3.07, "units": "cm/s", "flag": "0", "ln_sigma": 0.0}, {"name": "sa(3.0)", "value": 1.1, "units": "%g", "flag": "0", "ln_sigma": 0.0}, {"name": "sa(1.0)", "value": 4.82, "units": "%g", "flag": "0", "ln_sigma": 0.0}]}, {"name": "HNZ", "amplitudes": [{"name": "pga", "value": 2.38, "units": "%g", "flag": "0", "ln_sigma": 0.0}, {"name": "sa(0.3)", "value": 4.56, "units": "%g", "flag": "0", "ln_sigma": 0.0}, {"name": "pgv", "value": 1.46, "units": "cm/s", "flag": "0", "ln_sigma": 0.0}, {"name": "sa(3.0)", "value": 0.56, "units": "%g", "flag": "0", "ln_sigma": 0.0}, {"name": "sa(1.0)", "value": 1.46, "units": "%g", "flag": "0", "ln_sigma": 0.0}]}], "station_type": "seismic", "nresp": "null", "predictions": [{"name": "sa(3.0)", "value": 0.8586, "value_rock": 0.3173, "value_soil": 1.216, "units": "%g", "ln_tau": 0.4121, "ln_phi": 0.5973, "ln_sigma": 0.7257, "ln_sigma_rock": 0.727, "ln_sigma_soil": 0.7265, "ln_bias": 0.3416, "ln_bias_sigma": 0.1512}, {"name": "sa(1.0)", "value": 4.2485, "value_rock": 1.631, "value_soil": 5.7548, "units": "%g", "ln_tau": 0.3463, "ln_phi": 0.6085, "ln_sigma": 0.7001, "ln_sigma_rock": 0.7089, "ln_sigma_soil": 0.6918, "ln_bias": 0.2599, "ln_bias_sigma": 0.1442}, {"name": "pgv", "value": 3.7328, "value_rock": 1.6643, "value_soil": 4.8168, "units": "cm/s", "ln_tau": 0.333, "ln_phi": 0.6468, "ln_sigma": 0.7275, "ln_sigma_rock": 0.7403, "ln_sigma_soil": 0.7193, "ln_bias": 0.1534, "ln_bias_sigma": 0.1508}, {"name": "sa(0.3)", "value": 10.7873, "value_rock": 5.1278, "value_soil": 13.4056, "units": "%g", "ln_tau": 0.3041, "ln_phi": 0.576, "ln_sigma": 0.6514, "ln_sigma_rock": 0.6759, "ln_sigma_soil": 0.6333, "ln_bias": 0.2481, "ln_bias_sigma": 0.1278}, {"name": "pga", "value": 4.2645, "value_rock": 2.7902, "value_soil": 4.8593, "units": "%g", "ln_tau": 0.3098, "ln_phi": 0.5142, "ln_sigma": 0.6003, "ln_sigma_rock": 0.62, "ln_sigma_soil": 0.5867, "ln_bias": 0.2381, "ln_bias_sigma": 0.1181}, {"name": "mmi", "value": 4.4996, "value_rock": 3.9072, "value_soil": 4.8495, "units": "intensity", "tau": 0.4571, "phi": 1.0885, "sigma": 1.1805, "sigma_rock": 0.7876, "sigma_soil": 1.1711, "bias": 0.1797, "bias_sigma": 0.2198}], "mmi_from_pgm": [{"name": "sa(3.0)", "value": 4.72, "sigma": 0.89, "flag": "0"}, {"name": "sa(1.0)", "value": 4.69, "sigma": 0.75, "flag": "0"}, {"name": "pgv", "value": 4.3, "sigma": 0.63, "flag": "0"}, {"name": "sa(0.3)", "value": 4.54, "sigma": 0.82, "flag": "0"}, {"name": "pga", "value": 4.39, "sigma": 0.66, "flag": "0"}], "distance_stddev": 0.0, "distances": {"repi": 58.723, "rhypo": 59.019, "rjb": 58.944, "rjb_var": 0.0, "rrup": 59.116, "rrup_var": 0.0, "rx": 7.693, "ry0": 58.547}}, "geometry": {"type": "Point", "coordinates": [172.0936, -43.8983]}}, {"type": "Feature", "id": "GNS.DKHS", "properties": {"code": "DKHS", "name": "Dunedin Kings High School", "instrumentType": "UNK", "source": "GNS", "network": "GNS", "commType": "UNK", "location": "", "intensity": 3.6, "intensity_flag": "", "intensity_stddev": 0.63, "pga": "null", "pgv": 0.97, "distance": 310.946, "elev": null, "vs30": 760.0, "channels": [{"name": "HN1", "amplitudes": [{"name": "pga", "value": 1.34, "units": "%g", "flag": "Outlier,0,Outlier", "ln_sigma": 0.0}, {"name": "sa(0.3)", "value": 3.81, "units": "%g", "flag": "Outlier", "ln_sigma": 0.0}, {"name": "pgv", "value": 0.97, "units": "cm/s", "flag": "0", "ln_sigma": 0.0}, {"name": "sa(3.0)", "value": 0.22, "units": "%g", "flag": "0", "ln_sigma": 0.0}, {"name": "sa(1.0)", "value": 0.92, "units": "%g", "flag": "0", "ln_sigma": 0.0}]}, {"name": "HN2", "amplitudes": [{"name": "pga", "value": 1.0, "units": "%g", "flag": "Outlier,0,Outlier", "ln_sigma": 0.0}, {"name": "sa(0.3)", "value": 3.89, "units": "%g", "flag": "Outlier", "ln_sigma": 0.0}, {"name": "pgv", "value": 0.82, "units": "cm/s", "flag": "0", "ln_sigma": 0.0}, {"name": "sa(3.0)", "value": 0.14, "units": "%g", "flag": "0", "ln_sigma": 0.0}, {"name": "sa(1.0)", "value": 1.06, "units": "%g", "flag": "0", "ln_sigma": 0.0}]}, {"name": "HNZ", "amplitudes": [{"name": "pga", "value": 0.44, "units": "%g", "flag": "Outlier,0,Outlier", "ln_sigma": 0.0}, {"name": "sa(0.3)", "value": 1.33, "units": "%g", "flag": "Outlier", "ln_sigma": 0.0}, {"name": "pgv", "value": 0.46, "units": "cm/s", "flag": "0", "ln_sigma": 0.0}, {"name": "sa(3.0)", "value": 0.06, "units": "%g", "flag": "0", "ln_sigma": 0.0}, {"name": "sa(1.0)", "value": 0.48, "units": "%g", "flag": "0", "ln_sigma": 0.0}]}], "station_type": "seismic", "nresp": "null", "predictions": [{"name": "sa(3.0)", "value": 0.0605, "value_rock": 0.0605, "value_soil": 0.2321, "units": "%g", "ln_tau": 0.4125, "ln_phi": 0.6085, "ln_sigma": 0.7352, "ln_sigma_rock": 0.7368, "ln_sigma_soil": 0.7366, "ln_bias": 0.3417, "ln_bias_sigma": 0.1512}, {"name": "sa(1.0)", "value": 0.2088, "value_rock": 0.2088, "value_soil": 0.7726, "units": "%g", "ln_tau": 0.3519, "ln_phi": 0.627, "ln_sigma": 0.7191, "ln_sigma_rock": 0.72, "ln_sigma_soil": 0.7156, "ln_bias": 0.2613, "ln_bias_sigma": 0.1446}, {"name": "pgv", "value": 0.1977, "value_rock": 0.1977, "value_soil": 0.5997, "units": "cm/s", "ln_tau": 0.3387, "ln_phi": 0.6661, "ln_sigma": 0.7473, "ln_sigma_rock": 0.7491, "ln_sigma_soil": 0.7384, "ln_bias": 0.1545, "ln_bias_sigma": 0.1513}, {"name": "sa(0.3)", "value": 0.2121, "value_rock": 0.2121, "value_soil": 0.6204, "units": "%g", "ln_tau": 0.3203, "ln_phi": 0.6115, "ln_sigma": 0.6903, "ln_sigma_rock": 0.6925, "ln_sigma_soil": 0.6849, "ln_bias": 0.2525, "ln_bias_sigma": 0.1289}, {"name": "pga", "value": 0.0857, "value_rock": 0.0857, "value_soil": 0.1626, "units": "%g", "ln_tau": 0.3218, "ln_phi": 0.5416, "ln_sigma": 0.63, "ln_sigma_rock": 0.6309, "ln_sigma_soil": 0.6225, "ln_bias": 0.2407, "ln_bias_sigma": 0.1188}, {"name": "mmi", "value": 2.547, "value_rock": 2.547, "value_soil": 3.2556, "units": "intensity", "tau": 0.2162, "phi": 0.7601, "sigma": 0.7903, "sigma_rock": 0.7909, "sigma_soil": 0.7868, "bias": 0.0997, "bias_sigma": 0.1637}], "mmi_from_pgm": [{"name": "sa(3.0)", "value": 3.42, "sigma": 0.89, "flag": "0"}, {"name": "sa(1.0)", "value": 3.32, "sigma": 0.75, "flag": "0"}, {"name": "pgv", "value": 3.56, "sigma": 0.63, "flag": "0"}, {"name": "sa(0.3)", "value": 4.37, "sigma": 0.82, "flag": "Outlier"}, {"name": "pga", "value": null, "sigma": null, "flag": "0"}], "distance_stddev": 0.0, "distances": {"repi": 310.52, "rhypo": 310.576, "rjb": 311.038, "rjb_var": 0.0, "rrup": 310.946, "rrup_var": 0.0, "rx": 132.371, "ry0": 282.103}}, "geometry": {"type": "Point", "coordinates": [170.4928, -45.9039]}}, {"type": "Feature", "id": "GNS.PEEC", "properties": {"code": "PEEC", "name": "Peel Forest", "instrumentType": "UNK", "source": "GNS", "network": "GNS", "commType": "UNK", "location": "", "intensity": 4.1, "intensity_flag": "", "intensity_stddev": 0.63, "pga": 3.71, "pgv": 2.13, "distance": 121.555, "elev": null, "vs30": 545.55, "channels": [{"name": "HN1", "amplitudes": [{"name": "pga", "value": 3.71, "units": "%g", "flag": "0", "ln_sigma": 0.0}, {"name": "sa(0.3)", "value": 6.69, "units": "%g", "flag": "0", "ln_sigma": 0.0}, {"name": "pgv", "value": 2.11, "units": "cm/s", "flag": "0", "ln_sigma": 0.0}, {"name": "sa(3.0)", "value": 0.41, "units": "%g", "flag": "0", "ln_sigma": 0.0}, {"name": "sa(1.0)", "value": 2.49, "units": "%g", "flag": "0", "ln_sigma": 0.0}]}, {"name": "HN2", "amplitudes": [{"name": "pga", "value": 2.34, "units": "%g", "flag": "0", "ln_sigma": 0.0}, {"name": "sa(0.3)", "value": 3.94, "units": "%g", "flag": "0", "ln_sigma": 0.0}, {"name": "pgv", "value": 2.13, "units": "cm/s", "flag": "0", "ln_sigma": 0.0}, {"name": "sa(3.0)", "value": 0.53, "units": "%g", "flag": "0", "ln_sigma": 0.0}, {"name": "sa(1.0)", "value": 1.67, "units": "%g", "flag": "0", "ln_sigma": 0.0}]}, {"name": "HNZ", "amplitudes": [{"name": "pga", "value": 1.23, "units": "%g", "flag": "0", "ln_sigma": 0.0}, {"name": "sa(0.3)", "value": 3.13, "units": "%g", "flag": "0", "ln_sigma": 0.0}, {"name": "pgv", "value": 1.14, "units": "cm/s", "flag": "0", "ln_sigma": 0.0}, {"name": "sa(3.0)", "value": 0.29, "units": "%g", "flag": "0", "ln_sigma": 0.0}, {"name": "sa(1.0)", "value": 1.52, "units": "%g", "flag": "0", "ln_sigma": 0.0}]}], "station_type": "seismic", "nresp": "null", "predictions": [{"name": "sa(3.0)", "value": 0.2123, "value_rock": 0.1585, "value_soil": 0.6079, "units": "%g", "ln_tau": 0.4124, "ln_phi": 0.5976, "ln_sigma": 0.7261, "ln_sigma_rock": 0.7271, "ln_sigma_soil": 0.7268, "ln_bias": 0.3417, "ln_bias_sigma": 0.1512}, {"name": "sa(1.0)", "value": 1.0156, "value_rock": 0.741, "value_soil": 2.6942, "units": "%g", "ln_tau": 0.3517, "ln_phi": 0.6154, "ln_sigma": 0.7088, "ln_sigma_rock": 0.7095, "ln_sigma_soil": 0.6999, "ln_bias": 0.2612, "ln_bias_sigma": 0.1446}, {"name": "pgv", "value": 0.9626, "value_rock": 0.7377, "value_soil": 2.1991, "units": "cm/s", "ln_tau": 0.3384, "ln_phi": 0.6574, "ln_sigma": 0.7394, "ln_sigma_rock": 0.7416, "ln_sigma_soil": 0.7269, "ln_bias": 0.1544, "ln_bias_sigma": 0.1513}, {"name": "sa(0.3)", "value": 2.3357, "value_rock": 1.7938, "value_soil": 5.0538, "units": "%g", "ln_tau": 0.3196, "ln_phi": 0.5967, "ln_sigma": 0.6768, "ln_sigma_rock": 0.6789, "ln_sigma_soil": 0.6591, "ln_bias": 0.2523, "ln_bias_sigma": 0.1288}, {"name": "pga", "value": 1.0443, "value_rock": 0.9154, "value_soil": 1.6888, "units": "%g", "ln_tau": 0.3212, "ln_phi": 0.53, "ln_sigma": 0.6198, "ln_sigma_rock": 0.6214, "ln_sigma_soil": 0.6047, "ln_bias": 0.2405, "ln_bias_sigma": 0.1187}, {"name": "mmi", "value": 3.5577, "value_rock": 3.3878, "value_soil": 4.0851, "units": "intensity", "tau": 0.2161, "phi": 0.757, "sigma": 0.7872, "sigma_rock": 0.7881, "sigma_soil": 0.7825, "bias": 0.0997, "bias_sigma": 0.1637}], "mmi_from_pgm": [{"name": "sa(3.0)", "value": 4.09, "sigma": 0.89, "flag": "0"}, {"name": "sa(1.0)", "value": 4.08, "sigma": 0.75, "flag": "0"}, {"name": "pgv", "value": 4.06, "sigma": 0.63, "flag": "0"}, {"name": "sa(0.3)", "value": 4.53, "sigma": 0.82, "flag": "0"}, {"name": "pga", "value": 4.38, "sigma": 0.66, "flag": "0"}], "distance_stddev": 0.0, "distances": {"repi": 121.952, "rhypo": 122.095, "rjb": 121.561, "rjb_var": 0.0, "rrup": 121.555, "rrup_var": 0.0, "rx": -25.888, "ry0": 118.482}}, "geometry": {"type": "Point", "coordinates": [171.2367, -43.9236]}}, {"type": "Feature", "id": "GNS.DSLC", "properties": {"code": "DSLC", "name": "Dunsandel School", "instrumentType": "UNK", "source": "GNS", "network": "GNS", "commType": "UNK", "location": "", "intensity": 4.9, "intensity_flag": "", "intensity_stddev": 0.63, "pga": 6.76, "pgv": 4.97, "distance": 39.247, "elev": null, "vs30": 255.14, "channels": [{"name": "HN1", "amplitudes": [{"name": "pga", "value": 4.54, "units": "%g", "flag": "0", "ln_sigma": 0.0}, {"name": "sa(0.3)", "value": 14.05, "units": "%g", "flag": "0", "ln_sigma": 0.0}, {"name": "pgv", "value": 4.49, "units": "cm/s", "flag": "0", "ln_sigma": 0.0}, {"name": "sa(3.0)", "value": 2.47, "units": "%g", "flag": "0", "ln_sigma": 0.0}, {"name": "sa(1.0)", "value": 4.94, "units": "%g", "flag": "0", "ln_sigma": 0.0}]}, {"name": "HN2", "amplitudes": [{"name": "pga", "value": 6.76, "units": "%g", "flag": "0", "ln_sigma": 0.0}, {"name": "sa(0.3)", "value": 16.76, "units": "%g", "flag": "0", "ln_sigma": 0.0}, {"name": "pgv", "value": 4.97, "units": "cm/s", "flag": "0", "ln_sigma": 0.0}, {"name": "sa(3.0)", "value": 1.29, "units": "%g", "flag": "0", "ln_sigma": 0.0}, {"name": "sa(1.0)", "value": 4.86, "units": "%g", "flag": "0", "ln_sigma": 0.0}]}, {"name": "HNZ", "amplitudes": [{"name": "pga", "value": 3.19, "units": "%g", "flag": "0", "ln_sigma": 0.0}, {"name": "sa(0.3)", "value": 4.14, "units": "%g", "flag": "0", "ln_sigma": 0.0}, {"name": "pgv", "value": 3.93, "units": "cm/s", "flag": "0", "ln_sigma": 0.0}, {"name": "sa(3.0)", "value": 2.61, "units": "%g", "flag": "0", "ln_sigma": 0.0}, {"name": "sa(1.0)", "value": 3.78, "units": "%g", "flag": "0", "ln_sigma": 0.0}]}], "station_type": "seismic", "nresp": "null", "predictions": [{"name": "sa(3.0)", "value": 1.3448, "value_rock": 0.4893, "value_soil": 1.8735, "units": "%g", "ln_tau": 0.4118, "ln_phi": 0.5972, "ln_sigma": 0.7254, "ln_sigma_rock": 0.7269, "ln_sigma_soil": 0.7262, "ln_bias": 0.3416, "ln_bias_sigma": 0.1512}, {"name": "sa(1.0)", "value": 6.7279, "value_rock": 2.583, "value_soil": 8.859, "units": "%g", "ln_tau": 0.3433, "ln_phi": 0.6055, "ln_sigma": 0.6961, "ln_sigma_rock": 0.7088, "ln_sigma_soil": 0.6847, "ln_bias": 0.2591, "ln_bias_sigma": 0.144}, {"name": "pgv", "value": 5.9641, "value_rock": 2.6654, "value_soil": 7.5015, "units": "cm/s", "ln_tau": 0.3301, "ln_phi": 0.6439, "ln_sigma": 0.7236, "ln_sigma_rock": 0.7402, "ln_sigma_soil": 0.7135, "ln_bias": 0.1529, "ln_bias_sigma": 0.1505}, {"name": "sa(0.3)", "value": 17.7004, "value_rock": 8.6826, "value_soil": 21.1176, "units": "%g", "ln_tau": 0.2939, "ln_phi": 0.5662, "ln_sigma": 0.6379, "ln_sigma_rock": 0.6756, "ln_sigma_soil": 0.6124, "ln_bias": 0.2451, "ln_bias_sigma": 0.127}, {"name": "pga", "value": 7.1249, "value_rock": 4.7813, "value_soil": 7.8859, "units": "%g", "ln_tau": 0.3023, "ln_phi": 0.5073, "ln_sigma": 0.5905, "ln_sigma_rock": 0.6197, "ln_sigma_soil": 0.572, "ln_bias": 0.2364, "ln_bias_sigma": 0.1177}, {"name": "mmi", "value": 5.1427, "value_rock": 4.2079, "value_soil": 5.4575, "units": "intensity", "tau": 0.453, "phi": 1.0853, "sigma": 1.176, "sigma_rock": 0.7875, "sigma_soil": 1.1643, "bias": 0.179, "bias_sigma": 0.2193}], "mmi_from_pgm": [{"name": "sa(3.0)", "value": 5.95, "sigma": 0.89, "flag": "0"}, {"name": "sa(1.0)", "value": 4.81, "sigma": 0.75, "flag": "0"}, {"name": "pgv", "value": 4.89, "sigma": 0.63, "flag": "0"}, {"name": "sa(0.3)", "value": 4.93, "sigma": 0.82, "flag": "0"}, {"name": "pga", "value": 4.82, "sigma": 0.66, "flag": "0"}], "distance_stddev": 0.0, "distances": {"repi": 39.978, "rhypo": 40.411, "rjb": 39.237, "rjb_var": 0.0, "rrup": 39.247, "rrup_var": 0.0, "rx": -9.495, "ry0": 37.974}}, "geometry": {"type": "Point", "coordinates": [172.1978, -43.6692]}}, {"type": "Feature", "id": "GNS.CSHS", "properties": {"code": "CSHS", "name": "Castle Hill Station", "instrumentType": "UNK", "source": "GNS", "network": "GNS", "commType": "UNK", "location": "", "intensity": 4.2, "intensity_flag": "", "intensity_stddev": 0.63, "pga": 4.8, "pgv": 2.48, "distance": 84.357, "elev": null, "vs30": 573.46, "channels": [{"name": "HN1", "amplitudes": [{"name": "pga", "value": 4.8, "units": "%g", "flag": "0", "ln_sigma": 0.0}, {"name": "sa(0.3)", "value": 11.81, "units": "%g", "flag": "0", "ln_sigma": 0.0}, {"name": "pgv", "value": 2.48, "units": "cm/s", "flag": "0", "ln_sigma": 0.0}, {"name": "sa(3.0)", "value": 0.67, "units": "%g", "flag": "0", "ln_sigma": 0.0}, {"name": "sa(1.0)", "value": 4.67, "units": "%g", "flag": "0", "ln_sigma": 0.0}]}, {"name": "HN2", "amplitudes": [{"name": "pga", "value": 2.65, "units": "%g", "flag": "0", "ln_sigma": 0.0}, {"name": "sa(0.3)", "value": 7.59, "units": "%g", "flag": "0", "ln_sigma": 0.0}, {"name": "pgv", "value": 2.48, "units": "cm/s", "flag": "0", "ln_sigma": 0.0}, {"name": "sa(3.0)", "value": 0.77, "units": "%g", "flag": "0", "ln_sigma": 0.0}, {"name": "sa(1.0)", "value": 4.27, "units": "%g", "flag": "0", "ln_sigma": 0.0}]}, {"name": "HNZ", "amplitudes": [{"name": "pga", "value": 1.97, "units":