{"type": "FeatureCollection", "features": [{"type": "Feature", "id": "G.KOR", "properties": {"code": "KOR", "name": "Korinthos-OTE Building", "instrumentType": "UNK", "source": "G", "network": "G", "commType": "UNK", "location": "", "intensity": 6.9, "intensity_flag": "", "intensity_stddev": 0.63, "pga": 31.0204, "pgv": 22.6, "distance": 12.21, "elev": null, "vs30": 383.69, "channels": [{"name": "Z", "amplitudes": [{"name": "pgv", "value": 6.89, "units": "cm/s", "flag": "0", "ln_sigma": 0.0}, {"name": "pga", "value": 11.6327, "units": "%g", "flag": "0", "ln_sigma": 0.0}, {"name": "sa(1.0)", "value": 17.551, "units": "%g", "flag": "0", "ln_sigma": 0.0}, {"name": "sa(3.0)", "value": 1.9082, "units": "%g", "flag": "0", "ln_sigma": 0.0}, {"name": "sa(0.3)", "value": 19.4898, "units": "%g", "flag": "0", "ln_sigma": 0.0}]}, {"name": "E", "amplitudes": [{"name": "pgv", "value": 22.3, "units": "cm/s", "flag": "0", "ln_sigma": 0.0}, {"name": "pga", "value": 23.0612, "units": "%g", "flag": "0", "ln_sigma": 0.0}, {"name": "sa(1.0)", "value": 29.4898, "units": "%g", "flag": "0", "ln_sigma": 0.0}, {"name": "sa(3.0)", "value": 6.4898, "units": "%g", "flag": "0", "ln_sigma": 0.0}, {"name": "sa(0.3)", "value": 51.2245, "units": "%g", "flag": "0", "ln_sigma": 0.0}]}, {"name": "N", "amplitudes": [{"name": "pgv", "value": 22.6, "units": "cm/s", "flag": "0", "ln_sigma": 0.0}, {"name": "pga", "value": 31.0204, "units": "%g", "flag": "0", "ln_sigma": 0.0}, {"name": "sa(1.0)", "value": 25.2041, "units": "%g", "flag": "0", "ln_sigma": 0.0}, {"name": "sa(3.0)", "value": 3.9694, "units": "%g", "flag": "0", "ln_sigma": 0.0}, {"name": "sa(0.3)", "value": 58.6735, "units": "%g", "flag": "0", "ln_sigma": 0.0}]}], "station_type": "seismic", "nresp": "null", "predictions": [{"name": "pga", "value": 33.9173, "value_rock": 29.0701, "value_soil": 34.0215, "units": "%g", "ln_tau": 0.0, "ln_phi": 0.5637, "ln_sigma": 0.5637, "ln_sigma_rock": 0.6781, "ln_sigma_soil": 0.6636, "ln_bias": 0.6497, "ln_bias_sigma": 0.0951}, {"name": "sa(3.0)", "value": 4.7998, "value_rock": 3.3362, "value_soil": 8.2606, "units": "%g", "ln_tau": 0.0, "ln_phi": 0.6298, "ln_sigma": 0.6298, "ln_sigma_rock": 0.7541, "ln_sigma_soil": 0.7431, "ln_bias": 0.9396, "ln_bias_sigma": 0.1301}, {"name": "pgv", "value": 21.664, "value_rock": 15.3661, "value_soil": 33.7192, "units": "cm/s", "ln_tau": 0.0, "ln_phi": 0.6536, "ln_sigma": 0.6536, "ln_sigma_rock": 0.7831, "ln_sigma_soil": 0.772, "ln_bias": 0.98, "ln_bias_sigma": 0.114}, {"name": "sa(0.3)", "value": 67.5597, "value_rock": 48.0099, "value_soil": 77.108, "units": "%g", "ln_tau": 0.0, "ln_phi": 0.6054, "ln_sigma": 0.6054, "ln_sigma_rock": 0.7279, "ln_sigma_soil": 0.7118, "ln_bias": 0.7248, "ln_bias_sigma": 0.104}, {"name": "sa(1.0)", "value": 23.6413, "value_rock": 15.2748, "value_soil": 39.8307, "units": "%g", "ln_tau": 0.0, "ln_phi": 0.6358, "ln_sigma": 0.6358, "ln_sigma_rock": 0.7617, "ln_sigma_soil": 0.7496, "ln_bias": 1.1124, "ln_bias_sigma": 0.1158}, {"name": "mmi", "value": 6.7912, "value_rock": 6.5434, "value_soil": 6.7961, "units": "intensity", "tau": 0.0, "phi": 1.0603, "sigma": 1.0603, "sigma_rock": 1.2739, "sigma_soil": 1.2541, "bias": 1.1159, "bias_sigma": 0.125}], "mmi_from_pgm": [{"name": "pga", "value": 6.65, "sigma": 0.66, "flag": "0"}, {"name": "sa(3.0)", "value": 7.3, "sigma": 0.89, "flag": "0"}, {"name": "pgv", "value": 6.86, "sigma": 0.63, "flag": "0"}, {"name": "sa(0.3)", "value": 6.88, "sigma": 0.82, "flag": "0"}, {"name": "sa(1.0)", "value": 7.13, "sigma": 0.75, "flag": "0"}], "distance_stddev": 0.0, "distances": {"repi": 32.471, "rhypo": 46.296, "rjb": 12.21, "rjb_var": 0.0, "rrup": 12.21, "rrup_var": 0.0, "rx": -12.132, "ry0": 1.513, "rvolc": 0.0}}, "geometry": {"type": "Point", "coordinates": [22.93, 37.93]}}, {"type": "Feature", "id": "G.XLC", "properties": {"code": "XLC", "name": "Xilokastro-OTE Building", "instrumentType": "UNK", "source": "G", "network": "G", "commType": "UNK", "location": "", "intensity": 6.9, "intensity_flag": "", "intensity_stddev": 0.63, "pga": 28.9796, "pgv": 22.7, "distance": 25.706, "elev": null, "vs30": 600.0, "channels": [{"name": "Z", "amplitudes": [{"name": "pgv", "value": 8.29, "units": "cm/s", "flag": "0", "ln_sigma": 0.0}, {"name": "pga", "value": 12.6531, "units": "%g", "flag": "0", "ln_sigma": 0.0}, {"name": "sa(1.0)", "value": 10.6122, "units": "%g", "flag": "0", "ln_sigma": 0.0}, {"name": "sa(3.0)", "value": 1.7245, "units": "%g", "flag": "0", "ln_sigma": 0.0}, {"name": "sa(0.3)", "value": 17.551, "units": "%g", "flag": "0", "ln_sigma": 0.0}]}, {"name": "E", "amplitudes": [{"name": "pgv", "value": 22.7, "units": "cm/s", "flag": "0", "ln_sigma": 0.0}, {"name": "pga", "value": 28.9796, "units": "%g", "flag": "0", "ln_sigma": 0.0}, {"name": "sa(1.0)", "value": 46.8367, "units": "%g", "flag": "0", "ln_sigma": 0.0}, {"name": "sa(3.0)", "value": 4.8878, "units": "%g", "flag": "0", "ln_sigma": 0.0}, {"name": "sa(0.3)", "value": 98.2653, "units": "%g", "flag": "0", "ln_sigma": 0.0}]}, {"name": "N", "amplitudes": [{"name": "pgv", "value": 22.0, "units": "cm/s", "flag": "0", "ln_sigma": 0.0}, {"name": "pga", "value": 17.0408, "units": "%g", "flag": "0", "ln_sigma": 0.0}, {"name": "sa(1.0)", "value": 25.5102, "units": "%g", "flag": "0", "ln_sigma": 0.0}, {"name": "sa(3.0)", "value": 3.9286, "units": "%g", "flag": "0", "ln_sigma": 0.0}, {"name": "sa(0.3)", "value": 44.898, "units": "%g", "flag": "0", "ln_sigma": 0.0}]}], "station_type": "seismic", "nresp": "null", "predictions": [{"name": "pga", "value": 18.074, "value_rock": 16.2929, "value_soil": 20.7888, "units": "%g", "ln_tau": 0.0, "ln_phi": 0.5661, "ln_sigma": 0.5661, "ln_sigma_rock": 0.6782, "ln_sigma_soil": 0.6667, "ln_bias": 0.65, "ln_bias_sigma": 0.0952}, {"name": "sa(3.0)", "value": 2.3472, "value_rock": 2.0003, "value_soil": 5.0262, "units": "%g", "ln_tau": 0.0, "ln_phi": 0.6298, "ln_sigma": 0.6298, "ln_sigma_rock": 0.7541, "ln_sigma_soil": 0.7431, "ln_bias": 0.9396, "ln_bias_sigma": 0.1301}, {"name": "pgv", "value": 10.0008, "value_rock": 8.4368, "value_soil": 19.2719, "units": "cm/s", "ln_tau": 0.0, "ln_phi": 0.654, "ln_sigma": 0.654, "ln_sigma_rock": 0.7831, "ln_sigma_soil": 0.7732, "ln_bias": 0.9801, "ln_bias_sigma": 0.114}, {"name": "sa(0.3)", "value": 33.3193, "value_rock": 26.7921, "value_soil": 49.486, "units": "%g", "ln_tau": 0.0, "ln_phi": 0.6078, "ln_sigma": 0.6078, "ln_sigma_rock": 0.7279, "ln_sigma_soil": 0.7159, "ln_bias": 0.7252, "ln_bias_sigma": 0.104}, {"name": "sa(1.0)", "value": 10.5694, "value_rock": 8.6154, "value_soil": 23.644, "units": "%g", "ln_tau": 0.0, "ln_phi": 0.6361, "ln_sigma": 0.6361, "ln_sigma_rock": 0.7617, "ln_sigma_soil": 0.7514, "ln_bias": 1.1125, "ln_bias_sigma": 0.1158}, {"name": "mmi", "value": 6.1095, "value_rock": 5.9428, "value_soil": 6.3344, "units": "intensity", "tau": 0.0, "phi": 1.0636, "sigma": 1.0636, "sigma_rock": 1.2741, "sigma_soil": 1.2583, "bias": 1.1161, "bias_sigma": 0.125}], "mmi_from_pgm": [{"name": "pga", "value": 6.87, "sigma": 0.66, "flag": "0"}, {"name": "sa(3.0)", "value": 6.75, "sigma": 0.89, "flag": "0"}, {"name": "pgv", "value": 6.87, "sigma": 0.63, "flag": "0"}, {"name": "sa(0.3)", "value": 8.0, "sigma": 0.82, "flag": "0"}, {"name": "sa(1.0)", "value": 7.56, "sigma": 0.75, "flag": "0"}], "distance_stddev": 0.0, "distances": {"repi": 30.918, "rhypo": 45.221, "rjb": 24.579, "rjb_var": 0.0, "rrup": 25.706, "rrup_var": 0.0, "rx": 7.79, "ry0": 25.434, "rvolc": 0.0}}, "geometry": {"type": "Point", "coordinates": [22.63, 38.08]}}, {"type": "Feature", "id": "INTENSITY.OBS_412", "properties": {"code": "OBS_412", "name": "Petroupolis", "instrumentType": "OBSERVED", "source": "INTENSITY", "network": "INTENSITY", "commType": "UNK", "location": "", "intensity": 6.5, "intensity_flag": "0", "intensity_stddev": 0.3, "pga": 19.4447, "pgv": 17.3476, "distance": 47.611, "elev": null, "vs30": 462.74, "channels": [], "nresp": -1, "station_type": "macroseismic", "predictions": [{"name": "mmi", "value": 5.2699, "value_rock": 5.0069, "value_soil": 5.5085, "units": "intensity", "tau": 0.0, "phi": 1.083, "sigma": 1.083, "sigma_rock": 1.3004, "sigma_soil": 1.2878, "bias": 1.1173, "bias_sigma": 0.125}, {"name": "pga", "value": 9.0438, "value_rock": 7.6784, "value_soil": 10.491, "units": "%g", "ln_tau": 0.0, "ln_phi": 0.5801, "ln_sigma": 0.5801, "ln_sigma_rock": 0.6973, "ln_sigma_soil": 0.6881, "ln_bias": 0.6521, "ln_bias_sigma": 0.0953}, {"name": "sa(0.3)", "value": 18.0841, "value_rock": 13.0218, "value_soil": 26.733, "units": "%g", "ln_tau": 0.0, "ln_phi": 0.6188, "ln_sigma": 0.6188, "ln_sigma_rock": 0.7484, "ln_sigma_soil": 0.7395, "ln_bias": 0.727, "ln_bias_sigma": 0.1041}, {"name": "sa(1.0)", "value": 6.2876, "value_rock": 4.4152, "value_soil": 12.801, "units": "%g", "ln_tau": 0.0, "ln_phi": 0.6401, "ln_sigma": 0.6401, "ln_sigma_rock": 0.7821, "ln_sigma_soil": 0.7729, "ln_bias": 1.1135, "ln_bias_sigma": 0.1158}, {"name": "sa(3.0)", "value": 1.436, "value_rock": 1.0803, "value_soil": 2.7753, "units": "%g", "ln_tau": 0.0, "ln_phi": 0.633, "ln_sigma": 0.633, "ln_sigma_rock": 0.7747, "ln_sigma_soil": 0.7638, "ln_bias": 0.9405, "ln_bias_sigma": 0.1302}, {"name": "pgv", "value": 5.5651, "value_rock": 4.2014, "value_soil": 10.04, "units": "cm/s", "ln_tau": 0.0, "ln_phi": 0.6627, "ln_sigma": 0.6627, "ln_sigma_rock": 0.8032, "ln_sigma_soil": 0.7939, "ln_bias": 0.9819, "ln_bias_sigma": 0.1141}], "pgm_from_mmi": [{"name": "pga", "value": 19.4447, "units": "%g", "ln_sigma": 0.8059, "flag": "0"}, {"name": "sa(3.0)", "value": 4.5422, "units": "%g", "ln_sigma": 1.4737, "flag": "0"}, {"name": "pgv", "value": 17.3476, "units": "cm/s", "ln_sigma": 0.875, "flag": "0"}, {"name": "sa(0.3)", "value": 39.0186, "units": "%g", "ln_sigma": 1.0131, "flag": "0"}, {"name": "sa(1.0)", "value": 22.4626, "units": "%g", "ln_sigma": 1.0822, "flag": "0"}], "distance_stddev": 0.0, "distances": {"repi": 68.189, "rhypo": 75.755, "rjb": 47.611, "rjb_var": 0.0, "rrup": 47.611, "rrup_var": 0.0, "rx": -10.182, "ry0": 46.395, "rvolc": 0.0}}, "geometry": {"type": "Point", "coordinates": [23.67, 38.02]}}, {"type": "Feature", "id": "INTENSITY.OBS_347", "properties": {"code": "OBS_347", "name": "Moschokarya", "instrumentType": "OBSERVED", "source": "INTENSITY", "network": "INTENSITY", "commType": "UNK", "location": "", "intensity": 5.0, "intensity_flag": "0", "intensity_stddev": 0.3, "pga": 6.059, "pgv": 5.8151, "distance": 110.675, "elev": null, "vs30": 633.82, "channels": [], "nresp": -1, "station_type": "macroseismic", "predictions": [{"name": "mmi", "value": 4.0153, "value_rock": 3.9876, "value_soil": 4.23, "units": "intensity", "tau": 0.0, "phi": 0.6758, "sigma": 0.6758, "sigma_rock": 0.8099, "sigma_soil": 0.8074, "bias": 1.066, "bias_sigma": 0.1221}, {"name": "pga", "value": 2.6747, "value_rock": 2.5668, "value_soil": 3.6796, "units": "%g", "ln_tau": 0.0, "ln_phi": 0.5808, "ln_sigma": 0.5808, "ln_sigma_rock": 0.6973, "ln_sigma_soil": 0.6909, "ln_bias": 0.6522, "ln_bias_sigma": 0.0953}, {"name": "sa(0.3)", "value": 5.0165, "value_rock": 4.6356, "value_soil": 10.1965, "units": "%g", "ln_tau": 0.0, "ln_phi": 0.6195, "ln_sigma": 0.6195, "ln_sigma_rock": 0.7486, "ln_sigma_soil": 0.7434, "ln_bias": 0.7271, "ln_bias_sigma": 0.1042}, {"name": "sa(1.0)", "value": 1.9794, "value_rock": 1.782, "value_soil": 5.3973, "units": "%g", "ln_tau": 0.0, "ln_phi": 0.6402, "ln_sigma": 0.6402, "ln_sigma_rock": 0.7821, "ln_sigma_soil": 0.774, "ln_bias": 1.1135, "ln_bias_sigma": 0.1158}, {"name": "sa(3.0)", "value": 0.5059, "value_rock": 0.4635, "value_soil": 1.2145, "units": "%g", "ln_tau": 0.0, "ln_phi": 0.633, "ln_sigma": 0.633, "ln_sigma_rock": 0.7747, "ln_sigma_soil": 0.7638, "ln_bias": 0.9405, "ln_bias_sigma": 0.1302}, {"name": "pgv", "value": 1.7624, "value_rock": 1.6297, "value_soil": 4.0318, "units": "cm/s", "ln_tau": 0.0, "ln_phi": 0.6628, "ln_sigma": 0.6628, "ln_sigma_rock": 0.8033, "ln_sigma_soil": 0.795, "ln_bias": 0.9819, "ln_bias_sigma": 0.1141}], "pgm_from_mmi": [{"name": "pga", "value": 6.059, "units": "%g", "ln_sigma": 0.8059, "flag": "0"}, {"name": "sa(3.0)", "value": 1.6916, "units": "%g", "ln_sigma": 1.4737, "flag": "0"}, {"name": "pgv", "value": 5.8151, "units": "cm/s", "ln_sigma": 0.875, "flag": "0"}, {"name": "sa(0.3)", "value": 13.0904, "units": "%g", "ln_sigma": 1.0131, "flag": "0"}, {"name": "sa(1.0)", "value": 7.8726, "units": "%g", "ln_sigma": 1.0822, "flag": "0"}], "distance_stddev": 0.0, "distances": {"repi": 103.982, "rhypo": 109.093, "rjb": 110.126, "rjb_var": 0.0, "rrup": 110.675, "rrup_var": 0.0, "rx": 113.33, "ry0": 42.94, "rvolc": 0.0}}, "geometry": {"type": "Point", "coordinates": [22.27, 39.0]}}, {"type": "Feature", "id": "INTENSITY.OBS_250", "properties": {"code": "OBS_250", "name": "Koroneia", "instrumentType": "OBSERVED", "source": "INTENSITY", "network": "INTENSITY", "commType": "UNK", "location": "", "intensity": 7.0, "intensity_flag": "0", "intensity_stddev": 0.3, "pga": 32.1981, "pgv": 24.9729, "distance": 23.626, "elev": null, "vs30": 399.85, "channels": [], "nresp": -1, "station_type": "macroseismic", "predictions": [{"name": "mmi", "value": 6.4314, "value_rock": 6.1608, "value_soil": 6.5121, "units": "intensity", "tau": 0.0, "phi": 1.0813, "sigma": 1.0813, "sigma_rock": 1.3002, "sigma_soil": 1.283, "bias": 1.1172, "bias_sigma": 0.125}, {"name": "pga", "value": 22.6027, "value_rock": 19.0991, "value_soil": 23.7659, "units": "%g", "ln_tau": 0.0, "ln_phi": 0.5789, "ln_sigma": 0.5789, "ln_sigma_rock": 0.6972, "ln_sigma_soil": 0.6847, "ln_bias": 0.6519, "ln_bias_sigma": 0.0953}, {"name": "sa(0.3)", "value": 44.4938, "value_rock": 31.2009, "value_soil": 55.4886, "units": "%g", "ln_tau": 0.0, "ln_phi": 0.6177, "ln_sigma": 0.6177, "ln_sigma_rock": 0.7483, "ln_sigma_soil": 0.7348, "ln_bias": 0.7268, "ln_bias_sigma": 0.1041}, {"name": "sa(1.0)", "value": 15.0682, "value_rock": 9.8468, "value_soil": 26.4692, "units": "%g", "ln_tau": 0.0, "ln_phi": 0.64, "ln_sigma": 0.64, "ln_sigma_rock": 0.7821, "ln_sigma_soil": 0.7712, "ln_bias": 1.1135, "ln_bias_sigma": 0.1158}, {"name": "sa(3.0)", "value": 3.1848, "value_rock": 2.2467, "value_soil": 5.6032, "units": "%g", "ln_tau": 0.0, "ln_phi": 0.6329, "ln_sigma": 0.6329, "ln_sigma_rock": 0.7747, "ln_sigma_soil": 0.7637, "ln_bias": 0.9405, "ln_bias_sigma": 0.1302}, {"name": "pgv", "value": 13.5424, "value_rock": 9.6866, "value_soil": 21.7396, "units": "cm/s", "ln_tau": 0.0, "ln_phi": 0.6626, "ln_sigma": 0.6626, "ln_sigma_rock": 0.8032, "ln_sigma_soil": 0.7927, "ln_bias": 0.9818, "ln_bias_sigma": 0.1141}], "pgm_from_mmi": [{"name": "pga", "value": 32.1981, "units": "%g", "ln_sigma": 0.8059, "flag": "0"}, {"name": "sa(3.0)", "value": 5.8311, "units": "%g", "ln_sigma": 1.4737, "flag": "0"}, {"name": "pgv", "value": 24.9729, "units": "cm/s", "ln_sigma": 0.875, "flag": "0"}, {"name": "sa(0.3)", "value": 57.036, "units": "%g", "ln_sigma": 1.0131, "flag": "0"}, {"name": "sa(1.0)", "value": 29.6794, "units": "%g", "ln_sigma": 1.0822, "flag": "0"}], "distance_stddev": 0.0, "distances": {"repi": 12.09, "rhypo": 35.145, "rjb": 20.366, "rjb_var": 0.0, "rrup": 23.626, "rrup_var": 0.0, "rx": 31.762, "ry0": 0.0, "rvolc": 0.0}}, "geometry": {"type": "Point", "coordinates": [22.95, 38.33]}}, {"type": "Feature", "id": "INTENSITY.OBS_467", "properties": {"code": "OBS_467", "name": "Skourta", "instrumentType": "OBSERVED", "source": "INTENSITY", "network": "INTENSITY", "commType": "UNK", "location": "", "intensity": 7.5, "intensity_flag": "0", "intensity_stddev": 0.3, "pga": 38.6298, "pgv": 35.9498, "distance": 37.729, "elev": null, "vs30": 286.57, "channels": [], "nresp": -1, "station_type": "macroseismic", "predictions": [{"name": "mmi", "value": 5.7727, "value_rock": 5.388, "value_soil": 5.8528, "units": "intensity", "tau": 0.0, "phi": 1.0766, "sigma": 1.0766, "sigma_rock": 1.3003, "sigma_soil": 1.2864, "bias": 1.1169, "bias_sigma": 0.125}, {"name": "pga", "value": 13.185, "value_rock": 10.3778, "value_soil": 13.8589, "units": "%g", "ln_tau": 0.0, "ln_phi": 0.5755, "ln_sigma": 0.5755, "ln_sigma_rock": 0.6972, "ln_sigma_soil": 0.6871, "ln_bias": 0.6514, "ln_bias_sigma": 0.0953}, {"name": "sa(0.3)", "value": 31.1637, "value_rock": 17.3365, "value_soil": 34.4008, "units": "%g", "ln_tau": 0.0, "ln_phi": 0.6152, "ln_sigma": 0.6152, "ln_sigma_rock": 0.7483, "ln_sigma_soil": 0.7381, "ln_bias": 0.7264, "ln_bias_sigma": 0.1041}, {"name": "sa(1.0)", "value": 12.7836, "value_rock": 5.7397, "value_soil": 16.3198, "units": "%g", "ln_tau": 0.0, "ln_phi": 0.6343, "ln_sigma": 0.6343, "ln_sigma_rock": 0.7821, "ln_sigma_soil": 0.7724, "ln_bias": 1.112, "ln_bias_sigma": 0.1157}, {"name": "sa(3.0)", "value": 2.6672, "value_rock": 1.3787, "value_soil": 3.5117, "units": "%g", "ln_tau": 0.0, "ln_phi": 0.6242, "ln_sigma": 0.6242, "ln_sigma_rock": 0.7747, "ln_sigma_soil": 0.7638, "ln_bias": 0.9379, "ln_bias_sigma": 0.13}, {"name": "pgv", "value": 10.7342, "value_rock": 5.5229, "value_soil": 12.9887, "units": "cm/s", "ln_tau": 0.0, "ln_phi": 0.6575, "ln_sigma": 0.6575, "ln_sigma_rock": 0.8032, "ln_sigma_soil": 0.7936, "ln_bias": 0.9808, "ln_bias_sigma": 0.114}], "pgm_from_mmi": [{"name": "pga", "value": 38.6298, "units": "%g", "ln_sigma": 0.8059, "flag": "0"}, {"name": "sa(3.0)", "value": 9.3403, "units": "%g", "ln_sigma": 1.4737, "flag": "0"}, {"name": "pgv", "value": 35.9498, "units": "cm/s", "ln_sigma": 0.875, "flag": "0"}, {"name": "sa(0.3)", "value": 70.3817, "units": "%g", "ln_sigma": 1.0131, "flag": "0"}, {"name": "sa(1.0)", "value": 47.7769, "units": "%g", "ln_sigma": 1.0822, "flag": "0"}], "distance_stddev": 0.0, "distances": {"repi": 52.13, "rhypo": 61.697, "rjb": 37.041, "rjb_var": 0.0, "rrup": 37.729, "rrup_var": 0.0, "rx": 11.155, "ry0": 36.633, "rvolc": 0.0}}, "geometry": {"type": "Point", "coordinates": [23.53, 38.2]}}, {"type": "Feature", "id": "INTENSITY.OBS_69", "properties": {"code": "OBS_69", "name": "ANALIPSI  AITOLOAKARNANIA(1074)", "instrumentType": "OBSERVED", "source": "INTENSITY", "network": "INTENSITY", "commType": "UNK", "location": "", "intensity": 4.0, "intensity_flag": "0", "intensity_stddev": 0.3, "pga": 2.6092, "pgv": 2.2794, "distance": 111.025, "elev": null, "vs30": 709.89, "channels": [], "nresp": -1, "station_type": "macroseismic", "predictions": [{"name": "mmi", "value": 3.9868, "value_rock": 3.9764, "value_soil": 4.2194, "units": "intensity", "tau": 0.0, "phi": 0.6758, "sigma": 0.6758, "sigma_rock": 0.8099, "sigma_soil": 0.8074, "bias": 1.066, "bias_sigma": 0.1221}, {"name": "pga", "value": 2.5586, "value_rock": 2.5191, "value_soil": 3.6143, "units": "%g", "ln_tau": 0.0, "ln_phi": 0.5808, "ln_sigma": 0.5808, "ln_sigma_rock": 0.6973, "ln_sigma_soil": 0.6909, "ln_bias": 0.6522, "ln_bias_sigma": 0.0953}, {"name": "sa(0.3)", "value": 4.6934, "value_rock": 4.5561, "value_soil": 10.0285, "units": "%g", "ln_tau": 0.0, "ln_phi": 0.6195, "ln_sigma": 0.6195, "ln_sigma_rock": 0.7486, "ln_sigma_soil": 0.7434, "ln_bias": 0.7271, "ln_bias_sigma": 0.1042}, {"name": "sa(1.0)", "value": 1.8253, "value_rock": 1.7547, "value_soil": 5.3212, "units": "%g", "ln_tau": 0.0, "ln_phi": 0.6402, "ln_sigma": 0.6402, "ln_sigma_rock": 0.7821, "ln_sigma_soil": 0.774, "ln_bias": 1.1136, "ln_bias_sigma": 0.1158}, {"name": "sa(3.0)", "value": 0.4724, "value_rock": 0.4571, "value_soil": 1.1991, "units": "%g", "ln_tau": 0.0, "ln_phi": 0.633, "ln_sigma": 0.633, "ln_sigma_rock": 0.7747, "ln_sigma_soil": 0.7638, "ln_bias": 0.9405, "ln_bias_sigma": 0.1302}, {"name": "pgv", "value": 1.6524, "value_rock": 1.6045, "value_soil": 3.9742, "units": "cm/s", "ln_tau": 0.0, "ln_phi": 0.6629, "ln_sigma": 0.6629, "ln_sigma_rock": 0.8033, "ln_sigma_soil": 0.795, "ln_bias": 0.9819, "ln_bias_sigma": 0.1141}], "pgm_from_mmi": [{"name": "pga", "value": 2.6092, "units": "%g", "ln_sigma": 0.8059, "flag": "0"}, {"name": "sa(3.0)", "value": 0.5461, "units": "%g", "ln_sigma": 1.4737, "flag": "0"}, {"name": "pgv", "value": 2.2794, "units": "cm/s", "ln_sigma": 0.875, "flag": "0"}, {"name": "sa(0.3)", "value": 3.3477, "units": "%g",