{"type": "FeatureCollection", "features": [{"type": "Feature", "id": "NQ.KATNP", "properties": {"code": "KATNP", "name": "Kanti Path, Kathmandu, Nepal", "instrumentType": "UNK", "source": "NQ", "network": "NQ", "commType": "UNK", "location": "", "intensity": 8.9, "intensity_flag": "", "intensity_stddev": 0.63, "pga": "null", "pgv": 107.3, "distance": 14.982, "elev": null, "vs30": 283.38, "channels": [{"name": "HNE", "amplitudes": [{"name": "sa(1.0)", "value": 28.8, "units": "%g", "flag": "0", "ln_sigma": 0.0}, {"name": "pgv", "value": 107.3, "units": "cm/s", "flag": "0", "ln_sigma": 0.0}, {"name": "sa(3.0)", "value": 23.7, "units": "%g", "flag": "0", "ln_sigma": 0.0}, {"name": "pga", "value": 16.4, "units": "%g", "flag": "Outlier,0,Outlier", "ln_sigma": 0.0}, {"name": "sa(0.3)", "value": 29.1, "units": "%g", "flag": "0", "ln_sigma": 0.0}]}], "station_type": "seismic", "nresp": "null", "predictions": [{"name": "sa(1.0)", "value": 64.0059, "value_rock": 33.2117, "value_soil": 70.1374, "units": "%g", "ln_tau": 0.3955, "ln_phi": 0.6294, "ln_sigma": 0.7434, "ln_sigma_rock": 0.7495, "ln_sigma_soil": 0.7319, "ln_bias": 0.548, "ln_bias_sigma": 0.1619}, {"name": "sa(3.0)", "value": 12.615, "value_rock": 6.7357, "value_soil": 17.5423, "units": "%g", "ln_tau": 0.3955, "ln_phi": 0.6277, "ln_sigma": 0.7419, "ln_sigma_rock": 0.7399, "ln_sigma_soil": 0.7397, "ln_bias": 0.4208, "ln_bias_sigma": 0.1778}, {"name": "sa(0.3)", "value": 133.7687, "value_rock": 108.0387, "value_soil": 103.3387, "units": "%g", "ln_tau": 0.3406, "ln_phi": 0.5986, "ln_sigma": 0.6887, "ln_sigma_rock": 0.7115, "ln_sigma_soil": 0.6725, "ln_bias": -0.0555, "ln_bias_sigma": 0.1437}, {"name": "pga", "value": 54.1156, "value_rock": 56.2926, "value_soil": 49.675, "units": "%g", "ln_tau": 0.345, "ln_phi": 0.5388, "ln_sigma": 0.6398, "ln_sigma_rock": 0.6587, "ln_sigma_soil": 0.6292, "ln_bias": 0.1422, "ln_bias_sigma": 0.127}, {"name": "pgv", "value": 61.0776, "value_rock": 33.696, "value_soil": 65.999, "units": "cm/s", "ln_tau": 0.3933, "ln_phi": 0.7423, "ln_sigma": 0.8401, "ln_sigma_rock": 0.8455, "ln_sigma_soil": 0.832, "ln_bias": 0.3191, "ln_bias_sigma": 0.1707}, {"name": "mmi", "value": 7.5305, "value_rock": 7.5939, "value_soil": 7.393, "units": "intensity", "tau": 0.5544, "phi": 1.0886, "sigma": 1.2217, "sigma_rock": 1.2473, "sigma_soil": 1.2075, "bias": 0.2967, "bias_sigma": 0.2342}], "mmi_from_pgm": [{"name": "sa(1.0)", "value": 6.89, "sigma": 0.75, "flag": "0"}, {"name": "sa(3.0)", "value": 8.82, "sigma": 0.89, "flag": "0"}, {"name": "sa(0.3)", "value": 5.67, "sigma": 0.82, "flag": "0"}, {"name": "pga", "value": null, "sigma": null, "flag": "0"}, {"name": "pgv", "value": 8.89, "sigma": 0.63, "flag": "0"}], "distance_stddev": 0.0, "distances": {"repi": 81.309, "rhypo": 81.721, "rjb": 0.0, "rjb_var": 0.0, "rrup": 14.982, "rrup_var": 0.0, "rx": 24.401, "ry0": 0.0, "rvolc": 0.0}}, "geometry": {"type": "Point", "coordinates": [85.31561, 27.71235]}}, {"type": "Feature", "id": "IITR.KSN", "properties": {"code": "KSN", "name": "Kishanganj, India", "instrumentType": "UNK", "source": "IITR", "network": "IITR", "commType": "UNK", "location": "", "intensity": 6.3, "intensity_flag": "", "intensity_stddev": 0.63, "pga": 4.06, "pgv": 16.4, "distance": 252.954, "elev": null, "vs30": 232.61, "channels": [{"name": "HN2", "amplitudes": [{"name": "pgv", "value": 16.4, "units": "cm/s", "flag": "0", "ln_sigma": 0.0}, {"name": "pga", "value": 4.06, "units": "%g", "flag": "0", "ln_sigma": 0.0}]}, {"name": "HN1", "amplitudes": [{"name": "pgv", "value": 15.1, "units": "cm/s", "flag": "0", "ln_sigma": 0.0}, {"name": "pga", "value": 3.49, "units": "%g", "flag": "0", "ln_sigma": 0.0}]}, {"name": "HNZ", "amplitudes": [{"name": "pgv", "value": 7.76, "units": "cm/s", "flag": "0", "ln_sigma": 0.0}, {"name": "pga", "value": 1.88, "units": "%g", "flag": "0", "ln_sigma": 0.0}]}], "station_type": "seismic", "nresp": "null", "predictions": [{"name": "sa(1.0)", "value": 4.0803, "value_rock": 1.7585, "value_soil": 4.9477, "units": "%g", "ln_tau": 0.3981, "ln_phi": 0.6365, "ln_sigma": 0.7508, "ln_sigma_rock": 0.7541, "ln_sigma_soil": 0.7505, "ln_bias": 0.5493, "ln_bias_sigma": 0.1621}, {"name": "sa(3.0)", "value": 1.2447, "value_rock": 0.6092, "value_soil": 1.5898, "units": "%g", "ln_tau": 0.3955, "ln_phi": 0.6327, "ln_sigma": 0.7462, "ln_sigma_rock": 0.7442, "ln_sigma_soil": 0.7441, "ln_bias": 0.4208, "ln_bias_sigma": 0.1778}, {"name": "sa(0.3)", "value": 6.1692, "value_rock": 3.2209, "value_soil": 6.8299, "units": "%g", "ln_tau": 0.3554, "ln_phi": 0.6169, "ln_sigma": 0.712, "ln_sigma_rock": 0.7187, "ln_sigma_soil": 0.712, "ln_bias": -0.0563, "ln_bias_sigma": 0.1448}, {"name": "pga", "value": 2.4354, "value_rock": 1.8495, "value_soil": 2.7521, "units": "%g", "ln_tau": 0.3581, "ln_phi": 0.5507, "ln_sigma": 0.6569, "ln_sigma_rock": 0.6638, "ln_sigma_soil": 0.6577, "ln_bias": 0.1436, "ln_bias_sigma": 0.1276}, {"name": "pgv", "value": 3.8721, "value_rock": 1.8035, "value_soil": 4.6194, "units": "cm/s", "ln_tau": 0.395, "ln_phi": 0.7451, "ln_sigma": 0.8433, "ln_sigma_rock": 0.8492, "ln_sigma_soil": 0.8426, "ln_bias": 0.3196, "ln_bias_sigma": 0.1709}, {"name": "mmi", "value": 4.2164, "value_rock": 4.0311, "value_soil": 4.2987, "units": "intensity", "tau": 0.2411, "phi": 0.757, "sigma": 0.7945, "sigma_rock": 0.797, "sigma_soil": 0.7947, "bias": 0.168, "bias_sigma": 0.1763}], "mmi_from_pgm": [{"name": "sa(1.0)", "value": null, "sigma": null, "flag": "0"}, {"name": "sa(3.0)", "value": null, "sigma": null, "flag": "0"}, {"name": "sa(0.3)", "value": null, "sigma": null, "flag": "0"}, {"name": "pga", "value": 4.62, "sigma": 0.66, "flag": "0"}, {"name": "pgv", "value": 6.31, "sigma": 0.63, "flag": "0"}], "distance_stddev": 0.0, "distances": {"repi": 396.941, "rhypo": 397.026, "rjb": 252.878, "rjb_var": 0.0, "rrup": 252.954, "rrup_var": 0.0, "rx": -46.414, "ry0": 233.394, "rvolc": 0.0}}, "geometry": {"type": "Point", "coordinates": [87.947, 26.095]}}, {"type": "Feature", "id": "CIGN.VNS", "properties": {"code": "VNS", "name": "Varanasi, India", "instrumentType": "UNK", "source": "CIGN", "network": "CIGN", "commType": "UNK", "location": "", "intensity": 3.8, "intensity_flag": "", "intensity_stddev": 0.63, "pga": 2.06, "pgv": 2.07, "distance": 300.887, "elev": null, "vs30": 220.36, "channels": [{"name": "HN2", "amplitudes": [{"name": "pgv", "value": 2.07, "units": "cm/s", "flag": "0", "ln_sigma": 0.0}, {"name": "pga", "value": 2.06, "units": "%g", "flag": "0", "ln_sigma": 0.0}]}, {"name": "HN1", "amplitudes": [{"name": "pgv", "value": 1.89, "units": "cm/s", "flag": "0", "ln_sigma": 0.0}, {"name": "pga", "value": 2.02, "units": "%g", "flag": "0", "ln_sigma": 0.0}]}, {"name": "HNZ", "amplitudes": [{"name": "pgv", "value": 0.934, "units": "cm/s", "flag": "0", "ln_sigma": 0.0}, {"name": "pga", "value": 0.803, "units": "%g", "flag": "0", "ln_sigma": 0.0}]}], "station_type": "seismic", "nresp": "null", "predictions": [{"name": "sa(1.0)", "value": 2.9753, "value_rock": 1.2467, "value_soil": 3.5267, "units": "%g", "ln_tau": 0.3982, "ln_phi": 0.6369, "ln_sigma": 0.7512, "ln_sigma_rock": 0.7545, "ln_sigma_soil": 0.7516, "ln_bias": 0.5493, "ln_bias_sigma": 0.1621}, {"name": "sa(3.0)", "value": 0.9867, "value_rock": 0.4717, "value_soil": 1.2311, "units": "%g", "ln_tau": 0.3956, "ln_phi": 0.6327, "ln_sigma": 0.7462, "ln_sigma_rock": 0.7442, "ln_sigma_soil": 0.7442, "ln_bias": 0.4208, "ln_bias_sigma": 0.1778}, {"name": "sa(0.3)", "value": 4.1043, "value_rock": 2.0868, "value_soil": 4.4801, "units": "%g", "ln_tau": 0.3561, "ln_phi": 0.6177, "ln_sigma": 0.713, "ln_sigma_rock": 0.7192, "ln_sigma_soil": 0.7142, "ln_bias": -0.0564, "ln_bias_sigma": 0.1448}, {"name": "pga", "value": 1.6718, "value_rock": 1.247, "value_soil": 1.8736, "units": "%g", "ln_tau": 0.3587, "ln_phi": 0.5511, "ln_sigma": 0.6576, "ln_sigma_rock": 0.6641, "ln_sigma_soil": 0.6592, "ln_bias": 0.1436, "ln_bias_sigma": 0.1277}, {"name": "pgv", "value": 2.8164, "value_rock": 1.2799, "value_soil": 3.2949, "units": "cm/s", "ln_tau": 0.3951, "ln_phi": 0.745, "ln_sigma": 0.8432, "ln_sigma_rock": 0.8495, "ln_sigma_soil": 0.8432, "ln_bias": 0.3196, "ln_bias_sigma": 0.1709}, {"name": "mmi", "value": 4.0387, "value_rock": 3.8414, "value_soil": 4.1154, "units": "intensity", "tau": 0.2414, "phi": 0.7571, "sigma": 0.7947, "sigma_rock": 0.7972, "sigma_soil": 0.7953, "bias": 0.1683, "bias_sigma": 0.1764}], "mmi_from_pgm": [{"name": "sa(1.0)", "value": null, "sigma": null, "flag": "0"}, {"name": "sa(3.0)", "value": null, "sigma": null, "flag": "0"}, {"name": "sa(0.3)", "value": null, "sigma": null, "flag": "0"}, {"name": "pga", "value": 4.18, "sigma": 0.66, "flag": "0"}, {"name": "pgv", "value": 3.83, "sigma": 0.63, "flag": "0"}], "distance_stddev": 0.0, "distances": {"repi": 351.13, "rhypo": 351.225, "rjb": 300.914, "rjb_var": 0.0, "rrup": 300.887, "rrup_var": 0.0, "rx": -277.403, "ry0": 33.679, "rvolc": 0.0}}, "geometry": {"type": "Point", "coordinates": [82.854, 25.553]}}, {"type": "Feature", "id": "CIGN.BRP", "properties": {"code": "BRP", "name": "Balarampur, India", "instrumentType": "UNK", "source": "CIGN", "network": "CIGN", "commType": "UNK", "location": "", "intensity": 4.3, "intensity_flag": "", "intensity_stddev": 0.63, "pga": 3.29, "pgv": 3.89, "distance": 243.771, "elev": null, "vs30": 218.85, "channels": [{"name": "HN2", "amplitudes": [{"name": "pgv", "value": 3.48, "units": "cm/s", "flag": "0", "ln_sigma": 0.0}, {"name": "pga", "value": 3.29, "units": "%g", "flag": "0", "ln_sigma": 0.0}]}, {"name": "HN1", "amplitudes": [{"name": "pgv", "value": 3.89, "units": "cm/s", "flag": "0", "ln_sigma": 0.0}, {"name": "pga", "value": 3.19, "units": "%g", "flag": "0", "ln_sigma": 0.0}]}, {"name": "HNZ", "amplitudes": [{"name": "pgv", "value": 1.37, "units": "cm/s", "flag": "0", "ln_sigma": 0.0}, {"name": "pga", "value": 1.71, "units": "%g", "flag": "0", "ln_sigma": 0.0}]}], "station_type": "seismic", "nresp": "null", "predictions": [{"name": "sa(1.0)", "value": 4.4884, "value_rock": 1.8832, "value_soil": 5.2919, "units": "%g", "ln_tau": 0.3978, "ln_phi": 0.6358, "ln_sigma": 0.75, "ln_sigma_rock": 0.7539, "ln_sigma_soil": 0.7501, "ln_bias": 0.5491, "ln_bias_sigma": 0.1621}, {"name": "sa(3.0)", "value": 1.3455, "value_rock": 0.6413, "value_soil": 1.6736, "units": "%g", "ln_tau": 0.3955, "ln_phi": 0.6327, "ln_sigma": 0.7462, "ln_sigma_rock": 0.7442, "ln_sigma_soil": 0.7441, "ln_bias": 0.4208, "ln_bias_sigma": 0.1778}, {"name": "sa(0.3)", "value": 6.8449, "value_rock": 3.5112, "value_soil": 7.4231, "units": "%g", "ln_tau": 0.3548, "ln_phi": 0.6158, "ln_sigma": 0.7107, "ln_sigma_rock": 0.7184, "ln_sigma_soil": 0.7112, "ln_bias": -0.0563, "ln_bias_sigma": 0.1448}, {"name": "pga", "value": 2.6634, "value_rock": 2.0018, "value_soil": 2.9717, "units": "%g", "ln_tau": 0.3577, "ln_phi": 0.5497, "ln_sigma": 0.6559, "ln_sigma_rock": 0.6636, "ln_sigma_soil": 0.6572, "ln_bias": 0.1435, "ln_bias_sigma": 0.1276}, {"name": "pgv", "value": 4.2426, "value_rock": 1.9311, "value_soil": 4.9403, "units": "cm/s", "ln_tau": 0.3948, "ln_phi": 0.7442, "ln_sigma": 0.8424, "ln_sigma_rock": 0.849, "ln_sigma_soil": 0.8423, "ln_bias": 0.3195, "ln_bias_sigma": 0.1708}, {"name": "mmi", "value": 4.2602, "value_rock": 4.068, "value_soil": 4.334, "units": "intensity", "tau": 0.2408, "phi": 0.7567, "sigma": 0.794, "sigma_rock": 0.7969, "sigma_soil": 0.7946, "bias": 0.1678, "bias_sigma": 0.1762}], "mmi_from_pgm": [{"name": "sa(1.0)", "value": null, "sigma": null, "flag": "0"}, {"name": "sa(3.0)", "value": null, "sigma": null, "flag": "0"}, {"name": "sa(0.3)", "value": null, "sigma": null, "flag": "0"}, {"name": "pga", "value": 4.4, "sigma": 0.66, "flag": "0"}, {"name": "pgv", "value": 4.34, "sigma": 0.63, "flag": "0"}], "distance_stddev": 0.0, "distances": {"repi": 275.205, "rhypo": 275.327, "rjb": 243.673, "rjb_var": 0.0, "rrup": 243.771, "rrup_var": 0.0, "rx": -125.393, "ry0": 180.535, "rvolc": 0.0}}, "geometry": {"type": "Point", "coordinates": [82.055, 27.504]}}, {"type": "Feature", "id": "CIGN.PHN", "properties": {"code": "PHN", "name": "Pihani, India", "instrumentType": "UNK", "source": "CIGN", "network": "CIGN", "commType": "UNK", "location": "", "intensity": 3.5, "intensity_flag": "", "intensity_stddev": 0.63, "pga": 1.06, "pgv": 1.23, "distance": 426.375, "elev": null, "vs30": 760.0, "channels": [{"name": "HN2", "amplitudes": [{"name": "pgv", "value": 1.21, "units": "cm/s", "flag": "0", "ln_sigma": 0.0}, {"name": "pga", "value": 0.783, "units": "%g", "flag": "0", "ln_sigma": 0.0}]}, {"name": "HN1", "amplitudes": [{"name": "pgv", "value": 1.23, "units": "cm/s", "flag": "0", "ln_sigma": 0.0}, {"name": "pga", "value": 1.06, "units": "%g", "flag": "0", "ln_sigma": 0.0}]}, {"name": "HNZ", "amplitudes": [{"name": "pgv", "value": 0.456, "units": "cm/s", "flag": "0", "ln_sigma": 0.0}, {"name": "pga", "value": 0.369, "units": "%g", "flag": "0", "ln_sigma": 0.0}]}], "station_type": "seismic", "nresp": "null", "predictions": [{"name": "sa(1.0)", "value": 0.5458, "value_rock": 0.5458, "value_soil": 1.5563, "units": "%g", "ln_tau": 0.3996, "ln_phi": 0.6395, "ln_sigma": 0.7541, "ln_sigma_rock": 0.7545, "ln_sigma_soil": 0.7528, "ln_bias": 0.5499, "ln_bias_sigma": 0.1622}, {"name": "sa(3.0)", "value": 0.2585, "value_rock": 0.2585, "value_soil": 0.6747, "units": "%g", "ln_tau": 0.3956, "ln_phi": 0.6328, "ln_sigma": 0.7463, "ln_sigma_rock": 0.7442, "ln_sigma_soil": 0.7442, "ln_bias": 0.4208, "ln_bias_sigma": 0.1778}, {"name": "sa(0.3)", "value": 0.7335, "value_rock": 0.7335, "value_soil": 1.6012, "units": "%g", "ln_tau": 0.3581, "ln_phi": 0.6224, "ln_sigma": 0.7181, "ln_sigma_rock": 0.7192, "ln_sigma_soil": 0.7165, "ln_bias": -0.0565, "ln_bias_sigma": 0.145}, {"name": "pga", "value": 0.493, "value_rock": 0.493, "value_soil": 0.7506, "units": "%g", "ln_tau": 0.3602, "ln_phi": 0.5564, "ln_sigma": 0.6628, "ln_sigma_rock": 0.6642, "ln_sigma_soil": 0.6609, "ln_bias": 0.1438, "ln_bias_sigma": 0.1277}, {"name": "pgv", "value": 0.5622, "value_rock": 0.5622, "value_soil": 1.4586, "units": "cm/s", "ln_tau": 0.3964, "ln_phi": 0.7509, "ln_sigma": 0.8491, "ln_sigma_rock": 0.8495, "ln_sigma_soil": 0.8439, "ln_bias": 0.32, "ln_bias_sigma": 0.171}, {"name": "mmi", "value": 3.2167, "value_rock": 3.2167, "value_soil": 3.4996, "units": "intensity", "tau": 0.2425, "phi": 0.7589, "sigma": 0.7967, "sigma_rock": 0.7972, "sigma_soil": 0.7959, "bias": 0.1691, "bias_sigma": 0.1768}], "mmi_from_pgm": [{"name": "sa(1.0)", "value": null, "sigma": null, "flag": "0"}, {"name": "sa(3.0)", "value": null, "sigma": null, "flag": "0"}, {"name": "sa(0.3)", "value": null, "sigma": null, "flag": "0"}, {"name": "pga", "value": 3.73, "sigma": 0.66, "flag": "0"}, {"name": "pgv", "value": 3.5, "sigma": 0.63, "flag": "0"}], "distance_stddev": 0.0, "distances": {"repi": 453.651, "rhypo": 453.726, "rjb": 426.612, "rjb_var": 0.0, "rrup": 426.375, "rrup_var": 0.0, "rx": -177.93, "ry0": 354.268, "rvolc": 0.0}}, "geometry": {"type": "Point", "coordinates": [80.16, 27.65]}}, {"type": "Feature", "id": "CIGN.AMT", "properties": {"code": "AMT", "name": "Amethi, India", "instrumentType": "UNK", "source": "CIGN", "network": "CIGN", "commType": "UNK", "location": "", "intensity": 4.3, "intensity_flag": "", "intensity_stddev": 0.63, "pga": 1.56, "pgv": 3.73, "distance": 338.531, "elev": null, "vs30": 229.64, "channels": [{"name": "HN2", "amplitudes": [{"name": "pgv", "value": 2.46, "units": "cm/s", "flag": "0", "ln_sigma": 0.0}, {"name": "pga", "value": 1.56, "units": "%g", "flag": "0", "ln_sigma": 0.0}]}, {"name": "HN1", "amplitudes": [{"name": "pgv", "value": 3.73, "units": "cm/s", "flag": "0", "ln_sigma": 0.0}, {"name": "pga", "value": 1.55, "units": "%g", "flag": "0", "ln_sigma": 0.0}]}, {"name": "HNZ", "amplitudes": [{"name": "pgv", "value": 1.46, "units": "cm/s", "flag": "0", "ln_sigma": 0.0}, {"name": "pga", "value": 0.899, "units": "%g", "flag": "0", "ln_sigma": 0.0}]}], "station_type": "seismic", "nresp": "null", "predictions": [{"name": "sa(1.0)", "value": 2.2614, "value_rock": 0.9639, "value_soil": 2.7353, "units": "%g", "ln_tau": 0.3986, "ln_phi": 0.6373, "ln_sigma": 0.7517, "ln_sigma_rock": 0.7545, "ln_sigma_soil": 0.752, "ln_bias": 0.5495, "ln_bias_sigma": 0.1621}, {"name": "sa(3.0)", "value": 0.8023, "value_rock": 0.3904, "value_soil": 1.0191, "units": "%g", "ln_tau": 0.3956, "ln_phi": 0.6327, "ln_sigma": 0.7462, "ln_sigma_rock": 0.7442, "ln_sigma_soil": 0.7442, "ln_bias": 0.4208, "ln_bias_sigma": 0.1778}, {"name": "sa(0.3)", "value": 2.9367, "value_rock": 1.5074, "value_soil": 3.2581, "units": "%g", "ln_tau": 0.3567, "ln_phi": 0.6185, "ln_sigma": 0.714, "ln_sigma_rock": 0.7192, "ln_sigma_soil": 0.7152, "ln_bias": -0.0564, "ln_bias_sigma": 0.1449}, {"name": "pga", "value": 1.2426, "value_rock": 0.9315, "value_soil": 1.407, "units": "%g", "ln_tau": 0.3591, "ln_phi": 0.5518, "ln_sigma": 0.6584, "ln_sigma_rock": 0.6641, "ln_sigma_soil": 0.6599, "ln_bias": 0.1437, "ln_bias_sigma": 0.1277}, {"name": "pgv", "value": 2.148, "value_rock": 0.9905, "value_soil": 2.5575, "units": "cm/s", "ln_tau": 0.3953, "ln_phi": 0.7455, "ln_sigma": 0.8438, "ln_sigma_rock": 0.8495, "ln_sigma_soil": 0.8435, "ln_bias": 0.3197, "ln_bias_sigma": 0.1709}, {"name": "mmi", "value": 3.839, "value_rock": 3.645, "value_soil": 3.9226, "units": "intensity", "tau": 0.2418, "phi": 0.7574, "sigma": 0.795, "sigma_rock": 0.7972, "sigma_soil": 0.7956, "bias": 0.1686, "bias_sigma": 0.1765}], "mmi_from_pgm": [{"name": "sa(1.0)", "value": null, "sigma": null, "flag": "0"}, {"name": "sa(3.0)", "value": null, "sigma": null, "flag": "0"}, {"name": "sa(0.3)", "value": null, "sigma": null, "flag": "0"}, {"name": "pga", "value": 3.99, "sigma": 0.66, "flag": "0"}, {"name": "pgv", "value": 4.28, "sigma": 0.63, "flag": "0"}], "distance_stddev": 0.0, "distances": {"repi": 377.87, "rhypo": 377.959, "rjb": 338.627, "rjb_var": 0.0, "rrup": 338.531, "rrup_var": 0.0, "rx": -262.431, "ry0": 160.33, "rvolc": 0.0}}, "geometry": {"type": "Point", "coordinates": [81.678, 26.187]}}, {"type": "Feature", "id": "IITR.BRE", "properties": {"code": "BRE", "name": "Bareilly, India", "instrumentType": "UNK", "source": "IITR", "network": "IITR", "commType": "UNK", "location": "", "intensity": 3.6, "intensity_flag": "", "intensity_stddev": 0.63, "pga": 0.687, "pgv": 1.36, "distance": 498.607, "elev": null, "vs30": 760.0, "channels": [{"name": "HN2", "amplitudes": [{"name": "pgv", "value": 1.19, "units": "cm/s", "flag": "0", "ln_sigma": 0.0}, {"name": "pga", "value": 0.637, "units": "%g", "flag": "0", "ln_sigma": 0.0}]}, {"name": "HN1", "amplitudes": [{"name": "pgv", "value": 1.36, "units": "cm/s", "flag": "0", "ln_sigma": 0.0}, {"name": "pga", "value": 0.687, "units": "%g", "flag": "0", "ln_sigma": 0.0}]}, {"name": "HNZ", "amplitudes": [{"name": "pgv", "value": 0.42, "units": "cm/s", "flag": "0", "ln_sigma": 0.0}, {"name": "pga", "value": 0.594, "units": "%g", "flag": "0", "ln_sigma": 0.0}]}], "station_type": "seismic", "nresp": "null", "predictions": [{"name": "sa(1.0)", "value": 0.3501, "value_rock": 0.3501, "value_soil": 1.0008, "units": "%g", "ln_tau": 0.3996, "ln_phi": 0.6395, "ln_sigma": 0.7541, "ln_sigma_rock": 0.7545, "ln_sigma_soil": 0.7532, "ln_bias": 0.5499, "ln_bias_sigma": 0.1622}, {"name": "sa(3.0)", "value": 0.1882, "value_rock": 0.1882, "value_soil": 0.4911, "units": "%g", "ln_tau": 0.3956, "ln_phi": 0.6328, "ln_sigma": 0.7463, "ln_sigma_rock": 0.7442, "ln_sigma_soil": 0.7442, "ln_bias": 0.4208, "ln_bias_sigma": 0.1778}, {"name": "sa(0.3)", "value": 0.4179, "value_rock": 0.4179, "value_soil": 0.9165, "units": "%g", "ln_tau": 0.3581, "ln_phi": 0.6224, "ln_sigma": 0.7181, "ln_sigma_rock": 0.7192, "ln_sigma_soil": 0.7171, "ln_bias": -0.0565, "ln_bias_sigma": 0.145}, {"name": "pga", "value": 0.3024, "value_rock": 0.3024, "value_soil": 0.462, "units": "%g", "ln_tau": 0.3602, "ln_phi": 0.5564, "ln_sigma": 0.6628, "ln_sigma_rock": 0.6642, "ln_sigma_soil": 0.6613, "ln_bias": 0.1438, "ln_bias_sigma": 0.1277}, {"name": "pgv", "value": 0