{"type": "FeatureCollection", "features": [{"type": "Feature", "id": "CM.ACH1", "properties": {"code": "ACH1", "name": "ACH1", "instrumentType": "UNK", "source": "CM", "network": "CM", "commType": "UNK", "location": "", "intensity": 4.5, "intensity_flag": "", "intensity_stddev": 0.63, "pga": 5.6582, "pgv": 3.6836, "distance": 44.11, "elev": null, "vs30": 388.18, "channels": [{"name": "10.HNE", "amplitudes": [{"name": "pga", "value": 5.3506, "units": "%g", "flag": "0", "ln_sigma": 0.0}, {"name": "pgv", "value": 3.6836, "units": "cm/s", "flag": "0", "ln_sigma": 0.0}, {"name": "sa(0.3)", "value": 21.1752, "units": "%g", "flag": "0", "ln_sigma": 0.0}, {"name": "sa(1.0)", "value": 4.0425, "units": "%g", "flag": "0", "ln_sigma": 0.0}, {"name": "sa(3.0)", "value": 0.2304, "units": "%g", "flag": "0", "ln_sigma": 0.0}]}, {"name": "10.HNN", "amplitudes": [{"name": "pga", "value": 5.6582, "units": "%g", "flag": "0", "ln_sigma": 0.0}, {"name": "pgv", "value": 3.6559, "units": "cm/s", "flag": "0", "ln_sigma": 0.0}, {"name": "sa(0.3)", "value": 13.9901, "units": "%g", "flag": "0", "ln_sigma": 0.0}, {"name": "sa(1.0)", "value": 2.978, "units": "%g", "flag": "0", "ln_sigma": 0.0}, {"name": "sa(3.0)", "value": 0.4141, "units": "%g", "flag": "0", "ln_sigma": 0.0}]}, {"name": "10.HNZ", "amplitudes": [{"name": "pga", "value": 4.4874, "units": "%g", "flag": "0", "ln_sigma": 0.0}, {"name": "pgv", "value": 1.2467, "units": "cm/s", "flag": "0", "ln_sigma": 0.0}, {"name": "sa(0.3)", "value": 4.7976, "units": "%g", "flag": "0", "ln_sigma": 0.0}, {"name": "sa(1.0)", "value": 1.1117, "units": "%g", "flag": "0", "ln_sigma": 0.0}, {"name": "sa(3.0)", "value": 0.3036, "units": "%g", "flag": "0", "ln_sigma": 0.0}]}], "station_type": "seismic", "nresp": "null", "predictions": [{"name": "sa(0.3)", "value": 10.8389, "value_rock": 6.9912, "value_soil": 17.8566, "units": "%g", "ln_tau": 0.4506, "ln_phi": 0.698, "ln_sigma": 0.8308, "ln_sigma_rock": 0.8309, "ln_sigma_soil": 0.8308, "ln_bias": 0.26, "ln_bias_sigma": 0.2162}, {"name": "sa(3.0)", "value": 0.7405, "value_rock": 0.4593, "value_soil": 1.2788, "units": "%g", "ln_tau": 0.5282, "ln_phi": 0.6664, "ln_sigma": 0.8503, "ln_sigma_rock": 0.8505, "ln_sigma_soil": 0.8505, "ln_bias": -0.0789, "ln_bias_sigma": 0.2244}, {"name": "pgv", "value": 3.7625, "value_rock": 2.3551, "value_soil": 6.4196, "units": "cm/s", "ln_tau": 0.4917, "ln_phi": 0.5848, "ln_sigma": 0.764, "ln_sigma_rock": 0.7649, "ln_sigma_soil": 0.7648, "ln_bias": 0.1917, "ln_bias_sigma": 0.1955}, {"name": "sa(1.0)", "value": 3.1544, "value_rock": 1.6303, "value_soil": 6.7003, "units": "%g", "ln_tau": 0.5253, "ln_phi": 0.699, "ln_sigma": 0.8744, "ln_sigma_rock": 0.8746, "ln_sigma_soil": 0.8745, "ln_bias": 0.5164, "ln_bias_sigma": 0.2289}, {"name": "pga", "value": 6.8416, "value_rock": 5.5423, "value_soil": 8.6935, "units": "%g", "ln_tau": 0.4949, "ln_phi": 0.6171, "ln_sigma": 0.791, "ln_sigma_rock": 0.7912, "ln_sigma_soil": 0.7911, "ln_bias": -0.0921, "ln_bias_sigma": 0.2003}, {"name": "mmi", "value": 4.8897, "value_rock": 4.5513, "value_soil": 5.2746, "units": "intensity", "tau": 0.7952, "phi": 1.1912, "sigma": 1.4322, "sigma_rock": 1.4325, "sigma_soil": 1.4324, "bias": -0.1177, "bias_sigma": 0.3617}], "mmi_from_pgm": [{"name": "sa(0.3)", "value": 5.38, "sigma": 0.82, "flag": "0"}, {"name": "sa(3.0)", "value": 4.21, "sigma": 0.89, "flag": "0"}, {"name": "pgv", "value": 4.48, "sigma": 0.63, "flag": "0"}, {"name": "sa(1.0)", "value": 4.61, "sigma": 0.75, "flag": "0"}, {"name": "pga", "value": 4.58, "sigma": 0.66, "flag": "0"}], "distance_stddev": 3.69, "distances": {"repi": 48.894, "rhypo": 48.904, "rjb": 43.783, "rjb_var": 12.007, "rrup": 44.11, "rrup_var": 13.615}}, "geometry": {"type": "Point", "coordinates": [-73.6711, 3.9422]}}, {"type": "Feature", "id": "CM.ANIM", "properties": {"code": "ANIM", "name": "ANIM", "instrumentType": "UNK", "source": "CM", "network": "CM", "commType": "UNK", "location": "", "intensity": 4.0, "intensity_flag": "", "intensity_stddev": 0.63, "pga": 3.3066, "pgv": 1.987, "distance": 190.905, "elev": null, "vs30": 760.0, "channels": [{"name": "--.HHE", "amplitudes": [{"name": "pga", "value": 3.3066, "units": "%g", "flag": "0", "ln_sigma": 0.0}, {"name": "pgv", "value": 1.6732, "units": "cm/s", "flag": "0", "ln_sigma": 0.0}, {"name": "sa(0.3)", "value": 8.7804, "units": "%g", "flag": "0", "ln_sigma": 0.0}, {"name": "sa(1.0)", "value": 2.2357, "units": "%g", "flag": "0", "ln_sigma": 0.0}, {"name": "sa(3.0)", "value": 0.0904, "units": "%g", "flag": "0", "ln_sigma": 0.0}]}, {"name": "--.HHN", "amplitudes": [{"name": "pga", "value": 2.8508, "units": "%g", "flag": "0", "ln_sigma": 0.0}, {"name": "pgv", "value": 1.987, "units": "cm/s", "flag": "0", "ln_sigma": 0.0}, {"name": "sa(0.3)", "value": 10.3075, "units": "%g", "flag": "0", "ln_sigma": 0.0}, {"name": "sa(1.0)", "value": 2.2459, "units": "%g", "flag": "0", "ln_sigma": 0.0}, {"name": "sa(3.0)", "value": 0.1208, "units": "%g", "flag": "0", "ln_sigma": 0.0}]}, {"name": "--.HHZ", "amplitudes": [{"name": "pga", "value": 1.1795, "units": "%g", "flag": "0", "ln_sigma": 0.0}, {"name": "pgv", "value": 0.619, "units": "cm/s", "flag": "0", "ln_sigma": 0.0}, {"name": "sa(0.3)", "value": 3.911, "units": "%g", "flag": "0", "ln_sigma": 0.0}, {"name": "sa(1.0)", "value": 0.2302, "units": "%g", "flag": "0", "ln_sigma": 0.0}, {"name": "sa(3.0)", "value": 0.0499, "units": "%g", "flag": "0", "ln_sigma": 0.0}]}], "station_type": "seismic", "nresp": "null", "predictions": [{"name": "sa(0.3)", "value": 0.998, "value_rock": 0.998, "value_soil": 2.5588, "units": "%g", "ln_tau": 0.4506, "ln_phi": 0.6912, "ln_sigma": 0.8251, "ln_sigma_rock": 0.8252, "ln_sigma_soil": 0.8251, "ln_bias": 0.26, "ln_bias_sigma": 0.2162}, {"name": "sa(3.0)", "value": 0.0689, "value_rock": 0.0689, "value_soil": 0.1917, "units": "%g", "ln_tau": 0.5282, "ln_phi": 0.6601, "ln_sigma": 0.8454, "ln_sigma_rock": 0.8455, "ln_sigma_soil": 0.8455, "ln_bias": -0.0789, "ln_bias_sigma": 0.2244}, {"name": "pgv", "value": 0.3473, "value_rock": 0.3473, "value_soil": 0.9482, "units": "cm/s", "ln_tau": 0.4917, "ln_phi": 0.5766, "ln_sigma": 0.7578, "ln_sigma_rock": 0.7587, "ln_sigma_soil": 0.7587, "ln_bias": 0.1917, "ln_bias_sigma": 0.1955}, {"name": "sa(1.0)", "value": 0.2687, "value_rock": 0.2687, "value_soil": 1.1059, "units": "%g", "ln_tau": 0.5253, "ln_phi": 0.6929, "ln_sigma": 0.8695, "ln_sigma_rock": 0.8697, "ln_sigma_soil": 0.8696, "ln_bias": 0.5164, "ln_bias_sigma": 0.2289}, {"name": "pga", "value": 0.656, "value_rock": 0.656, "value_soil": 1.0321, "units": "%g", "ln_tau": 0.4949, "ln_phi": 0.6082, "ln_sigma": 0.7841, "ln_sigma_rock": 0.7843, "ln_sigma_soil": 0.7843, "ln_bias": -0.0921, "ln_bias_sigma": 0.2003}, {"name": "mmi", "value": 3.4128, "value_rock": 3.4128, "value_soil": 3.7178, "units": "intensity", "tau": 0.3331, "phi": 0.7767, "sigma": 0.8451, "sigma_rock": 0.8452, "sigma_soil": 0.8452, "bias": -0.0597, "bias_sigma": 0.2576}], "mmi_from_pgm": [{"name": "sa(0.3)", "value": 4.97, "sigma": 0.82, "flag": "0"}, {"name": "sa(3.0)", "value": 3.23, "sigma": 0.89, "flag": "0"}, {"name": "pgv", "value": 4.02, "sigma": 0.63, "flag": "0"}, {"name": "sa(1.0)", "value": 3.91, "sigma": 0.75, "flag": "0"}, {"name": "pga", "value": 4.5, "sigma": 0.66, "flag": "0"}], "distance_stddev": 3.487, "distances": {"repi": 196.354, "rhypo": 196.356, "rjb": 191.114, "rjb_var": 12.278, "rrup": 190.905, "rrup_var": 12.16}}, "geometry": {"type": "Point", "coordinates": [-75.398, 4.4853]}}, {"type": "Feature", "id": "CM.ARAMC", "properties": {"code": "ARAMC", "name": "ARAMC", "instrumentType": "UNK", "source": "CM", "network": "CM", "commType": "UNK", "location": "", "intensity": 4.2, "intensity_flag": "", "intensity_stddev": 0.63, "pga": 3.7203, "pgv": 2.783, "distance": 114.475, "elev": null, "vs30": 760.0, "channels": [{"name": "00.HHE", "amplitudes": [{"name": "pga", "value": 3.6527, "units": "%g", "flag": "0", "ln_sigma": 0.0}, {"name": "pgv", "value": 2.783, "units": "cm/s", "flag": "0", "ln_sigma": 0.0}, {"name": "sa(0.3)", "value": 7.0225, "units": "%g", "flag": "0", "ln_sigma": 0.0}, {"name": "sa(1.0)", "value": 3.6687, "units": "%g", "flag": "0", "ln_sigma": 0.0}, {"name": "sa(3.0)", "value": 0.18, "units": "%g", "flag": "0", "ln_sigma": 0.0}]}, {"name": "00.HHN", "amplitudes": [{"name": "pga", "value": 3.7203, "units": "%g", "flag": "0", "ln_sigma": 0.0}, {"name": "pgv", "value": 2.2978, "units": "cm/s", "flag": "0", "ln_sigma": 0.0}, {"name": "sa(0.3)", "value": 9.9235, "units": "%g", "flag": "0", "ln_sigma": 0.0}, {"name": "sa(1.0)", "value": 4.29, "units": "%g", "flag": "0", "ln_sigma": 0.0}, {"name": "sa(3.0)", "value": 0.186, "units": "%g", "flag": "0", "ln_sigma": 0.0}]}, {"name": "00.HHZ", "amplitudes": [{"name": "pga", "value": 2.8054, "units": "%g", "flag": "0", "ln_sigma": 0.0}, {"name": "pgv", "value": 1.278, "units": "cm/s", "flag": "0", "ln_sigma": 0.0}, {"name": "sa(0.3)", "value": 6.1891, "units": "%g", "flag": "0", "ln_sigma": 0.0}, {"name": "sa(1.0)", "value": 0.6548, "units": "%g", "flag": "0", "ln_sigma": 0.0}, {"name": "sa(3.0)", "value": 0.0912, "units": "%g", "flag": "0", "ln_sigma": 0.0}]}], "station_type": "seismic", "nresp": "null", "predictions": [{"name": "sa(0.3)", "value": 2.0265, "value_rock": 2.0265, "value_soil": 5.1921, "units": "%g", "ln_tau": 0.4506, "ln_phi": 0.692, "ln_sigma": 0.8257, "ln_sigma_rock": 0.8259, "ln_sigma_soil": 0.8258, "ln_bias": 0.26, "ln_bias_sigma": 0.2162}, {"name": "sa(3.0)", "value": 0.1391, "value_rock": 0.1391, "value_soil": 0.3874, "units": "%g", "ln_tau": 0.5282, "ln_phi": 0.6609, "ln_sigma": 0.846, "ln_sigma_rock": 0.8461, "ln_sigma_soil": 0.8461, "ln_bias": -0.0789, "ln_bias_sigma": 0.2244}, {"name": "pgv", "value": 0.6961, "value_rock": 0.6961, "value_soil": 1.8998, "units": "cm/s", "ln_tau": 0.4917, "ln_phi": 0.5775, "ln_sigma": 0.7585, "ln_sigma_rock": 0.7594, "ln_sigma_soil": 0.7594, "ln_bias": 0.1917, "ln_bias_sigma": 0.1955}, {"name": "sa(1.0)", "value": 0.5153, "value_rock": 0.5153, "value_soil": 2.1205, "units": "%g", "ln_tau": 0.5253, "ln_phi": 0.6935, "ln_sigma": 0.87, "ln_sigma_rock": 0.8702, "ln_sigma_soil": 0.8701, "ln_bias": 0.5164, "ln_bias_sigma": 0.2289}, {"name": "pga", "value": 1.4374, "value_rock": 1.4374, "value_soil": 2.2602, "units": "%g", "ln_tau": 0.4949, "ln_phi": 0.6093, "ln_sigma": 0.785, "ln_sigma_rock": 0.7851, "ln_sigma_soil": 0.7851, "ln_bias": -0.0921, "ln_bias_sigma": 0.2003}, {"name": "mmi", "value": 3.7142, "value_rock": 3.7142, "value_soil": 4.0189, "units": "intensity", "tau": 0.3331, "phi": 0.7771, "sigma": 0.8455, "sigma_rock": 0.8455, "sigma_soil": 0.8455, "bias": -0.0597, "bias_sigma": 0.2576}], "mmi_from_pgm": [{"name": "sa(0.3)", "value": 4.81, "sigma": 0.82, "flag": "0"}, {"name": "sa(3.0)", "value": 3.57, "sigma": 0.89, "flag": "0"}, {"name": "pgv", "value": 4.24, "sigma": 0.63, "flag": "0"}, {"name": "sa(1.0)", "value": 4.44, "sigma": 0.75, "flag": "0"}, {"name": "pga", "value": 4.35, "sigma": 0.66, "flag": "0"}], "distance_stddev": 3.528, "distances": {"repi": 119.774, "rhypo": 119.778, "rjb": 114.56, "rjb_var": 12.222, "rrup": 114.475, "rrup_var": 12.447}}, "geometry": {"type": "Point", "coordinates": [-73.9433, 3.3492]}}, {"type": "Feature", "id": "CM.ARAUC", "properties": {"code": "ARAUC", "name": "ARAUC", "instrumentType": "UNK", "source": "CM", "network": "CM", "commType": "UNK", "location": "", "intensity": 3.1, "intensity_flag": "", "intensity_stddev": 0.63, "pga": 0.5558, "pgv": 0.4721, "distance": 434.515, "elev": null, "vs30": 760.0, "channels": [{"name": "20.EHE", "amplitudes": [{"name": "pga", "value": 0.4108, "units": "%g", "flag": "0", "ln_sigma": 0.0}, {"name": "pgv", "value": 0.3482, "units": "cm/s", "flag": "0", "ln_sigma": 0.0}, {"name": "sa(0.3)", "value": 1.4534, "units": "%g", "flag": "0", "ln_sigma": 0.0}, {"name": "sa(1.0)", "value": 0.719, "units": "%g", "flag": "0", "ln_sigma": 0.0}, {"name": "sa(3.0)", "value": 0.1261, "units": "%g", "flag": "0", "ln_sigma": 0.0}]}, {"name": "20.EHN", "amplitudes": [{"name": "pga", "value": 0.5558, "units": "%g", "flag": "0", "ln_sigma": 0.0}, {"name": "pgv", "value": 0.4721, "units": "cm/s", "flag": "0", "ln_sigma": 0.0}, {"name": "sa(0.3)", "value": 1.783, "units": "%g", "flag": "0", "ln_sigma": 0.0}, {"name": "sa(1.0)", "value": 0.4291, "units": "%g", "flag": "0", "ln_sigma": 0.0}, {"name": "sa(3.0)", "value": 0.1067, "units": "%g", "flag": "0", "ln_sigma": 0.0}]}, {"name": "20.EHZ", "amplitudes": [{"name": "pga", "value": 0.1143, "units": "%g", "flag": "0", "ln_sigma": 0.0}, {"name": "pgv", "value": 0.1159, "units": "cm/s", "flag": "0", "ln_sigma": 0.0}, {"name": "sa(0.3)", "value": 0.3295, "units": "%g", "flag": "0", "ln_sigma": 0.0}, {"name": "sa(1.0)", "value": 0.1435, "units": "%g", "flag": "0", "ln_sigma": 0.0}, {"name": "sa(3.0)", "value": 0.0216, "units": "%g", "flag": "0", "ln_sigma": 0.0}]}], "station_type": "seismic", "nresp": "null", "predictions": [{"name": "sa(0.3)", "value": 0.3063, "value_rock": 0.3063, "value_soil": 0.7855, "units": "%g", "ln_tau": 0.4506, "ln_phi": 0.6908, "ln_sigma": 0.8248, "ln_sigma_rock": 0.8249, "ln_sigma_soil": 0.8248, "ln_bias": 0.26, "ln_bias_sigma": 0.2162}, {"name": "sa(3.0)", "value": 0.0207, "value_rock": 0.0207, "value_soil": 0.0575, "units": "%g", "ln_tau": 0.5282, "ln_phi": 0.6597, "ln_sigma": 0.8451, "ln_sigma_rock": 0.8453, "ln_sigma_soil": 0.8453, "ln_bias": -0.0789, "ln_bias_sigma": 0.2244}, {"name": "pgv", "value": 0.1075, "value_rock": 0.1075, "value_soil": 0.2936, "units": "cm/s", "ln_tau": 0.4917, "ln_phi": 0.5762, "ln_sigma": 0.7575, "ln_sigma_rock": 0.7584, "ln_sigma_soil": 0.7584, "ln_bias": 0.1917, "ln_bias_sigma": 0.1955}, {"name": "sa(1.0)", "value": 0.0898, "value_rock": 0.0898, "value_soil": 0.3697, "units": "%g", "ln_tau": 0.5253, "ln_phi": 0.6926, "ln_sigma": 0.8693, "ln_sigma_rock": 0.8694, "ln_sigma_soil": 0.8694, "ln_bias": 0.5164, "ln_bias_sigma": 0.2289}, {"name": "pga", "value": 0.1767, "value_rock": 0.1767, "value_soil": 0.2781, "units": "%g", "ln_tau": 0.4949, "ln_phi": 0.6077, "ln_sigma": 0.7837, "ln_sigma_rock": 0.7839, "ln_sigma_soil": 0.7839, "ln_bias": -0.0921, "ln_bias_sigma": 0.2003}, {"name": "mmi", "value": 2.73, "value_rock": 2.73, "value_soil": 3.0353, "units": "intensity", "tau": 0.3331, "phi": 0.7765, "sigma": 0.8449, "sigma_rock": 0.845, "sigma_soil": 0.845, "bias": -0.0597, "bias_sigma": 0.2576}], "mmi_from_pgm": [{"name": "sa(0.3)", "value": 3.8, "sigma": 0.82, "flag": "0"}, {"name": "sa(3.0)", "value": 3.14, "sigma": 0.89, "flag": "0"}, {"name": "pgv", "value": 3.1, "sigma": 0.63, "flag": "0"}, {"name": "sa(1.0)", "value": 3.07, "sigma": 0.75, "flag": "0"}, {"name": "pga", "value": 3.5, "sigma": 0.66, "flag": "0"}], "distance_stddev": 3.454, "distances": {"repi": 440.096, "rhypo": 440.097, "rjb": 434.834, "rjb_var": 12.325, "rrup": 434.515, "rrup_var": 11.927}}, "geometry": {"type": "Point", "coordinates": [-70.7073, 7.06499]}}, {"type": "Feature", "id": "CM.ARMEC", "properties": {"code": "ARMEC", "name": "ARMEC", "instrumentType": "UNK", "source": "CM", "network": "CM", "commType": "UNK", "location": "", "intensity": 3.9, "intensity_flag": "", "intensity_stddev": 0.63, "pga": 2.7187, "pgv": 1.7622, "distance": 220.406, "elev": null, "vs30": 760.0, "channels": [{"name": "10.HNE", "amplitudes": [{"name": "pga", "value": 2.7187, "units": "%g", "flag": "0", "ln_sigma": 0.0}, {"name": "pgv", "value": 1.7419, "units": "cm/s", "flag": "0", "ln_sigma": 0.0}, {"name": "sa(0.3)", "value": 3.8797, "units": "%g", "flag": "0", "ln_sigma": 0.0}, {"name": "sa(1.0)", "value": 1.1781, "units": "%g", "flag": "0", "ln_sigma": 0.0}, {"name": "sa(3.0)", "value": 0.0917, "units": "%g", "flag": "0", "ln_sigma": 0.0}]}, {"name": "10.HNN", "amplitudes": [{"name": "pga", "value": 2.5789, "units": "%g", "flag": "0", "ln_sigma": 0.0}, {"name": "pgv", "value": 1.7622, "units": "cm/s", "flag": "0", "ln_sigma": 0.0}, {"name": "sa(0.3)", "value": 6.7723, "units": "%g", "flag": "0", "ln_sigma": 0.0}, {"name": "sa(1.0)", "value": 1.157, "units": "%g", "flag": "0", "ln_sigma": 0.0}, {"name": "sa(3.0)", "value": 0.094, "units": "%g", "flag": "0", "ln_sigma": 0.0}]}, {"name": "10.HNZ", "amplitudes": [{"name": "pga", "value": 1.1001, "units": "%g", "flag": "0", "ln_sigma": 0.0}, {"name": "pgv", "value": 0.631, "units": "cm/s", "flag": "0", "ln_sigma": 0.0}, {"name": "sa(0.3)", "value": 2.5559, "units": "%g", "flag": "0", "ln_sigma": 0.0}, {"name": "sa(1.0)", "value": 0.5463, "units": "%g", "flag": "0", "ln_sigma": 0.0}, {"name": "sa(3.0)", "value": 0.0609, "units": "%g", "flag": "0", "ln_sigma": 0.0}]}], "station_type": "seismic", "nresp": "null", "predictions": [{"name": "sa(0.3)", "value": 0.8147, "value_rock": 0.8147, "value_soil": 2.0889, "units": "%g", "ln_tau": 0.4506, "ln_phi": 0.6911, "ln_sigma": 0.825, "ln_sigma_rock": 0.8251, "ln_sigma_soil": 0.825, "ln_bias": 0.26, "ln_bias_sigma": 0.2162}, {"name": "sa(3.0)", "value": 0.0562, "value_rock": 0.0562, "value_soil": 0.1564, "units": "%g", "ln_tau": 0.5282, "ln_phi": 0.66, "ln_sigma": 0.8453, "ln_sigma_rock": 0.8455, "ln_sigma_soil": 0.8455, "ln_bias": -0.0789, "ln_bias_sigma": 0.2244}, {"name": "pgv", "value": 0.2844, "value_rock": 0.2844, "value_soil": 0.7764, "units": "cm/s", "ln_tau": 0.4917, "ln_phi": 0.5765, "ln_sigma": 0.7577, "ln_sigma_rock": 0.7587, "ln_sigma_soil": 0.7586, "ln_bias": 0.1917, "ln_bias_sigma": 0.1955}, {"name": "sa(1.0)", "value": 0.2229, "value_rock": 0.2229, "value_soil": 0.9174, "units": "%g", "ln_tau": 0.5253, "ln_phi": 0.6928, "ln_sigma": 0.8694, "ln_sigma_rock": 0.8696, "ln_sigma_soil": 0.8695, "ln_bias": 0.5164, "ln_bias_sigma": 0.2289}, {"name": "pga", "value": 0.5236, "value_rock": 0.5236, "value_soil": 0.8239, "units": "%g", "ln_tau": 0.4949, "ln_phi": 0.6081, "ln_sigma": 0.784, "ln_sigma_rock": 0.7842, "ln_sigma_soil": 0.7841, "ln_bias": -0.0921, "ln_bias_sigma": 0.2003}, {"name": "mmi", "value": 3.3247, "value_rock": 3.3247, "value_soil": 3.6298, "units": "intensity", "tau": 0.3331, "phi": 0.7766, "sigma": 0.8451, "sigma_rock": 0.8451, "sigma_soil": 0.8451, "bias": -0.0597, "bias_sigma": 0.2576}], "mmi_from_pgm": [{"name": "sa(0.3)", "value": 4.7, "sigma": 0.82, "flag": "0"}, {"name": "sa(3.0)", "value": 3.06, "sigma": 0.89, "flag": "0"}, {"name": "pgv", "value": 3.94, "sigma": 0.63, "flag": "0"}, {"name": "sa(1.0)", "value": 3.46, "sigma": 0.75, "flag": "0"}, {"name": "pga", "value": 4.43, "sigma": 0.66, "flag": "0"}], "distance_stddev": 3.478, "distances": {"repi": 225.889, "rhypo": 225.891, "rjb": 220.643, "rjb_var": 12.29, "rrup": 220.406, "rrup_var": 12.097}}, "geometry": {"type": "Point", "coordinates": [-75.66, 4.556]}}, {"type": "Feature", "id": "CM.BAR2", "properties": {"code": "BAR2", "name": "BAR2", "instrumentType": "UNK", "source": "CM", "network": "CM", "commType": "UNK", "location": "", "intensity": 3.3, "intensity_flag": "", "intensity_stddev": 0.63, "pga": 0.6574, "pgv": 0.6648, "distance": 245.41, "elev": null, "vs30": 760.0, "channels": [{"name": "20.EHE", "amplitudes": [{"name": "pga", "value": 0.6574, "units": "%g", "flag": "0", "ln_sigma": 0.0}, {"name": "pgv", "value": 0.6648, "units": "cm/s", "flag": "0", "ln_sigma": 0.0}, {"name": "sa(0.3)", "value": 1.4511, "units": "%g", "flag": "0", "ln_sigma": 0.0}, {"name": "sa(1.0)", "value": 0.7073, "units": "%g", "flag": "0", "ln_sigma": 0.0}, {"name": "sa(3.0)", "value": 0.1665, "units": "%g", "flag": "0", "ln_sigma": 0.0}]}, {"name": "20.EHN", "amplitudes": [{"name": "pga", "value": 0.6446, "units": "%g", "flag": "0", "ln_sigma": 0.0}, {"name": "pgv", "value": 0.519, "units": "cm/s", "flag": "0", "ln_sigma": 0.0}, {"name": "sa(0.3)", "value": 1.5146, "units": "%g", "flag": "0", "ln_sigma": 0.0}, {"name": "sa(1.0)", "value": 0.654, "units": "%g", "flag": "0", "ln_sigma": 0.0}, {"name": "sa(3.0)", "value": 0.1109, "units": "%g", "flag": "0", "ln_sigma": 0.0}]}, {"name": "20.EHZ", "amplitudes": [{"name": "pga", "value": 0.3858, "units": "%g", "flag": 