{"type": "FeatureCollection", "features": [{"type": "Feature", "id": "CM.BET", "properties": {"code": "BET", "name": "Embalse de Betania", "refid": null, "instrumentType": "UNK", "source": "SeisComP3,SGC", "network": "CM", "commType": "UNK", "location": "", "intensity": 3.8, "intensity_flag": "", "intensity_stddev": 0.63, "pga": 0.6112, "pgv": 1.5445, "distance": 275.788, "elev": null, "vs30": 760.0, "channels": [{"name": "HNE", "amplitudes": [{"name": "sa(0.3)", "value": 0.8952, "units": "%g", "flag": "0", "ln_sigma": 0.0}, {"name": "sa(1.0)", "value": 0.8042, "units": "%g", "flag": "0", "ln_sigma": 0.0}, {"name": "sa(3.0)", "value": 0.5187, "units": "%g", "flag": "0", "ln_sigma": 0.0}, {"name": "pga", "value": 0.6112, "units": "%g", "flag": "0", "ln_sigma": 0.0}, {"name": "pgv", "value": 0.7617, "units": "cm/s", "flag": "0", "ln_sigma": 0.0}]}, {"name": "HNN", "amplitudes": [{"name": "sa(0.3)", "value": 0.8345, "units": "%g", "flag": "0", "ln_sigma": 0.0}, {"name": "sa(1.0)", "value": 0.7053, "units": "%g", "flag": "0", "ln_sigma": 0.0}, {"name": "sa(3.0)", "value": 0.4737, "units": "%g", "flag": "0", "ln_sigma": 0.0}, {"name": "pga", "value": 0.4791, "units": "%g", "flag": "0", "ln_sigma": 0.0}, {"name": "pgv", "value": 1.5445, "units": "cm/s", "flag": "0", "ln_sigma": 0.0}]}, {"name": "HNZ", "amplitudes": [{"name": "sa(0.3)", "value": 0.5019, "units": "%g", "flag": "0", "ln_sigma": 0.0}, {"name": "sa(1.0)", "value": 0.5515, "units": "%g", "flag": "0", "ln_sigma": 0.0}, {"name": "sa(3.0)", "value": 0.286, "units": "%g", "flag": "0", "ln_sigma": 0.0}, {"name": "pga", "value": 0.2803, "units": "%g", "flag": "0", "ln_sigma": 0.0}, {"name": "pgv", "value": 0.6203, "units": "cm/s", "flag": "0", "ln_sigma": 0.0}]}], "station_type": "seismic", "nresp": "null", "predictions": [{"name": "pga", "value": 0.2072, "value_rock": 0.2072, "value_soil": 0.4032, "units": "%g", "ln_tau": 0.3378, "ln_phi": 0.5455, "ln_sigma": 0.6417, "ln_sigma_rock": 0.6431, "ln_sigma_soil": 0.6271, "ln_bias": 0.0945, "ln_bias_sigma": 0.1174}, {"name": "mmi", "value": 2.766, "value_rock": 2.766, "value_soil": 3.214, "units": "intensity", "tau": 0.2274, "phi": 0.7553, "sigma": 0.7888, "sigma_rock": 0.7893, "sigma_soil": 0.7834, "bias": 0.0732, "bias_sigma": 0.1424}, {"name": "pgv", "value": 0.3691, "value_rock": 0.3691, "value_soil": 1.0433, "units": "cm/s", "ln_tau": 0.3256, "ln_phi": 0.5444, "ln_sigma": 0.6344, "ln_sigma_rock": 0.6355, "ln_sigma_soil": 0.6171, "ln_bias": -0.0096, "ln_bias_sigma": 0.1158}, {"name": "sa(3.0)", "value": 0.0969, "value_rock": 0.0969, "value_soil": 0.3999, "units": "%g", "ln_tau": 0.38, "ln_phi": 0.6381, "ln_sigma": 0.7427, "ln_sigma_rock": 0.7454, "ln_sigma_soil": 0.7453, "ln_bias": 0.0392, "ln_bias_sigma": 0.1337}, {"name": "sa(0.3)", "value": 0.4753, "value_rock": 0.4753, "value_soil": 1.5176, "units": "%g", "ln_tau": 0.3159, "ln_phi": 0.6229, "ln_sigma": 0.6985, "ln_sigma_rock": 0.7021, "ln_sigma_soil": 0.6884, "ln_bias": 0.047, "ln_bias_sigma": 0.1273}, {"name": "sa(1.0)", "value": 0.358, "value_rock": 0.358, "value_soil": 1.4874, "units": "%g", "ln_tau": 0.352, "ln_phi": 0.6566, "ln_sigma": 0.745, "ln_sigma_rock": 0.7469, "ln_sigma_soil": 0.7409, "ln_bias": 0.2941, "ln_bias_sigma": 0.2895}], "mmi_from_pgm": [{"name": "pga", "value": 3.49, "sigma": 0.66, "flag": "0"}, {"name": "pgv", "value": 3.82, "sigma": 0.63, "flag": "0"}, {"name": "sa(3.0)", "value": 3.83, "sigma": 0.89, "flag": "0"}, {"name": "sa(0.3)", "value": 3.27, "sigma": 0.82, "flag": "0"}, {"name": "sa(1.0)", "value": 3.1, "sigma": 0.75, "flag": "0"}], "distance_stddev": 5.477, "distances": {"repi": 283.383, "rhypo": 283.559, "rjb": 275.423, "rjb_var": 30.668, "rrup": 275.788, "rrup_var": 30.001, "rx": 0.0, "ry0": 0.0, "rvolc": 0.0}}, "geometry": {"type": "Point", "coordinates": [-75.417833, 2.7225]}}, {"type": "Feature", "id": "CM.BOG", "properties": {"code": "BOG", "name": "Bogota, SGC", "refid": null, "instrumentType": "UNK", "source": "SeisComP3,SGC", "network": "CM", "commType": "UNK", "location": "", "intensity": 4.6, "intensity_flag": "", "intensity_stddev": 0.63, "pga": 2.9385, "pgv": 4.2524, "distance": 61.415, "elev": null, "vs30": 241.28, "channels": [{"name": "HNE", "amplitudes": [{"name": "sa(0.3)", "value": 5.0048, "units": "%g", "flag": "0", "ln_sigma": 0.0}, {"name": "sa(1.0)", "value": 4.5557, "units": "%g", "flag": "0", "ln_sigma": 0.0}, {"name": "sa(3.0)", "value": 0.9595, "units": "%g", "flag": "0", "ln_sigma": 0.0}, {"name": "pga", "value": 2.9385, "units": "%g", "flag": "0", "ln_sigma": 0.0}, {"name": "pgv", "value": 4.2524, "units": "cm/s", "flag": "0", "ln_sigma": 0.0}]}, {"name": "HNN", "amplitudes": [{"name": "sa(0.3)", "value": 5.4435, "units": "%g", "flag": "0", "ln_sigma": 0.0}, {"name": "sa(1.0)", "value": 4.4665, "units": "%g", "flag": "0", "ln_sigma": 0.0}, {"name": "sa(3.0)", "value": 1.204, "units": "%g", "flag": "0", "ln_sigma": 0.0}, {"name": "pga", "value": 2.7035, "units": "%g", "flag": "0", "ln_sigma": 0.0}, {"name": "pgv", "value": 3.9874, "units": "cm/s", "flag": "0", "ln_sigma": 0.0}]}, {"name": "HNZ", "amplitudes": [{"name": "sa(0.3)", "value": 2.6906, "units": "%g", "flag": "0", "ln_sigma": 0.0}, {"name": "sa(1.0)", "value": 1.754, "units": "%g", "flag": "0", "ln_sigma": 0.0}, {"name": "sa(3.0)", "value": 0.1942, "units": "%g", "flag": "0", "ln_sigma": 0.0}, {"name": "pga", "value": 0.9766, "units": "%g", "flag": "0", "ln_sigma": 0.0}, {"name": "pgv", "value": 1.4604, "units": "cm/s", "flag": "0", "ln_sigma": 0.0}]}], "station_type": "seismic", "nresp": "null", "predictions": [{"name": "pga", "value": 5.7795, "value_rock": 3.643, "value_soil": 6.3981, "units": "%g", "ln_tau": 0.3236, "ln_phi": 0.5058, "ln_sigma": 0.6005, "ln_sigma_rock": 0.6301, "ln_sigma_soil": 0.589, "ln_bias": 0.0905, "ln_bias_sigma": 0.1125}, {"name": "mmi", "value": 4.7312, "value_rock": 4.0304, "value_soil": 4.8946, "units": "intensity", "tau": 0.52, "phi": 1.047, "sigma": 1.169, "sigma_rock": 0.7845, "sigma_soil": 1.1539, "bias": 0.1675, "bias_sigma": 0.3256}, {"name": "pgv", "value": 5.6723, "value_rock": 2.5648, "value_soil": 6.8337, "units": "cm/s", "ln_tau": 0.3212, "ln_phi": 0.5139, "ln_sigma": 0.606, "ln_sigma_rock": 0.6254, "ln_sigma_soil": 0.5985, "ln_bias": -0.0095, "ln_bias_sigma": 0.1142}, {"name": "sa(3.0)", "value": 1.4434, "value_rock": 0.4673, "value_soil": 1.9264, "units": "%g", "ln_tau": 0.3798, "ln_phi": 0.623, "ln_sigma": 0.7296, "ln_sigma_rock": 0.7319, "ln_sigma_soil": 0.7316, "ln_bias": 0.0392, "ln_bias_sigma": 0.1336}, {"name": "sa(0.3)", "value": 16.3497, "value_rock": 7.0224, "value_soil": 19.6244, "units": "%g", "ln_tau": 0.2993, "ln_phi": 0.5724, "ln_sigma": 0.6459, "ln_sigma_rock": 0.6778, "ln_sigma_soil": 0.6303, "ln_bias": 0.0445, "ln_bias_sigma": 0.1206}, {"name": "sa(1.0)", "value": 6.7917, "value_rock": 2.2561, "value_soil": 8.8195, "units": "%g", "ln_tau": 0.3475, "ln_phi": 0.631, "ln_sigma": 0.7203, "ln_sigma_rock": 0.7311, "ln_sigma_soil": 0.7146, "ln_bias": 0.2903, "ln_bias_sigma": 0.2857}], "mmi_from_pgm": [{"name": "pga", "value": 3.89, "sigma": 0.66, "flag": "0"}, {"name": "pgv", "value": 4.64, "sigma": 0.63, "flag": "0"}, {"name": "sa(3.0)", "value": 4.79, "sigma": 0.89, "flag": "0"}, {"name": "sa(0.3)", "value": 4.2, "sigma": 0.82, "flag": "0"}, {"name": "sa(1.0)", "value": 4.55, "sigma": 0.75, "flag": "0"}], "distance_stddev": 5.348, "distances": {"repi": 67.773, "rhypo": 68.507, "rjb": 60.046, "rjb_var": 29.534, "rrup": 61.415, "rrup_var": 28.601, "rx": 0.0, "ry0": 0.0, "rvolc": 0.0}}, "geometry": {"type": "Point", "coordinates": [-74.08, 4.641]}}, {"type": "Feature", "id": "CM.CBOC", "properties": {"code": "CBOC", "name": "Ciudad Bolivar, Antioquia, Colombia", "refid": null, "instrumentType": "UNK", "source": "SeisComP3,SGC", "network": "CM", "commType": "UNK", "location": "", "intensity": 2.0, "intensity_flag": "", "intensity_stddev": 0.63, "pga": 0.074, "pgv": 0.0847, "distance": 312.655, "elev": null, "vs30": 760.0, "channels": [{"name": "HHE", "amplitudes": [{"name": "sa(0.3)", "value": 0.1362, "units": "%g", "flag": "0", "ln_sigma": 0.0}, {"name": "sa(1.0)", "value": 0.1125, "units": "%g", "flag": "0", "ln_sigma": 0.0}, {"name": "sa(3.0)", "value": 0.0297, "units": "%g", "flag": "0", "ln_sigma": 0.0}, {"name": "pga", "value": 0.0571, "units": "%g", "flag": "0", "ln_sigma": 0.0}, {"name": "pgv", "value": 0.0729, "units": "cm/s", "flag": "0", "ln_sigma": 0.0}]}, {"name": "HHN", "amplitudes": [{"name": "sa(0.3)", "value": 0.2228, "units": "%g", "flag": "0", "ln_sigma": 0.0}, {"name": "sa(1.0)", "value": 0.0718, "units": "%g", "flag": "0", "ln_sigma": 0.0}, {"name": "sa(3.0)", "value": 0.0209, "units": "%g", "flag": "0", "ln_sigma": 0.0}, {"name": "pga", "value": 0.074, "units": "%g", "flag": "0", "ln_sigma": 0.0}, {"name": "pgv", "value": 0.0847, "units": "cm/s", "flag": "0", "ln_sigma": 0.0}]}, {"name": "HHZ", "amplitudes": [{"name": "sa(0.3)", "value": 0.0552, "units": "%g", "flag": "0", "ln_sigma": 0.0}, {"name": "sa(1.0)", "value": 0.0901, "units": "%g", "flag": "0", "ln_sigma": 0.0}, {"name": "sa(3.0)", "value": 0.0189, "units": "%g", "flag": "0", "ln_sigma": 0.0}, {"name": "pga", "value": 0.0347, "units": "%g", "flag": "0", "ln_sigma": 0.0}, {"name": "pgv", "value": 0.0606, "units": "cm/s", "flag": "0", "ln_sigma": 0.0}]}], "station_type": "seismic", "nresp": "null", "predictions": [{"name": "pga", "value": 0.1421, "value_rock": 0.1421, "value_soil": 0.2771, "units": "%g", "ln_tau": 0.3378, "ln_phi": 0.5454, "ln_sigma": 0.6415, "ln_sigma_rock": 0.6429, "ln_sigma_soil": 0.6275, "ln_bias": 0.0945, "ln_bias_sigma": 0.1174}, {"name": "mmi", "value": 2.5493, "value_rock": 2.5493, "value_soil": 2.9987, "units": "intensity", "tau": 0.2274, "phi": 0.7552, "sigma": 0.7887, "sigma_rock": 0.7892, "sigma_soil": 0.7836, "bias": 0.0732, "bias_sigma": 0.1424}, {"name": "pgv", "value": 0.3008, "value_rock": 0.3008, "value_soil": 0.8517, "units": "cm/s", "ln_tau": 0.3256, "ln_phi": 0.5443, "ln_sigma": 0.6343, "ln_sigma_rock": 0.6354, "ln_sigma_soil": 0.6174, "ln_bias": -0.0096, "ln_bias_sigma": 0.1158}, {"name": "sa(3.0)", "value": 0.0838, "value_rock": 0.0838, "value_soil": 0.3461, "units": "%g", "ln_tau": 0.38, "ln_phi": 0.638, "ln_sigma": 0.7426, "ln_sigma_rock": 0.7453, "ln_sigma_soil": 0.7453, "ln_bias": 0.0392, "ln_bias_sigma": 0.1337}, {"name": "sa(0.3)", "value": 0.3358, "value_rock": 0.3358, "value_soil": 1.0752, "units": "%g", "ln_tau": 0.3159, "ln_phi": 0.6228, "ln_sigma": 0.6983, "ln_sigma_rock": 0.702, "ln_sigma_soil": 0.689, "ln_bias": 0.047, "ln_bias_sigma": 0.1273}, {"name": "sa(1.0)", "value": 0.2951, "value_rock": 0.2951, "value_soil": 1.2279, "units": "%g", "ln_tau": 0.352, "ln_phi": 0.6565, "ln_sigma": 0.7449, "ln_sigma_rock": 0.7469, "ln_sigma_soil": 0.7412, "ln_bias": 0.2941, "ln_bias_sigma": 0.2895}], "mmi_from_pgm": [{"name": "pga", "value": 1.97, "sigma": 0.66, "flag": "0"}, {"name": "pgv", "value": 1.97, "sigma": 0.63, "flag": "0"}, {"name": "sa(3.0)", "value": 2.36, "sigma": 0.89, "flag": "0"}, {"name": "sa(0.3)", "value": 2.24, "sigma": 0.82, "flag": "0"}, {"name": "sa(1.0)", "value": 1.79, "sigma": 0.75, "flag": "0"}], "distance_stddev": 5.487, "distances": {"repi": 320.301, "rhypo": 320.457, "rjb": 312.334, "rjb_var": 30.708, "rrup": 312.655, "rrup_var": 30.104, "rx": 0.0, "ry0": 0.0, "rvolc": 0.0}}, "geometry": {"type": "Point", "coordinates": [-76.012167, 5.864333]}}, {"type": "Feature", "id": "CM.CCALA", "properties": {"code": "CCALA", "name": "Calarca, Quindio, Colombia", "refid": null, "instrumentType": "UNK", "source": "SeisComP3,SGC", "network": "CM", "commType": "UNK", "location": "", "intensity": 2.7, "intensity_flag": "", "intensity_stddev": 0.63, "pga": 0.4663, "pgv": 0.2602, "distance": 227.344, "elev": null, "vs30": 760.0, "channels": [{"name": "HNE", "amplitudes": [{"name": "sa(0.3)", "value": 0.8399, "units": "%g", "flag": "0", "ln_sigma": 0.0}, {"name": "sa(1.0)", "value": 0.2046, "units": "%g", "flag": "0", "ln_sigma": 0.0}, {"name": "sa(3.0)", "value": 0.0372, "units": "%g", "flag": "0", "ln_sigma": 0.0}, {"name": "pga", "value": 0.2767, "units": "%g", "flag": "0", "ln_sigma": 0.0}, {"name": "pgv", "value": 0.1654, "units": "cm/s", "flag": "0", "ln_sigma": 0.0}]}, {"name": "HNN", "amplitudes": [{"name": "sa(0.3)", "value": 0.7901, "units": "%g", "flag": "0", "ln_sigma": 0.0}, {"name": "sa(1.0)", "value": 0.242, "units": "%g", "flag": "0", "ln_sigma": 0.0}, {"name": "sa(3.0)", "value": 0.04, "units": "%g", "flag": "0", "ln_sigma": 0.0}, {"name": "pga", "value": 0.4663, "units": "%g", "flag": "0", "ln_sigma": 0.0}, {"name": "pgv", "value": 0.2602, "units": "cm/s", "flag": "0", "ln_sigma": 0.0}]}, {"name": "HNZ", "amplitudes": [{"name": "sa(0.3)", "value": 0.3661, "units": "%g", "flag": "0", "ln_sigma": 0.0}, {"name": "sa(1.0)", "value": 0.1523, "units": "%g", "flag": "0", "ln_sigma": 0.0}, {"name": "sa(3.0)", "value": 0.0368, "units": "%g", "flag": "0", "ln_sigma": 0.0}, {"name": "pga", "value": 0.163, "units": "%g", "flag": "0", "ln_sigma": 0.0}, {"name": "pgv", "value": 0.1406, "units": "cm/s", "flag": "0", "ln_sigma": 0.0}]}], "station_type": "seismic", "nresp": "null", "predictions": [{"name": "pga", "value": 0.3487, "value_rock": 0.3487, "value_soil": 0.6752, "units": "%g", "ln_tau": 0.3378, "ln_phi": 0.5413, "ln_sigma": 0.6381, "ln_sigma_rock": 0.6394, "ln_sigma_soil": 0.6224, "ln_bias": 0.0945, "ln_bias_sigma": 0.1174}, {"name": "mmi", "value": 3.0307, "value_rock": 3.0307, "value_soil": 3.4756, "units": "intensity", "tau": 0.2274, "phi": 0.7539, "sigma": 0.7875, "sigma_rock": 0.788, "sigma_soil": 0.7817, "bias": 0.0732, "bias_sigma": 0.1424}, {"name": "pgv", "value": 0.4959, "value_rock": 0.4959, "value_soil": 1.3971, "units": "cm/s", "ln_tau": 0.3256, "ln_phi": 0.5409, "ln_sigma": 0.6314, "ln_sigma_rock": 0.6325, "ln_sigma_soil": 0.6136, "ln_bias": -0.0096, "ln_bias_sigma": 0.1158}, {"name": "sa(3.0)", "value": 0.1202, "value_rock": 0.1202, "value_soil": 0.4961, "units": "%g", "ln_tau": 0.38, "ln_phi": 0.6382, "ln_sigma": 0.7428, "ln_sigma_rock": 0.7455, "ln_sigma_soil": 0.7454, "ln_bias": 0.0392, "ln_bias_sigma": 0.1337}, {"name": "sa(0.3)", "value": 0.7688, "value_rock": 0.7688, "value_soil": 2.44, "units": "%g", "ln_tau": 0.3159, "ln_phi": 0.6175, "ln_sigma": 0.6936, "ln_sigma_rock": 0.6969, "ln_sigma_soil": 0.6816, "ln_bias": 0.047, "ln_bias_sigma": 0.1273}, {"name": "sa(1.0)", "value": 0.4732, "value_rock": 0.4732, "value_soil": 1.9601, "units": "%g", "ln_tau": 0.352, "ln_phi": 0.6519, "ln_sigma": 0.7409, "ln_sigma_rock": 0.7426, "ln_sigma_soil": 0.7359, "ln_bias": 0.2941, "ln_bias_sigma": 0.2895}], "mmi_from_pgm": [{"name": "pga", "value": 3.23, "sigma": 0.66, "flag": "0"}, {"name": "pgv", "value": 2.69, "sigma": 0.63, "flag": "0"}, {"name": "sa(3.0)", "value": 2.58, "sigma": 0.89, "flag": "0"}, {"name": "sa(0.3)", "value": 3.17, "sigma": 0.82, "flag": "0"}, {"name": "sa(1.0)", "value": 2.36, "sigma": 0.75, "flag": "0"}], "distance_stddev": 5.462, "distances": {"repi": 234.852, "rhypo": 235.065, "rjb": 226.906, "rjb_var": 30.6, "rrup": 227.344, "rrup_var": 29.834, "rx": 0.0, "ry0": 0.0, "rvolc": 0.0}}, "geometry": {"type": "Point", "coordinates": [-75.62762, 4.50898]}}, {"type": "Feature", "id": "CM.CLEJA", "properties": {"code": "CLEJA", "name": "Lejanias, Meta, Colombia", "refid": null, "instrumentType": "UNK", "source": "SeisComP3,SGC", "network": "CM", "commType": "UNK", "location": "", "intensity": 4.0, "intensity_flag": "", "intensity_stddev": 0.63, "pga": 3.9999, "pgv": 1.9812, "distance": 107.32, "elev": null, "vs30": 630.68, "channels": [{"name": "HNE", "amplitudes": [{"name": "sa(0.3)", "value": 6.5372, "units": "%g", "flag": "0", "ln_sigma": 0.0}, {"name": "sa(1.0)", "value": 1.5835, "units": "%g", "flag": "0", "ln_sigma": 0.0}, {"name": "sa(3.0)", "value": 0.2796, "units": "%g", "flag": "0", "ln_sigma": 0.0}, {"name": "pga", "value": 2.4183, "units": "%g", "flag": "0", "ln_sigma": 0.0}, {"name": "pgv", "value": 1.4049, "units": "cm/s", "flag": "0", "ln_sigma": 0.0}]}, {"name": "HNN", "amplitudes": [{"name": "sa(0.3)", "value": 7.5608, "units": "%g", "flag": "0", "ln_sigma": 0.0}, {"name": "sa(1.0)", "value": 2.206, "units": "%g", "flag": "0", "ln_sigma": 0.0}, {"name": "sa(3.0)", "value": 0.2659, "units": "%g", "flag": "0", "ln_sigma": 0.0}, {"name": "pga", "value": 3.9999, "units": "%g", "flag": "0", "ln_sigma": 0.0}, {"name": "pgv", "value": 1.9812, "units": "cm/s", "flag": "0", "ln_sigma": 0.0}]}, {"name": "HNZ", "amplitudes": [{"name": "sa(0.3)", "value": 3.3853, "units": "%g", "flag": "0", "ln_sigma": 0.0}, {"name": "sa(1.0)", "value": 1.1117, "units": "%g", "flag": "0", "ln_sigma": 0.0}, {"name": "sa(3.0)", "value": 0.1286, "units": "%g", "flag": "0", "ln_sigma": 0.0}, {"name": "pga", "value": 1.6382, "units": "%g", "flag": "0", "ln_sigma": 0.0}, {"name": "pgv", "value": 0.9435, "units": "cm/s", "flag": "0", "ln_sigma": 0.0}]}], "station_type": "seismic", "nresp": "null", "predictions": [{"name": "pga", "value": 1.7528, "value_rock": 1.6109, "value_soil": 2.9981, "units": "%g", "ln_tau": 0.3373, "ln_phi": 0.5251, "ln_sigma": 0.6241, "ln_sigma_rock": 0.6259, "ln_sigma_soil": 0.5994, "ln_bias": 0.0944, "ln_bias_sigma": 0.1172}, {"name": "mmi", "value": 3.7852, "value_rock": 3.7283, "value_soil": 4.1465, "units": "intensity", "tau": 0.2271, "phi": 0.7487, "sigma": 0.7824, "sigma_rock": 0.783, "sigma_soil": 0.7736, "bias": 0.0731, "bias_sigma": 0.1422}, {"name": "pgv", "value": 1.5322, "value_rock": 1.3384, "value_soil": 3.6835, "units": "cm/s", "ln_tau": 0.3256, "ln_phi": 0.5277, "ln_sigma": 0.6201, "ln_sigma_rock": 0.6211, "ln_sigma_soil": 0.599, "ln_bias": -0.0096, "ln_bias_sigma": 0.1157}, {"name": "sa(3.0)", "value": 0.3189, "value_rock": 0.2641, "value_soil": 1.0895, "units": "%g", "ln_tau": 0.3799, "ln_phi": 0.6188, "ln_sigma": 0.7262, "ln_sigma_rock": 0.7282, "ln_sigma_soil": 0.728, "ln_bias": 0.0392, "ln_bias_sigma": 0.1337}, {"name": "sa(0.3)", "value": 3.7441, "value_rock": 3.2168, "value_soil": 9.6982, "units": "%g", "ln_tau": 0.3157, "ln_phi": 0.594, "ln_sigma": 0.6727, "ln_sigma_rock": 0.6748, "ln_sigma_soil": 0.6465, "ln_bias": 0.0469, "ln_bias_sigma": 0.1272}, {"name": "sa(1.0)", "value": 1.4613, "value_rock": 1.2112, "value_soil": 4.8978, "units": "%g", "ln_tau": 0.352, "ln_phi": 0.6351, "ln_sigma": 0.7261, "ln_sigma_rock": 0.7272, "ln_sigma_soil": 0.7164, "ln_bias": 0.294, "ln_bias_sigma": 0.2894}], "mmi_from_pgm": [{"name": "pga", "value": 4.39, "sigma": 0.66, "flag": "0"}, {"name": "pgv", "value": 3.98, "sigma": 0.63, "flag": "0"}, {"name": "sa(3.0)", "value": 3.75, "sigma": 0.89, "flag": "0"}, {"name": "sa(0.3)", "value": 4.59, "sigma": 0.82, "flag": "0"}, {"name": "sa(1.0)", "value": 3.96, "sigma": 0.75, "flag": "0"}], "distance_stddev": 5.394, "distances": {"repi": 114.31, "rhypo": 114.746, "rjb": 106.455, "rjb_var": 30.163, "rrup": 107.32, "rrup_var": 29.096, "rx": 0.0, "ry0": 0.0, "rvolc": 0.0}}, "geometry": {"type": "Point", "coordinates": [-74.041429, 3.536269]}}, {"type": "Feature", "id": "CM.CPRAD", "properties": {"code": "CPRAD", "name": "Embalse Prado, Tolima, Colombia", "refid": null, "instrumentType": "UNK", "source": "SeisComP3,SGC", "network": "CM", "commType": "UNK", "location": "", "intensity": 3.4, "intensity_flag": "", "intensity_stddev": 0.63, "pga": 0.4701, "pgv": 0.8468, "distance": 162.499, "elev": null, "vs30": 588.6, "channels": [{"name": "HNE", "amplitudes": [{"name": "sa(0.3)", "value": 1.0881, "units": "%g", "flag": "0", "ln_sigma": 0.0}, {"name": "sa(1.0)", "value": 0.5695, "units": "%g", "flag": "0", "ln_sigma": 0.0}, {"name": "sa(3.0)", "value": 0.2389, "units": "%g", "flag": "0", "ln_sigma": 0.0}, {"name": "pga", "value": 0.4701, "units": "%g", "flag": "0", "ln_sigma": 0.0}, {"name": "pgv", "value": 0.782, "units": "cm/s", "flag": "0", "ln_sigma": 0.0}]}, {"name": "HNN", "amplitudes": [{"name": "sa(0.3)", "value": 1.7989, "units": "%g", "flag": "0", "ln_sigma": 0.0}, {"nam