{"type": "FeatureCollection", "features": [{"type": "Feature", "id": "DYFI.UTM:(38S 045 444 10000)", "properties": {"code": "UTM:(38S 045 444 10000)", "name": null, "instrumentType": "OBSERVED", "source": "DYFI", "network": "DYFI", "commType": "UNK", "location": "", "intensity": 3.2, "intensity_flag": "0", "intensity_stddev": 0.3, "pga": "null", "pgv": "null", "distance": 277.946, "elev": null, "vs30": 316.87, "channels": [], "nresp": 7, "station_type": "macroseismic", "predictions": [{"name": "mmi", "value": 3.3737, "value_rock": 2.9639, "value_soil": 3.6351, "units": "intensity", "tau": 0.2017, "phi": 0.7157, "sigma": 0.7436, "sigma_rock": 0.7441, "sigma_soil": 0.7379, "bias": -0.0701, "bias_sigma": 0.1952}, {"name": "pga", "value": 0.3201, "value_rock": 0.2119, "value_soil": 0.4182, "units": "%g", "ln_tau": 0.3262, "ln_phi": 0.5342, "ln_sigma": 0.626, "ln_sigma_rock": 0.6278, "ln_sigma_soil": 0.6115, "ln_bias": 0.0, "ln_bias_sigma": 0.3262}, {"name": "sa(0.3)", "value": 0.9928, "value_rock": 0.482, "value_soil": 1.5684, "units": "%g", "ln_tau": 0.3041, "ln_phi": 0.6094, "ln_sigma": 0.6811, "ln_sigma_rock": 0.6853, "ln_sigma_soil": 0.6713, "ln_bias": 0.0, "ln_bias_sigma": 0.3041}, {"name": "sa(1.0)", "value": 0.9481, "value_rock": 0.3899, "value_soil": 1.6609, "units": "%g", "ln_tau": 0.3385, "ln_phi": 0.6441, "ln_sigma": 0.7276, "ln_sigma_rock": 0.7294, "ln_sigma_soil": 0.7231, "ln_bias": 0.0, "ln_bias_sigma": 0.3385}, {"name": "sa(3.0)", "value": 0.2859, "value_rock": 0.1173, "value_soil": 0.5005, "units": "%g", "ln_tau": 0.3682, "ln_phi": 0.6279, "ln_sigma": 0.7279, "ln_sigma_rock": 0.7293, "ln_sigma_soil": 0.7292, "ln_bias": 0.0, "ln_bias_sigma": 0.3682}, {"name": "pgv", "value": 0.7853, "value_rock": 0.4133, "value_soil": 1.1826, "units": "cm/s", "ln_tau": 0.3159, "ln_phi": 0.532, "ln_sigma": 0.6188, "ln_sigma_rock": 0.6203, "ln_sigma_soil": 0.6017, "ln_bias": 0.0, "ln_bias_sigma": 0.3159}], "pgm_from_mmi": [{"name": "sa(1.0)", "value": null, "units": "%g", "ln_sigma": null, "flag": "0"}, {"name": "sa(3.0)", "value": null, "units": "%g", "ln_sigma": null, "flag": "0"}, {"name": "sa(0.3)", "value": null, "units": "%g", "ln_sigma": null, "flag": "0"}, {"name": "pgv", "value": null, "units": "cm/s", "ln_sigma": null, "flag": "0"}, {"name": "pga", "value": null, "units": "%g", "ln_sigma": null, "flag": "0"}], "distance_stddev": 8.154, "distances": {"repi": 286.851, "rhypo": 287.062, "rjb": 277.995, "rjb_var": 56.206, "rrup": 277.946, "rrup_var": 66.481, "rx": 0.0, "ry0": 0.0}}, "geometry": {"type": "Point", "coordinates": [44.4716, 40.1541]}}, {"type": "Feature", "id": "DYFI.UTM:(38S 048 461 10000)", "properties": {"code": "UTM:(38S 048 461 10000)", "name": null, "instrumentType": "OBSERVED", "source": "DYFI", "network": "DYFI", "commType": "UNK", "location": "", "intensity": 2.0, "intensity_flag": "0", "intensity_stddev": 0.3, "pga": "null", "pgv": "null", "distance": 401.253, "elev": null, "vs30": 760.0, "channels": [], "nresp": 8, "station_type": "macroseismic", "predictions": [{"name": "mmi", "value": 2.5668, "value_rock": 2.5668, "value_soil": 3.2406, "units": "intensity", "tau": 0.2019, "phi": 0.7157, "sigma": 0.7436, "sigma_rock": 0.744, "sigma_soil": 0.738, "bias": -0.0702, "bias_sigma": 0.1954}, {"name": "pga", "value": 0.0629, "value_rock": 0.0629, "value_soil": 0.1248, "units": "%g", "ln_tau": 0.3268, "ln_phi": 0.5336, "ln_sigma": 0.6257, "ln_sigma_rock": 0.6269, "ln_sigma_soil": 0.6119, "ln_bias": 0.0, "ln_bias_sigma": 0.3268}, {"name": "sa(0.3)", "value": 0.159, "value_rock": 0.159, "value_soil": 0.5209, "units": "%g", "ln_tau": 0.3047, "ln_phi": 0.6091, "ln_sigma": 0.6811, "ln_sigma_rock": 0.6845, "ln_sigma_soil": 0.6722, "ln_bias": 0.0, "ln_bias_sigma": 0.3047}, {"name": "sa(1.0)", "value": 0.2163, "value_rock": 0.2163, "value_soil": 0.9253, "units": "%g", "ln_tau": 0.3387, "ln_phi": 0.644, "ln_sigma": 0.7276, "ln_sigma_rock": 0.729, "ln_sigma_soil": 0.7236, "ln_bias": 0.0, "ln_bias_sigma": 0.3387}, {"name": "sa(3.0)", "value": 0.0766, "value_rock": 0.0766, "value_soil": 0.3268, "units": "%g", "ln_tau": 0.3683, "ln_phi": 0.6276, "ln_sigma": 0.7277, "ln_sigma_rock": 0.729, "ln_sigma_soil": 0.729, "ln_bias": 0.0, "ln_bias_sigma": 0.3683}, {"name": "pgv", "value": 0.2219, "value_rock": 0.2219, "value_soil": 0.6375, "units": "cm/s", "ln_tau": 0.3163, "ln_phi": 0.5318, "ln_sigma": 0.6188, "ln_sigma_rock": 0.6198, "ln_sigma_soil": 0.6021, "ln_bias": 0.0, "ln_bias_sigma": 0.3163}], "pgm_from_mmi": [{"name": "sa(1.0)", "value": null, "units": "%g", "ln_sigma": null, "flag": "0"}, {"name": "sa(3.0)", "value": null, "units": "%g", "ln_sigma": null, "flag": "0"}, {"name": "sa(0.3)", "value": null, "units": "%g", "ln_sigma": null, "flag": "0"}, {"name": "pgv", "value": null, "units": "cm/s", "ln_sigma": null, "flag": "0"}, {"name": "pga", "value": null, "units": "%g", "ln_sigma": null, "flag": "0"}], "distance_stddev": 8.009, "distances": {"repi": 410.558, "rhypo": 410.705, "rjb": 401.649, "rjb_var": 56.459, "rrup": 401.253, "rrup_var": 64.139, "rx": 0.0, "ry0": 0.0}}, "geometry": {"type": "Point", "coordinates": [44.8198, 41.6866]}}, {"type": "Feature", "id": "DYFI.UTM:(38S 056 425 10000)", "properties": {"code": "UTM:(38S 056 425 10000)", "name": null, "instrumentType": "OBSERVED", "source": "DYFI", "network": "DYFI", "commType": "UNK", "location": "", "intensity": 3.1, "intensity_flag": "0", "intensity_stddev": 0.3, "pga": "null", "pgv": "null", "distance": 88.444, "elev": null, "vs30": 419.88, "channels": [], "nresp": 3, "station_type": "macroseismic", "predictions": [{"name": "mmi", "value": 4.2002, "value_rock": 3.9222, "value_soil": 4.8731, "units": "intensity", "tau": 0.2017, "phi": 0.7127, "sigma": 0.7407, "sigma_rock": 0.7412, "sigma_soil": 1.0231, "bias": -0.0701, "bias_sigma": 0.1951}, {"name": "pga", "value": 2.9302, "value_rock": 2.242, "value_soil": 4.1427, "units": "%g", "ln_tau": 0.3238, "ln_phi": 0.522, "ln_sigma": 0.6143, "ln_sigma_rock": 0.6192, "ln_sigma_soil": 0.5868, "ln_bias": 0.0, "ln_bias_sigma": 0.3238}, {"name": "sa(0.3)", "value": 7.0659, "value_rock": 4.3589, "value_soil": 13.02, "units": "%g", "ln_tau": 0.3025, "ln_phi": 0.586, "ln_sigma": 0.6595, "ln_sigma_rock": 0.6643, "ln_sigma_soil": 0.6287, "ln_bias": 0.0, "ln_bias_sigma": 0.3025}, {"name": "sa(1.0)", "value": 2.9698, "value_rock": 1.6173, "value_soil": 6.6112, "units": "%g", "ln_tau": 0.3384, "ln_phi": 0.6276, "ln_sigma": 0.713, "ln_sigma_rock": 0.7141, "ln_sigma_soil": 0.7009, "ln_bias": 0.0, "ln_bias_sigma": 0.3384}, {"name": "sa(3.0)", "value": 0.7086, "value_rock": 0.3832, "value_soil": 1.6336, "units": "%g", "ln_tau": 0.3682, "ln_phi": 0.6133, "ln_sigma": 0.7153, "ln_sigma_rock": 0.716, "ln_sigma_soil": 0.7158, "ln_bias": 0.0, "ln_bias_sigma": 0.3682}, {"name": "pgv", "value": 2.8661, "value_rock": 1.8542, "value_soil": 5.097, "units": "cm/s", "ln_tau": 0.3159, "ln_phi": 0.5221, "ln_sigma": 0.6102, "ln_sigma_rock": 0.6116, "ln_sigma_soil": 0.5874, "ln_bias": 0.0, "ln_bias_sigma": 0.3159}], "pgm_from_mmi": [{"name": "sa(1.0)", "value": null, "units": "%g", "ln_sigma": null, "flag": "0"}, {"name": "sa(3.0)", "value": null, "units": "%g", "ln_sigma": null, "flag": "0"}, {"name": "sa(0.3)", "value": null, "units": "%g", "ln_sigma": null, "flag": "0"}, {"name": "pgv", "value": null, "units": "cm/s", "ln_sigma": null, "flag": "0"}, {"name": "pga", "value": null, "units": "%g", "ln_sigma": null, "flag": "0"}], "distance_stddev": 9.123, "distances": {"repi": 95.056, "rhypo": 95.69, "rjb": 86.56, "rjb_var": 54.334, "rrup": 88.444, "rrup_var": 83.233, "rx": 0.0, "ry0": 0.0}}, "geometry": {"type": "Point", "coordinates": [45.7448, 38.4409]}}, {"type": "Feature", "id": "DYFI.UTM:(38S 108 396 10000)", "properties": {"code": "UTM:(38S 108 396 10000)", "name": null, "instrumentType": "OBSERVED", "source": "DYFI", "network": "DYFI", "commType": "UNK", "location": "", "intensity": "null", "intensity_flag": "0", "intensity_stddev": "null", "pga": "null", "pgv": "null", "distance": 497.975, "elev": null, "vs30": 760.0, "channels": [], "nresp": "null", "station_type": "macroseismic", "predictions": [{"name": "mmi", "value": 2.2984, "value_rock": 2.2984, "value_soil": 2.9731, "units": "intensity", "tau": 0.2019, "phi": 0.7156, "sigma": 0.7435, "sigma_rock": 0.7439, "sigma_soil": 0.7381, "bias": -0.0702, "bias_sigma": 0.1954}, {"name": "pga", "value": 0.0258, "value_rock": 0.0258, "value_soil": 0.0513, "units": "%g", "ln_tau": 0.3268, "ln_phi": 0.5331, "ln_sigma": 0.6253, "ln_sigma_rock": 0.6265, "ln_sigma_soil": 0.6119, "ln_bias": 0.0, "ln_bias_sigma": 0.3268}, {"name": "sa(0.3)", "value": 0.0709, "value_rock": 0.0709, "value_soil": 0.2326, "units": "%g", "ln_tau": 0.3047, "ln_phi": 0.6087, "ln_sigma": 0.6808, "ln_sigma_rock": 0.6842, "ln_sigma_soil": 0.6723, "ln_bias": 0.0, "ln_bias_sigma": 0.3047}, {"name": "sa(1.0)", "value": 0.1452, "value_rock": 0.1452, "value_soil": 0.6219, "units": "%g", "ln_tau": 0.3387, "ln_phi": 0.6438, "ln_sigma": 0.7275, "ln_sigma_rock": 0.7289, "ln_sigma_soil": 0.7239, "ln_bias": 0.0, "ln_bias_sigma": 0.3387}, {"name": "sa(3.0)", "value": 0.0585, "value_rock": 0.0585, "value_soil": 0.2496, "units": "%g", "ln_tau": 0.3683, "ln_phi": 0.6275, "ln_sigma": 0.7276, "ln_sigma_rock": 0.7289, "ln_sigma_soil": 0.7289, "ln_bias": 0.0, "ln_bias_sigma": 0.3683}, {"name": "pgv", "value": 0.1457, "value_rock": 0.1457, "value_soil": 0.4193, "units": "cm/s", "ln_tau": 0.3163, "ln_phi": 0.5316, "ln_sigma": 0.6186, "ln_sigma_rock": 0.6196, "ln_sigma_soil": 0.6022, "ln_bias": 0.0, "ln_bias_sigma": 0.3163}], "pgm_from_mmi": [{"name": "sa(1.0)", "value": 94.1403, "units": "%g", "ln_sigma": 1.0822, "flag": "Outlier"}, {"name": "sa(3.0)", "value": 19.3223, "units": "%g", "ln_sigma": 1.4737, "flag": "Outlier"}, {"name": "sa(0.3)", "value": 68.823, "units": "%g", "ln_sigma": 1.0131, "flag": "Outlier"}, {"name": "pgv", "value": 49.7549, "units": "cm/s", "ln_sigma": 0.875, "flag": "Outlier"}, {"name": "pga", "value": 28.8432, "units": "%g", "ln_sigma": 0.8059, "flag": "Outlier"}], "distance_stddev": 7.942, "distances": {"repi": 507.468, "rhypo": 507.587, "rjb": 498.536, "rjb_var": 56.576, "rrup": 497.975, "rrup_var": 63.072, "rx": 0.0, "ry0": 0.0}}, "geometry": {"type": "Point", "coordinates": [51.4584, 35.6555]}}], "metadata": {"eventid": "usp000jq5p"}}