{"type": "FeatureCollection", "features": [{"type": "Feature", "id": "GE.KARP", "properties": {"code": "KARP", "name": "NOA/RUB/GEOFON Station Karpathos, Greece", "instrumentType": "UNK", "source": "GE", "network": "GE", "commType": "UNK", "location": "", "intensity": 1.0, "intensity_flag": "", "intensity_stddev": 0.63, "pga": 0.0062, "pgv": 0.0149, "distance": 658.597, "elev": null, "vs30": 760.0, "channels": [{"name": "BHZ", "amplitudes": [{"name": "pga", "value": 0.0031, "units": "%g", "flag": "0", "ln_sigma": 0.0}, {"name": "pgv", "value": 0.0187, "units": "cm/s", "flag": "0", "ln_sigma": 0.0}, {"name": "sa(0.3)", "value": 0.0077, "units": "%g", "flag": "0", "ln_sigma": 0.0}, {"name": "sa(1.0)", "value": 0.0054, "units": "%g", "flag": "0", "ln_sigma": 0.0}, {"name": "sa(3.0)", "value": 0.006, "units": "%g", "flag": "0", "ln_sigma": 0.0}]}, {"name": "BHN", "amplitudes": [{"name": "pga", "value": 0.0049, "units": "%g", "flag": "0", "ln_sigma": 0.0}, {"name": "pgv", "value": 0.0126, "units": "cm/s", "flag": "0", "ln_sigma": 0.0}, {"name": "sa(0.3)", "value": 0.0109, "units": "%g", "flag": "0", "ln_sigma": 0.0}, {"name": "sa(1.0)", "value": 0.008, "units": "%g", "flag": "0", "ln_sigma": 0.0}, {"name": "sa(3.0)", "value": 0.0054, "units": "%g", "flag": "0", "ln_sigma": 0.0}]}, {"name": "BHE", "amplitudes": [{"name": "pga", "value": 0.0062, "units": "%g", "flag": "0", "ln_sigma": 0.0}, {"name": "pgv", "value": 0.0149, "units": "cm/s", "flag": "0", "ln_sigma": 0.0}, {"name": "sa(0.3)", "value": 0.0127, "units": "%g", "flag": "0", "ln_sigma": 0.0}, {"name": "sa(1.0)", "value": 0.0109, "units": "%g", "flag": "0", "ln_sigma": 0.0}, {"name": "sa(3.0)", "value": 0.006, "units": "%g", "flag": "0", "ln_sigma": 0.0}]}], "station_type": "seismic", "nresp": "null", "predictions": [{"name": "sa(1.0)", "value": 0.0662, "value_rock": 0.0662, "value_soil": 0.2652, "units": "%g", "ln_tau": 0.0, "ln_phi": 0.6789, "ln_sigma": 0.6789, "ln_sigma_rock": 0.8129, "ln_sigma_soil": 0.8117, "ln_bias": 0.0, "ln_bias_sigma": 0.4471}, {"name": "pgv", "value": 0.0667, "value_rock": 0.0667, "value_soil": 0.1848, "units": "cm/s", "ln_tau": 0.0, "ln_phi": 0.6125, "ln_sigma": 0.6125, "ln_sigma_rock": 0.7334, "ln_sigma_soil": 0.7298, "ln_bias": 0.0, "ln_bias_sigma": 0.4034}, {"name": "sa(3.0)", "value": 0.0221, "value_rock": 0.0221, "value_soil": 0.0707, "units": "%g", "ln_tau": 0.0, "ln_phi": 0.6715, "ln_sigma": 0.6715, "ln_sigma_rock": 0.8041, "ln_sigma_soil": 0.8035, "ln_bias": 0.0, "ln_bias_sigma": 0.4422}, {"name": "pga", "value": 0.0256, "value_rock": 0.0256, "value_soil": 0.043, "units": "%g", "ln_tau": 0.0, "ln_phi": 0.604, "ln_sigma": 0.604, "ln_sigma_rock": 0.7231, "ln_sigma_soil": 0.7201, "ln_bias": 0.0, "ln_bias_sigma": 0.3977}, {"name": "sa(0.3)", "value": 0.0581, "value_rock": 0.0581, "value_soil": 0.1639, "units": "%g", "ln_tau": 0.0, "ln_phi": 0.6497, "ln_sigma": 0.6497, "ln_sigma_rock": 0.7777, "ln_sigma_soil": 0.7754, "ln_bias": 0.0, "ln_bias_sigma": 0.4278}, {"name": "mmi", "value": 1.042, "value_rock": 1.042, "value_soil": 1.511, "units": "intensity", "tau": 0.0, "phi": 0.7755, "sigma": 0.7755, "sigma_rock": 0.9286, "sigma_soil": 0.9267, "bias": 0.0, "bias_sigma": 0.5107}], "mmi_from_pgm": [{"name": "sa(1.0)", "value": 1.0, "sigma": 0.75, "flag": "0"}, {"name": "pgv", "value": 1.0, "sigma": 0.63, "flag": "0"}, {"name": "sa(3.0)", "value": 1.59, "sigma": 0.89, "flag": "0"}, {"name": "pga", "value": 1.0, "sigma": 0.66, "flag": "0"}, {"name": "sa(0.3)", "value": 1.0, "sigma": 0.82, "flag": "0"}], "distance_stddev": 5.698, "distances": {"repi": 665.787, "rhypo": 665.835, "rjb": 659.238, "rjb_var": 30.208, "rrup": 658.597, "rrup_var": 32.47, "rx": 0.0, "ry0": 0.0, "rvolc": 0.0}}, "geometry": {"type": "Point", "coordinates": [27.1612, 35.5472]}}, {"type": "Feature", "id": "GE.SANT", "properties": {"code": "SANT", "name": "Santorini, Notion Aiyaion, Greece", "instrumentType": "UNK", "source": "GE", "network": "GE", "commType": "UNK", "location": "", "intensity": 1.0, "intensity_flag": "", "intensity_stddev": 0.63, "pga": "null", "pgv": 0.0206, "distance": 480.556, "elev": null, "vs30": 760.0, "channels": [{"name": "BHZ", "amplitudes": [{"name": "pga", "value": 0.0036, "units": "%g", "flag": "Outlier", "ln_sigma": 0.0}, {"name": "pgv", "value": 0.0185, "units": "cm/s", "flag": "0", "ln_sigma": 0.0}, {"name": "sa(0.3)", "value": 0.0087, "units": "%g", "flag": "0", "ln_sigma": 0.0}, {"name": "sa(1.0)", "value": 0.0091, "units": "%g", "flag": "0", "ln_sigma": 0.0}, {"name": "sa(3.0)", "value": 0.0094, "units": "%g", "flag": "0", "ln_sigma": 0.0}]}, {"name": "BHN", "amplitudes": [{"name": "pga", "value": 0.0029, "units": "%g", "flag": "Outlier", "ln_sigma": 0.0}, {"name": "pgv", "value": 0.0105, "units": "cm/s", "flag": "0", "ln_sigma": 0.0}, {"name": "sa(0.3)", "value": 0.0056, "units": "%g", "flag": "0", "ln_sigma": 0.0}, {"name": "sa(1.0)", "value": 0.0075, "units": "%g", "flag": "0", "ln_sigma": 0.0}, {"name": "sa(3.0)", "value": 0.007, "units": "%g", "flag": "0", "ln_sigma": 0.0}]}, {"name": "BHE", "amplitudes": [{"name": "pga", "value": 0.006, "units": "%g", "flag": "Outlier", "ln_sigma": 0.0}, {"name": "pgv", "value": 0.0206, "units": "cm/s", "flag": "0", "ln_sigma": 0.0}, {"name": "sa(0.3)", "value": 0.0164, "units": "%g", "flag": "0", "ln_sigma": 0.0}, {"name": "sa(1.0)", "value": 0.0131, "units": "%g", "flag": "0", "ln_sigma": 0.0}, {"name": "sa(3.0)", "value": 0.011, "units": "%g", "flag": "0", "ln_sigma": 0.0}]}], "station_type": "seismic", "nresp": "null", "predictions": [{"name": "sa(1.0)", "value": 0.1063, "value_rock": 0.1063, "value_soil": 0.4249, "units": "%g", "ln_tau": 0.0, "ln_phi": 0.679, "ln_sigma": 0.679, "ln_sigma_rock": 0.813, "ln_sigma_soil": 0.8117, "ln_bias": 0.0, "ln_bias_sigma": 0.4472}, {"name": "pgv", "value": 0.1076, "value_rock": 0.1076, "value_soil": 0.2976, "units": "cm/s", "ln_tau": 0.0, "ln_phi": 0.6126, "ln_sigma": 0.6126, "ln_sigma_rock": 0.7335, "ln_sigma_soil": 0.7298, "ln_bias": 0.0, "ln_bias_sigma": 0.4034}, {"name": "sa(3.0)", "value": 0.0325, "value_rock": 0.0325, "value_soil": 0.1039, "units": "%g", "ln_tau": 0.0, "ln_phi": 0.6715, "ln_sigma": 0.6715, "ln_sigma_rock": 0.8041, "ln_sigma_soil": 0.8036, "ln_bias": 0.0, "ln_bias_sigma": 0.4422}, {"name": "pga", "value": 0.0607, "value_rock": 0.0607, "value_soil": 0.1019, "units": "%g", "ln_tau": 0.0, "ln_phi": 0.6041, "ln_sigma": 0.6041, "ln_sigma_rock": 0.7232, "ln_sigma_soil": 0.7202, "ln_bias": 0.0, "ln_bias_sigma": 0.3978}, {"name": "sa(0.3)", "value": 0.1287, "value_rock": 0.1287, "value_soil": 0.3622, "units": "%g", "ln_tau": 0.0, "ln_phi": 0.6498, "ln_sigma": 0.6498, "ln_sigma_rock": 0.7778, "ln_sigma_soil": 0.7755, "ln_bias": 0.0, "ln_bias_sigma": 0.4279}, {"name": "mmi", "value": 1.822, "value_rock": 1.822, "value_soil": 2.2898, "units": "intensity", "tau": 0.0, "phi": 0.7756, "sigma": 0.7756, "sigma_rock": 0.9287, "sigma_soil": 0.9268, "bias": 0.0, "bias_sigma": 0.5108}], "mmi_from_pgm": [{"name": "sa(1.0)", "value": 1.0, "sigma": 0.75, "flag": "0"}, {"name": "pgv", "value": 1.0, "sigma": 0.63, "flag": "0"}, {"name": "sa(3.0)", "value": 1.9, "sigma": 0.89, "flag": "0"}, {"name": "pga", "value": 1.0, "sigma": 0.66, "flag": "Outlier"}, {"name": "sa(0.3)", "value": 1.0, "sigma": 0.82, "flag": "0"}], "distance_stddev": 5.74, "distances": {"repi": 487.625, "rhypo": 487.69, "rjb": 481.09, "rjb_var": 30.155, "rrup": 480.556, "rrup_var": 32.952, "rx": 0.0, "ry0": 0.0, "rvolc": 0.0}}, "geometry": {"type": "Point", "coordinates": [25.459, 36.371]}}, {"type": "Feature", "id": "HL.ITM", "properties": {"code": "ITM", "name": "Stasrv: unknown station", "instrumentType": "UNK", "source": "HL", "network": "HL", "commType": "UNK", "location": "", "intensity": 2.4, "intensity_flag": "", "intensity_stddev": 0.63, "pga": 0.1308, "pgv": 0.1601, "distance": 166.587, "elev": null, "vs30": 844.35, "channels": [{"name": "HHE", "amplitudes": [{"name": "pga", "value": 0.1308, "units": "%g", "flag": "0", "ln_sigma": 0.0}, {"name": "pgv", "value": 0.1396, "units": "cm/s", "flag": "0", "ln_sigma": 0.0}, {"name": "sa(0.3)", "value": 0.3909, "units": "%g", "flag": "0", "ln_sigma": 0.0}, {"name": "sa(1.0)", "value": 0.132, "units": "%g", "flag": "0", "ln_sigma": 0.0}, {"name": "sa(3.0)", "value": 0.054, "units": "%g", "flag": "0", "ln_sigma": 0.0}]}, {"name": "HHZ", "amplitudes": [{"name": "pga", "value": 0.0814, "units": "%g", "flag": "0", "ln_sigma": 0.0}, {"name": "pgv", "value": 0.1492, "units": "cm/s", "flag": "0", "ln_sigma": 0.0}, {"name": "sa(0.3)", "value": 0.2246, "units": "%g", "flag": "0", "ln_sigma": 0.0}, {"name": "sa(1.0)", "value": 0.137, "units": "%g", "flag": "0", "ln_sigma": 0.0}, {"name": "sa(3.0)", "value": 0.0637, "units": "%g", "flag": "0", "ln_sigma": 0.0}]}, {"name": "HHN", "amplitudes": [{"name": "pga", "value": 0.1125, "units": "%g", "flag": "0", "ln_sigma": 0.0}, {"name": "pgv", "value": 0.1601, "units": "cm/s", "flag": "0", "ln_sigma": 0.0}, {"name": "sa(0.3)", "value": 0.3221, "units": "%g", "flag": "0", "ln_sigma": 0.0}, {"name": "sa(1.0)", "value": 0.1663, "units": "%g", "flag": "0", "ln_sigma": 0.0}, {"name": "sa(3.0)", "value": 0.0671, "units": "%g", "flag": "0", "ln_sigma": 0.0}]}], "station_type": "seismic", "nresp": "null", "predictions": [{"name": "sa(1.0)", "value": 0.3775, "value_rock": 0.415, "value_soil": 1.6364, "units": "%g", "ln_tau": 0.0, "ln_phi": 0.6776, "ln_sigma": 0.6776, "ln_sigma_rock": 0.8113, "ln_sigma_soil": 0.8096, "ln_bias": 0.0, "ln_bias_sigma": 0.4463}, {"name": "pgv", "value": 0.4164, "value_rock": 0.4455, "value_soil": 1.2198, "units": "cm/s", "ln_tau": 0.0, "ln_phi": 0.612, "ln_sigma": 0.612, "ln_sigma_rock": 0.7328, "ln_sigma_soil": 0.7288, "ln_bias": 0.0, "ln_bias_sigma": 0.403}, {"name": "sa(3.0)", "value": 0.1012, "value_rock": 0.1092, "value_soil": 0.3471, "units": "%g", "ln_tau": 0.0, "ln_phi": 0.6709, "ln_sigma": 0.6709, "ln_sigma_rock": 0.8035, "ln_sigma_soil": 0.8029, "ln_bias": 0.0, "ln_bias_sigma": 0.4418}, {"name": "pga", "value": 0.5144, "value_rock": 0.5344, "value_soil": 0.8846, "units": "%g", "ln_tau": 0.0, "ln_phi": 0.6037, "ln_sigma": 0.6037, "ln_sigma_rock": 0.7228, "ln_sigma_soil": 0.7191, "ln_bias": 0.0, "ln_bias_sigma": 0.3976}, {"name": "sa(0.3)", "value": 0.8829, "value_rock": 0.9492, "value_soil": 2.6162, "units": "%g", "ln_tau": 0.0, "ln_phi": 0.6483, "ln_sigma": 0.6483, "ln_sigma_rock": 0.776, "ln_sigma_soil": 0.7727, "ln_bias": 0.0, "ln_bias_sigma": 0.4269}, {"name": "mmi", "value": 3.1887, "value_rock": 3.2144, "value_soil": 3.5536, "units": "intensity", "tau": 0.0, "phi": 0.6848, "sigma": 0.6848, "sigma_rock": 0.8199, "sigma_soil": 0.8185, "bias": 0.0, "bias_sigma": 0.451}], "mmi_from_pgm": [{"name": "sa(1.0)", "value": 2.23, "sigma": 0.75, "flag": "0"}, {"name": "pgv", "value": 2.41, "sigma": 0.63, "flag": "0"}, {"name": "sa(3.0)", "value": 2.96, "sigma": 0.89, "flag": "0"}, {"name": "pga", "value": 2.25, "sigma": 0.66, "flag": "0"}, {"name": "sa(0.3)", "value": 2.53, "sigma": 0.82, "flag": "0"}], "distance_stddev": 6.022, "distances": {"repi": 172.886, "rhypo": 173.071, "rjb": 166.451, "rjb_var": 29.805, "rrup": 166.587, "rrup_var": 36.268, "rx": 0.0, "ry0": 0.0, "rvolc": 0.0}}, "geometry": {"type": "Point", "coordinates": [21.9252, 37.1786]}}, {"type": "Feature", "id": "HT.AGG", "properties": {"code": "AGG", "name": "Station Agios Georgios, Greece", "instrumentType": "UNK", "source": "HT", "network": "HT", "commType": "UNK", "location": "", "intensity": 2.8, "intensity_flag": "", "intensity_stddev": 0.63, "pga": 0.141, "pgv": 0.2905, "distance": 180.538, "elev": null, "vs30": 760.0, "channels": [{"name": "HHE", "amplitudes": [{"name": "pga", "value": 0.1405, "units": "%g", "flag": "0", "ln_sigma": 0.0}, {"name": "pgv", "value": 0.2515, "units": "cm/s", "flag": "0", "ln_sigma": 0.0}, {"name": "sa(0.3)", "value": 0.5387, "units": "%g", "flag": "0", "ln_sigma": 0.0}, {"name": "sa(1.0)", "value": 0.279, "units": "%g", "flag": "0", "ln_sigma": 0.0}, {"name": "sa(3.0)", "value": 0.1164, "units": "%g", "flag": "0", "ln_sigma": 0.0}]}, {"name": "HHZ", "amplitudes": [{"name": "pga", "value": 0.0914, "units": "%g", "flag": "0", "ln_sigma": 0.0}, {"name": "pgv", "value": 0.2331, "units": "cm/s", "flag": "0", "ln_sigma": 0.0}, {"name": "sa(0.3)", "value": 0.1686, "units": "%g", "flag": "0", "ln_sigma": 0.0}, {"name": "sa(1.0)", "value": 0.1903, "units": "%g", "flag": "0", "ln_sigma": 0.0}, {"name": "sa(3.0)", "value": 0.2518, "units": "%g", "flag": "0", "ln_sigma": 0.0}]}, {"name": "HHN", "amplitudes": [{"name": "pga", "value": 0.141, "units": "%g", "flag": "0", "ln_sigma": 0.0}, {"name": "pgv", "value": 0.2905, "units": "cm/s", "flag": "0", "ln_sigma": 0.0}, {"name": "sa(0.3)", "value": 0.4379, "units": "%g", "flag": "0", "ln_sigma": 0.0}, {"name": "sa(1.0)", "value": 0.4392, "units": "%g", "flag": "0", "ln_sigma": 0.0}, {"name": "sa(3.0)", "value": 0.1135, "units": "%g", "flag": "0", "ln_sigma": 0.0}]}], "station_type": "seismic", "nresp": "null", "predictions": [{"name": "sa(1.0)", "value": 0.377, "value_rock": 0.377, "value_soil": 1.4891, "units": "%g", "ln_tau": 0.0, "ln_phi": 0.6779, "ln_sigma": 0.6779, "ln_sigma_rock": 0.8116, "ln_sigma_soil": 0.8099, "ln_bias": 0.0, "ln_bias_sigma": 0.4464}, {"name": "pgv", "value": 0.4023, "value_rock": 0.4023, "value_soil": 1.1031, "units": "cm/s", "ln_tau": 0.0, "ln_phi": 0.6121, "ln_sigma": 0.6121, "ln_sigma_rock": 0.7329, "ln_sigma_soil": 0.7289, "ln_bias": 0.0, "ln_bias_sigma": 0.4031}, {"name": "sa(3.0)", "value": 0.0999, "value_rock": 0.0999, "value_soil": 0.3176, "units": "%g", "ln_tau": 0.0, "ln_phi": 0.6715, "ln_sigma": 0.6715, "ln_sigma_rock": 0.8041, "ln_sigma_soil": 0.8035, "ln_bias": 0.0, "ln_bias_sigma": 0.4422}, {"name": "pga", "value": 0.4648, "value_rock": 0.4648, "value_soil": 0.7709, "units": "%g", "ln_tau": 0.0, "ln_phi": 0.6038, "ln_sigma": 0.6038, "ln_sigma_rock": 0.7229, "ln_sigma_soil": 0.7193, "ln_bias": 0.0, "ln_bias_sigma": 0.3976}, {"name": "sa(0.3)", "value": 0.8347, "value_rock": 0.8347, "value_soil": 2.3075, "units": "%g", "ln_tau": 0.0, "ln_phi": 0.6485, "ln_sigma": 0.6485, "ln_sigma_rock": 0.7763, "ln_sigma_soil": 0.7732, "ln_bias": 0.0, "ln_bias_sigma": 0.4271}, {"name": "mmi", "value": 3.1561, "value_rock": 3.1561, "value_soil": 3.4966, "units": "intensity", "tau": 0.0, "phi": 0.6848, "sigma": 0.6848, "sigma_rock": 0.82, "sigma_soil": 0.8186, "bias": 0.0, "bias_sigma": 0.451}], "mmi_from_pgm": [{"name": "sa(1.0)", "value": 2.85, "sigma": 0.75, "flag": "0"}, {"name": "pgv", "value": 2.79, "sigma": 0.63, "flag": "0"}, {"name": "sa(3.0)", "value": 3.22, "sigma": 0.89, "flag": "0"}, {"name": "pga", "value": 2.35, "sigma": 0.66, "flag": "0"}, {"name": "sa(0.3)", "value": 2.79, "sigma": 0.82, "flag": "0"}], "distance_stddev": 5.99, "distances": {"repi": 186.92, "rhypo": 187.092, "rjb": 180.474, "rjb_var": 29.843, "rrup": 180.538, "rrup_var": 35.878, "rx": 0.0, "ry0": 0.0, "rvolc": 0.0}}, "geometry": {"type": "Point", "coordinates": [22.336, 39.0211]}}, {"type": "Feature", "id": "HT.ALN", "properties": {"code": "ALN", "name": "Station Alexandroupolis, Greece", "instrumentType": "UNK", "source": "HT", "network": "HT", "commType": "UNK", "location": "", "intensity": "null", "intensity_flag": "", "intensity_stddev": "null", "pga": "null", "pgv": "null", "distance": 557.993, "elev": null, "vs30": 760.0, "channels": [{"name": "HHE", "amplitudes": [{"name": "pga", "value": 0.0012, "units": "%g", "flag": "Outlier", "ln_sigma": 0.0}, {"name": "pgv", "value": 0.0047, "units": "cm/s", "flag": "Outlier,0,Outlier", "ln_sigma": 0.0}, {"name": "sa(0.3)", "value": 0.0014, "units": "%g", "flag": "Outlier,0,Outlier", "ln_sigma": 0.0}, {"name": "sa(1.0)", "value": 0.0028, "units": "%g", "flag": "Outlier,0,Outlier", "ln_sigma": 0.0}, {"name": "sa(3.0)", "value": 0.0022, "units": "%g", "flag": "Outlier", "ln_sigma": 0.0}]}, {"name": "HHZ", "amplitudes": [{"name": "pga", "value": 0.0012, "units": "%g", "flag": "Outlier", "ln_sigma": 0.0}, {"name": "pgv", "value": 0.0043, "units": "cm/s", "flag": "Outlier,0,Outlier", "ln_sigma": 0.0}, {"name": "sa(0.3)", "value": 0.0018, "units": "%g", "flag": "Outlier,0,Outlier", "ln_sigma": 0.0}, {"name": "sa(1.0)", "value": 0.0025, "units": "%g", "flag": "Outlier,0,Outlier", "ln_sigma": 0.0}, {"name": "sa(3.0)", "value": 0.0036, "units": "%g", "flag": "Outlier", "ln_sigma": 0.0}]}, {"name": "HHN", "amplitudes": [{"name": "pga", "value": 0.0009, "units": "%g", "flag": "Outlier", "ln_sigma": 0.0}, {"name": "pgv", "value": 0.005, "units": "cm/s", "flag": "Outlier,0,Outlier", "ln_sigma": 0.0}, {"name": "sa(0.3)", "value": 0.0015, "units": "%g", "flag": "Outlier,0,Outlier", "ln_sigma": 0.0}, {"name": "sa(1.0)", "value": 0.0025, "units": "%g", "flag": "Outlier,0,Outlier", "ln_sigma": 0.0}, {"name": "sa(3.0)", "value": 0.0022, "units": "%g", "flag": "Outlier", "ln_sigma": 0.0}]}], "station_type": "seismic", "nresp": "null", "predictions": [{"name": "sa(1.0)", "value": 0.0855, "value_rock": 0.0855, "value_soil": 0.342, "units": "%g", "ln_tau": 0.0, "ln_phi": 0.679, "ln_sigma": 0.679, "ln_sigma_rock": 0.8129, "ln_sigma_soil": 0.8117, "ln_bias": 0.0, "ln_bias_sigma": 0.4471}, {"name": "pgv", "value": 0.0862, "value_rock": 0.0862, "value_soil": 0.2387, "units": "cm/s", "ln_tau": 0.0, "ln_phi": 0.6125, "ln_sigma": 0.6125, "ln_sigma_rock": 0.7334, "ln_sigma_soil": 0.7298, "ln_bias": 0.0, "ln_bias_sigma": 0.4034}, {"name": "sa(3.0)", "value": 0.0271, "value_rock": 0.0271, "value_soil": 0.0868, "units": "%g", "ln_tau": 0.0, "ln_phi": 0.6715, "ln_sigma": 0.6715, "ln_sigma_rock": 0.8041, "ln_sigma_soil": 0.8036, "ln_bias": 0.0, "ln_bias_sigma": 0.4422}, {"name": "pga", "value": 0.0411, "value_rock": 0.0411, "value_soil": 0.069, "units": "%g", "ln_tau": 0.0, "ln_phi": 0.604, "ln_sigma": 0.604, "ln_sigma_rock": 0.7231, "ln_sigma_soil": 0.7202, "ln_bias": 0.0, "ln_bias_sigma": 0.3978}, {"name": "sa(0.3)", "value": 0.0898, "value_rock": 0.0898, "value_soil": 0.253, "units": "%g", "ln_tau": 0.0, "ln_phi": 0.6497, "ln_sigma": 0.6497, "ln_sigma_rock": 0.7777, "ln_sigma_soil": 0.7754, "ln_bias": 0.0, "ln_bias_sigma": 0.4279}, {"name": "mmi", "value": 1.4686, "value_rock": 1.4686, "value_soil": 1.937, "units": "intensity", "tau": 0.0, "phi": 0.7756, "sigma": 0.7756, "sigma_rock": 0.9286, "sigma_soil": 0.9267, "bias": 0.0, "bias_sigma": 0.5108}], "mmi_from_pgm": [{"name": "sa(1.0)", "value": null, "sigma": null, "flag": "0"}, {"name": "pgv", "value": null, "sigma": null, "flag": "0"}, {"name": "sa(3.0)", "value": 1.0, "sigma": 0.89, "flag": "Outlier"}, {"name": "pga", "value": 1.0, "sigma": 0.66, "flag": "Outlier"}, {"name": "sa(0.3)", "value": null, "sigma": null, "flag": "0"}], "distance_stddev": 5.718, "distances": {"repi": 565.124, "rhypo": 565.18, "rjb": 558.582, "rjb_var": 30.182, "rrup": 557.993, "rrup_var": 32.699, "rx": 0.0, "ry0": 0.0, "rvolc": 0.0}}, "geometry": {"type": "Point", "coordinates": [26.0497, 40.8957]}}, {"type": "Feature", "id": "HT.FNA", "properties": {"code": "FNA", "name": "Station Florina, Greece", "instrumentType": "UNK", "source": "HT", "network": "HT", "commType": "UNK", "location": "", "intensity": 2.1, "intensity_flag": "", "intensity_stddev": 0.63, "pga": 0.0584, "pgv": 0.0924, "distance": 290.314, "elev": null, "vs30": 760.0, "channels": [{"name": "HHE", "amplitudes": [{"name": "pga", "value": 0.0584, "units": "%g", "flag": "0", "ln_sigma": 0.0}, {"name": "pgv", "value": 0.0747, "units": "cm/s", "flag": "0", "ln_sigma": 0.0}, {"name": "sa(0.3)", "value": 0.1335, "units": "%g", "flag": "0", "ln_sigma": 0.0}, {"name": "sa(1.0)", "value": 0.1534, "units": "%g", "flag": "0", "ln_sigma": 0.0}, {"name": "sa(3.0)", "value": 0.0583, "units": "%g", "flag": "0", "ln_sigma": 0.0}]}, {"name": "HHZ", "amplitudes": [{"name": "pga", "value": 0.0349, "units": "%g", "flag": "0", "ln_sigma": 0.0}, {"name": "pgv", "value": 0.0645, "units": "cm/s", "flag": "0", "ln_sigma": 0.0}, {"name": "sa(0.3)", "value": 0.0524, 