{
    "type": "FeatureCollection",
    "features": [
        {
            "type": "Feature",
            "id": "INTENSITY.OBS_1",
            "properties": {
                "code": "OBS_1",
                "name": "Bakobu  Tanzania (Intensity VII)",
                "instrumentType": "OBSERVED",
                "source": "INTENSITY",
                "network": "INTENSITY",
                "commType": "UNK",
                "location": "",
                "intensity": "null",
                "intensity_flag": "0",
                "intensity_stddev": "null",
                "pga": "null",
                "pgv": "null",
                "distance": 47.14,
                "elev": null,
                "vs30": 512.23,
                "channels": [],
                "nresp": "null",
                "station_type": "macroseismic",
                "predictions": [
                    {
                        "name": "mmi",
                        "value": 4.2938,
                        "value_rock": 4.1139,
                        "value_soil": 5.1012,
                        "units": "intensity",
                        "tau": 0.2096,
                        "phi": 0.7301,
                        "sigma": 0.7596,
                        "sigma_rock": 0.76,
                        "sigma_soil": 1.0866,
                        "bias": 0.0,
                        "bias_sigma": 0.2096
                    },
                    {
                        "name": "pga",
                        "value": 4.379,
                        "value_rock": 3.7435,
                        "value_soil": 6.2498,
                        "units": "%g",
                        "ln_tau": 0.3475,
                        "ln_phi": 0.5949,
                        "ln_sigma": 0.6889,
                        "ln_sigma_rock": 0.6968,
                        "ln_sigma_soil": 0.6457,
                        "ln_bias": 0.0,
                        "ln_bias_sigma": 0.3475
                    },
                    {
                        "name": "sa(0.3)",
                        "value": 8.5146,
                        "value_rock": 6.1432,
                        "value_soil": 17.2782,
                        "units": "%g",
                        "ln_tau": 0.358,
                        "ln_phi": 0.656,
                        "ln_sigma": 0.7473,
                        "ln_sigma_rock": 0.7521,
                        "ln_sigma_soil": 0.689,
                        "ln_bias": 0.0,
                        "ln_bias_sigma": 0.358
                    },
                    {
                        "name": "sa(1.0)",
                        "value": 2.4264,
                        "value_rock": 1.6085,
                        "value_soil": 6.4069,
                        "units": "%g",
                        "ln_tau": 0.3828,
                        "ln_phi": 0.6777,
                        "ln_sigma": 0.7783,
                        "ln_sigma_rock": 0.7786,
                        "ln_sigma_soil": 0.7599,
                        "ln_bias": 0.0,
                        "ln_bias_sigma": 0.3828
                    },
                    {
                        "name": "sa(3.0)",
                        "value": 0.4228,
                        "value_rock": 0.2772,
                        "value_soil": 1.1804,
                        "units": "%g",
                        "ln_tau": 0.4071,
                        "ln_phi": 0.651,
                        "ln_sigma": 0.7678,
                        "ln_sigma_rock": 0.7689,
                        "ln_sigma_soil": 0.7686,
                        "ln_bias": 0.0,
                        "ln_bias_sigma": 0.4071
                    },
                    {
                        "name": "pgv",
                        "value": 2.8821,
                        "value_rock": 2.1744,
                        "value_soil": 5.6367,
                        "units": "cm/s",
                        "ln_tau": 0.3282,
                        "ln_phi": 0.5781,
                        "ln_sigma": 0.6648,
                        "ln_sigma_rock": 0.6658,
                        "ln_sigma_soil": 0.6451,
                        "ln_bias": 0.0,
                        "ln_bias_sigma": 0.3282
                    }
                ],
                "pgm_from_mmi": [
                    {
                        "name": "sa(3.0)",
                        "value": 5.8445,
                        "units": "%g",
                        "ln_sigma": 1.4737,
                        "flag": "Outlier"
                    },
                    {
                        "name": "sa(1.0)",
                        "value": 27.7425,
                        "units": "%g",
                        "ln_sigma": 1.0822,
                        "flag": "Outlier"
                    },
                    {
                        "name": "sa(0.3)",
                        "value": 51.6025,
                        "units": "%g",
                        "ln_sigma": 1.0131,
                        "flag": "Outlier"
                    },
                    {
                        "name": "pga",
                        "value": 24.4551,
                        "units": "%g",
                        "ln_sigma": 0.8059,
                        "flag": "Outlier"
                    },
                    {
                        "name": "pgv",
                        "value": 22.4853,
                        "units": "cm/s",
                        "ln_sigma": 0.875,
                        "flag": "Outlier"
                    }
                ],
                "distance_stddev": 9.532,
                "distances": {
                    "repi": 38.745,
                    "rhypo": 55.688,
                    "rjb": 33.125,
                    "rjb_var": 30.946,
                    "rrup": 47.14,
                    "rrup_var": 90.867,
                    "rx": 0.0,
                    "ry0": 0.0
                }
            },
            "geometry": {
                "type": "Point",
                "coordinates": [
                    31.805,
                    -1.3296
                ]
            }
        },
        {
            "type": "Feature",
            "id": "DYFI.UTM:(36N 0630 0119 1000)",
            "properties": {
                "code": "UTM:(36N 0630 0119 1000)",
                "name": null,
                "instrumentType": "OBSERVED",
                "source": "DYFI",
                "network": "DYFI",
                "commType": "UNK",
                "location": "",
                "intensity": 3.4,
                "intensity_flag": "0",
                "intensity_stddev": 0.3,
                "pga": "null",
                "pgv": "null",
                "distance": 363.806,
                "elev": null,
                "vs30": 760.0,
                "channels": [],
                "nresp": -1,
                "station_type": "macroseismic",
                "predictions": [
                    {
                        "name": "mmi",
                        "value": 2.3288,
                        "value_rock": 2.3288,
                        "value_soil": 2.9713,
                        "units": "intensity",
                        "tau": 0.2098,
                        "phi": 0.7142,
                        "sigma": 0.7443,
                        "sigma_rock": 0.7445,
                        "sigma_soil": 0.7442,
                        "bias": 0.0,
                        "bias_sigma": 0.2098
                    },
                    {
                        "name": "pga",
                        "value": 0.0515,
                        "value_rock": 0.0515,
                        "value_soil": 0.0964,
                        "units": "%g",
                        "ln_tau": 0.3526,
                        "ln_phi": 0.5428,
                        "ln_sigma": 0.6472,
                        "ln_sigma_rock": 0.6488,
                        "ln_sigma_soil": 0.6481,
                        "ln_bias": 0.0,
                        "ln_bias_sigma": 0.3526
                    },
                    {
                        "name": "sa(0.3)",
                        "value": 0.1017,
                        "value_rock": 0.1017,
                        "value_soil": 0.3308,
                        "units": "%g",
                        "ln_tau": 0.3606,
                        "ln_phi": 0.6094,
                        "ln_sigma": 0.7081,
                        "ln_sigma_rock": 0.7091,
                        "ln_sigma_soil": 0.7083,
                        "ln_bias": 0.0,
                        "ln_bias_sigma": 0.3606
                    },
                    {
                        "name": "sa(1.0)",
                        "value": 0.1056,
                        "value_rock": 0.1056,
                        "value_soil": 0.4437,
                        "units": "%g",
                        "ln_tau": 0.3831,
                        "ln_phi": 0.6383,
                        "ln_sigma": 0.7444,
                        "ln_sigma_rock": 0.7443,
                        "ln_sigma_soil": 0.7437,
                        "ln_bias": 0.0,
                        "ln_bias_sigma": 0.3831
                    },
                    {
                        "name": "sa(3.0)",
                        "value": 0.0274,
                        "value_rock": 0.0274,
                        "value_soil": 0.1166,
                        "units": "%g",
                        "ln_tau": 0.4072,
                        "ln_phi": 0.6124,
                        "ln_sigma": 0.7354,
                        "ln_sigma_rock": 0.7364,
                        "ln_sigma_soil": 0.7363,
                        "ln_bias": 0.0,
                        "ln_bias_sigma": 0.4072
                    },
                    {
                        "name": "pgv",
                        "value": 0.1327,
                        "value_rock": 0.1327,
                        "value_soil": 0.3632,
                        "units": "cm/s",
                        "ln_tau": 0.3286,
                        "ln_phi": 0.5269,
                        "ln_sigma": 0.6209,
                        "ln_sigma_rock": 0.6215,
                        "ln_sigma_soil": 0.6206,
                        "ln_bias": 0.0,
                        "ln_bias_sigma": 0.3286
                    }
                ],
                "pgm_from_mmi": [
                    {
                        "name": "sa(3.0)",
                        "value": null,
                        "units": "%g",
                        "ln_sigma": null,
                        "flag": "0"
                    },
                    {
                        "name": "sa(1.0)",
                        "value": null,
                        "units": "%g",
                        "ln_sigma": null,
                        "flag": "0"
                    },
                    {
                        "name": "sa(0.3)",
                        "value": null,
                        "units": "%g",
                        "ln_sigma": null,
                        "flag": "0"
                    },
                    {
                        "name": "pga",
                        "value": null,
                        "units": "%g",
                        "ln_sigma": null,
                        "flag": "0"
                    },
                    {
                        "name": "pgv",
                        "value": null,
                        "units": "cm/s",
                        "ln_sigma": null,
                        "flag": "0"
                    }
                ],
                "distance_stddev": 7.255,
                "distances": {
                    "repi": 368.883,
                    "rhypo": 371.045,
                    "rjb": 362.494,
                    "rjb_var": 36.027,
                    "rrup": 363.806,
                    "rrup_var": 52.636,
                    "rx": 0.0,
                    "ry0": 0.0
                }
            },
            "geometry": {
                "type": "Point",
                "coordinates": [
                    34.1729,
                    1.0809
                ]
            }
        },
        {
            "type": "Feature",
            "id": "DYFI.UTM:(36N 0722 0112 1000)",
            "properties": {
                "code": "UTM:(36N 0722 0112 1000)",
                "name": null,
                "instrumentType": "OBSERVED",
                "source": "DYFI",
                "network": "DYFI",
                "commType": "UNK",
                "location": "",
                "intensity": "null",
                "intensity_flag": "0",
                "intensity_stddev": "null",
                "pga": "null",
                "pgv": "null",
                "distance": 434.33,
                "elev": null,
                "vs30": 760.0,
                "channels": [],
                "nresp": "null",
                "station_type": "macroseismic",
                "predictions": [
                    {
                        "name": "mmi",
                        "value": 2.1138,
                        "value_rock": 2.1138,
                        "value_soil": 2.7568,
                        "units": "intensity",
                        "tau": 0.2098,
                        "phi": 0.7141,
                        "sigma": 0.7443,
                        "sigma_rock": 0.7445,
                        "sigma_soil": 0.7443,
                        "bias": 0.0,
                        "bias_sigma": 0.2098
                    },
                    {
                        "name": "pga",
                        "value": 0.0258,
                        "value_rock": 0.0258,
                        "value_soil": 0.0483,
                        "units": "%g",
                        "ln_tau": 0.3526,
                        "ln_phi": 0.5423,
                        "ln_sigma": 0.6468,
                        "ln_sigma_rock": 0.6484,
                        "ln_sigma_soil": 0.6481,
                        "ln_bias": 0.0,
                        "ln_bias_sigma": 0.3526
                    },
                    {
                        "name": "sa(0.3)",
                        "value": 0.0529,
                        "value_rock": 0.0529,
                        "value_soil": 0.1722,
                        "units": "%g",
                        "ln_tau": 0.3606,
                        "ln_phi": 0.609,
                        "ln_sigma": 0.7077,
                        "ln_sigma_rock": 0.7088,
                        "ln_sigma_soil": 0.7084,
                        "ln_bias": 0.0,
                        "ln_bias_sigma": 0.3606
                    },
                    {
                        "name": "sa(1.0)",
                        "value": 0.0752,
                        "value_rock": 0.0752,
                        "value_soil": 0.3159,
                        "units": "%g",
                        "ln_tau": 0.3831,
                        "ln_phi": 0.6381,
                        "ln_sigma": 0.7442,
                        "ln_sigma_rock": 0.7441,
                        "ln_sigma_soil": 0.7439,
                        "ln_bias": 0.0,
                        "ln_bias_sigma": 0.3831
                    },
                    {
                        "name": "sa(3.0)",
                        "value": 0.0214,
                        "value_rock": 0.0214,
                        "value_soil": 0.0913,
                        "units": "%g",
                        "ln_tau": 0.4072,
                        "ln_phi": 0.6123,
                        "ln_sigma": 0.7353,
                        "ln_sigma_rock": 0.7363,
                        "ln_sigma_soil": 0.7363,
                        "ln_bias": 0.0,
                        "ln_bias_sigma": 0.4072
                    },
                    {
                        "name": "pgv",
                        "value": 0.0948,
                        "value_rock": 0.0948,
                        "value_soil": 0.2595,
                        "units": "cm/s",
                        "ln_tau": 0.3286,
                        "ln_phi": 0.5266,
                        "ln_sigma": 0.6207,
                        "ln_sigma_rock": 0.6213,
                        "ln_sigma_soil": 0.6207,
                        "ln_bias": 0.0,
                        "ln_bias_sigma": 0.3286
                    }
                ],
                "pgm_from_mmi": [
                    {
                        "name": "sa(3.0)",
                        "value": 1.6645,
                        "units": "%g",
                        "ln_sigma": 1.4737,
                        "flag": "Outlier"
                    },
                    {
                        "name": "sa(1.0)",
                        "value": 7.1583,
                        "units": "%g",
                        "ln_sigma": 1.0822,
                        "flag": "Outlier"
                    },
                    {
                        "name": "sa(0.3)",
                        "value": 8.0173,
                        "units": "%g",
                        "ln_sigma": 1.0131,
                        "flag": "Outlier"
                    },
                    {
                        "name": "pga",
                        "value": 3.974,
                        "units": "%g",
                        "ln_sigma": 0.8059,
                        "flag": "Outlier"
                    },
                    {
                        "name": "pgv",
                        "value": 4.8679,
                        "units": "cm/s",
                        "ln_sigma": 0.875,
                        "flag": "Outlier"
                    }
                ],
                "distance_stddev": 7.154,
                "distances": {
                    "repi": 439.835,
                    "rhypo": 441.65,
                    "rjb": 433.431,
                    "rjb_var": 36.096,
                    "rrup": 434.33,
                    "rrup_var": 51.173,
                    "rx": 0.0,
                    "ry0": 0.0
                }
            },
            "geometry": {
                "type": "Point",
                "coordinates": [
                    34.9995,
                    1.0172
                ]
            }
        },
        {
            "type": "Feature",
            "id": "DYFI.UTM:(35M 0705 9723 1000)",
            "properties": {
                "code": "UTM:(35M 0705 9723 1000)",
                "name": null,
                "instrumentType": "OBSERVED",
                "source": "DYFI",
                "network": "DYFI",
                "commType": "UNK",
                "location": "",
                "intensity": 2.2,
                "intensity_flag": "0",
                "intensity_stddev": 0.3,
                "pga": "null",
                "pgv": "null",
                "distance": 343.358,
                "elev": null,
                "vs30": 760.0,
                "channels": [],
                "nresp": -1,
                "station_type": "macroseismic",
                "predictions": [
                    {
                        "name": "mmi",
                        "value": 2.3953,
                        "value_rock": 2.3953,
                        "value_soil": 3.0377,
                        "units": "intensity",
                        "tau": 0.2098,
                        "phi": 0.7142,
                        "sigma": 0.7444,
                        "sigma_rock": 0.7445,
                        "sigma_soil": 0.7442,
                        "bias": 0.0,
                        "bias_sigma": 0.2098
                    },
                    {
                        "name": "pga",
                        "value": 0.0634,
                        "value_rock": 0.0634,
                        "value_soil": 0.1185,
