{"type": "FeatureCollection", "features": [{"type": "Feature", "id": "BHRC.3157", "properties": {"code": "3157", "name": "Kerman1Station", "instrumentType": "UNK", "source": "BHRC", "network": "BHRC", "commType": "UNK", "location": "", "intensity": "null", "intensity_flag": "", "intensity_stddev": "null", "pga": "null", "pgv": "null", "distance": 184.164, "elev": null, "vs30": 225.59, "channels": [{"name": "L1", "amplitudes": [{"name": "sa(3.0)", "value": "null", "units": "%g", "flag": "G,UnknownOrientation,0,Outlier", "ln_sigma": "null"}, {"name": "pgv", "value": 3.4987, "units": "cm/s", "flag": "UnknownOrientation,0,Outlier", "ln_sigma": 0.0}, {"name": "pga", "value": 1.912, "units": "%g", "flag": "UnknownOrientation,0,Outlier", "ln_sigma": 0.0}, {"name": "sa(1.0)", "value": "null", "units": "%g", "flag": "G,UnknownOrientation,0,Outlier", "ln_sigma": "null"}, {"name": "sa(0.3)", "value": "null", "units": "%g", "flag": "G,UnknownOrientation,0,Outlier", "ln_sigma": "null"}]}, {"name": "V2", "amplitudes": [{"name": "sa(3.0)", "value": "null", "units": "%g", "flag": "G,UnknownOrientation,0,Outlier", "ln_sigma": "null"}, {"name": "pgv", "value": 1.1457, "units": "cm/s", "flag": "UnknownOrientation,0,Outlier", "ln_sigma": 0.0}, {"name": "pga", "value": 0.957, "units": "%g", "flag": "UnknownOrientation,0,Outlier", "ln_sigma": 0.0}, {"name": "sa(1.0)", "value": "null", "units": "%g", "flag": "G,UnknownOrientation,0,Outlier", "ln_sigma": "null"}, {"name": "sa(0.3)", "value": "null", "units": "%g", "flag": "G,UnknownOrientation,0,Outlier", "ln_sigma": "null"}]}, {"name": "T3", "amplitudes": [{"name": "sa(3.0)", "value": "null", "units": "%g", "flag": "G,UnknownOrientation,0,Outlier", "ln_sigma": "null"}, {"name": "pgv", "value": 2.9831, "units": "cm/s", "flag": "UnknownOrientation,0,Outlier", "ln_sigma": 0.0}, {"name": "pga", "value": 2.551, "units": "%g", "flag": "UnknownOrientation,0,Outlier", "ln_sigma": 0.0}, {"name": "sa(1.0)", "value": "null", "units": "%g", "flag": "G,UnknownOrientation,0,Outlier", "ln_sigma": "null"}, {"name": "sa(0.3)", "value": "null", "units": "%g", "flag": "G,UnknownOrientation,0,Outlier", "ln_sigma": "null"}]}], "station_type": "seismic", "nresp": "null", "predictions": [{"name": "pgv", "value": 2.2871, "value_rock": 0.9561, "value_soil": 2.6897, "units": "cm/s", "ln_tau": 0.3207, "ln_phi": 0.5178, "ln_sigma": 0.6091, "ln_sigma_rock": 0.6297, "ln_sigma_soil": 0.6087, "ln_bias": 0.0926, "ln_bias_sigma": 0.2445}, {"name": "sa(0.3)", "value": 4.0613, "value_rock": 1.5481, "value_soil": 4.8338, "units": "%g", "ln_tau": 0.3037, "ln_phi": 0.5855, "ln_sigma": 0.6596, "ln_sigma_rock": 0.6788, "ln_sigma_soil": 0.6593, "ln_bias": 0.094, "ln_bias_sigma": 0.2426}, {"name": "sa(1.0)", "value": 2.8409, "value_rock": 0.8584, "value_soil": 3.5442, "units": "%g", "ln_tau": 0.3407, "ln_phi": 0.6349, "ln_sigma": 0.7206, "ln_sigma_rock": 0.7292, "ln_sigma_soil": 0.7206, "ln_bias": 0.1425, "ln_bias_sigma": 0.2735}, {"name": "pga", "value": 1.2823, "value_rock": 0.7429, "value_soil": 1.4231, "units": "%g", "ln_tau": 0.3256, "ln_phi": 0.5069, "ln_sigma": 0.6025, "ln_sigma_rock": 0.6224, "ln_sigma_soil": 0.6023, "ln_bias": 0.2892, "ln_bias_sigma": 0.2354}, {"name": "sa(3.0)", "value": 0.7993, "value_rock": 0.241, "value_soil": 1.0035, "units": "%g", "ln_tau": 0.37, "ln_phi": 0.6327, "ln_sigma": 0.7329, "ln_sigma_rock": 0.7361, "ln_sigma_soil": 0.7359, "ln_bias": 0.0525, "ln_bias_sigma": 0.3079}, {"name": "mmi", "value": 3.763, "value_rock": 3.3955, "value_soil": 3.8331, "units": "intensity", "tau": 0.2192, "phi": 0.743, "sigma": 0.7747, "sigma_rock": 0.7817, "sigma_soil": 0.7746, "bias": 0.1594, "bias_sigma": 0.1978}], "mmi_from_pgm": [{"name": "pgv", "value": null, "sigma": null, "flag": "0"}, {"name": "sa(0.3)", "value": null, "sigma": null, "flag": "0"}, {"name": "sa(1.0)", "value": null, "sigma": null, "flag": "0"}, {"name": "pga", "value": null, "sigma": null, "flag": "0"}, {"name": "sa(3.0)", "value": null, "sigma": null, "flag": "0"}], "distance_stddev": 0.0, "distances": {"repi": 189.266, "rhypo": 189.53, "rjb": 184.183, "rjb_var": 0.0, "rrup": 184.164, "rrup_var": 0.0, "rx": 115.431, "ry0": 141.298, "rvolc": 0.0}}, "geometry": {"type": "Point", "coordinates": [57.04, 30.29]}}, {"type": "Feature", "id": "BHRC.3203-2", "properties": {"code": "3203-2", "name": "HasanLangiStation", "instrumentType": "UNK", "source": "BHRC", "network": "BHRC", "commType": "UNK", "location": "", "intensity": "null", "intensity_flag": "", "intensity_stddev": "null", "pga": "null", "pgv": "null", "distance": 234.813, "elev": null, "vs30": 220.45, "channels": [{"name": "L1", "amplitudes": [{"name": "sa(3.0)", "value": "null", "units": "%g", "flag": "G,UnknownOrientation,0,Outlier", "ln_sigma": "null"}, {"name": "pgv", "value": 2.1898, "units": "cm/s", "flag": "UnknownOrientation,0,Outlier", "ln_sigma": 0.0}, {"name": "pga", "value": 1.276, "units": "%g", "flag": "UnknownOrientation,0,Outlier", "ln_sigma": 0.0}, {"name": "sa(1.0)", "value": "null", "units": "%g", "flag": "G,UnknownOrientation,0,Outlier", "ln_sigma": "null"}, {"name": "sa(0.3)", "value": "null", "units": "%g", "flag": "G,UnknownOrientation,0,Outlier", "ln_sigma": "null"}]}, {"name": "V2", "amplitudes": [{"name": "sa(3.0)", "value": "null", "units": "%g", "flag": "G,UnknownOrientation,0,Outlier", "ln_sigma": "null"}, {"name": "pgv", "value": 1.2538, "units": "cm/s", "flag": "UnknownOrientation,0,Outlier", "ln_sigma": 0.0}, {"name": "pga", "value": 0.554, "units": "%g", "flag": "UnknownOrientation,0,Outlier", "ln_sigma": 0.0}, {"name": "sa(1.0)", "value": "null", "units": "%g", "flag": "G,UnknownOrientation,0,Outlier", "ln_sigma": "null"}, {"name": "sa(0.3)", "value": "null", "units": "%g", "flag": "G,UnknownOrientation,0,Outlier", "ln_sigma": "null"}]}, {"name": "T3", "amplitudes": [{"name": "sa(3.0)", "value": "null", "units": "%g", "flag": "G,UnknownOrientation,0,Outlier", "ln_sigma": "null"}, {"name": "pgv", "value": 1.7563, "units": "cm/s", "flag": "UnknownOrientation,0,Outlier", "ln_sigma": 0.0}, {"name": "pga", "value": 1.122, "units": "%g", "flag": "UnknownOrientation,0,Outlier", "ln_sigma": 0.0}, {"name": "sa(1.0)", "value": "null", "units": "%g", "flag": "G,UnknownOrientation,0,Outlier", "ln_sigma": "null"}, {"name": "sa(0.3)", "value": "null", "units": "%g", "flag": "G,UnknownOrientation,0,Outlier", "ln_sigma": "null"}]}], "station_type": "seismic", "nresp": "null", "predictions": [{"name": "pgv", "value": 1.673, "value_rock": 0.6853, "value_soil": 1.9406, "units": "cm/s", "ln_tau": 0.3212, "ln_phi": 0.523, "ln_sigma": 0.6138, "ln_sigma_rock": 0.634, "ln_sigma_soil": 0.614, "ln_bias": 0.0928, "ln_bias_sigma": 0.2447}, {"name": "sa(0.3)", "value": 2.472, "value_rock": 0.9171, "value_soil": 2.9022, "units": "%g", "ln_tau": 0.3053, "ln_phi": 0.5953, "ln_sigma": 0.6691, "ln_sigma_rock": 0.6867, "ln_sigma_soil": 0.6706, "ln_bias": 0.0946, "ln_bias_sigma": 0.2435}, {"name": "sa(1.0)", "value": 2.1169, "value_rock": 0.6231, "value_soil": 2.5899, "units": "%g", "ln_tau": 0.3412, "ln_phi": 0.6421, "ln_sigma": 0.7272, "ln_sigma_rock": 0.7354, "ln_sigma_soil": 0.728, "ln_bias": 0.1427, "ln_bias_sigma": 0.2738}, {"name": "pga", "value": 0.7459, "value_rock": 0.4246, "value_soil": 0.8218, "units": "%g", "ln_tau": 0.327, "ln_phi": 0.5143, "ln_sigma": 0.6095, "ln_sigma_rock": 0.6279, "ln_sigma_soil": 0.6102, "ln_bias": 0.2905, "ln_bias_sigma": 0.2359}, {"name": "sa(3.0)", "value": 0.6341, "value_rock": 0.187, "value_soil": 0.7789, "units": "%g", "ln_tau": 0.37, "ln_phi": 0.6357, "ln_sigma": 0.7355, "ln_sigma_rock": 0.7388, "ln_sigma_soil": 0.7387, "ln_bias": 0.0525, "ln_bias_sigma": 0.3079}, {"name": "mmi", "value": 3.5059, "value_rock": 3.1265, "value_soil": 3.5711, "units": "intensity", "tau": 0.2201, "phi": 0.7453, "sigma": 0.7771, "sigma_rock": 0.7837, "sigma_soil": 0.7774, "bias": 0.1605, "bias_sigma": 0.1985}], "mmi_from_pgm": [{"name": "pgv", "value": null, "sigma": null, "flag": "0"}, {"name": "sa(0.3)", "value": null, "sigma": null, "flag": "0"}, {"name": "sa(1.0)", "value": null, "sigma": null, "flag": "0"}, {"name": "pga", "value": null, "sigma": null, "flag": "0"}, {"name": "sa(3.0)", "value": null, "sigma": null, "flag": "0"}], "distance_stddev": 0.0, "distances": {"repi": 232.302, "rhypo": 232.517, "rjb": 234.853, "rjb_var": 0.0, "rrup": 234.813, "rrup_var": 0.0, "rx": 160.595, "ry0": 168.475, "rvolc": 0.0}}, "geometry": {"type": "Point", "coordinates": [56.85, 27.35]}}, {"type": "Feature", "id": "BHRC.3160", "properties": {"code": "3160", "name": "NosratAbadStation", "instrumentType": "UNK", "source": "BHRC", "network": "BHRC", "commType": "UNK", "location": "", "intensity": "null", "intensity_flag": "", "intensity_stddev": "null", "pga": "null", "pgv": "null", "distance": 179.276, "elev": null, "vs30": 331.89, "channels": [{"name": "L1", "amplitudes": [{"name": "sa(3.0)", "value": "null", "units": "%g", "flag": "G,UnknownOrientation,0,Outlier", "ln_sigma": "null"}, {"name": "pgv", "value": 2.201, "units": "cm/s", "flag": "UnknownOrientation,0,Outlier", "ln_sigma": 0.0}, {"name": "pga", "value": 2.017, "units": "%g", "flag": "UnknownOrientation,0,Outlier", "ln_sigma": 0.0}, {"name": "sa(1.0)", "value": "null", "units": "%g", "flag": "G,UnknownOrientation,0,Outlier", "ln_sigma": "null"}, {"name": "sa(0.3)", "value": "null", "units": "%g", "flag": "G,UnknownOrientation,0,Outlier", "ln_sigma": "null"}]}, {"name": "V2", "amplitudes": [{"name": "sa(3.0)", "value": "null", "units": "%g", "flag": "G,UnknownOrientation,0,Outlier", "ln_sigma": "null"}, {"name": "pgv", "value": 1.3769, "units": "cm/s", "flag": "UnknownOrientation,0,Outlier", "ln_sigma": 0.0}, {"name": "pga", "value": 1.341, "units": "%g", "flag": "UnknownOrientation,0,Outlier", "ln_sigma": 0.0}, {"name": "sa(1.0)", "value": "null", "units": "%g", "flag": "G,UnknownOrientation,0,Outlier", "ln_sigma": "null"}, {"name": "sa(0.3)", "value": "null", "units": "%g", "flag": "G,UnknownOrientation,0,Outlier", "ln_sigma": "null"}]}, {"name": "T3", "amplitudes": [{"name": "sa(3.0)", "value": "null", "units": "%g", "flag": "G,UnknownOrientation,0,Outlier", "ln_sigma": "null"}, {"name": "pgv", "value": 2.7631, "units": "cm/s", "flag": "UnknownOrientation,0,Outlier", "ln_sigma": 0.0}, {"name": "pga", "value": 2.437, "units": "%g", "flag": "UnknownOrientation,0,Outlier", "ln_sigma": 0.0}, {"name": "sa(1.0)", "value": "null", "units": "%g", "flag": "G,UnknownOrientation,0,Outlier", "ln_sigma": "null"}, {"name": "sa(0.3)", "value": "null", "units": "%g", "flag": "G,UnknownOrientation,0,Outlier", "ln_sigma": "null"}]}], "station_type": "seismic", "nresp": "null", "predictions": [{"name": "pgv", "value": 1.8076, "value_rock": 0.9904, "value_soil": 2.7837, "units": "cm/s", "ln_tau": 0.322, "ln_phi": 0.5372, "ln_sigma": 0.6263, "ln_sigma_rock": 0.6292, "ln_sigma_soil": 0.6081, "ln_bias": 0.093, "ln_bias_sigma": 0.245}, {"name": "sa(0.3)", "value": 3.1982, "value_rock": 1.6329, "value_soil": 5.0895, "units": "%g", "ln_tau": 0.306, "ln_phi": 0.5986, "ln_sigma": 0.6723, "ln_sigma_rock": 0.6779, "ln_sigma_soil": 0.658, "ln_bias": 0.0949, "ln_bias_sigma": 0.2438}, {"name": "sa(1.0)", "value": 2.0318, "value_rock": 0.8879, "value_soil": 3.663, "units": "%g", "ln_tau": 0.3421, "ln_phi": 0.6403, "ln_sigma": 0.726, "ln_sigma_rock": 0.7285, "ln_sigma_soil": 0.7197, "ln_bias": 0.1432, "ln_bias_sigma": 0.2743}, {"name": "pga", "value": 1.1501, "value_rock": 0.7863, "value_soil": 1.5042, "units": "%g", "ln_tau": 0.3273, "ln_phi": 0.5241, "ln_sigma": 0.6179, "ln_sigma_rock": 0.6218, "ln_sigma_soil": 0.6014, "ln_bias": 0.2908, "ln_bias_sigma": 0.236}, {"name": "sa(3.0)", "value": 0.5667, "value_rock": 0.2477, "value_soil": 1.0314, "units": "%g", "ln_tau": 0.37, "ln_phi": 0.6313, "ln_sigma": 0.7318, "ln_sigma_rock": 0.7349, "ln_sigma_soil": 0.7347, "ln_bias": 0.0525, "ln_bias_sigma": 0.3079}, {"name": "mmi", "value": 3.6778, "value_rock": 3.4218, "value_soil": 3.8585, "units": "intensity", "tau": 0.2204, "phi": 0.7484, "sigma": 0.7801, "sigma_rock": 0.7815, "sigma_soil": 0.7743, "bias": 0.1607, "bias_sigma": 0.1987}], "mmi_from_pgm": [{"name": "pgv", "value": null, "sigma": null, "flag": "0"}, {"name": "sa(0.3)", "value": null, "sigma": null, "flag": "0"}, {"name": "sa(1.0)", "value": null, "sigma": null, "flag": "0"}, {"name": "pga", "value": null, "sigma": null, "flag": "0"}, {"name": "sa(3.0)", "value": null, "sigma": null, "flag": "0"}], "distance_stddev": 0.0, "distances": {"repi": 188.31, "rhypo": 188.575, "rjb": 179.293, "rjb_var": 0.0, "rrup": 179.276, "rrup_var": 0.0, "rx": -160.082, "ry0": 73.727, "rvolc": 0.0}}, "geometry": {"type": "Point", "coordinates": [59.984, 29.858]}}, {"type": "Feature", "id": "BHRC.3164", "properties": {"code": "3164", "name": "AndoohjerdStation", "instrumentType": "UNK", "source": "BHRC", "network": "BHRC", "commType": "UNK", "location": "", "intensity": "null", "intensity_flag": "", "intensity_stddev": "null", "pga": "null", "pgv": "null", "distance": 139.311, "elev": null, "vs30": 400.59, "channels": [{"name": "L1", "amplitudes": [{"name": "sa(3.0)", "value": "null", "units": "%g", "flag": "G,UnknownOrientation,0,Outlier", "ln_sigma": "null"}, {"name": "pgv", "value": 2.8233, "units": "cm/s", "flag": "UnknownOrientation,0,Outlier", "ln_sigma": 0.0}, {"name": "pga", "value": 3.268, "units": "%g", "flag": "UnknownOrientation,0,Outlier", "ln_sigma": 0.0}, {"name": "sa(1.0)", "value": "null", "units": "%g", "flag": "G,UnknownOrientation,0,Outlier", "ln_sigma": "null"}, {"name": "sa(0.3)", "value": "null", "units": "%g", "flag": "G,UnknownOrientation,0,Outlier", "ln_sigma": "null"}]}, {"name": "V2", "amplitudes": [{"name": "sa(3.0)", "value": "null", "units": "%g", "flag": "G,UnknownOrientation,0,Outlier", "ln_sigma": "null"}, {"name": "pgv", "value": 0.9212, "units": "cm/s", "flag": "UnknownOrientation,0,Outlier", "ln_sigma": 0.0}, {"name": "pga", "value": 1.52, "units": "%g", "flag": "UnknownOrientation,0,Outlier", "ln_sigma": 0.0}, {"name": "sa(1.0)", "value": "null", "units": "%g", "flag": "G,UnknownOrientation,0,Outlier", "ln_sigma": "null"}, {"name": "sa(0.3)", "value": "null", "units": "%g", "flag": "G,UnknownOrientation,0,Outlier", "ln_sigma": "null"}]}, {"name": "T3", "amplitudes": [{"name": "sa(3.0)", "value": "null", "units": "%g", "flag": "G,UnknownOrientation,0,Outlier", "ln_sigma": "null"}, {"name": "pgv", "value": 2.0752, "units": "cm/s", "flag": "UnknownOrientation,0,Outlier", "ln_sigma": 0.0}, {"name": "pga", "value": 3.504, "units": "%g", "flag": "UnknownOrientation,0,Outlier", "ln_sigma": 0.0}, {"name": "sa(1.0)", "value": "null", "units": "%g", "flag": "G,UnknownOrientation,0,Outlier", "ln_sigma": "null"}, {"name": "sa(0.3)", "value": "null", "units": "%g", "flag": "G,UnknownOrientation,0,Outlier", "ln_sigma": "null"}]}], "station_type": "seismic", "nresp": "null", "predictions": [{"name": "pgv", "value": 2.1674, "value_rock": 1.3598, "value_soil": 3.7865, "units": "cm/s", "ln_tau": 0.3223, "ln_phi": 0.5324, "ln_sigma": 0.6224, "ln_sigma_rock": 0.6247, "ln_sigma_soil": 0.6025, "ln_bias": 0.0931, "ln_bias_sigma": 0.2452}, {"name": "sa(0.3)", "value": 4.3681, "value_rock": 2.5941, "value_soil": 7.9227, "units": "%g", "ln_tau": 0.3063, "ln_phi": 0.5902, "ln_sigma": 0.6649, "ln_sigma_rock": 0.6697, "ln_sigma_soil": 0.6449, "ln_bias": 0.095, "ln_bias_sigma": 0.244}, {"name": "sa(1.0)", "value": 2.2928, "value_rock": 1.204, "value_soil": 4.9191, "units": "%g", "ln_tau": 0.3423, "ln_phi": 0.6335, "ln_sigma": 0.7201, "ln_sigma_rock": 0.7221, "ln_sigma_soil": 0.7117, "ln_bias": 0.1433, "ln_bias_sigma": 0.2744}, {"name": "pga", "value": 1.7201, "value_rock": 1.2842, "value_soil": 2.4188, "units": "%g", "ln_tau": 0.3273, "ln_phi": 0.5173, "ln_sigma": 0.6122, "ln_sigma_rock": 0.6161, "ln_sigma_soil": 0.5922, "ln_bias": 0.2907, "ln_bias_sigma": 0.236}, {"name": "sa(3.0)", "value": 0.6084, "value_rock": 0.319, "value_soil": 1.3279, "units": "%g", "ln_tau": 0.37, "ln_phi": 0.6182, "ln_sigma": 0.7205, "ln_sigma_rock": 0.7232, "ln_sigma_soil": 0.723, "ln_bias": 0.0525, "ln_bias_sigma": 0.3079}, {"name": "mmi", "value": 3.8371, "value_rock": 3.6403, "value_soil": 4.0665, "units": "intensity", "tau": 0.2203, "phi": 0.7462, "sigma": 0.7781, "sigma_rock": 0.7795, "sigma_soil": 0.771, "bias": 0.1607, "bias_sigma": 0.1986}], "mmi_from_pgm": [{"name": "pgv", "value": null, "sigma": null, "flag": "0"}, {"name": "sa(0.3)", "value": null, "sigma": null, "flag": "0"}, {"name": "sa(1.0)", "value": null, "sigma": null, "flag": "0"}, {"name": "pga", "value": null, "sigma": null, "flag": "0"}, {"name": "sa(3.0)", "value": null, "sigma": null, "flag": "0"}], "distance_stddev": 0.0, "distances": {"repi": 147.646, "rhypo": 147.984, "rjb": 139.319, "rjb_var": 0.0, "rrup": 139.311, "rrup_var": 0.0, "rx": 48.599, "ry0": 129.238, "rvolc": 0.0}}, "geometry": {"type": "Point", "coordinates": [57.75, 30.23]}}, {"type": "Feature", "id": "BHRC.3176-1", "properties": {"code": "3176-1", "name": "AbaraghStation", "instrumentType": "UNK", "source": "BHRC", "network": "BHRC", "commType": "UNK", "location": "", "intensity": "null", "intensity_flag": "", "intensity_stddev": "null", "pga": "null", "pgv": "null", "distance": 49.076, "elev": null, "vs30": 324.73, "channels": [{"name": "L1", "amplitudes": [{"name": "sa(3.0)", "value": "null", "units": "%g", "flag": "G,UnknownOrientation,0,Outlier", "ln_sigma": "null"}, {"name": "pgv", "value": 4.4748, "units": "cm/s", "flag": "UnknownOrientation,0,Outlier", "ln_sigma": 0.0}, {"name": "pga", "value": 17.442, "units": "%g", "flag": "UnknownOrientation,0,Outlier", "ln_sigma": 0.0}, {"name": "sa(1.0)", "value": "null", "units": "%g", "flag": "G,UnknownOrientation,0,Outlier", "ln_sigma": "null"}, {"name": "sa(0.3)", "value": "null", "units": "%g", "flag": "G,UnknownOrientation,0,Outlier", "ln_sigma": "null"}]}, {"name": "V2", "amplitudes": [{"name": "sa(3.0)", "value": "null", "units": "%g", "flag": "G,UnknownOrientation,0,Outlier", "ln_sigma": "null"}, {"name": "pgv", "value": 2.864, "units": "cm/s", "flag": "UnknownOrientation,0,Outlier", "ln_sigma": 0.0}, {"name": "pga", "value": 9.051, "units": "%g", "flag": "UnknownOrientation,0,Outlier", "ln_sigma": 0.0}, {"name": "sa(1.0)", "value": "null", "units": "%g", "flag": "G,UnknownOrientation,0,Outlier", "ln_sigma": "null"}, {"name": "sa(0.3)", "value": "null", "units": "%g", "flag": "G,UnknownOrientation,0,Outlier", "ln_sigma": "null"}]}, {"name": "T3", "amplitudes": [{"name": "sa(3.0)", "value": "null", "units": "%g", "flag": "G,UnknownOrientation,0,Outlier", "ln_sigma": "null"}, {"name": "pgv", "value": 3.1769, "units": "cm/s", "flag": "UnknownOrientation,0,Outlier", "ln_sigma": 0.0}, {"name": "pga", "value": 11.355, "units": "%g", "flag": "UnknownOrientation,0,Outlier", "ln_sigma": 0.0}, {"name": "sa(1.0)", "value": "null", "units": "%g", "flag": "G,UnknownOrientation,0,Outlier", "ln_sigma": "null"}, {"name": "sa(0.3)", "value": "null", "units": "%g", "flag": "G,UnknownOrientation,0,Outlier", "ln_sigma": "null"}]}], "station_type": "seismic", "nresp": "null", "predictions": [{"name": "pgv", "value": 7.8629, "value_rock": 4.3294, "value_soil": 11.2705, "units": "cm/s", "ln_tau": 0.3201, "ln_phi": 0.5244, "ln_sigma": 0.6144, "ln_sigma_rock": 0.6198, "ln_sigma_soil": 0.589, "ln_bias": 0.0924, "ln_bias_sigma": 0.2442}, {"name": "sa(0.3)", "value": 20.276, "value_rock": 10.7973, "value_soil": 28.1565, "units": "%g", "ln_tau": 0.2957, "ln_phi": 0.5698, "ln_sigma": 0.6419, "ln_sigma_rock": 0.6599, "ln_sigma_soil": 0.599, "ln_bias": 0.0908, "ln_bias_sigma": 0.2385}, {"name": "sa(1.0)", "value": 8.4485, "value_rock": 3.687, "value_soil": 14.0281, "units": "%g", "ln_tau": 0.3403, "ln_phi": 0.6265, "ln_sigma": 0.713, "ln_sigma_rock": 0.7176, "ln_sigma_soil": 0.6961, "ln_bias": 0.1422, "ln_bias_sigma": 0.2733}, {"name": "pga", "value": 7.9179, "value_rock": 5.6269, "value_soil": 9.4111, "units": "%g", "ln_tau": 0.3173, "ln_phi": 0.5028, "ln_sigma": 0.