{"type": "FeatureCollection", "features": [{"type": "Feature", "id": "G.KAL", "properties": {"code": "KAL", "name": "Kalamata-OTE Building", "instrumentType": "UNK", "source": "G", "network": "G", "commType": "UNK", "location": "", "intensity": 7.4, "intensity_flag": "", "intensity_stddev": 0.63, "pga": 27.2449, "pgv": 31.5, "distance": 9.706, "elev": null, "vs30": 333.15, "channels": [{"name": "E", "amplitudes": [{"name": "pga", "value": 23.9796, "units": "%g", "flag": "0", "ln_sigma": 0.0}, {"name": "pgv", "value": 31.5, "units": "cm/s", "flag": "0", "ln_sigma": 0.0}, {"name": "sa(1.0)", "value": 24.0816, "units": "%g", "flag": "0", "ln_sigma": 0.0}, {"name": "sa(3.0)", "value": 4.3878, "units": "%g", "flag": "0", "ln_sigma": 0.0}, {"name": "sa(0.3)", "value": 68.7755, "units": "%g", "flag": "0", "ln_sigma": 0.0}]}, {"name": "N", "amplitudes": [{"name": "pga", "value": 27.2449, "units": "%g", "flag": "0", "ln_sigma": 0.0}, {"name": "pgv", "value": 23.5, "units": "cm/s", "flag": "0", "ln_sigma": 0.0}, {"name": "sa(1.0)", "value": 24.2857, "units": "%g", "flag": "0", "ln_sigma": 0.0}, {"name": "sa(3.0)", "value": 2.2143, "units": "%g", "flag": "0", "ln_sigma": 0.0}, {"name": "sa(0.3)", "value": 119.3878, "units": "%g", "flag": "0", "ln_sigma": 0.0}]}, {"name": "Z", "amplitudes": [{"name": "pga", "value": 20.102, "units": "%g", "flag": "0", "ln_sigma": 0.0}, {"name": "pgv", "value": 8.98, "units": "cm/s", "flag": "0", "ln_sigma": 0.0}, {"name": "sa(1.0)", "value": 11.9388, "units": "%g", "flag": "0", "ln_sigma": 0.0}, {"name": "sa(3.0)", "value": 1.1429, "units": "%g", "flag": "0", "ln_sigma": 0.0}, {"name": "sa(0.3)", "value": 48.9796, "units": "%g", "flag": "0", "ln_sigma": 0.0}]}], "station_type": "seismic", "nresp": "null", "predictions": [{"name": "pgv", "value": 18.3195, "value_rock": 11.2808, "value_soil": 24.9923, "units": "cm/s", "ln_tau": 0.0, "ln_phi": 0.5989, "ln_sigma": 0.5989, "ln_sigma_rock": 0.7191, "ln_sigma_soil": 0.7089, "ln_bias": 0.7343, "ln_bias_sigma": 0.134}, {"name": "sa(0.3)", "value": 64.6287, "value_rock": 41.4427, "value_soil": 69.2194, "units": "%g", "ln_tau": 0.0, "ln_phi": 0.6249, "ln_sigma": 0.6249, "ln_sigma_rock": 0.757, "ln_sigma_soil": 0.7292, "ln_bias": 0.4546, "ln_bias_sigma": 0.1346}, {"name": "sa(1.0)", "value": 19.2629, "value_rock": 9.8521, "value_soil": 29.1718, "units": "%g", "ln_tau": 0.0, "ln_phi": 0.6607, "ln_sigma": 0.6607, "ln_sigma_rock": 0.7931, "ln_sigma_soil": 0.7834, "ln_bias": 0.6622, "ln_bias_sigma": 0.1509}, {"name": "pga", "value": 32.7108, "value_rock": 26.825, "value_soil": 31.984, "units": "%g", "ln_tau": 0.0, "ln_phi": 0.5816, "ln_sigma": 0.5816, "ln_sigma_rock": 0.7047, "ln_sigma_soil": 0.6828, "ln_bias": 0.4811, "ln_bias_sigma": 0.123}, {"name": "sa(3.0)", "value": 3.085, "value_rock": 1.7096, "value_soil": 4.8701, "units": "%g", "ln_tau": 0.0, "ln_phi": 0.6546, "ln_sigma": 0.6546, "ln_sigma_rock": 0.7848, "ln_sigma_soil": 0.7837, "ln_bias": 0.6821, "ln_bias_sigma": 0.167}, {"name": "mmi", "value": 6.7635, "value_rock": 6.4448, "value_soil": 6.7274, "units": "intensity", "tau": 0.0, "phi": 1.0851, "sigma": 1.0851, "sigma_rock": 1.3107, "sigma_soil": 1.2804, "bias": 0.1723, "bias_sigma": 0.1347}], "mmi_from_pgm": [{"name": "pgv", "value": 7.44, "sigma": 0.63, "flag": "0"}, {"name": "sa(0.3)", "value": 8.1, "sigma": 0.82, "flag": "0"}, {"name": "sa(1.0)", "value": 7.13, "sigma": 0.75, "flag": "0"}, {"name": "pga", "value": 6.47, "sigma": 0.66, "flag": "0"}, {"name": "sa(3.0)", "value": 6.99, "sigma": 0.89, "flag": "0"}], "distance_stddev": 0.0, "distances": {"repi": 7.07, "rhypo": 13.245, "rjb": 0.953, "rjb_var": 0.0, "rrup": 9.706, "rrup_var": 0.0, "rx": 7.619, "ry0": 0.0, "rvolc": 0.0}}, "geometry": {"type": "Point", "coordinates": [22.1, 37.033]}}, {"type": "Feature", "id": "NOA.SPAA", "properties": {"code": "SPAA", "name": "", "instrumentType": "UNK", "source": "NOA", "network": "NOA", "commType": "UNK", "location": "", "intensity": 5.4, "intensity_flag": "", "intensity_stddev": 0.63, "pga": 4.7, "pgv": 6.88, "distance": 19.605, "elev": null, "vs30": 363.21, "channels": [{"name": "H1", "amplitudes": [{"name": "pga", "value": 4.7, "units": "%g", "flag": "0", "ln_sigma": 0.0}, {"name": "pgv", "value": 6.88, "units": "cm/s", "flag": "0", "ln_sigma": 0.0}]}, {"name": "H2", "amplitudes": [{"name": "pga", "value": 4.1, "units": "%g", "flag": "0", "ln_sigma": 0.0}, {"name": "pgv", "value": 5.24, "units": "cm/s", "flag": "0", "ln_sigma": 0.0}]}], "station_type": "seismic", "nresp": "null", "predictions": [{"name": "pgv", "value": 7.2419, "value_rock": 4.515, "value_soil": 11.1344, "units": "cm/s", "ln_tau": 0.0, "ln_phi": 0.6, "ln_sigma": 0.6, "ln_sigma_rock": 0.7191, "ln_sigma_soil": 0.7114, "ln_bias": 0.7346, "ln_bias_sigma": 0.1341}, {"name": "sa(0.3)", "value": 25.8561, "value_rock": 15.648, "value_soil": 33.8628, "units": "%g", "ln_tau": 0.0, "ln_phi": 0.6293, "ln_sigma": 0.6293, "ln_sigma_rock": 0.7571, "ln_sigma_soil": 0.7393, "ln_bias": 0.4552, "ln_bias_sigma": 0.1347}, {"name": "sa(1.0)", "value": 8.0163, "value_rock": 4.1687, "value_soil": 14.2334, "units": "%g", "ln_tau": 0.0, "ln_phi": 0.6619, "ln_sigma": 0.6619, "ln_sigma_rock": 0.7931, "ln_sigma_soil": 0.7871, "ln_bias": 0.6625, "ln_bias_sigma": 0.1509}, {"name": "pga", "value": 12.9524, "value_rock": 10.1098, "value_soil": 14.255, "units": "%g", "ln_tau": 0.0, "ln_phi": 0.5857, "ln_sigma": 0.5857, "ln_sigma_rock": 0.7049, "ln_sigma_soil": 0.6904, "ln_bias": 0.4818, "ln_bias_sigma": 0.1231}, {"name": "sa(3.0)", "value": 1.4237, "value_rock": 0.8217, "value_soil": 2.4607, "units": "%g", "ln_tau": 0.0, "ln_phi": 0.6554, "ln_sigma": 0.6554, "ln_sigma_rock": 0.7848, "ln_sigma_soil": 0.7838, "ln_bias": 0.6824, "ln_bias_sigma": 0.167}, {"name": "mmi", "value": 5.5731, "value_rock": 5.1749, "value_soil": 5.7271, "units": "intensity", "tau": 0.0, "phi": 1.0907, "sigma": 1.0907, "sigma_rock": 1.311, "sigma_soil": 1.2908, "bias": 0.1724, "bias_sigma": 0.1347}], "mmi_from_pgm": [{"name": "pgv", "value": 5.36, "sigma": 0.63, "flag": "0"}, {"name": "sa(0.3)", "value": null, "sigma": null, "flag": "0"}, {"name": "sa(1.0)", "value": null, "sigma": null, "flag": "0"}, {"name": "pga", "value": 3.94, "sigma": 0.66, "flag": "0"}, {"name": "sa(3.0)", "value": null, "sigma": null, "flag": "0"}], "distance_stddev": 0.0, "distances": {"repi": 23.707, "rhypo": 26.219, "rjb": 18.673, "rjb_var": 0.0, "rrup": 19.605, "rrup_var": 0.0, "rx": -17.019, "ry0": 7.576, "rvolc": 0.0}}, "geometry": {"type": "Point", "coordinates": [22.43, 37.08]}}, {"type": "Feature", "id": "G.PYR1", "properties": {"code": "PYR1", "name": "Pyrgos-Agriculture Bank", "instrumentType": "UNK", "source": "G", "network": "G", "commType": "UNK", "location": "", "intensity": 3.8, "intensity_flag": "", "intensity_stddev": 0.63, "pga": 1.4184, "pgv": 1.28, "distance": 89.897, "elev": null, "vs30": 310.56, "channels": [{"name": "E", "amplitudes": [{"name": "pga", "value": 1.4184, "units": "%g", "flag": "0", "ln_sigma": 0.0}, {"name": "pgv", "value": 1.28, "units": "cm/s", "flag": "0", "ln_sigma": 0.0}, {"name": "sa(1.0)", "value": 1.0143, "units": "%g", "flag": "0", "ln_sigma": 0.0}, {"name": "sa(3.0)", "value": 0.3337, "units": "%g", "flag": "0", "ln_sigma": 0.0}, {"name": "sa(0.3)", "value": 5.0102, "units": "%g", "flag": "0", "ln_sigma": 0.0}]}, {"name": "N", "amplitudes": [{"name": "pga", "value": 1.1633, "units": "%g", "flag": "0", "ln_sigma": 0.0}, {"name": "pgv", "value": 1.12, "units": "cm/s", "flag": "0", "ln_sigma": 0.0}, {"name": "sa(1.0)", "value": 1.4592, "units": "%g", "flag": "0", "ln_sigma": 0.0}, {"name": "sa(3.0)", "value": 0.5398, "units": "%g", "flag": "0", "ln_sigma": 0.0}, {"name": "sa(0.3)", "value": 3.4592, "units": "%g", "flag": "0", "ln_sigma": 0.0}]}, {"name": "Z", "amplitudes": [{"name": "pga", "value": 1.0071, "units": "%g", "flag": "0", "ln_sigma": 0.0}, {"name": "pgv", "value": 0.525, "units": "cm/s", "flag": "0", "ln_sigma": 0.0}, {"name": "sa(1.0)", "value": 0.5153, "units": "%g", "flag": "0", "ln_sigma": 0.0}, {"name": "sa(3.0)", "value": 0.1357, "units": "%g", "flag": "0", "ln_sigma": 0.0}, {"name": "sa(0.3)", "value": 2.0102, "units": "%g", "flag": "0", "ln_sigma": 0.0}]}], "station_type": "seismic", "nresp": "null", "predictions": [{"name": "pgv", "value": 1.3197, "value_rock": 0.7292, "value_soil": 1.9687, "units": "cm/s", "ln_tau": 0.0, "ln_phi": 0.6, "ln_sigma": 0.6, "ln_sigma_rock": 0.7191, "ln_sigma_soil": 0.7146, "ln_bias": 0.7346, "ln_bias_sigma": 0.1341}, {"name": "sa(0.3)", "value": 4.2722, "value_rock": 2.2259, "value_soil": 5.9437, "units": "%g", "ln_tau": 0.0, "ln_phi": 0.6315, "ln_sigma": 0.6315, "ln_sigma_rock": 0.7572, "ln_sigma_soil": 0.7521, "ln_bias": 0.4556, "ln_bias_sigma": 0.1347}, {"name": "sa(1.0)", "value": 1.722, "value_rock": 0.7596, "value_soil": 2.9256, "units": "%g", "ln_tau": 0.0, "ln_phi": 0.6618, "ln_sigma": 0.6618, "ln_sigma_rock": 0.7932, "ln_sigma_soil": 0.7908, "ln_bias": 0.6624, "ln_bias_sigma": 0.1509}, {"name": "pga", "value": 1.8379, "value_rock": 1.318, "value_soil": 2.1377, "units": "%g", "ln_tau": 0.0, "ln_phi": 0.588, "ln_sigma": 0.588, "ln_sigma_rock": 0.7051, "ln_sigma_soil": 0.7001, "ln_bias": 0.4822, "ln_bias_sigma": 0.1231}, {"name": "sa(3.0)", "value": 0.3286, "value_rock": 0.1668, "value_soil": 0.5234, "units": "%g", "ln_tau": 0.0, "ln_phi": 0.6547, "ln_sigma": 0.6547, "ln_sigma_rock": 0.7848, "ln_sigma_soil": 0.7839, "ln_bias": 0.6821, "ln_bias_sigma": 0.167}, {"name": "mmi", "value": 3.7896, "value_rock": 3.5658, "value_soil": 3.8913, "units": "intensity", "tau": 0.0, "phi": 0.6786, "sigma": 0.6786, "sigma_rock": 0.813, "sigma_soil": 0.811, "bias": 0.1633, "bias_sigma": 0.1311}], "mmi_from_pgm": [{"name": "pgv", "value": 3.76, "sigma": 0.63, "flag": "0"}, {"name": "sa(0.3)", "value": 4.24, "sigma": 0.82, "flag": "0"}, {"name": "sa(1.0)", "value": 3.82, "sigma": 0.75, "flag": "0"}, {"name": "pga", "value": 3.62, "sigma": 0.66, "flag": "0"}, {"name": "sa(3.0)", "value": 4.19, "sigma": 0.89, "flag": "0"}], "distance_stddev": 0.0, "distances": {"repi": 97.863, "rhypo": 98.502, "rjb": 88.392, "rjb_var": 0.0, "rrup": 89.897, "rrup_var": 0.0, "rx": 89.638, "ry0": 32.304, "rvolc": 0.0}}, "geometry": {"type": "Point", "coordinates": [21.438, 37.67]}}, {"type": "Feature", "id": "G.GHI", "properties": {"code": "GHI", "name": "Githio-Police Station", "instrumentType": "UNK", "source": "G", "network": "G", "commType": "UNK", "location": "", "intensity": 3.9, "intensity_flag": "", "intensity_stddev": 0.63, "pga": 0.7255, "pgv": 1.72, "distance": 44.419, "elev": null, "vs30": 562.62, "channels": [{"name": "E", "amplitudes": [{"name": "pga", "value": 0.5725, "units": "%g", "flag": "0", "ln_sigma": 0.0}, {"name": "pgv", "value": 1.72, "units": "cm/s", "flag": "0", "ln_sigma": 0.0}, {"name": "sa(1.0)", "value": 1.4592, "units": "%g", "flag": "0", "ln_sigma": 0.0}, {"name": "sa(3.0)", "value": 1.1224, "units": "%g", "flag": "0", "ln_sigma": 0.0}, {"name": "sa(0.3)", "value": 1.1837, "units": "%g", "flag": "0", "ln_sigma": 0.0}]}, {"name": "N", "amplitudes": [{"name": "pga", "value": 0.7255, "units": "%g", "flag": "0", "ln_sigma": 0.0}, {"name": "pgv", "value": 0.971, "units": "cm/s", "flag": "0", "ln_sigma": 0.0}, {"name": "sa(1.0)", "value": 0.9929, "units": "%g", "flag": "0", "ln_sigma": 0.0}, {"name": "sa(3.0)", "value": 0.2796, "units": "%g", "flag": "0", "ln_sigma": 0.0}, {"name": "sa(0.3)", "value": 1.4694, "units": "%g", "flag": "0", "ln_sigma": 0.0}]}, {"name": "Z", "amplitudes": [{"name": "pga", "value": 0.6327, "units": "%g", "flag": "0", "ln_sigma": 0.0}, {"name": "pgv", "value": 1.91, "units": "cm/s", "flag": "0", "ln_sigma": 0.0}, {"name": "sa(1.0)", "value": 0.8306, "units": "%g", "flag": "0", "ln_sigma": 0.0}, {"name": "sa(3.0)", "value": 1.051, "units": "%g", "flag": "0", "ln_sigma": 0.0}, {"name": "sa(0.3)", "value": 0.9857, "units": "%g", "flag": "0", "ln_sigma": 0.0}]}], "station_type": "seismic", "nresp": "null", "predictions": [{"name": "pgv", "value": 2.1353, "value_rock": 1.7171, "value_soil": 4.4996, "units": "cm/s", "ln_tau": 0.0, "ln_phi": 0.6006, "ln_sigma": 0.6006, "ln_sigma_rock": 0.7191, "ln_sigma_soil": 0.7136, "ln_bias": 0.7348, "ln_bias_sigma": 0.1341}, {"name": "sa(0.3)", "value": 7.3459, "value_rock": 5.6664, "value_soil": 14.1488, "units": "%g", "ln_tau": 0.0, "ln_phi": 0.6322, "ln_sigma": 0.6322, "ln_sigma_rock": 0.7572, "ln_sigma_soil": 0.7479, "ln_bias": 0.4557, "ln_bias_sigma": 0.1348}, {"name": "sa(1.0)", "value": 2.2652, "value_rock": 1.6872, "value_soil": 6.2447, "units": "%g", "ln_tau": 0.0, "ln_phi": 0.6624, "ln_sigma": 0.6624, "ln_sigma_rock": 0.7932, "ln_sigma_soil": 0.7897, "ln_bias": 0.6626, "ln_bias_sigma": 0.1509}, {"name": "pga", "value": 4.069, "value_rock": 3.5655, "value_soil": 5.528, "units": "%g", "ln_tau": 0.0, "ln_phi": 0.5885, "ln_sigma": 0.5885, "ln_sigma_rock": 0.7051, "ln_sigma_soil": 0.6968, "ln_bias": 0.4823, "ln_bias_sigma": 0.1231}, {"name": "sa(3.0)", "value": 0.4561, "value_rock": 0.3586, "value_soil": 1.1072, "units": "%g", "ln_tau": 0.0, "ln_phi": 0.6554, "ln_sigma": 0.6554, "ln_sigma_rock": 0.7848, "ln_sigma_soil": 0.7838, "ln_bias": 0.6824, "ln_bias_sigma": 0.167}, {"name": "mmi", "value": 4.0748, "value_rock": 3.9234, "value_soil": 4.5672, "units": "intensity", "tau": 0.0, "phi": 1.0946, "sigma": 1.0946, "sigma_rock": 0.8129, "sigma_soil": 1.2998, "bias": 0.1724, "bias_sigma": 0.1347}], "mmi_from_pgm": [{"name": "pgv", "value": 3.95, "sigma": 0.63, "flag": "0"}, {"name": "sa(0.3)", "value": 3.16, "sigma": 0.82, "flag": "0"}, {"name": "sa(1.0)", "value": 3.97, "sigma": 0.75, "flag": "0"}, {"name": "pga", "value": 2.85, "sigma": 0.66, "flag": "0"}, {"name": "sa(3.0)", "value": 4.84, "sigma": 0.89, "flag": "0"}], "distance_stddev": 0.0, "distances": {"repi": 45.223, "rhypo": 46.59, "rjb": 44.032, "rjb_var": 0.0, "rrup": 44.419, "rrup_var": 0.0, "rx": -42.937, "ry0": 9.617, "rvolc": 0.0}}, "geometry": {"type": "Point", "coordinates": [22.567, 36.754]}}, {"type": "Feature", "id": "G.KAL2", "properties": {"code": "KAL2", "name": "Kalamata-Prefecture", "instrumentType": "UNK", "source": "G", "network": "G", "commType": "UNK", "location": "", "intensity": 7.5, "intensity_flag": "", "intensity_stddev": 0.63, "pga": 29.6939, "pgv": 32.7, "distance": 8.393, "elev": null, "vs30": 323.77, "channels": [{"name": "E", "amplitudes": [{"name": "pga", "value": 21.5306, "units": "%g", "flag": "0", "ln_sigma": 0.0}, {"name": "pgv", "value": 32.7, "units": "cm/s", "flag": "0", "ln_sigma": 0.0}, {"name": "sa(1.0)", "value": 33.4694, "units": "%g", "flag": "0", "ln_sigma": 0.0}, {"name": "sa(3.0)", "value": 4.3367, "units": "%g", "flag": "0", "ln_sigma": 0.0}, {"name": "sa(0.3)", "value": 61.8367, "units": "%g", "flag": "0", "ln_sigma": 0.0}]}, {"name": "N", "amplitudes": [{"name": "pga", "value": 29.6939, "units": "%g", "flag": "0", "ln_sigma": 0.0}, {"name": "pgv", "value": 32.3, "units": "cm/s", "flag": "0", "ln_sigma": 0.0}, {"name": "sa(1.0)", "value": 34.7959, "units": "%g", "flag": "0", "ln_sigma": 0.0}, {"name": "sa(3.0)", "value": 3.0714, "units": "%g", "flag": "0", "ln_sigma": 0.0}, {"name": "sa(0.3)", "value": 104.0816, "units": "%g", "flag": "0", "ln_sigma": 0.0}]}, {"name": "Z", "amplitudes": [{"name": "pga", "value": 33.1633, "units": "%g", "flag": "0", "ln_sigma": 0.0}, {"name": "pgv", "value": 14.9, "units": "cm/s", "flag": "0", "ln_sigma": 0.0}, {"name": "sa(1.0)", "value": 13.0612, "units": "%g", "flag": "0", "ln_sigma": 0.0}, {"name": "sa(3.0)", "value": 1.2245, "units": "%g", "flag": "0", "ln_sigma": 0.0}, {"name": "sa(0.3)", "value": 67.7551, "units": "%g", "flag": "0", "ln_sigma": 0.0}]}], "station_type": "seismic", "nresp": "null", "predictions": [{"name": "pgv", "value": 20.148, "value_rock": 12.2672, "value_soil": 27.0475, "units": "cm/s", "ln_tau": 0.0, "ln_phi": 0.5986, "ln_sigma": 0.5986, "ln_sigma_rock": 0.7191, "ln_sigma_soil": 0.7085, "ln_bias": 0.7342, "ln_bias_sigma": 0.134}, {"name": "sa(0.3)", "value": 70.0189, "value_rock": 44.8566, "value_soil": 73.7184, "units": "%g", "ln_tau": 0.0, "ln_phi": 0.6237, "ln_sigma": 0.6237, "ln_sigma_rock": 0.757, "ln_sigma_soil": 0.7278, "ln_bias": 0.4544, "ln_bias_sigma": 0.1346}, {"name": "sa(1.0)", "value": 21.2765, "value_rock": 10.7025, "value_soil": 31.5189, "units": "%g", "ln_tau": 0.0, "ln_phi": 0.6605, "ln_sigma": 0.6605, "ln_sigma_rock": 0.7931, "ln_sigma_soil": 0.7828, "ln_bias": 0.6621, "ln_bias_sigma": 0.1509}, {"name": "pga", "value": 35.1287, "value_rock": 28.8747, "value_soil": 34.0978, "units": "%g", "ln_tau": 0.0, "ln_phi": 0.5807, "ln_sigma": 0.5807, "ln_sigma_rock": 0.7047, "ln_sigma_soil": 0.6817, "ln_bias": 0.481, "ln_bias_sigma": 0.1229}, {"name": "sa(3.0)", "value": 3.3621, "value_rock": 1.8304, "value_soil": 5.2114, "units": "%g", "ln_tau": 0.0, "ln_phi": 0.6546, "ln_sigma": 0.6546, "ln_sigma_rock": 0.7848, "ln_sigma_soil": 0.7837, "ln_bias": 0.6821, "ln_bias_sigma": 0.167}, {"name": "mmi", "value": 6.8781, "value_rock": 6.5631, "value_soil": 6.8303, "units": "intensity", "tau": 0.0, "phi": 1.0838, "sigma": 1.0838, "sigma_rock": 1.3107, "sigma_soil": 1.2789, "bias": 0.1723, "bias_sigma": 0.1347}], "mmi_from_pgm": [{"name": "pgv", "value": 7.5, "sigma": 0.63, "flag": "0"}, {"name": "sa(0.3)", "value": 7.86, "sigma": 0.82, "flag": "0"}, {"name": "sa(1.0)", "value": 7.59, "sigma": 0.75, "flag": "0"}, {"name": "pga", "value": 6.61, "sigma": 0.66, "flag": "0"}, {"name": "sa(3.0)", "value": 6.97, "sigma": 0.89, "flag": "0"}], "distance_stddev": 0.0, "distances": {"repi": 5.28, "rhypo": 12.382, "rjb": 0.0, "rjb_var": 0.0, "rrup": 8.393, "rrup_var": 0.0, "rx": 5.86, "ry0": 0.0, "rvolc": 0.0}}, "geometry": {"type": "Point", "coordinates": [22.12, 37.03]}}, {"type": "Feature", "id": "INTENSITY.OBS_312", "properties": {"code": "OBS_312", "name": "LALOUKAS  ARGOLIDA(648)", "instrumentType": "OBSERVED", "source": "INTENSITY", "network": "INTENSITY", "commType": "UNK", "location": "", "intensity": 3.0, "intensity_flag": "0", "intensity_stddev": 0.3, "pga": "null", "pgv": "null", "distance": 78.423, "elev": null, "vs30": 222.14, "channels": [], "nresp": -1, "station_type": "macroseismic", "predictions": [{"name": "mmi", "value": 3.9137, "value_rock": 3.6376, "value_soil": 3.9591, "units": "intensity", "tau": 0.0, "phi": 0.6813, "sigma": 0.6813, "sigma_rock": 0.8178, "sigma_soil": 0.8156, "bias": 0.1634, "bias_sigma": 0.1312}, {"name": "pga", "value": 2.4176, "value_rock": 1.6044, "value_soil": 2.5862, "units": "%g", "ln_tau": 0.0, "ln_phi": 0.5948, "ln_sigma": 0.5948, "ln_sigma_rock": 0.7174, "ln_sigma_soil": 0.7119, "ln_bias": 0.4833, "ln_bias_sigma": 0.1232}, {"name": "sa(0.3)", "value": 6.2547, "value_rock": 2.6733, "value_soil": 7.0741, "units": "%g", "ln_tau": 0.0, "ln_phi": 0.6392, "ln_sigma": 0.6392, "ln_sigma_rock": 0.7707, "ln_sigma_soil": 0.7649, "ln_bias": 0.4567, "ln_bias_sigma": 0.1349}, {"name": "sa(1.0)", "value": 2.7579, "value_rock": 0.8844, "value_soil": 3.3879, "units": "%g", "ln_tau": 0.0, "ln_phi": 0.6711, "ln_sigma": 0.6711, "ln_sigma_rock": 0.8078, "ln_sigma_soil": 0.8052, "ln_bias": 0.6646, "ln_bias_sigma": 0.1512}, {"name": "sa(3.0)", "value": 0.4982, "value_rock": 0.193, "value_soil": 0.6042, "units": "%g", "ln_tau": 0.0, "ln_phi": 0.6642, "ln_sigma": 0.6642, "ln_sigma_rock": 0.7992, "ln_sigma_soil": 0.7985, "ln_bias": 0.6851, "ln_bias_sigma": 0.1673}, {"name": "pgv", "value": 1.9714, "value_rock": 0.8579, "value_soil": 2.3069, "units": "cm/s", "ln_tau": 0.0, "ln_phi": 0.6078, "ln_sigma": 0.6078, "ln_sigma_rock": 0.7329, "ln_sigma_soil": 0.7281, "ln_bias": 0.7368, "ln_bias_sigma": 0.1343}], "pgm_from_mmi": [{"name": "pgv", "value": null, "units": "cm/s", "ln_sigma": null, "flag": "0"}, {"name": "sa(0.3)", "value": null, "units": "%g", "ln_sigma": null, "flag": "0"}, {"name": "sa(1.0)", "value": null, "units": "%g", "ln_sigma": null, "flag": "0"}, {"name": "pga", "value": null, "units": "%g", "ln_sigma": null, "flag": "0"}, {"name": "