{"type": "FeatureCollection", "features": [{"type": "Feature", "id": "KNET.HKD110", "properties": {"code": "HKD110", "name": "HKD110", "instrumentType": "UNK", "source": "KNET", "network": "KNET", "commType": "UNK", "location": "", "intensity": 5.5, "intensity_flag": "", "intensity_stddev": 0.63, "pga": 3.6037, "pgv": 8.9265, "distance": 258.448, "elev": null, "vs30": 293.0, "channels": [{"name": "E", "amplitudes": [{"name": "sa(1.0)", "value": 4.739, "units": "%g", "flag": "0", "ln_sigma": 0.0}, {"name": "pga", "value": 3.2958, "units": "%g", "flag": "0", "ln_sigma": 0.0}, {"name": "pgv", "value": 8.9265, "units": "cm/s", "flag": "0", "ln_sigma": 0.0}, {"name": "sa(3.0)", "value": 3.376, "units": "%g", "flag": "0", "ln_sigma": 0.0}, {"name": "sa(0.3)", "value": 5.0829, "units": "%g", "flag": "0", "ln_sigma": 0.0}]}, {"name": "N", "amplitudes": [{"name": "sa(1.0)", "value": 5.866, "units": "%g", "flag": "0", "ln_sigma": 0.0}, {"name": "pga", "value": 3.6037, "units": "%g", "flag": "0", "ln_sigma": 0.0}, {"name": "pgv", "value": 5.5174, "units": "cm/s", "flag": "0", "ln_sigma": 0.0}, {"name": "sa(3.0)", "value": 2.0831, "units": "%g", "flag": "0", "ln_sigma": 0.0}, {"name": "sa(0.3)", "value": 5.2479, "units": "%g", "flag": "0", "ln_sigma": 0.0}]}], "station_type": "seismic", "nresp": "null", "predictions": [{"name": "sa(0.3)", "value": 12.208, "value_rock": 7.4324, "value_soil": 13.4753, "units": "%g", "ln_tau": 0.3749, "ln_phi": 0.6238, "ln_sigma": 0.7278, "ln_sigma_rock": 0.73, "ln_sigma_soil": 0.7312, "ln_bias": 0.223, "ln_bias_sigma": 0.083}, {"name": "sa(1.0)", "value": 7.1781, "value_rock": 3.6923, "value_soil": 9.105, "units": "%g", "ln_tau": 0.4173, "ln_phi": 0.6327, "ln_sigma": 0.7579, "ln_sigma_rock": 0.7652, "ln_sigma_soil": 0.7652, "ln_bias": -0.0084, "ln_bias_sigma": 0.0906}, {"name": "pgv", "value": 6.9744, "value_rock": 3.5875, "value_soil": 8.8466, "units": "cm/s", "ln_tau": 0.4173, "ln_phi": 0.8106, "ln_sigma": 0.9117, "ln_sigma_rock": 0.9198, "ln_sigma_soil": 0.9198, "ln_bias": 0.0382, "ln_bias_sigma": 0.1138}, {"name": "sa(3.0)", "value": 2.4106, "value_rock": 1.4498, "value_soil": 3.2639, "units": "%g", "ln_tau": 0.3974, "ln_phi": 0.6182, "ln_sigma": 0.7349, "ln_sigma_rock": 0.7574, "ln_sigma_soil": 0.7574, "ln_bias": -0.1243, "ln_bias_sigma": 0.093}, {"name": "pga", "value": 4.8768, "value_rock": 4.1972, "value_soil": 5.6172, "units": "%g", "ln_tau": 0.3715, "ln_phi": 0.5623, "ln_sigma": 0.6739, "ln_sigma_rock": 0.677, "ln_sigma_soil": 0.6781, "ln_bias": 0.2559, "ln_bias_sigma": 0.0755}, {"name": "mmi", "value": 4.9249, "value_rock": 4.6838, "value_soil": 5.152, "units": "intensity", "tau": 0.5969, "phi": 1.1189, "sigma": 1.2682, "sigma_rock": 1.2724, "sigma_soil": 1.274, "bias": -0.0425, "bias_sigma": 0.1631}], "mmi_from_pgm": [{"name": "sa(0.3)", "value": 4.55, "sigma": 0.82, "flag": "0"}, {"name": "sa(1.0)", "value": 4.27, "sigma": 0.75, "flag": "0"}, {"name": "pgv", "value": 5.48, "sigma": 0.63, "flag": "0"}, {"name": "sa(3.0)", "value": 5.57, "sigma": 0.89, "flag": "0"}, {"name": "pga", "value": 4.49, "sigma": 0.66, "flag": "0"}], "distance_stddev": 0.0, "distances": {"repi": 431.711, "rhypo": 432.684, "rjb": 256.037, "rjb_var": 0.0, "rrup": 258.448, "rrup_var": 0.0, "rvolc": 0.0}}, "geometry": {"type": "Point", "coordinates": [142.7673, 42.1678]}}, {"type": "Feature", "id": "KNET.KNG009", "properties": {"code": "KNG009", "name": "KNG009", "instrumentType": "UNK", "source": "KNET", "network": "KNET", "commType": "UNK", "location": "", "intensity": 6.2, "intensity_flag": "", "intensity_stddev": 0.63, "pga": 15.4532, "pgv": 14.965, "distance": 196.835, "elev": null, "vs30": 166.3, "channels": [{"name": "E", "amplitudes": [{"name": "sa(1.0)", "value": 13.3744, "units": "%g", "flag": "0", "ln_sigma": 0.0}, {"name": "pga", "value": 11.7001, "units": "%g", "flag": "0", "ln_sigma": 0.0}, {"name": "pgv", "value": 13.2477, "units": "cm/s", "flag": "0", "ln_sigma": 0.0}, {"name": "sa(3.0)", "value": 3.9024, "units": "%g", "flag": "0", "ln_sigma": 0.0}, {"name": "sa(0.3)", "value": 30.0239, "units": "%g", "flag": "0", "ln_sigma": 0.0}]}, {"name": "N", "amplitudes": [{"name": "sa(1.0)", "value": 16.0615, "units": "%g", "flag": "0", "ln_sigma": 0.0}, {"name": "pga", "value": 15.4532, "units": "%g", "flag": "0", "ln_sigma": 0.0}, {"name": "pgv", "value": 14.965, "units": "cm/s", "flag": "0", "ln_sigma": 0.0}, {"name": "sa(3.0)", "value": 2.8312, "units": "%g", "flag": "0", "ln_sigma": 0.0}, {"name": "sa(0.3)", "value": 40.2421, "units": "%g", "flag": "0", "ln_sigma": 0.0}]}], "station_type": "seismic", "nresp": "null", "predictions": [{"name": "sa(0.3)", "value": 23.1978, "value_rock": 13.1735, "value_soil": 23.0926, "units": "%g", "ln_tau": 0.3749, "ln_phi": 0.6238, "ln_sigma": 0.7278, "ln_sigma_rock": 0.73, "ln_sigma_soil": 0.7312, "ln_bias": 0.223, "ln_bias_sigma": 0.083}, {"name": "sa(1.0)", "value": 16.8145, "value_rock": 6.0455, "value_soil": 14.7016, "units": "%g", "ln_tau": 0.4173, "ln_phi": 0.6327, "ln_sigma": 0.7579, "ln_sigma_rock": 0.7652, "ln_sigma_soil": 0.7652, "ln_bias": -0.0084, "ln_bias_sigma": 0.0906}, {"name": "pgv", "value": 16.3432, "value_rock": 5.876, "value_soil": 14.2895, "units": "cm/s", "ln_tau": 0.4173, "ln_phi": 0.8106, "ln_sigma": 0.9117, "ln_sigma_rock": 0.9198, "ln_sigma_soil": 0.9198, "ln_bias": 0.0382, "ln_bias_sigma": 0.1138}, {"name": "sa(3.0)", "value": 5.0815, "value_rock": 2.1005, "value_soil": 4.7287, "units": "%g", "ln_tau": 0.3974, "ln_phi": 0.6182, "ln_sigma": 0.7349, "ln_sigma_rock": 0.7574, "ln_sigma_soil": 0.7574, "ln_bias": -0.1243, "ln_bias_sigma": 0.093}, {"name": "pga", "value": 9.3106, "value_rock": 6.9432, "value_soil": 9.0655, "units": "%g", "ln_tau": 0.3715, "ln_phi": 0.5623, "ln_sigma": 0.6739, "ln_sigma_rock": 0.677, "ln_sigma_soil": 0.6781, "ln_bias": 0.2559, "ln_bias_sigma": 0.0755}, {"name": "mmi", "value": 5.8434, "value_rock": 5.3719, "value_soil": 5.8005, "units": "intensity", "tau": 0.5969, "phi": 1.1189, "sigma": 1.2682, "sigma_rock": 1.2724, "sigma_soil": 1.274, "bias": -0.0425, "bias_sigma": 0.1631}], "mmi_from_pgm": [{"name": "sa(0.3)", "value": 6.93, "sigma": 0.82, "flag": "0"}, {"name": "sa(1.0)", "value": 5.6, "sigma": 0.75, "flag": "0"}, {"name": "pgv", "value": 6.19, "sigma": 0.63, "flag": "0"}, {"name": "sa(3.0)", "value": 5.82, "sigma": 0.89, "flag": "0"}, {"name": "pga", "value": 6.66, "sigma": 0.66, "flag": "0"}], "distance_stddev": 0.0, "distances": {"repi": 415.282, "rhypo": 416.294, "rjb": 191.279, "rjb_var": 0.0, "rrup": 196.835, "rrup_var": 0.0, "rvolc": 0.0}}, "geometry": {"type": "Point", "coordinates": [139.3618, 35.4424]}}, {"type": "Feature", "id": "KIK.SZOH32", "properties": {"code": "SZOH32", "name": "SZOH32", "instrumentType": "UNK", "source": "KIK", "network": "KIK", "commType": "UNK", "location": "", "intensity": 4.7, "intensity_flag": "", "intensity_stddev": 0.63, "pga": 0.5934, "pgv": 5.1537, "distance": 335.056, "elev": null, "vs30": 775.5, "channels": [{"name": "E", "amplitudes": [{"name": "sa(1.0)", "value": 1.1438, "units": "%g", "flag": "0", "ln_sigma": 0.0}, {"name": "pga", "value": 0.5934, "units": "%g", "flag": "0", "ln_sigma": 0.0}, {"name": "pgv", "value": 5.1537, "units": "cm/s", "flag": "0", "ln_sigma": 0.0}, {"name": "sa(3.0)", "value": 0.9069, "units": "%g", "flag": "0", "ln_sigma": 0.0}, {"name": "sa(0.3)", "value": 1.6452, "units": "%g", "flag": "0", "ln_sigma": 0.0}]}, {"name": "N", "amplitudes": [{"name": "sa(1.0)", "value": 1.497, "units": "%g", "flag": "0", "ln_sigma": 0.0}, {"name": "pga", "value": 0.5106, "units": "%g", "flag": "0", "ln_sigma": 0.0}, {"name": "pgv", "value": 3.2005, "units": "cm/s", "flag": "0", "ln_sigma": 0.0}, {"name": "sa(3.0)", "value": 0.6608, "units": "%g", "flag": "0", "ln_sigma": 0.0}, {"name": "sa(0.3)", "value": 1.2324, "units": "%g", "flag": "0", "ln_sigma": 0.0}]}], "station_type": "seismic", "nresp": "null", "predictions": [{"name": "sa(0.3)", "value": 3.6081, "value_rock": 3.8648, "value_soil": 7.1831, "units": "%g", "ln_tau": 0.3749, "ln_phi": 0.6238, "ln_sigma": 0.7278, "ln_sigma_rock": 0.73, "ln_sigma_soil": 0.7312, "ln_bias": 0.223, "ln_bias_sigma": 0.083}, {"name": "sa(1.0)", "value": 1.985, "value_rock": 2.0927, "value_soil": 5.2137, "units": "%g", "ln_tau": 0.4173, "ln_phi": 0.6327, "ln_sigma": 0.7579, "ln_sigma_rock": 0.7652, "ln_sigma_soil": 0.7652, "ln_bias": -0.0084, "ln_bias_sigma": 0.0906}, {"name": "pgv", "value": 1.928, "value_rock": 2.0326, "value_soil": 5.064, "units": "cm/s", "ln_tau": 0.4173, "ln_phi": 0.8106, "ln_sigma": 0.9117, "ln_sigma_rock": 0.9198, "ln_sigma_soil": 0.9198, "ln_bias": 0.0382, "ln_bias_sigma": 0.1138}, {"name": "sa(3.0)", "value": 0.9045, "value_rock": 0.9523, "value_soil": 2.1438, "units": "%g", "ln_tau": 0.3974, "ln_phi": 0.6182, "ln_sigma": 0.7349, "ln_sigma_rock": 0.7574, "ln_sigma_soil": 0.7574, "ln_bias": -0.1243, "ln_bias_sigma": 0.093}, {"name": "pga", "value": 2.2006, "value_rock": 2.4094, "value_soil": 3.286, "units": "%g", "ln_tau": 0.3715, "ln_phi": 0.5623, "ln_sigma": 0.6739, "ln_sigma_rock": 0.677, "ln_sigma_soil": 0.6781, "ln_bias": 0.2559, "ln_bias_sigma": 0.0755}, {"name": "mmi", "value": 4.2237, "value_rock": 4.2847, "value_soil": 4.4936, "units": "intensity", "tau": 0.2501, "phi": 0.7608, "sigma": 0.8009, "sigma_rock": 0.8021, "sigma_soil": 0.8025, "bias": -0.0315, "bias_sigma": 0.1403}], "mmi_from_pgm": [{"name": "sa(0.3)", "value": 3.74, "sigma": 0.82, "flag": "0"}, {"name": "sa(1.0)", "value": 3.2, "sigma": 0.75, "flag": "0"}, {"name": "pgv", "value": 4.73, "sigma": 0.63, "flag": "0"}, {"name": "sa(3.0)", "value": 3.89, "sigma": 0.89, "flag": "0"}, {"name": "pga", "value": 3.34, "sigma": 0.66, "flag": "0"}], "distance_stddev": 0.0, "distances": {"repi": 544.987, "rhypo": 545.758, "rjb": 332.686, "rjb_var": 0.0, "rrup": 335.056, "rrup_var": 0.0, "rvolc": 0.0}}, "geometry": {"type": "Point", "coordinates": [137.8409, 35.0086]}}, {"type": "Feature", "id": "KIK.TCGH11", "properties": {"code": "TCGH11", "name": "TCGH11", "instrumentType": "UNK", "source": "KIK", "network": "KIK", "commType": "UNK", "location": "", "intensity": 6.4, "intensity_flag": "", "intensity_stddev": 0.63, "pga": 47.0692, "pgv": 17.915, "distance": 124.022, "elev": null, "vs30": 408.5, "channels": [{"name": "E", "amplitudes": [{"name": "sa(1.0)", "value": 8.1386, "units": "%g", "flag": "0", "ln_sigma": 0.0}, {"name": "pga", "value": 47.0692, "units": "%g", "flag": "0", "ln_sigma": 0.0}, {"name": "pgv", "value": 17.915, "units": "cm/s", "flag": "0", "ln_sigma": 0.0}, {"name": "sa(3.0)", "value": 3.3987, "units": "%g", "flag": "0", "ln_sigma": 0.0}, {"name": "sa(0.3)", "value": 110.2519, "units": "%g", "flag": "0", "ln_sigma": 0.0}]}, {"name": "N", "amplitudes": [{"name": "sa(1.0)", "value": 11.7421, "units": "%g", "flag": "0", "ln_sigma": 0.0}, {"name": "pga", "value": 41.4596, "units": "%g", "flag": "0", "ln_sigma": 0.0}, {"name": "pgv", "value": 15.318, "units": "cm/s", "flag": "0", "ln_sigma": 0.0}, {"name": "sa(3.0)", "value": 2.9893, "units": "%g", "flag": "0", "ln_sigma": 0.0}, {"name": "sa(0.3)", "value": 92.8857, "units": "%g", "flag": "0", "ln_sigma": 0.0}]}], "station_type": "seismic", "nresp": "null", "predictions": [{"name": "sa(0.3)", "value": 40.731, "value_rock": 28.486, "value_soil": 45.9296, "units": "%g", "ln_tau": 0.3749, "ln_phi": 0.6238, "ln_sigma": 0.7278, "ln_sigma_rock": 0.73, "ln_sigma_soil": 0.7312, "ln_bias": 0.223, "ln_bias_sigma": 0.083}, {"name": "sa(1.0)", "value": 16.631, "value_rock": 11.7122, "value_soil": 27.582, "units": "%g", "ln_tau": 0.4173, "ln_phi": 0.6327, "ln_sigma": 0.7579, "ln_sigma_rock": 0.7652, "ln_sigma_soil": 0.7652, "ln_bias": -0.0084, "ln_bias_sigma": 0.0906}, {"name": "pgv", "value": 16.1745, "value_rock": 11.3907, "value_soil": 26.8249, "units": "cm/s", "ln_tau": 0.4173, "ln_phi": 0.8106, "ln_sigma": 0.9117, "ln_sigma_rock": 0.9198, "ln_sigma_soil": 0.9198, "ln_bias": 0.0382, "ln_bias_sigma": 0.1138}, {"name": "sa(3.0)", "value": 4.5047, "value_rock": 3.496, "value_soil": 7.8704, "units": "%g", "ln_tau": 0.3974, "ln_phi": 0.6182, "ln_sigma": 0.7349, "ln_sigma_rock": 0.7574, "ln_sigma_soil": 0.7574, "ln_bias": -0.1243, "ln_bias_sigma": 0.093}, {"name": "pga", "value": 17.0536, "value_rock": 14.0982, "value_soil": 17.4324, "units": "%g", "ln_tau": 0.3715, "ln_phi": 0.5623, "ln_sigma": 0.6739, "ln_sigma_rock": 0.677, "ln_sigma_soil": 0.6781, "ln_bias": 0.2559, "ln_bias_sigma": 0.0755}, {"name": "mmi", "value": 6.6113, "value_rock": 6.3055, "value_soil": 6.6466, "units": "intensity", "tau": 0.5969, "phi": 1.1189, "sigma": 1.2682, "sigma_rock": 1.2724, "sigma_soil": 1.274, "bias": -0.0425, "bias_sigma": 0.1631}], "mmi_from_pgm": [{"name": "sa(0.3)", "value": 8.62, "sigma": 0.82, "flag": "0"}, {"name": "sa(1.0)", "value": 5.31, "sigma": 0.75, "flag": "0"}, {"name": "pgv", "value": 6.44, "sigma": 0.63, "flag": "0"}, {"name": "sa(3.0)", "value": 5.76, "sigma": 0.89, "flag": "0"}, {"name": "pga", "value": 8.24, "sigma": 0.66, "flag": "0"}], "distance_stddev": 0.0, "distances": {"repi": 289.724, "rhypo": 291.172, "rjb": 114.205, "rjb_var": 0.0, "rrup": 124.022, "rrup_var": 0.0, "rvolc": 0.0}}, "geometry": {"type": "Point", "coordinates": [139.7694, 36.7084]}}, {"type": "Feature", "id": "KNET.HKD121", "properties": {"code": "HKD121", "name": "HKD121", "instrumentType": "UNK", "source": "KNET", "network": "KNET", "commType": "UNK", "location": "", "intensity": 4.6, "intensity_flag": "", "intensity_stddev": 0.63, "pga": 1.2694, "pgv": 4.8098, "distance": 384.424, "elev": null, "vs30": 391.2, "channels": [{"name": "E", "amplitudes": [{"name": "sa(1.0)", "value": 2.4918, "units": "%g", "flag": "0", "ln_sigma": 0.0}, {"name": "pga", "value": 1.2694, "units": "%g", "flag": "0", "ln_sigma": 0.0}, {"name": "pgv", "value": 4.8098, "units": "cm/s", "flag": "0", "ln_sigma": 0.0}, {"name": "sa(3.0)", "value": 1.8835, "units": "%g", "flag": "0", "ln_sigma": 0.0}, {"name": "sa(0.3)", "value": 1.9555, "units": "%g", "flag": "0", "ln_sigma": 0.0}]}, {"name": "N", "amplitudes": [{"name": "sa(1.0)", "value": 3.6147, "units": "%g", "flag": "0", "ln_sigma": 0.0}, {"name": "pga", "value": 1.2016, "units": "%g", "flag": "0", "ln_sigma": 0.0}, {"name": "pgv", "value": 4.0763, "units": "cm/s", "flag": "0", "ln_sigma": 0.0}, {"name": "sa(3.0)", "value": 1.7657, "units": "%g", "flag": "0", "ln_sigma": 0.0}, {"name": "sa(0.3)", "value": 2.4473, "units": "%g", "flag": "0", "ln_sigma": 0.0}]}], "station_type": "seismic", "nresp": "null", "predictions": [{"name": "sa(0.3)", "value": 3.8593, "value_rock": 2.593, "value_soil": 4.8712, "units": "%g", "ln_tau": 0.3749, "ln_phi": 0.6238, "ln_sigma": 0.7278, "ln_sigma_rock": 0.73, "ln_sigma_soil": 0.7312, "ln_bias": 0.223, "ln_bias_sigma": 0.083}, {"name": "sa(1.0)", "value": 2.1261, "value_rock": 1.4762, "value_soil": 3.6941, "units": "%g", "ln_tau": 0.4173, "ln_phi": 0.6327, "ln_sigma": 0.7579, "ln_sigma_rock": 0.7652, "ln_sigma_soil": 0.7652, "ln_bias": -0.0084, "ln_bias_sigma": 0.0906}, {"name": "pgv", "value": 2.0647, "value_rock": 1.4336, "value_soil": 3.5874, "units": "cm/s", "ln_tau": 0.4173, "ln_phi": 0.8106, "ln_sigma": 0.9117, "ln_sigma_rock": 0.9198, "ln_sigma_soil": 0.9198, "ln_bias": 0.0382, "ln_bias_sigma": 0.1138}, {"name": "sa(3.0)", "value": 0.9612, "value_rock": 0.7373, "value_soil": 1.6599, "units": "%g", "ln_tau": 0.3974, "ln_phi": 0.6182, "ln_sigma": 0.7349, "ln_sigma_rock": 0.7574, "ln_sigma_soil": 0.7574, "ln_bias": -0.1243, "ln_bias_sigma": 0.093}, {"name": "pga", "value": 2.1724, "value_rock": 1.7325, "value_soil": 2.3824, "units": "%g", "ln_tau": 0.3715, "ln_phi": 0.5623, "ln_sigma": 0.6739, "ln_sigma_rock": 0.677, "ln_sigma_soil": 0.6781, "ln_bias": 0.2559, "ln_bias_sigma": 0.0755}, {"name": "mmi", "value": 4.215, "value_rock": 4.0627, "value_soil": 4.2771, "units": "intensity", "tau": 0.2501, "phi": 0.7608, "sigma": 0.8009, "sigma_rock": 0.8021, "sigma_soil": 0.8025, "bias": -0.0315, "bias_sigma": 0.1403}], "mmi_from_pgm": [{"name": "sa(0.3)", "value": 4.03, "sigma": 0.82, "flag": "0"}, {"name": "sa(1.0)", "value": 3.78, "sigma": 0.75, "flag": "0"}, {"name": "pgv", "value": 4.63, "sigma": 0.63, "flag": "0"}, {"name": "sa(3.0)", "value": 4.77, "sigma": 0.89, "flag": "0"}, {"name": "pga", "value": 3.85, "sigma": 0.66, "flag": "0"}], "distance_stddev": 0.0, "distances": {"repi": 561.689, "rhypo": 562.437, "rjb": 382.665, "rjb_var": 0.0, "rrup": 384.424, "rrup_var": 0.0, "rvolc": 0.0}}, "geometry": {"type": "Point", "coordinates": [141.8553, 43.3332]}}, {"type": "Feature", "id": "KNET.NIG012", "properties": {"code": "NIG012", "name": "NIG012", "instrumentType": "UNK", "source": "KNET", "network": "KNET", "commType": "UNK", "location": "", "intensity": 6.0, "intensity_flag": "", "intensity_stddev": 0.63, "pga": 8.789, "pgv": 13.3714, "distance": 170.417, "elev": null, "vs30": 641.3, "channels": [{"name": "E", "amplitudes": [{"name": "sa(1.0)", "value": 18.4063, "units": "%g", "flag": "0", "ln_sigma": 0.0}, {"name": "pga", "value": 7.3104, "units": "%g", "flag": "0", "ln_sigma": 0.0}, {"name": "pgv", "value": 13.3714, "units": "cm/s", "flag": "0", "ln_sigma": 0.0}, {"name": "sa(3.0)", "value": 3.6931, "units": "%g", "flag": "0", "ln_sigma": 0.0}, {"name": "sa(0.3)", "value": 14.8855, "units": "%g", "flag": "0", "ln_sigma": 0.0}]}, {"name": "N", "amplitudes": [{"name": "sa(1.0)", "value": 14.7907, "units": "%g", "flag": "0", "ln_sigma": 0.0}, {"name": "pga", "value": 8.789, "units": "%g", "flag": "0", "ln_sigma": 0.0}, {"name": "pgv", "value": 12.3241, "units": "cm/s", "flag": "0", "ln_sigma": 0.0}, {"name": "sa(3.0)", "value": 7.2843, "units": "%g", "flag": "0", "ln_sigma": 0.0}, {"name": "sa(0.3)", "value": 19.3934, "units": "%g", "flag": "0", "ln_sigma": 0.0}]}], "station_type": "seismic", "nresp": "null", "predictions": [{"name": "sa(0.3)", "value": 17.9076, "value_rock": 17.1653, "value_soil": 29.4469, "units": "%g", "ln_tau": 0.3749, "ln_phi": 0.6238, "ln_sigma": 0.7278, "ln_sigma_rock": 0.73, "ln_sigma_soil": 0.7312, "ln_bias": 0.223, "ln_bias_sigma": 0.083}, {"name": "sa(1.0)", "value": 8.0294, "value_rock": 7.5857, "value_soil": 18.285, "units": "%g", "ln_tau": 0.4173, "ln_phi": 0.6327, "ln_sigma": 0.7579, "ln_sigma_rock": 0.7652, "ln_sigma_soil": 0.7652, "ln_bias": -0.0084, "ln_bias_sigma": 0.0906}, {"name": "pgv", "value": 7.8058, "value_rock": 7.3744, "value_soil": 17.7758, "units": "cm/s", "ln_tau": 0.4173, "ln_phi": 0.8106, "ln_sigma": 0.9117, "ln_sigma_rock": 0.9198, "ln_sigma_soil": 0.9198, "ln_bias": 0.0382, "ln_bias_sigma": 0.1138}, {"name": "sa(3.0)", "value": 2.614, "value_rock": 2.4972, "value_soil": 5.6219, "units": "%g", "ln_tau": 0.3974, "ln_phi": 0.6182, "ln_sigma": 0.7349, "ln_sigma_rock": 0.7574, "ln_sigma_soil": 0.7574, "ln_bias": -0.1243, "ln_bias_sigma": 0.093}, {"name": "pga", "value": 9.0219, "value_rock": 8.8188, "value_soil": 11.3411, "units": "%g", "ln_tau": 0.3715, "ln_phi": 0.5623, "ln_sigma": 0.6739, "ln_sigma_rock": 0.677, "ln_sigma_soil": 0.6781, "ln_bias": 0.2559, "ln_bias_sigma": 0.0755}, {"name": "mmi", "value": 5.7289, "value_rock": 5.6923, "value_soil": 6.0965, "units": "intensity", "tau": 0.5969, "phi": 1.1189, "sigma": 1.2682, "sigma_rock": 1.2724, "sigma_soil": 1.274, "bias": -0.0425, "bias_sigma": 0.1631}], "mmi_from_pgm": [{"name": "sa(0.3)", "value": 5.58, "sigma": 0.82, "flag": "0"}, {"name": "sa(1.0)", "value": 5.8, "sigma": 0.75, "flag": "0"}, {"name": "pgv", "value": 6.03, "sigma": 0.63, "flag": "0"}, {"name": "sa(3.0)", "value": 6.68, "sigma": 0.89, "flag": "0"}, {"name": "pga", "value": 5.69, "sigma": 0.66, "flag": "0"}], "distance_stddev": 0.0, "distances": {"repi": 262.682, "rhypo": 264.278, "rjb": 163.032, "rjb_var": 0.0, "rrup": 170.417, "rrup_var": 0.0, "rvolc": 0.0}}, "geometry": {"type": "Point", "coordinates": [139.4772, 37.6863]}}, {"type": "Feature", "id": "KIK.NGNH07", "properties": {"code": "NGNH07", "name": "NGNH07", "instrumentType": "UNK", "source": "KIK", "network": "KIK", "comm