{"type": "FeatureCollection", "features": [{"type": "Feature", "id": "BO.HKD021", "properties": {"code": "HKD021", "name": "", "instrumentType": "UNK", "source": "BO", "network": "BO", "commType": "UNK", "location": "", "intensity": 4.5, "intensity_flag": "", "intensity_stddev": 0.63, "pga": 3.7573, "pgv": 3.8692, "distance": 134.913, "elev": null, "vs30": 419.8, "channels": [{"name": "HN2", "amplitudes": [{"name": "sa(3.0)", "value": 0.7546, "units": "%g", "flag": "0", "ln_sigma": 0.0}, {"name": "pgv", "value": 3.8692, "units": "cm/s", "flag": "0", "ln_sigma": 0.0}, {"name": "pga", "value": 3.6995, "units": "%g", "flag": "0", "ln_sigma": 0.0}, {"name": "sa(1.0)", "value": 6.3002, "units": "%g", "flag": "0", "ln_sigma": 0.0}, {"name": "sa(0.3)", "value": 10.1466, "units": "%g", "flag": "0", "ln_sigma": 0.0}]}, {"name": "HNZ", "amplitudes": [{"name": "sa(3.0)", "value": 0.4378, "units": "%g", "flag": "0", "ln_sigma": 0.0}, {"name": "pgv", "value": 2.0231, "units": "cm/s", "flag": "0", "ln_sigma": 0.0}, {"name": "pga", "value": 1.2098, "units": "%g", "flag": "0", "ln_sigma": 0.0}, {"name": "sa(1.0)", "value": 1.6197, "units": "%g", "flag": "0", "ln_sigma": 0.0}, {"name": "sa(0.3)", "value": 2.5195, "units": "%g", "flag": "0", "ln_sigma": 0.0}]}, {"name": "HN1", "amplitudes": [{"name": "sa(3.0)", "value": 0.4957, "units": "%g", "flag": "0", "ln_sigma": 0.0}, {"name": "pgv", "value": 3.2805, "units": "cm/s", "flag": "0", "ln_sigma": 0.0}, {"name": "pga", "value": 3.7573, "units": "%g", "flag": "0", "ln_sigma": 0.0}, {"name": "sa(1.0)", "value": 3.202, "units": "%g", "flag": "0", "ln_sigma": 0.0}, {"name": "sa(0.3)", "value": 13.9803, "units": "%g", "flag": "0", "ln_sigma": 0.0}]}], "station_type": "seismic", "nresp": "null", "predictions": [{"name": "pga", "value": 2.0453, "value_rock": 1.6887, "value_soil": 2.4627, "units": "%g", "ln_tau": 0.3786, "ln_phi": 0.5923, "ln_sigma": 0.703, "ln_sigma_rock": 0.7062, "ln_sigma_soil": 0.6979, "ln_bias": 0.3421, "ln_bias_sigma": 0.1043}, {"name": "sa(3.0)", "value": 0.3744, "value_rock": 0.2708, "value_soil": 0.6821, "units": "%g", "ln_tau": 0.3471, "ln_phi": 0.6338, "ln_sigma": 0.7226, "ln_sigma_rock": 0.7314, "ln_sigma_soil": 0.7313, "ln_bias": 0.3786, "ln_bias_sigma": 0.1199}, {"name": "sa(0.3)", "value": 4.6106, "value_rock": 3.2503, "value_soil": 6.8684, "units": "%g", "ln_tau": 0.3315, "ln_phi": 0.6493, "ln_sigma": 0.729, "ln_sigma_rock": 0.7349, "ln_sigma_soil": 0.7259, "ln_bias": 0.3234, "ln_bias_sigma": 0.1094}, {"name": "sa(1.0)", "value": 1.6578, "value_rock": 1.1466, "value_soil": 3.1131, "units": "%g", "ln_tau": 0.3612, "ln_phi": 0.6462, "ln_sigma": 0.7403, "ln_sigma_rock": 0.7438, "ln_sigma_soil": 0.7401, "ln_bias": 0.4147, "ln_bias_sigma": 0.1174}, {"name": "pgv", "value": 1.5445, "value_rock": 1.1227, "value_soil": 2.7172, "units": "cm/s", "ln_tau": 0.3559, "ln_phi": 0.7396, "ln_sigma": 0.8208, "ln_sigma_rock": 0.8241, "ln_sigma_soil": 0.8166, "ln_bias": 0.3413, "ln_bias_sigma": 0.1306}, {"name": "mmi", "value": 3.9394, "value_rock": 3.8104, "value_soil": 4.0644, "units": "intensity", "tau": 0.2549, "phi": 0.7711, "sigma": 0.8121, "sigma_rock": 0.8134, "sigma_soil": 0.8101, "bias": 0.2674, "bias_sigma": 0.1528}], "mmi_from_pgm": [{"name": "pga", "value": 4.35, "sigma": 0.66, "flag": "0"}, {"name": "sa(3.0)", "value": 4.14, "sigma": 0.89, "flag": "0"}, {"name": "sa(0.3)", "value": 5.1, "sigma": 0.82, "flag": "0"}, {"name": "sa(1.0)", "value": 4.71, "sigma": 0.75, "flag": "0"}, {"name": "pgv", "value": 4.46, "sigma": 0.63, "flag": "0"}], "distance_stddev": 14.878, "distances": {"repi": 141.476, "rhypo": 145.741, "rjb": 129.609, "rjb_var": 122.961, "rrup": 134.913, "rrup_var": 221.362, "rx": 0.0, "ry0": 0.0, "rvolc": 0.0}}, "geometry": {"type": "Point", "coordinates": [141.637, 43.9407]}}, {"type": "Feature", "id": "BO.HKD025", "properties": {"code": "HKD025", "name": "", "instrumentType": "UNK", "source": "BO", "network": "BO", "commType": "UNK", "location": "", "intensity": 3.4, "intensity_flag": "", "intensity_stddev": 0.63, "pga": 0.3044, "pgv": 0.8943, "distance": 227.246, "elev": null, "vs30": 760.0, "channels": [{"name": "HN2", "amplitudes": [{"name": "sa(3.0)", "value": 0.4525, "units": "%g", "flag": "0", "ln_sigma": 0.0}, {"name": "pgv", "value": 0.722, "units": "cm/s", "flag": "0", "ln_sigma": 0.0}, {"name": "pga", "value": 0.2597, "units": "%g", "flag": "0", "ln_sigma": 0.0}, {"name": "sa(1.0)", "value": 0.4172, "units": "%g", "flag": "0", "ln_sigma": 0.0}, {"name": "sa(0.3)", "value": 0.5348, "units": "%g", "flag": "0", "ln_sigma": 0.0}]}, {"name": "HNZ", "amplitudes": [{"name": "sa(3.0)", "value": 0.1579, "units": "%g", "flag": "0", "ln_sigma": 0.0}, {"name": "pgv", "value": 0.3071, "units": "cm/s", "flag": "0", "ln_sigma": 0.0}, {"name": "pga", "value": 0.1566, "units": "%g", "flag": "0", "ln_sigma": 0.0}, {"name": "sa(1.0)", "value": 0.4135, "units": "%g", "flag": "0", "ln_sigma": 0.0}, {"name": "sa(0.3)", "value": 0.3087, "units": "%g", "flag": "0", "ln_sigma": 0.0}]}, {"name": "HN1", "amplitudes": [{"name": "sa(3.0)", "value": 0.4101, "units": "%g", "flag": "0", "ln_sigma": 0.0}, {"name": "pgv", "value": 0.8943, "units": "cm/s", "flag": "0", "ln_sigma": 0.0}, {"name": "pga", "value": 0.3044, "units": "%g", "flag": "0", "ln_sigma": 0.0}, {"name": "sa(1.0)", "value": 0.8306, "units": "%g", "flag": "0", "ln_sigma": 0.0}, {"name": "sa(0.3)", "value": 0.4274, "units": "%g", "flag": "0", "ln_sigma": 0.0}]}], "station_type": "seismic", "nresp": "null", "predictions": [{"name": "pga", "value": 0.5597, "value_rock": 0.5597, "value_soil": 0.8314, "units": "%g", "ln_tau": 0.3792, "ln_phi": 0.5813, "ln_sigma": 0.694, "ln_sigma_rock": 0.6963, "ln_sigma_soil": 0.6906, "ln_bias": 0.3422, "ln_bias_sigma": 0.1043}, {"name": "sa(3.0)", "value": 0.1261, "value_rock": 0.1261, "value_soil": 0.3178, "units": "%g", "ln_tau": 0.3471, "ln_phi": 0.6312, "ln_sigma": 0.7203, "ln_sigma_rock": 0.7289, "ln_sigma_soil": 0.7289, "ln_bias": 0.3786, "ln_bias_sigma": 0.1199}, {"name": "sa(0.3)", "value": 1.1114, "value_rock": 1.1114, "value_soil": 2.4045, "units": "%g", "ln_tau": 0.3319, "ln_phi": 0.6424, "ln_sigma": 0.7231, "ln_sigma_rock": 0.7283, "ln_sigma_soil": 0.7228, "ln_bias": 0.3235, "ln_bias_sigma": 0.1094}, {"name": "sa(1.0)", "value": 0.4675, "value_rock": 0.4675, "value_soil": 1.2828, "units": "%g", "ln_tau": 0.3613, "ln_phi": 0.6399, "ln_sigma": 0.7349, "ln_sigma_rock": 0.7382, "ln_sigma_soil": 0.7357, "ln_bias": 0.4147, "ln_bias_sigma": 0.1174}, {"name": "pgv", "value": 0.4539, "value_rock": 0.4539, "value_soil": 1.1098, "units": "cm/s", "ln_tau": 0.356, "ln_phi": 0.7335, "ln_sigma": 0.8154, "ln_sigma_rock": 0.8182, "ln_sigma_soil": 0.8117, "ln_bias": 0.3413, "ln_bias_sigma": 0.1306}, {"name": "mmi", "value": 3.298, "value_rock": 3.298, "value_soil": 3.5644, "units": "intensity", "tau": 0.2553, "phi": 0.7673, "sigma": 0.8086, "sigma_rock": 0.8095, "sigma_soil": 0.8073, "bias": 0.2678, "bias_sigma": 0.1529}], "mmi_from_pgm": [{"name": "pga", "value": 2.89, "sigma": 0.66, "flag": "0"}, {"name": "sa(3.0)", "value": 3.75, "sigma": 0.89, "flag": "0"}, {"name": "sa(0.3)", "value": 2.84, "sigma": 0.82, "flag": "0"}, {"name": "sa(1.0)", "value": 3.08, "sigma": 0.75, "flag": "0"}, {"name": "pgv", "value": 3.42, "sigma": 0.63, "flag": "0"}], "distance_stddev": 13.966, "distances": {"repi": 236.584, "rhypo": 239.159, "rjb": 224.366, "rjb_var": 126.31, "rrup": 227.246, "rrup_var": 195.042, "rx": 0.0, "ry0": 0.0, "rvolc": 0.0}}, "geometry": {"type": "Point", "coordinates": [142.0717, 44.8116]}}, {"type": "Feature", "id": "BO.IBRH14", "properties": {"code": "IBRH14", "name": "", "instrumentType": "UNK", "source": "BO", "network": "BO", "commType": "UNK", "location": "", "intensity": 1.6, "intensity_flag": "", "intensity_stddev": 0.63, "pga": 0.0613, "pgv": 0.0574, "distance": 664.022, "elev": null, "vs30": 760.0, "channels": [{"name": "HN2", "amplitudes": [{"name": "sa(3.0)", "value": 0.029, "units": "%g", "flag": "0", "ln_sigma": 0.0}, {"name": "pgv", "value": 0.0574, "units": "cm/s", "flag": "0", "ln_sigma": 0.0}, {"name": "pga", "value": 0.0518, "units": "%g", "flag": "0", "ln_sigma": 0.0}, {"name": "sa(1.0)", "value": 0.0502, "units": "%g", "flag": "0", "ln_sigma": 0.0}, {"name": "sa(0.3)", "value": 0.0859, "units": "%g", "flag": "0", "ln_sigma": 0.0}]}, {"name": "HNZ", "amplitudes": [{"name": "sa(3.0)", "value": 0.0212, "units": "%g", "flag": "0", "ln_sigma": 0.0}, {"name": "pgv", "value": 0.043, "units": "cm/s", "flag": "0", "ln_sigma": 0.0}, {"name": "pga", "value": 0.0534, "units": "%g", "flag": "0", "ln_sigma": 0.0}, {"name": "sa(1.0)", "value": 0.0351, "units": "%g", "flag": "0", "ln_sigma": 0.0}, {"name": "sa(0.3)", "value": 0.0401, "units": "%g", "flag": "0", "ln_sigma": 0.0}]}, {"name": "HN1", "amplitudes": [{"name": "sa(3.0)", "value": 0.0249, "units": "%g", "flag": "0", "ln_sigma": 0.0}, {"name": "pgv", "value": 0.0386, "units": "cm/s", "flag": "0", "ln_sigma": 0.0}, {"name": "pga", "value": 0.0613, "units": "%g", "flag": "0", "ln_sigma": 0.0}, {"name": "sa(1.0)", "value": 0.0475, "units": "%g", "flag": "0", "ln_sigma": 0.0}, {"name": "sa(0.3)", "value": 0.1187, "units": "%g", "flag": "0", "ln_sigma": 0.0}]}], "station_type": "seismic", "nresp": "null", "predictions": [{"name": "pga", "value": 0.0202, "value_rock": 0.0202, "value_soil": 0.0303, "units": "%g", "ln_tau": 0.3793, "ln_phi": 0.5735, "ln_sigma": 0.6876, "ln_sigma_rock": 0.6898, "ln_sigma_soil": 0.6855, "ln_bias": 0.3422, "ln_bias_sigma": 0.1043}, {"name": "sa(3.0)", "value": 0.0159, "value_rock": 0.0159, "value_soil": 0.04, "units": "%g", "ln_tau": 0.3471, "ln_phi": 0.6275, "ln_sigma": 0.7171, "ln_sigma_rock": 0.7256, "ln_sigma_soil": 0.7256, "ln_bias": 0.3786, "ln_bias_sigma": 0.1199}, {"name": "sa(0.3)", "value": 0.0408, "value_rock": 0.0408, "value_soil": 0.0894, "units": "%g", "ln_tau": 0.3319, "ln_phi": 0.6369, "ln_sigma": 0.7182, "ln_sigma_rock": 0.7234, "ln_sigma_soil": 0.7197, "ln_bias": 0.3235, "ln_bias_sigma": 0.1094}, {"name": "sa(1.0)", "value": 0.0359, "value_rock": 0.0359, "value_soil": 0.0991, "units": "%g", "ln_tau": 0.3613, "ln_phi": 0.6363, "ln_sigma": 0.7317, "ln_sigma_rock": 0.7349, "ln_sigma_soil": 0.7333, "ln_bias": 0.4147, "ln_bias_sigma": 0.1174}, {"name": "pgv", "value": 0.0341, "value_rock": 0.0341, "value_soil": 0.084, "units": "cm/s", "ln_tau": 0.356, "ln_phi": 0.7301, "ln_sigma": 0.8123, "ln_sigma_rock": 0.8151, "ln_sigma_soil": 0.8093, "ln_bias": 0.3413, "ln_bias_sigma": 0.1306}, {"name": "mmi", "value": 1.0, "value_rock": 1.0, "value_soil": 1.11, "units": "intensity", "tau": 0.3426, "phi": 0.8391, "sigma": 0.9063, "sigma_rock": 0.9077, "sigma_soil": 0.905, "bias": 0.3186, "bias_sigma": 0.1667}], "mmi_from_pgm": [{"name": "pga", "value": 1.75, "sigma": 0.66, "flag": "0"}, {"name": "sa(3.0)", "value": 2.28, "sigma": 0.89, "flag": "0"}, {"name": "sa(0.3)", "value": 1.71, "sigma": 0.82, "flag": "0"}, {"name": "sa(1.0)", "value": 1.18, "sigma": 0.75, "flag": "0"}, {"name": "pgv", "value": 1.64, "sigma": 0.63, "flag": "0"}], "distance_stddev": 12.739, "distances": {"repi": 676.903, "rhypo": 677.807, "rjb": 664.339, "rjb_var": 128.902, "rrup": 664.022, "rrup_var": 162.287, "rx": 0.0, "ry0": 0.0, "rvolc": 0.0}}, "geometry": {"type": "Point", "coordinates": [140.5484, 36.6922]}}, {"type": "Feature", "id": "BO.HKD073", "properties": {"code": "HKD073", "name": "", "instrumentType": "UNK", "source": "BO", "network": "BO", "commType": "UNK", "location": "", "intensity": 2.4, "intensity_flag": "", "intensity_stddev": 0.63, "pga": 0.4407, "pgv": 0.1876, "distance": 296.362, "elev": null, "vs30": 760.0, "channels": [{"name": "HN2", "amplitudes": [{"name": "sa(3.0)", "value": 0.0528, "units": "%g", "flag": "0", "ln_sigma": 0.0}, {"name": "pgv", "value": 0.1876, "units": "cm/s", "flag": "0", "ln_sigma": 0.0}, {"name": "pga", "value": 0.4407, "units": "%g", "flag": "0", "ln_sigma": 0.0}, {"name": "sa(1.0)", "value": 0.1533, "units": "%g", "flag": "0", "ln_sigma": 0.0}, {"name": "sa(0.3)", "value": 0.6593, "units": "%g", "flag": "0", "ln_sigma": 0.0}]}, {"name": "HNZ", "amplitudes": [{"name": "sa(3.0)", "value": 0.0462, "units": "%g", "flag": "0", "ln_sigma": 0.0}, {"name": "pgv", "value": 0.1218, "units": "cm/s", "flag": "0", "ln_sigma": 0.0}, {"name": "pga", "value": 0.139, "units": "%g", "flag": "0", "ln_sigma": 0.0}, {"name": "sa(1.0)", "value": 0.1319, "units": "%g", "flag": "0", "ln_sigma": 0.0}, {"name": "sa(0.3)", "value": 0.399, "units": "%g", "flag": "0", "ln_sigma": 0.0}]}, {"name": "HN1", "amplitudes": [{"name": "sa(3.0)", "value": 0.0415, "units": "%g", "flag": "0", "ln_sigma": 0.0}, {"name": "pgv", "value": 0.1556, "units": "cm/s", "flag": "0", "ln_sigma": 0.0}, {"name": "pga", "value": 0.3738, "units": "%g", "flag": "0", "ln_sigma": 0.0}, {"name": "sa(1.0)", "value": 0.2262, "units": "%g", "flag": "0", "ln_sigma": 0.0}, {"name": "sa(0.3)", "value": 0.5421, "units": "%g", "flag": "0", "ln_sigma": 0.0}]}], "station_type": "seismic", "nresp": "null", "predictions": [{"name": "pga", "value": 0.2901, "value_rock": 0.2901, "value_soil": 0.4329, "units": "%g", "ln_tau": 0.3793, "ln_phi": 0.5787, "ln_sigma": 0.6919, "ln_sigma_rock": 0.6942, "ln_sigma_soil": 0.6892, "ln_bias": 0.3422, "ln_bias_sigma": 0.1043}, {"name": "sa(3.0)", "value": 0.0819, "value_rock": 0.0819, "value_soil": 0.2065, "units": "%g", "ln_tau": 0.3471, "ln_phi": 0.6294, "ln_sigma": 0.7188, "ln_sigma_rock": 0.7273, "ln_sigma_soil": 0.7273, "ln_bias": 0.3786, "ln_bias_sigma": 0.1199}, {"name": "sa(0.3)", "value": 0.5835, "value_rock": 0.5835, "value_soil": 1.2702, "units": "%g", "ln_tau": 0.3319, "ln_phi": 0.641, "ln_sigma": 0.7218, "ln_sigma_rock": 0.7271, "ln_sigma_soil": 0.7225, "ln_bias": 0.3235, "ln_bias_sigma": 0.1094}, {"name": "sa(1.0)", "value": 0.2782, "value_rock": 0.2782, "value_soil": 0.7654, "units": "%g", "ln_tau": 0.3613, "ln_phi": 0.6391, "ln_sigma": 0.7341, "ln_sigma_rock": 0.7374, "ln_sigma_soil": 0.7353, "ln_bias": 0.4147, "ln_bias_sigma": 0.1174}, {"name": "pgv", "value": 0.2687, "value_rock": 0.2687, "value_soil": 0.6591, "units": "cm/s", "ln_tau": 0.356, "ln_phi": 0.7326, "ln_sigma": 0.8145, "ln_sigma_rock": 0.8173, "ln_sigma_soil": 0.811, "ln_bias": 0.3413, "ln_bias_sigma": 0.1306}, {"name": "mmi", "value": 2.9732, "value_rock": 2.9732, "value_soil": 3.2428, "units": "intensity", "tau": 0.2553, "phi": 0.7664, "sigma": 0.8078, "sigma_rock": 0.8087, "sigma_soil": 0.8067, "bias": 0.2678, "bias_sigma": 0.1529}], "mmi_from_pgm": [{"name": "pga", "value": 3.25, "sigma": 0.66, "flag": "0"}, {"name": "sa(3.0)", "value": 2.59, "sigma": 0.89, "flag": "0"}, {"name": "sa(0.3)", "value": 3.06, "sigma": 0.82, "flag": "0"}, {"name": "sa(1.0)", "value": 2.17, "sigma": 0.75, "flag": "0"}, {"name": "pgv", "value": 2.42, "sigma": 0.63, "flag": "0"}], "distance_stddev": 13.509, "distances": {"repi": 306.911, "rhypo": 308.901, "rjb": 294.564, "rjb_var": 127.27, "rrup": 296.362, "rrup_var": 182.485, "rx": 0.0, "ry0": 0.0, "rvolc": 0.0}}, "geometry": {"type": "Point", "coordinates": [145.6003, 43.3327]}}, {"type": "Feature", "id": "BO.AOMH14", "properties": {"code": "AOMH14", "name": "", "instrumentType": "UNK", "source": "BO", "network": "BO", "commType": "UNK", "location": "", "intensity": 3.0, "intensity_flag": "", "intensity_stddev": 0.63, "pga": 0.7218, "pgv": 0.4916, "distance": 264.738, "elev": null, "vs30": 760.0, "channels": [{"name": "HN2", "amplitudes": [{"name": "sa(3.0)", "value": 0.1174, "units": "%g", "flag": "0", "ln_sigma": 0.0}, {"name": "pgv", "value": 0.4916, "units": "cm/s", "flag": "0", "ln_sigma": 0.0}, {"name": "pga", "value": 0.7218, "units": "%g", "flag": "0", "ln_sigma": 0.0}, {"name": "sa(1.0)", "value": 0.3827, "units": "%g", "flag": "0", "ln_sigma": 0.0}, {"name": "sa(0.3)", "value": 3.4461, "units": "%g", "flag": "0", "ln_sigma": 0.0}]}, {"name": "HNZ", "amplitudes": [{"name": "sa(3.0)", "value": 0.0727, "units": "%g", "flag": "0", "ln_sigma": 0.0}, {"name": "pgv", "value": 0.1967, "units": "cm/s", "flag": "0", "ln_sigma": 0.0}, {"name": "pga", "value": 0.2174, "units": "%g", "flag": "0", "ln_sigma": 0.0}, {"name": "sa(1.0)", "value": 0.1587, "units": "%g", "flag": "0", "ln_sigma": 0.0}, {"name": "sa(0.3)", "value": 0.5597, "units": "%g", "flag": "0", "ln_sigma": 0.0}]}, {"name": "HN1", "amplitudes": [{"name": "sa(3.0)", "value": 0.0916, "units": "%g", "flag": "0", "ln_sigma": 0.0}, {"name": "pgv", "value": 0.3511, "units": "cm/s", "flag": "0", "ln_sigma": 0.0}, {"name": "pga", "value": 0.5648, "units": "%g", "flag": "0", "ln_sigma": 0.0}, {"name": "sa(1.0)", "value": 0.4601, "units": "%g", "flag": "0", "ln_sigma": 0.0}, {"name": "sa(0.3)", "value": 2.4724, "units": "%g", "flag": "0", "ln_sigma": 0.0}]}], "station_type": "seismic", "nresp": "null", "predictions": [{"name": "pga", "value": 0.3873, "value_rock": 0.3873, "value_soil": 0.577, "units": "%g", "ln_tau": 0.3792, "ln_phi": 0.58, "ln_sigma": 0.693, "ln_sigma_rock": 0.6953, "ln_sigma_soil": 0.69, "ln_bias": 0.3422, "ln_bias_sigma": 0.1043}, {"name": "sa(3.0)", "value": 0.0989, "value_rock": 0.0989, "value_soil": 0.2491, "units": "%g", "ln_tau": 0.3471, "ln_phi": 0.63, "ln_sigma": 0.7193, "ln_sigma_rock": 0.7279, "ln_sigma_soil": 0.7279, "ln_bias": 0.3786, "ln_bias_sigma": 0.1199}, {"name": "sa(0.3)", "value": 0.7751, "value_rock": 0.7751, "value_soil": 1.6835, "units": "%g", "ln_tau": 0.3319, "ln_phi": 0.642, "ln_sigma": 0.7227, "ln_sigma_rock": 0.728, "ln_sigma_soil": 0.7231, "ln_bias": 0.3235, "ln_bias_sigma": 0.1094}, {"name": "sa(1.0)", "value": 0.3492, "value_rock": 0.3492, "value_soil": 0.9597, "units": "%g", "ln_tau": 0.3613, "ln_phi": 0.6397, "ln_sigma": 0.7347, "ln_sigma_rock": 0.738, "ln_sigma_soil": 0.7357, "ln_bias": 0.4147, "ln_bias_sigma": 0.1174}, {"name": "pgv", "value": 0.338, "value_rock": 0.338, "value_soil": 0.8281, "units": "cm/s", "ln_tau": 0.356, "ln_phi": 0.7331, "ln_sigma": 0.815, "ln_sigma_rock": 0.8178, "ln_sigma_soil": 0.8114, "ln_bias": 0.3413, "ln_bias_sigma": 0.1306}, {"name": "mmi", "value": 3.1178, "value_rock": 3.1178, "value_soil": 3.3862, "units": "intensity", "tau": 0.2553, "phi": 0.7668, "sigma": 0.8082, "sigma_rock": 0.8091, "sigma_soil": 0.8071, "bias": 0.2678, "bias_sigma": 0.1529}], "mmi_from_pgm": [{"name": "pga", "value": 3.54, "sigma": 0.66, "flag": "0"}, {"name": "sa(3.0)", "value": 3.02, "sigma": 0.89, "flag": "0"}, {"name": "sa(0.3)", "value": 4.25, "sigma": 0.82, "flag": "0"}, {"name": "sa(1.0)", "value": 2.66, "sigma": 0.75, "flag": "0"}, {"name": "pgv", "value": 3.04, "sigma": 0.63, "flag": "0"}], "distance_stddev": 13.72, "distances": {"repi": 274.733, "rhypo": 276.953, "rjb": 262.445, "rjb_var": 126.831, "rrup": 264.738, "rrup_var": 188.23, "rx": 0.0, "ry0": 0.0, "rvolc": 0.0}}, "geometry": {"type": "Point", "coordinates": [140.2726, 40.5488]}}, {"type": "Feature", "id": "BO.FKSH20", "properties": {"code": "FKSH20", "name": "", "instrumentType": "UNK", "source": "BO", "network": "BO", "commType": "UNK", "location": "", "intensity": 2.9, "intensity_flag": "", "intensity_stddev": 0.63, "pga": 0.2378, "pgv": 0.3821, "distance": 570.698, "elev": null, "vs30": 760.0, "channels": [{"name": "HN2", "amplitudes": [{"name": "sa(3.0)", "value": 0.1288, "units": "%g", "flag": "0", "ln_sigma": 0.0}, {"name": "pgv", "value": 0.3821, "units": "cm/s", "flag": "0", "ln_sigma": 0.0}, {"name": "pga", "value": 0.2187, "units": "%g", "flag": "0", "ln_sigma": 0.0}, {"name": "sa(1.0)", "value": 0.4271, "units": "%g", "flag": "0", "ln_sigma": 0.0}, {"name": "sa(0.3)", "value": 0.5696, "units": "%g", "flag": "0", "ln_sigma": 0.0}]}, {"name": "HNZ", "amplitudes": [{"name": "sa(3.0)", "value": 0.0613, "units": "%g", "flag": "0", "ln_sigma": 0.0}, {"name": "pgv", "value": 0.1262, "units": "cm/s", "flag": "0", "ln_sigma": 0.0}, {"name": "pga", "value": 0.0851, "units": "%g", "flag": "0", "ln_sigma": 0.0}, {"name": "sa(1.0)", "value": 0.1464, "units": "%g", "flag": "0", "ln_sigma": 0.0}, {"name": "sa(0.3)", "val