{"type": "FeatureCollection", "features": [{"type": "Feature", "id": "CM.ACH1", "properties": {"code": "ACH1", "name": "ACH1", "instrumentType": "UNK", "source": "CM", "network": "CM", "commType": "UNK", "location": "", "intensity": 4.5, "intensity_flag": "", "intensity_stddev": 0.63, "pga": 5.6582, "pgv": 3.6836, "distance": 65.853, "elev": null, "vs30": 388.18, "channels": [{"name": "10.HNE", "amplitudes": [{"name": "pga", "value": 5.3506, "units": "%g", "flag": "0", "ln_sigma": 0.0}, {"name": "pgv", "value": 3.6836, "units": "cm/s", "flag": "0", "ln_sigma": 0.0}, {"name": "sa(0.3)", "value": 21.1752, "units": "%g", "flag": "0", "ln_sigma": 0.0}, {"name": "sa(1.0)", "value": 4.0425, "units": "%g", "flag": "0", "ln_sigma": 0.0}, {"name": "sa(3.0)", "value": 0.2304, "units": "%g", "flag": "0", "ln_sigma": 0.0}]}, {"name": "10.HNN", "amplitudes": [{"name": "pga", "value": 5.6582, "units": "%g", "flag": "0", "ln_sigma": 0.0}, {"name": "pgv", "value": 3.6559, "units": "cm/s", "flag": "0", "ln_sigma": 0.0}, {"name": "sa(0.3)", "value": 13.9901, "units": "%g", "flag": "0", "ln_sigma": 0.0}, {"name": "sa(1.0)", "value": 2.978, "units": "%g", "flag": "0", "ln_sigma": 0.0}, {"name": "sa(3.0)", "value": 0.4141, "units": "%g", "flag": "0", "ln_sigma": 0.0}]}, {"name": "10.HNZ", "amplitudes": [{"name": "pga", "value": 4.4874, "units": "%g", "flag": "0", "ln_sigma": 0.0}, {"name": "pgv", "value": 1.2467, "units": "cm/s", "flag": "0", "ln_sigma": 0.0}, {"name": "sa(0.3)", "value": 4.7976, "units": "%g", "flag": "0", "ln_sigma": 0.0}, {"name": "sa(1.0)", "value": 1.1117, "units": "%g", "flag": "0", "ln_sigma": 0.0}, {"name": "sa(3.0)", "value": 0.3036, "units": "%g", "flag": "0", "ln_sigma": 0.0}]}], "station_type": "seismic", "nresp": "null", "predictions": [{"name": "pgv", "value": 2.287, "value_rock": 1.4315, "value_soil": 3.9047, "units": "cm/s", "ln_tau": 0.4917, "ln_phi": 1.3796, "ln_sigma": 1.4646, "ln_sigma_rock": 1.4648, "ln_sigma_soil": 1.4637, "ln_bias": 0.2625, "ln_bias_sigma": 0.3421}, {"name": "sa(3.0)", "value": 0.4582, "value_rock": 0.2842, "value_soil": 0.7914, "units": "%g", "ln_tau": 0.5283, "ln_phi": 1.3907, "ln_sigma": 1.4877, "ln_sigma_rock": 1.4878, "ln_sigma_soil": 1.4878, "ln_bias": 0.1946, "ln_bias_sigma": 0.3627}, {"name": "pga", "value": 3.9711, "value_rock": 3.2157, "value_soil": 5.051, "units": "%g", "ln_tau": 0.4949, "ln_phi": 1.515, "ln_sigma": 1.5938, "ln_sigma_rock": 1.5945, "ln_sigma_soil": 1.5921, "ln_bias": 0.1297, "ln_bias_sigma": 0.3563}, {"name": "sa(0.3)", "value": 6.5498, "value_rock": 4.2231, "value_soil": 10.8052, "units": "%g", "ln_tau": 0.4506, "ln_phi": 1.4467, "ln_sigma": 1.5152, "ln_sigma_rock": 1.516, "ln_sigma_soil": 1.5129, "ln_bias": 0.2774, "ln_bias_sigma": 0.3333}, {"name": "sa(1.0)", "value": 1.9661, "value_rock": 1.0162, "value_soil": 4.1792, "units": "%g", "ln_tau": 0.5253, "ln_phi": 1.3727, "ln_sigma": 1.4698, "ln_sigma_rock": 1.4704, "ln_sigma_soil": 1.4692, "ln_bias": 0.4495, "ln_bias_sigma": 0.3558}, {"name": "mmi", "value": 4.1931, "value_rock": 4.0113, "value_soil": 4.5796, "units": "intensity", "tau": 0.7952, "phi": 2.5223, "sigma": 2.6447, "sigma_rock": 1.26, "sigma_soil": 2.6421, "bias": 0.0642, "bias_sigma": 0.4779}], "mmi_from_pgm": [{"name": "pgv", "value": 4.48, "sigma": 0.63, "flag": "0"}, {"name": "sa(3.0)", "value": 4.11, "sigma": 0.89, "flag": "0"}, {"name": "pga", "value": 4.76, "sigma": 0.66, "flag": "0"}, {"name": "sa(0.3)", "value": 5.49, "sigma": 0.82, "flag": "0"}, {"name": "sa(1.0)", "value": 4.52, "sigma": 0.75, "flag": "0"}], "distance_stddev": 65.785, "distances": {"repi": 48.894, "rhypo": 48.904, "rjb": 65.843, "rjb_var": 4327.498, "rrup": 65.853, "rrup_var": 4327.684}}, "geometry": {"type": "Point", "coordinates": [-73.6711, 3.9422]}}, {"type": "Feature", "id": "CM.ANIM", "properties": {"code": "ANIM", "name": "ANIM", "instrumentType": "UNK", "source": "CM", "network": "CM", "commType": "UNK", "location": "", "intensity": 4.0, "intensity_flag": "", "intensity_stddev": 0.63, "pga": 3.3066, "pgv": 1.987, "distance": 202.292, "elev": null, "vs30": 760.0, "channels": [{"name": "--.HHE", "amplitudes": [{"name": "pga", "value": 3.3066, "units": "%g", "flag": "0", "ln_sigma": 0.0}, {"name": "pgv", "value": 1.6732, "units": "cm/s", "flag": "0", "ln_sigma": 0.0}, {"name": "sa(0.3)", "value": 8.7804, "units": "%g", "flag": "0", "ln_sigma": 0.0}, {"name": "sa(1.0)", "value": 2.2357, "units": "%g", "flag": "0", "ln_sigma": 0.0}, {"name": "sa(3.0)", "value": 0.0904, "units": "%g", "flag": "0", "ln_sigma": 0.0}]}, {"name": "--.HHN", "amplitudes": [{"name": "pga", "value": 2.8508, "units": "%g", "flag": "0", "ln_sigma": 0.0}, {"name": "pgv", "value": 1.987, "units": "cm/s", "flag": "0", "ln_sigma": 0.0}, {"name": "sa(0.3)", "value": 10.3075, "units": "%g", "flag": "0", "ln_sigma": 0.0}, {"name": "sa(1.0)", "value": 2.2459, "units": "%g", "flag": "0", "ln_sigma": 0.0}, {"name": "sa(3.0)", "value": 0.1208, "units": "%g", "flag": "0", "ln_sigma": 0.0}]}, {"name": "--.HHZ", "amplitudes": [{"name": "pga", "value": 1.1795, "units": "%g", "flag": "0", "ln_sigma": 0.0}, {"name": "pgv", "value": 0.619, "units": "cm/s", "flag": "0", "ln_sigma": 0.0}, {"name": "sa(0.3)", "value": 3.911, "units": "%g", "flag": "0", "ln_sigma": 0.0}, {"name": "sa(1.0)", "value": 0.2302, "units": "%g", "flag": "0", "ln_sigma": 0.0}, {"name": "sa(3.0)", "value": 0.0499, "units": "%g", "flag": "0", "ln_sigma": 0.0}]}], "station_type": "seismic", "nresp": "null", "predictions": [{"name": "pgv", "value": 0.3205, "value_rock": 0.3205, "value_soil": 0.875, "units": "cm/s", "ln_tau": 0.4917, "ln_phi": 0.7361, "ln_sigma": 0.8852, "ln_sigma_rock": 0.8865, "ln_sigma_soil": 0.8864, "ln_bias": 0.2625, "ln_bias_sigma": 0.3421}, {"name": "sa(3.0)", "value": 0.0634, "value_rock": 0.0634, "value_soil": 0.1767, "units": "%g", "ln_tau": 0.5283, "ln_phi": 0.8095, "ln_sigma": 0.9666, "ln_sigma_rock": 0.9672, "ln_sigma_soil": 0.9672, "ln_bias": 0.1946, "ln_bias_sigma": 0.3627}, {"name": "pga", "value": 0.5992, "value_rock": 0.5992, "value_soil": 0.9427, "units": "%g", "ln_tau": 0.4949, "ln_phi": 0.7984, "ln_sigma": 0.9393, "ln_sigma_rock": 0.9395, "ln_sigma_soil": 0.9394, "ln_bias": 0.1297, "ln_bias_sigma": 0.3563}, {"name": "sa(0.3)", "value": 0.9198, "value_rock": 0.9198, "value_soil": 2.3583, "units": "%g", "ln_tau": 0.4506, "ln_phi": 0.8334, "ln_sigma": 0.9474, "ln_sigma_rock": 0.9476, "ln_sigma_soil": 0.9474, "ln_bias": 0.2774, "ln_bias_sigma": 0.3333}, {"name": "sa(1.0)", "value": 0.2492, "value_rock": 0.2492, "value_soil": 1.0258, "units": "%g", "ln_tau": 0.5253, "ln_phi": 0.8163, "ln_sigma": 0.9708, "ln_sigma_rock": 0.9716, "ln_sigma_soil": 0.9715, "ln_bias": 0.4495, "ln_bias_sigma": 0.3558}, {"name": "mmi", "value": 3.3774, "value_rock": 3.3774, "value_soil": 3.6825, "units": "intensity", "tau": 0.3331, "phi": 0.8512, "sigma": 0.914, "sigma_rock": 0.9141, "sigma_soil": 0.914, "bias": 0.0238, "bias_sigma": 0.291}], "mmi_from_pgm": [{"name": "pgv", "value": 4.02, "sigma": 0.63, "flag": "0"}, {"name": "sa(3.0)", "value": 3.21, "sigma": 0.89, "flag": "0"}, {"name": "pga", "value": 4.53, "sigma": 0.66, "flag": "0"}, {"name": "sa(0.3)", "value": 4.98, "sigma": 0.82, "flag": "0"}, {"name": "sa(1.0)", "value": 3.9, "sigma": 0.75, "flag": "0"}], "distance_stddev": 67.463, "distances": {"repi": 196.354, "rhypo": 196.356, "rjb": 202.289, "rjb_var": 4549.486, "rrup": 202.292, "rrup_var": 4551.298}}, "geometry": {"type": "Point", "coordinates": [-75.398, 4.4853]}}, {"type": "Feature", "id": "CM.ARAMC", "properties": {"code": "ARAMC", "name": "ARAMC", "instrumentType": "UNK", "source": "CM", "network": "CM", "commType": "UNK", "location": "", "intensity": 4.2, "intensity_flag": "", "intensity_stddev": 0.63, "pga": 3.7203, "pgv": 2.783, "distance": 129.66, "elev": null, "vs30": 760.0, "channels": [{"name": "00.HHE", "amplitudes": [{"name": "pga", "value": 3.6527, "units": "%g", "flag": "0", "ln_sigma": 0.0}, {"name": "pgv", "value": 2.783, "units": "cm/s", "flag": "0", "ln_sigma": 0.0}, {"name": "sa(0.3)", "value": 7.0225, "units": "%g", "flag": "0", "ln_sigma": 0.0}, {"name": "sa(1.0)", "value": 3.6687, "units": "%g", "flag": "0", "ln_sigma": 0.0}, {"name": "sa(3.0)", "value": 0.18, "units": "%g", "flag": "0", "ln_sigma": 0.0}]}, {"name": "00.HHN", "amplitudes": [{"name": "pga", "value": 3.7203, "units": "%g", "flag": "0", "ln_sigma": 0.0}, {"name": "pgv", "value": 2.2978, "units": "cm/s", "flag": "0", "ln_sigma": 0.0}, {"name": "sa(0.3)", "value": 9.9235, "units": "%g", "flag": "0", "ln_sigma": 0.0}, {"name": "sa(1.0)", "value": 4.29, "units": "%g", "flag": "0", "ln_sigma": 0.0}, {"name": "sa(3.0)", "value": 0.186, "units": "%g", "flag": "0", "ln_sigma": 0.0}]}, {"name": "00.HHZ", "amplitudes": [{"name": "pga", "value": 2.8054, "units": "%g", "flag": "0", "ln_sigma": 0.0}, {"name": "pgv", "value": 1.278, "units": "cm/s", "flag": "0", "ln_sigma": 0.0}, {"name": "sa(0.3)", "value": 6.1891, "units": "%g", "flag": "0", "ln_sigma": 0.0}, {"name": "sa(1.0)", "value": 0.6548, "units": "%g", "flag": "0", "ln_sigma": 0.0}, {"name": "sa(3.0)", "value": 0.0912, "units": "%g", "flag": "0", "ln_sigma": 0.0}]}], "station_type": "seismic", "nresp": "null", "predictions": [{"name": "pgv", "value": 0.589, "value_rock": 0.589, "value_soil": 1.6078, "units": "cm/s", "ln_tau": 0.4917, "ln_phi": 0.8878, "ln_sigma": 1.0149, "ln_sigma_rock": 1.0157, "ln_sigma_soil": 1.0154, "ln_bias": 0.2625, "ln_bias_sigma": 0.3421}, {"name": "sa(3.0)", "value": 0.1176, "value_rock": 0.1176, "value_soil": 0.3275, "units": "%g", "ln_tau": 0.5283, "ln_phi": 0.9484, "ln_sigma": 1.0856, "ln_sigma_rock": 1.086, "ln_sigma_soil": 1.086, "ln_bias": 0.1946, "ln_bias_sigma": 0.3627}, {"name": "pga", "value": 1.1909, "value_rock": 1.1909, "value_soil": 1.873, "units": "%g", "ln_tau": 0.4949, "ln_phi": 0.9759, "ln_sigma": 1.0942, "ln_sigma_rock": 1.0943, "ln_sigma_soil": 1.0939, "ln_bias": 0.1297, "ln_bias_sigma": 0.3563}, {"name": "sa(0.3)", "value": 1.7092, "value_rock": 1.7092, "value_soil": 4.3801, "units": "%g", "ln_tau": 0.4506, "ln_phi": 0.9756, "ln_sigma": 1.0747, "ln_sigma_rock": 1.0748, "ln_sigma_soil": 1.0742, "ln_bias": 0.2774, "ln_bias_sigma": 0.3333}, {"name": "sa(1.0)", "value": 0.4406, "value_rock": 0.4406, "value_soil": 1.8132, "units": "%g", "ln_tau": 0.5253, "ln_phi": 0.9395, "ln_sigma": 1.0764, "ln_sigma_rock": 1.0772, "ln_sigma_soil": 1.077, "ln_bias": 0.4495, "ln_bias_sigma": 0.3558}, {"name": "mmi", "value": 3.6428, "value_rock": 3.6428, "value_soil": 3.9476, "units": "intensity", "tau": 0.3331, "phi": 0.9312, "sigma": 0.989, "sigma_rock": 0.9891, "sigma_soil": 0.9888, "bias": 0.0238, "bias_sigma": 0.291}], "mmi_from_pgm": [{"name": "pgv", "value": 4.24, "sigma": 0.63, "flag": "0"}, {"name": "sa(3.0)", "value": 3.54, "sigma": 0.89, "flag": "0"}, {"name": "pga", "value": 4.41, "sigma": 0.66, "flag": "0"}, {"name": "sa(0.3)", "value": 4.84, "sigma": 0.82, "flag": "0"}, {"name": "sa(1.0)", "value": 4.42, "sigma": 0.75, "flag": "0"}], "distance_stddev": 65.847, "distances": {"repi": 119.774, "rhypo": 119.778, "rjb": 129.657, "rjb_var": 4334.424, "rrup": 129.66, "rrup_var": 4335.803}}, "geometry": {"type": "Point", "coordinates": [-73.9433, 3.3492]}}, {"type": "Feature", "id": "CM.ARAUC", "properties": {"code": "ARAUC", "name": "ARAUC", "instrumentType": "UNK", "source": "CM", "network": "CM", "commType": "UNK", "location": "", "intensity": 3.1, "intensity_flag": "", "intensity_stddev": 0.63, "pga": 0.5558, "pgv": 0.4721, "distance": 444.995, "elev": null, "vs30": 760.0, "channels": [{"name": "20.EHE", "amplitudes": [{"name": "pga", "value": 0.4108, "units": "%g", "flag": "0", "ln_sigma": 0.0}, {"name": "pgv", "value": 0.3482, "units": "cm/s", "flag": "0", "ln_sigma": 0.0}, {"name": "sa(0.3)", "value": 1.4534, "units": "%g", "flag": "0", "ln_sigma": 0.0}, {"name": "sa(1.0)", "value": 0.719, "units": "%g", "flag": "0", "ln_sigma": 0.0}, {"name": "sa(3.0)", "value": 0.1261, "units": "%g", "flag": "0", "ln_sigma": 0.0}]}, {"name": "20.EHN", "amplitudes": [{"name": "pga", "value": 0.5558, "units": "%g", "flag": "0", "ln_sigma": 0.0}, {"name": "pgv", "value": 0.4721, "units": "cm/s", "flag": "0", "ln_sigma": 0.0}, {"name": "sa(0.3)", "value": 1.783, "units": "%g", "flag": "0", "ln_sigma": 0.0}, {"name": "sa(1.0)", "value": 0.4291, "units": "%g", "flag": "0", "ln_sigma": 0.0}, {"name": "sa(3.0)", "value": 0.1067, "units": "%g", "flag": "0", "ln_sigma": 0.0}]}, {"name": "20.EHZ", "amplitudes": [{"name": "pga", "value": 0.1143, "units": "%g", "flag": "0", "ln_sigma": 0.0}, {"name": "pgv", "value": 0.1159, "units": "cm/s", "flag": "0", "ln_sigma": 0.0}, {"name": "sa(0.3)", "value": 0.3295, "units": "%g", "flag": "0", "ln_sigma": 0.0}, {"name": "sa(1.0)", "value": 0.1435, "units": "%g", "flag": "0", "ln_sigma": 0.0}, {"name": "sa(3.0)", "value": 0.0216, "units": "%g", "flag": "0", "ln_sigma": 0.0}]}], "station_type": "seismic", "nresp": "null", "predictions": [{"name": "pgv", "value": 0.1038, "value_rock": 0.1038, "value_soil": 0.2836, "units": "cm/s", "ln_tau": 0.4917, "ln_phi": 0.6181, "ln_sigma": 0.7899, "ln_sigma_rock": 0.7916, "ln_sigma_soil": 0.7915, "ln_bias": 0.2625, "ln_bias_sigma": 0.3421}, {"name": "sa(3.0)", "value": 0.0199, "value_rock": 0.0199, "value_soil": 0.0555, "units": "%g", "ln_tau": 0.5283, "ln_phi": 0.7006, "ln_sigma": 0.8774, "ln_sigma_rock": 0.8781, "ln_sigma_soil": 0.8781, "ln_bias": 0.1946, "ln_bias_sigma": 0.3627}, {"name": "pga", "value": 0.17, "value_rock": 0.17, "value_soil": 0.2676, "units": "%g", "ln_tau": 0.4949, "ln_phi": 0.6543, "ln_sigma": 0.8204, "ln_sigma_rock": 0.8206, "ln_sigma_soil": 0.8205, "ln_bias": 0.1297, "ln_bias_sigma": 0.3563}, {"name": "sa(0.3)", "value": 0.2958, "value_rock": 0.2958, "value_soil": 0.7587, "units": "%g", "ln_tau": 0.4506, "ln_phi": 0.7256, "ln_sigma": 0.8541, "ln_sigma_rock": 0.8542, "ln_sigma_soil": 0.8542, "ln_bias": 0.2774, "ln_bias_sigma": 0.3333}, {"name": "sa(1.0)", "value": 0.0869, "value_rock": 0.0869, "value_soil": 0.3579, "units": "%g", "ln_tau": 0.5253, "ln_phi": 0.7262, "ln_sigma": 0.8963, "ln_sigma_rock": 0.897, "ln_sigma_soil": 0.897, "ln_bias": 0.4495, "ln_bias_sigma": 0.3558}, {"name": "mmi", "value": 2.7041, "value_rock": 2.7041, "value_soil": 3.0094, "units": "intensity", "tau": 0.3331, "phi": 0.7935, "sigma": 0.8606, "sigma_rock": 0.8606, "sigma_soil": 0.8606, "bias": 0.0238, "bias_sigma": 0.291}], "mmi_from_pgm": [{"name": "pgv", "value": 3.1, "sigma": 0.63, "flag": "0"}, {"name": "sa(3.0)", "value": 3.14, "sigma": 0.89, "flag": "0"}, {"name": "pga", "value": 3.5, "sigma": 0.66, "flag": "0"}, {"name": "sa(0.3)", "value": 3.8, "sigma": 0.82, "flag": "0"}, {"name": "sa(1.0)", "value": 3.07, "sigma": 0.75, "flag": "0"}], "distance_stddev": 66.904, "distances": {"repi": 440.096, "rhypo": 440.097, "rjb": 444.991, "rjb_var": 4474.294, "rrup": 444.995, "rrup_var": 4476.154}}, "geometry": {"type": "Point", "coordinates": [-70.7073, 7.06499]}}, {"type": "Feature", "id": "CM.ARMEC", "properties": {"code": "ARMEC", "name": "ARMEC", "instrumentType": "UNK", "source": "CM", "network": "CM", "commType": "UNK", "location": "", "intensity": 3.9, "intensity_flag": "", "intensity_stddev": 0.63, "pga": 2.7187, "pgv": 1.7622, "distance": 231.251, "elev": null, "vs30": 760.0, "channels": [{"name": "10.HNE", "amplitudes": [{"name": "pga", "value": 2.7187, "units": "%g", "flag": "0", "ln_sigma": 0.0}, {"name": "pgv", "value": 1.7419, "units": "cm/s", "flag": "0", "ln_sigma": 0.0}, {"name": "sa(0.3)", "value": 3.8797, "units": "%g", "flag": "0", "ln_sigma": 0.0}, {"name": "sa(1.0)", "value": 1.1781, "units": "%g", "flag": "0", "ln_sigma": 0.0}, {"name": "sa(3.0)", "value": 0.0917, "units": "%g", "flag": "0", "ln_sigma": 0.0}]}, {"name": "10.HNN", "amplitudes": [{"name": "pga", "value": 2.5789, "units": "%g", "flag": "0", "ln_sigma": 0.0}, {"name": "pgv", "value": 1.7622, "units": "cm/s", "flag": "0", "ln_sigma": 0.0}, {"name": "sa(0.3)", "value": 6.7723, "units": "%g", "flag": "0", "ln_sigma": 0.0}, {"name": "sa(1.0)", "value": 1.157, "units": "%g", "flag": "0", "ln_sigma": 0.0}, {"name": "sa(3.0)", "value": 0.094, "units": "%g", "flag": "0", "ln_sigma": 0.0}]}, {"name": "10.HNZ", "amplitudes": [{"name": "pga", "value": 1.1001, "units": "%g", "flag": "0", "ln_sigma": 0.0}, {"name": "pgv", "value": 0.631, "units": "cm/s", "flag": "0", "ln_sigma": 0.0}, {"name": "sa(0.3)", "value": 2.5559, "units": "%g", "flag": "0", "ln_sigma": 0.0}, {"name": "sa(1.0)", "value": 0.5463, "units": "%g", "flag": "0", "ln_sigma": 0.0}, {"name": "sa(3.0)", "value": 0.0609, "units": "%g", "flag": "0", "ln_sigma": 0.0}]}], "station_type": "seismic", "nresp": "null", "predictions": [{"name": "pgv", "value": 0.2659, "value_rock": 0.2659, "value_soil": 0.7259, "units": "cm/s", "ln_tau": 0.4917, "ln_phi": 0.7071, "ln_sigma": 0.8613, "ln_sigma_rock": 0.8627, "ln_sigma_soil": 0.8626, "ln_bias": 0.2625, "ln_bias_sigma": 0.3421}, {"name": "sa(3.0)", "value": 0.0524, "value_rock": 0.0524, "value_soil": 0.146, "units": "%g", "ln_tau": 0.5283, "ln_phi": 0.783, "ln_sigma": 0.9445, "ln_sigma_rock": 0.9451, "ln_sigma_soil": 0.9451, "ln_bias": 0.1946, "ln_bias_sigma": 0.3627}, {"name": "pga", "value": 0.4854, "value_rock": 0.4854, "value_soil": 0.7638, "units": "%g", "ln_tau": 0.4949, "ln_phi": 0.7635, "ln_sigma": 0.9099, "ln_sigma_rock": 0.9101, "ln_sigma_soil": 0.91, "ln_bias": 0.1297, "ln_bias_sigma": 0.3563}, {"name": "sa(0.3)", "value": 0.761, "value_rock": 0.761, "value_soil": 1.9512, "units": "%g", "ln_tau": 0.4506, "ln_phi": 0.8067, "ln_sigma": 0.924, "ln_sigma_rock": 0.9241, "ln_sigma_soil": 0.924, "ln_bias": 0.2774, "ln_bias_sigma": 0.3333}, {"name": "sa(1.0)", "value": 0.2093, "value_rock": 0.2093, "value_soil": 0.8615, "units": "%g", "ln_tau": 0.5253, "ln_phi": 0.7938, "ln_sigma": 0.9519, "ln_sigma_rock": 0.9528, "ln_sigma_soil": 0.9527, "ln_bias": 0.4495, "ln_bias_sigma": 0.3558}, {"name": "mmi", "value": 3.2949, "value_rock": 3.2949, "value_soil": 3.6001, "units": "intensity", "tau": 0.3331, "phi": 0.8365, "sigma": 0.9004, "sigma_rock": 0.9005, "sigma_soil": 0.9005, "bias": 0.0238, "bias_sigma": 0.291}], "mmi_from_pgm": [{"name": "pgv", "value": 3.94, "sigma": 0.63, "flag": "0"}, {"name": "sa(3.0)", "value": 3.05, "sigma": 0.89, "flag": "0"}, {"name": "pga", "value": 4.45, "sigma": 0.66, "flag": "0"}, {"name": "sa(0.3)", "value": 4.71, "sigma": 0.82, "flag": "0"}, {"name": "sa(1.0)", "value": 3.45, "sigma": 0.75, "flag": "0"}], "distance_stddev": 68.317, "distances": {"repi": 225.889, "rhypo": 225.891, "rjb": 231.249, "rjb_var": 4665.255, "rrup": 231.251, "rrup_var": 4667.145}}, "geometry": {"type": "Point", "coordinates": [-75.66, 4.556]}}, {"type": "Feature", "id": "CM.BAR2", "properties": {"code": "BAR2", "name": "BAR2", "instrumentType": "UNK", "source": "CM", "network": "CM", "commType": "UNK", "location": "", "intensity": 3.3, "intensity_flag": "", "intensity_stddev": 0.63, "pga": 0.6574, "pgv": 0.6648, "distance": 255.991, "elev": null, "vs30": 760.0, "channels": [{"name": "20.EHE", "amplitudes": [{"name": "pga", "value": 0.6574, "units": "%g", "flag": "0", "ln_sigma": 0.0}, {"name": "pgv", "value": 0.6648, "units": "cm/s", "flag": "0", "ln_sigma": 0.0}, {"name": "sa(0.3)", "value": 1.4511, "units": "%g", "flag": "0", "ln_sigma": 0.0}, {"name": "sa(1.0)", "value": 0.7073, "units": "%g", "flag": "0", "ln_sigma": 0.0}, {"name": "sa(3.0)", "value": 0.1665, "units": "%g", "flag": "0", "ln_sigma": 0.0}]}, {"name": "20.EHN", "amplitudes": [{"name": "pga", "value": 0.6446, "units": "%g", "flag": "0", "ln_sigma": 0.0}, {"name": "pgv", "value": 0.519, "units": "cm/s", "flag": "0", "ln_sigma": 0.0}, {"name": "sa(0.3)", "value": 1.5146, "units": "%g", "flag": "0", "ln_sigma": 0.0}, {"name": "sa(1.0)", "value": 0.654, "units": "%g", "flag": "0", "ln_sigma": 0.0}, {"name": "sa(3.0)", "value": 0.1109, "units": "%g", "flag": "0", "ln_sigma": 0.0}]}, {"name": "20.EHZ", "amplitudes": [{"name": "pga", "value": 0.3858, "units":