{
   "type":"FeatureCollection",
   "features":[
      {
         "type":"Feature",
         "id":"CM.TUM",
         "properties":{
            "code":"TUM",
            "name":"Tumaco, Colombia",
            "instrumentType":"UNK",
            "source":"CM",
            "network":"CM",
            "commType":"UNK",
            "location":"",
            "intensity":1.0,
            "intensity_flag":"",
            "intensity_stddev":0.63,
            "pga":"null",
            "pgv":"null",
            "distance":161.317,
            "elev":null,
            "vs30":600.0,
            "channels":[
               {
                  "name":"BHE",
                  "amplitudes":[
                     {
                        "name":"sa(0.3)",
                        "value":0.0045,
                        "units":"%g",
                        "flag":"Outlier",
                        "ln_sigma":0.0
                     },
                     {
                        "name":"pga",
                        "value":0.0022,
                        "units":"%g",
                        "flag":"Outlier",
                        "ln_sigma":0.0
                     },
                     {
                        "name":"sa(3.0)",
                        "value":0.0003,
                        "units":"%g",
                        "flag":"Outlier",
                        "ln_sigma":0.0
                     },
                     {
                        "name":"pgv",
                        "value":0.0011,
                        "units":"cm/s",
                        "flag":"Outlier",
                        "ln_sigma":0.0
                     },
                     {
                        "name":"sa(1.0)",
                        "value":0.0011,
                        "units":"%g",
                        "flag":"Outlier",
                        "ln_sigma":0.0
                     }
                  ]
               },
               {
                  "name":"BHZ",
                  "amplitudes":[
                     {
                        "name":"sa(0.3)",
                        "value":0.0045,
                        "units":"%g",
                        "flag":"Outlier",
                        "ln_sigma":0.0
                     },
                     {
                        "name":"pga",
                        "value":0.0024,
                        "units":"%g",
                        "flag":"Outlier",
                        "ln_sigma":0.0
                     },
                     {
                        "name":"sa(3.0)",
                        "value":0.0002,
                        "units":"%g",
                        "flag":"Outlier",
                        "ln_sigma":0.0
                     },
                     {
                        "name":"pgv",
                        "value":0.0012,
                        "units":"cm/s",
                        "flag":"Outlier",
                        "ln_sigma":0.0
                     },
                     {
                        "name":"sa(1.0)",
                        "value":0.001,
                        "units":"%g",
                        "flag":"Outlier",
                        "ln_sigma":0.0
                     }
                  ]
               },
               {
                  "name":"BHN",
                  "amplitudes":[
                     {
                        "name":"sa(0.3)",
                        "value":0.0045,
                        "units":"%g",
                        "flag":"Outlier",
                        "ln_sigma":0.0
                     },
                     {
                        "name":"pga",
                        "value":0.0026,
                        "units":"%g",
                        "flag":"Outlier",
                        "ln_sigma":0.0
                     },
                     {
                        "name":"sa(3.0)",
                        "value":0.0002,
                        "units":"%g",
                        "flag":"Outlier",
                        "ln_sigma":0.0
                     },
                     {
                        "name":"pgv",
                        "value":0.0012,
                        "units":"cm/s",
                        "flag":"Outlier",
                        "ln_sigma":0.0
                     },
                     {
                        "name":"sa(1.0)",
                        "value":0.0009,
                        "units":"%g",
                        "flag":"Outlier",
                        "ln_sigma":0.0
                     }
                  ]
               }
            ],
            "station_type":"seismic",
            "nresp":"null",
            "predictions":[
               {
                  "name":"pga",
                  "value":6.1071,
                  "value_rock":5.3634,
                  "value_soil":6.8812,
                  "units":"%g",
                  "ln_tau":0.363,
                  "ln_phi":0.5715,
                  "ln_sigma":0.6771,
                  "ln_sigma_rock":0.679,
                  "ln_sigma_soil":0.6788,
                  "ln_bias":0.0914,
                  "ln_bias_sigma":0.3409
               },
               {
                  "name":"sa(3.0)",
                  "value":1.3093,
                  "value_rock":1.1862,
                  "value_soil":2.1058,
                  "units":"%g",
                  "ln_tau":0.4274,
                  "ln_phi":0.6205,
                  "ln_sigma":0.7535,
                  "ln_sigma_rock":0.758,
                  "ln_sigma_soil":0.758,
                  "ln_bias":0.103,
                  "ln_bias_sigma":0.4129
               },
               {
                  "name":"sa(0.3)",
                  "value":14.6326,
                  "value_rock":11.347,
                  "value_soil":20.7717,
                  "units":"%g",
                  "ln_tau":0.3606,
                  "ln_phi":0.6493,
                  "ln_sigma":0.7428,
                  "ln_sigma_rock":0.7418,
                  "ln_sigma_soil":0.7415,
                  "ln_bias":0.0295,
                  "ln_bias_sigma":0.3456
               },
               {
                  "name":"sa(1.0)",
                  "value":5.5923,
                  "value_rock":4.7077,
                  "value_soil":10.0122,
                  "units":"%g",
                  "ln_tau":0.4397,
                  "ln_phi":0.6418,
                  "ln_sigma":0.778,
                  "ln_sigma_rock":0.7799,
                  "ln_sigma_soil":0.7797,
                  "ln_bias":0.1621,
                  "ln_bias_sigma":0.4152
               },
               {
                  "name":"pgv",
                  "value":5.296,
                  "value_rock":4.4599,
                  "value_soil":9.4662,
                  "units":"cm/s",
                  "ln_tau":0.4397,
                  "ln_phi":0.8134,
                  "ln_sigma":0.9246,
                  "ln_sigma_rock":0.9263,
                  "ln_sigma_soil":0.9261,
                  "ln_bias":0.1438,
                  "ln_bias_sigma":0.4128
               },
               {
                  "name":"mmi",
                  "value":5.0776,
                  "value_rock":4.8689,
                  "value_soil":5.2694,
                  "units":"intensity",
                  "tau":0.5834,
                  "phi":1.1309,
                  "sigma":1.2725,
                  "sigma_rock":1.2752,
                  "sigma_soil":1.2748,
                  "bias":0.2448,
                  "bias_sigma":0.5227
               }
            ],
            "mmi_from_pgm":[
               {
                  "name":"pga",
                  "value":1.0,
                  "sigma":0.66,
                  "flag":"Outlier"
               },
               {
                  "name":"sa(3.0)",
                  "value":1.0,
                  "sigma":0.89,
                  "flag":"Outlier"
               },
               {
                  "name":"sa(0.3)",
                  "value":1.0,
                  "sigma":0.82,
                  "flag":"Outlier"
               },
               {
                  "name":"sa(1.0)",
                  "value":1.0,
                  "sigma":0.75,
                  "flag":"Outlier"
               },
               {
                  "name":"pgv",
                  "value":1.0,
                  "sigma":0.63,
                  "flag":"Outlier"
               }
            ],
            "distance_stddev":0.0,
            "distances":{
               "repi":209.308,
               "rhypo":210.319,
               "rjb":158.854,
               "rjb_var":0.0,
               "rrup":161.317,
               "rrup_var":0.0,
               "rx":115.674,
               "ry0":148.958,
               "rvolc":0.0
            }
         },
         "geometry":{
            "type":"Point",
            "coordinates":[
               -78.7256,
               1.8355
            ]
         }
      },
      {
         "type":"Feature",
         "id":"DYFI.UTM:(17M 061 975 10000)",
         "properties":{
            "code":"UTM:(17M 061 975 10000)",
            "name":null,
            "instrumentType":"OBSERVED",
            "source":"DYFI",
            "network":"DYFI",
            "commType":"UNK",
            "location":"",
            "intensity":5.8,
            "intensity_flag":"0",
            "intensity_stddev":0.3,
            "pga":9.6072,
            "pgv":11.2693,
            "distance":159.284,
            "elev":null,
            "vs30":210.56,
            "channels":[
               
            ],
            "nresp":-1,
            "station_type":"macroseismic",
            "predictions":[
               {
                  "name":"mmi",
                  "value":5.158,
                  "value_rock":4.8978,
                  "value_soil":5.2966,
                  "units":"intensity",
                  "tau":0.5889,
                  "phi":1.138,
                  "sigma":1.2814,
                  "sigma_rock":1.2835,
                  "sigma_soil":1.2873,
                  "bias":0.2486,
                  "bias_sigma":0.5267
               },
               {
                  "name":"pga",
                  "value":6.4429,
                  "value_rock":5.4797,
                  "value_soil":7.0234,
                  "units":"%g",
                  "ln_tau":0.3665,
                  "ln_phi":0.5769,
                  "ln_sigma":0.6835,
                  "ln_sigma_rock":0.6851,
                  "ln_sigma_soil":0.6878,
                  "ln_bias":0.0929,
                  "ln_bias_sigma":0.3438
               },
               {
                  "name":"sa(0.3)",
                  "value":20.3489,
                  "value_rock":11.6021,
                  "value_soil":21.2106,
                  "units":"%g",
                  "ln_tau":0.3651,
                  "ln_phi":0.6575,
                  "ln_sigma":0.7521,
                  "ln_sigma_rock":0.7519,
                  "ln_sigma_soil":0.7538,
                  "ln_bias":0.0302,
                  "ln_bias_sigma":0.3495
               },
               {
                  "name":"sa(1.0)",
                  "value":9.1113,
                  "value_rock":4.7827,
                  "value_soil":10.1661,
                  "units":"%g",
                  "ln_tau":0.4426,
                  "ln_phi":0.6463,
                  "ln_sigma":0.7833,
                  "ln_sigma_rock":0.7867,
                  "ln_sigma_soil":0.7904,
                  "ln_bias":0.164,
                  "ln_bias_sigma":0.4176
               },
               {
                  "name":"sa(3.0)",
                  "value":1.817,
                  "value_rock":1.2006,
                  "value_soil":2.1313,
                  "units":"%g",
                  "ln_tau":0.4308,
                  "ln_phi":0.6251,
                  "ln_sigma":0.7592,
                  "ln_sigma_rock":0.77,
                  "ln_sigma_soil":0.77,
                  "ln_bias":0.1046,
                  "ln_bias_sigma":0.416
               },
               {
                  "name":"pgv",
                  "value":8.6164,
                  "value_rock":4.531,
                  "value_soil":9.612,
                  "units":"cm/s",
                  "ln_tau":0.4426,
                  "ln_phi":0.8191,
                  "ln_sigma":0.931,
                  "ln_sigma_rock":0.9345,
                  "ln_sigma_soil":0.9388,
                  "ln_bias":0.1454,
                  "ln_bias_sigma":0.4152
               }
            ],
            "pgm_from_mmi":[
               {
                  "name":"sa(1.0)",
                  "value":18.1425,
                  "units":"%g",
                  "ln_sigma":1.0822,
                  "flag":"0"
               },
               {
                  "name":"pga",
                  "value":9.6072,
                  "units":"%g",
                  "ln_sigma":0.8059,
                  "flag":"0"
               },
               {
                  "name":"sa(3.0)",
                  "value":3.6803,
                  "units":"%g",
                  "ln_sigma":1.4737,
                  "flag":"0"
               },
               {
                  "name":"sa(0.3)",
                  "value":22.1912,
                  "units":"%g",
                  "ln_sigma":1.0131,
                  "flag":"0"
               },
               {
                  "name":"pgv",
                  "value":11.2693,
                  "units":"cm/s",
                  "ln_sigma":0.875,
                  "flag":"0"
               }
            ],
            "distance_stddev":0.0,
            "distances":{
               "repi":288.937,
               "rhypo":289.67,
               "rjb":156.805,
               "rjb_var":0.0,
               "rrup":159.284,
               "rrup_var":0.0,
               "rx":139.436,
               "ry0":150.081,
               "rvolc":0.0
            }
         },
         "geometry":{
            "type":"Point",
            "coordinates":[
               -79.9658,
               -2.2162
            ]
         }
      },
      {
         "type":"Feature",
         "id":"DYFI.UTM:(17M 062 975 10000)",
         "properties":{
            "code":"UTM:(17M 062 975 10000)",
            "name":null,
            "instrumentType":"OBSERVED",
            "source":"DYFI",
            "network":"DYFI",
            "commType":"UNK",
            "location":"",
            "intensity":7.0,
            "intensity_flag":"0",
            "intensity_stddev":0.3,
            "pga":20.257,
            "pgv":27.0175,
            "distance":159.746,
            "elev":null,
            "vs30":246.99,
            "channels":[
               
            ],
            "nresp":-1,
            "station_type":"macroseismic",
            "predictions":[
               {
                  "name":"mmi",
                  "value":5.1327,
                  "value_rock":4.8912,
                  "value_soil":5.2904,
                  "units":"intensity",
                  "tau":0.589,
                  "phi":1.1381,
                  "sigma":1.2814,
                  "sigma_rock":1.2835,
                  "sigma_soil":1.2873,
                  "bias":0.2486,
                  "bias_sigma":0.5267
               },
               {
                  "name":"pga",
                  "value":6.3374,
                  "value_rock":5.4529,
                  "value_soil":6.9907,
                  "units":"%g",
                  "ln_tau":0.3665,
                  "ln_phi":0.577,
                  "ln_sigma":0.6836,
                  "ln_sigma_rock":0.6851,
                  "ln_sigma_soil":0.6878,
                  "ln_bias":0.0929,
                  "ln_bias_sigma":0.3438
               },
               {
                  "name":"sa(0.3)",
                  "value":19.7577,
                  "value_rock":11.5434,
                  "value_soil":21.1097,
                  "units":"%g",
                  "ln_tau":0.3652,
                  "ln_phi":0.6576,
                  "ln_sigma":0.7522,
                  "ln_sigma_rock":0.7519,
                  "ln_sigma_soil":0.7538,
                  "ln_bias":0.0302,
                  "ln_bias_sigma":0.3495
               },
               {
                  "name":"sa(1.0)",
                  "value":8.8078,
                  "value_rock":4.7655,
                  "value_soil":10.1308,
                  "units":"%g",
                  "ln_tau":0.4426,
                  "ln_phi":0.6463,
                  "ln_sigma":0.7833,
                  "ln_sigma_rock":0.7867,
                  "ln_sigma_soil":0.7904,
                  "ln_bias":0.164,
                  "ln_bias_sigma":0.4176
               },
               {
                  "name":"sa(3.0)",
                  "value":1.7783,
                  "value_rock":1.1973,
                  "value_soil":2.1254,
                  "units":"%g",
                  "ln_tau":0.4308,
                  "ln_phi":0.6251,
                  "ln_sigma":0.7592,
                  "ln_sigma_rock":0.77,
                  "ln_sigma_soil":0.77,
                  "ln_bias":0.1046,
                  "ln_bias_sigma":0.416
               },
               {
                  "name":"pgv",
                  "value":8.3311,
                  "value_rock":4.5147,
                  "value_soil":9.5785,
                  "units":"cm/s",
                  "ln_tau":0.4426,
                  "ln_phi":0.8191,
                  "ln_sigma":0.9311,
                  "ln_sigma_rock":0.9345,
                  "ln_sigma_soil":0.9388,
                  "ln_bias":0.1455,
                  "ln_bias_sigma":0.4152
               }
            ],
            "pgm_from_mmi":[
               {
                  "name":"sa(1.0)",
                  "value":47.0656,
                  "units":"%g",
                  "ln_sigma":1.0822,
                  "flag":"0"
               },
               {
                  "name":"pga",
                  "value":20.257,
                  "units":"%g",
                  "ln_sigma":0.8059,
                  "flag":"0"
               },
               {
                  "name":"sa(3.0)",
                  "value":9.2214,
                  "units":"%g",
                  "ln_sigma":1.4737,
                  "flag":"0"
               },
               {
                  "name":"sa(0.3)",
                  "value":43.2367,
                  "units":"%g",
                  "ln_sigma":1.0131,
                  "flag":"0"
               },
               {
                  "name":"pgv",
                  "value":27.0175,
                  "units":"cm/s",
                  "ln_sigma":0.875,
                  "flag":"0"
               }
            ],
            "distance_stddev":0.0,
            "distances":{
               "repi":288.929,
               "rhypo":289.663,
               "rjb":157.277,
               "rjb_var":0.0,
               "rrup":159.746,
               "rrup_var":0.0,
               "rx":148.818,
               "ry0":146.682,
               "rvolc":0.0
            }
         },
         "geometry":{
            "type":"Point",
            "coordinates":[
               -79.8759,
               -2.2161
            ]
         }
      },
      {
         "type":"Feature",
         "id":"DYFI.UTM:(17M 062 976 10000)",
         "properties":{
            "code":"UTM:(17M 062 976 10000)",
            "name":null,
            "instrumentType":"OBSERVED",
            "source":"DYFI",
            "network":"DYFI",
            "commType":"UNK",
            "location":"",
            "intensity":5.2,
            "intensity_flag":"0",
            "intensity_stddev":0.3,
            "pga":6.724,
            "pgv":7.2782,
            "distance":149.996,
            "elev":null,
            "vs30":237.76,
            "channels":[
