{"type": "FeatureCollection", "features": [{"type": "Feature", "id": "INTENSITY.OBS_8", "properties": {"code": "OBS_8", "name": "Beji (Intensity V)", "instrumentType": "OBSERVED", "source": "INTENSITY", "network": "INTENSITY", "commType": "UNK", "location": "", "intensity": 5.0, "intensity_flag": "0", "intensity_stddev": 0.3, "pga": 8.3208, "pgv": 5.5179, "distance": 30.037, "elev": null, "vs30": 236.78, "channels": [], "nresp": -1, "station_type": "macroseismic", "predictions": [{"name": "mmi", "value": 5.5704, "value_rock": 4.9328, "value_soil": 5.6674, "units": "intensity", "tau": 0.4971, "phi": 1.0171, "sigma": 1.1321, "sigma_rock": 1.1936, "sigma_soil": 1.111, "bias": -0.4146, "bias_sigma": 0.2842}, {"name": "pga", "value": 11.8664, "value_rock": 7.98, "value_soil": 12.605, "units": "%g", "ln_tau": 0.3094, "ln_phi": 0.4816, "ln_sigma": 0.5724, "ln_sigma_rock": 0.6189, "ln_sigma_soil": 0.5562, "ln_bias": -0.0704, "ln_bias_sigma": 0.1854}, {"name": "sa(0.3)", "value": 32.2796, "value_rock": 15.0601, "value_soil": 36.3897, "units": "%g", "ln_tau": 0.2828, "ln_phi": 0.5464, "ln_sigma": 0.6152, "ln_sigma_rock": 0.6679, "ln_sigma_soil": 0.5916, "ln_bias": -0.221, "ln_bias_sigma": 0.1966}, {"name": "sa(1.0)", "value": 13.6128, "value_rock": 4.6053, "value_soil": 16.9476, "units": "%g", "ln_tau": 0.3423, "ln_phi": 0.6194, "ln_sigma": 0.7077, "ln_sigma_rock": 0.7235, "ln_sigma_soil": 0.6984, "ln_bias": -0.2941, "ln_bias_sigma": 0.23}, {"name": "sa(3.0)", "value": 3.0572, "value_rock": 0.9671, "value_soil": 4.0184, "units": "%g", "ln_tau": 0.3789, "ln_phi": 0.6169, "ln_sigma": 0.724, "ln_sigma_rock": 0.7247, "ln_sigma_soil": 0.7243, "ln_bias": -0.3115, "ln_bias_sigma": 0.2651}, {"name": "pgv", "value": 11.8332, "value_rock": 5.4611, "value_soil": 13.7628, "units": "cm/s", "ln_tau": 0.3192, "ln_phi": 0.5095, "ln_sigma": 0.6013, "ln_sigma_rock": 0.6266, "ln_sigma_soil": 0.5919, "ln_bias": -0.296, "ln_bias_sigma": 0.1997}], "pgm_from_mmi": [{"name": "pga", "value": 8.3208, "units": "%g", "ln_sigma": 0.8059, "flag": "0"}, {"name": "pgv", "value": 5.5179, "units": "cm/s", "ln_sigma": 0.875, "flag": "0"}, {"name": "sa(0.3)", "value": 18.1111, "units": "%g", "ln_sigma": 1.0131, "flag": "0"}, {"name": "sa(3.0)", "value": 1.2392, "units": "%g", "ln_sigma": 1.4737, "flag": "0"}, {"name": "sa(1.0)", "value": 5.7599, "units": "%g", "ln_sigma": 1.0822, "flag": "0"}], "distance_stddev": 0.0, "distances": {"repi": 39.222, "rhypo": 41.166, "rjb": 30.037, "rjb_var": 0.0, "rrup": 30.037, "rrup_var": 0.0, "rx": -2.127, "ry0": 25.845, "rvolc": 0.0}}, "geometry": {"type": "Point", "coordinates": [110.706, -7.72]}}, {"type": "Feature", "id": "INTENSITY.OBS_9", "properties": {"code": "OBS_9", "name": "Nglipar (Intensity V)", "instrumentType": "OBSERVED", "source": "INTENSITY", "network": "INTENSITY", "commType": "UNK", "location": "", "intensity": 5.0, "intensity_flag": "0", "intensity_stddev": 0.3, "pga": 10.1076, "pgv": 5.5179, "distance": 14.832, "elev": null, "vs30": 424.92, "channels": [], "nresp": -1, "station_type": "macroseismic", "predictions": [{"name": "mmi", "value": 6.1268, "value_rock": 5.8076, "value_soil": 6.2694, "units": "intensity", "tau": 0.5159, "phi": 1.0451, "sigma": 1.1655, "sigma_rock": 1.1923, "sigma_soil": 1.0715, "bias": -0.4246, "bias_sigma": 0.2876}, {"name": "pga", "value": 20.3792, "value_rock": 16.7079, "value_soil": 22.271, "units": "%g", "ln_tau": 0.3211, "ln_phi": 0.5043, "ln_sigma": 0.5978, "ln_sigma_rock": 0.6179, "ln_sigma_soil": 0.5253, "ln_bias": -0.0722, "ln_bias_sigma": 0.1879}, {"name": "sa(0.3)", "value": 47.1642, "value_rock": 31.3769, "value_soil": 59.883, "units": "%g", "ln_tau": 0.3045, "ln_phi": 0.5749, "ln_sigma": 0.6506, "ln_sigma_rock": 0.6676, "ln_sigma_soil": 0.5499, "ln_bias": -0.2367, "ln_bias_sigma": 0.2034}, {"name": "sa(1.0)", "value": 16.7006, "value_rock": 9.4218, "value_soil": 31.273, "units": "%g", "ln_tau": 0.3495, "ln_phi": 0.6305, "ln_sigma": 0.7209, "ln_sigma_rock": 0.7235, "ln_sigma_soil": 0.6834, "ln_bias": -0.2996, "ln_bias_sigma": 0.2322}, {"name": "sa(3.0)", "value": 3.4986, "value_rock": 1.9434, "value_soil": 8.0597, "units": "%g", "ln_tau": 0.3789, "ln_phi": 0.6169, "ln_sigma": 0.724, "ln_sigma_rock": 0.7247, "ln_sigma_soil": 0.724, "ln_bias": -0.3115, "ln_bias_sigma": 0.2651}, {"name": "pgv", "value": 17.338, "value_rock": 11.5189, "value_soil": 26.3193, "units": "cm/s", "ln_tau": 0.3262, "ln_phi": 0.5317, "ln_sigma": 0.6238, "ln_sigma_rock": 0.6266, "ln_sigma_soil": 0.5805, "ln_bias": -0.3009, "ln_bias_sigma": 0.2014}], "pgm_from_mmi": [{"name": "pga", "value": 10.1076, "units": "%g", "ln_sigma": 0.8059, "flag": "0"}, {"name": "pgv", "value": 5.5179, "units": "cm/s", "ln_sigma": 0.875, "flag": "0"}, {"name": "sa(0.3)", "value": 20.0613, "units": "%g", "ln_sigma": 1.0131, "flag": "0"}, {"name": "sa(3.0)", "value": 1.0842, "units": "%g", "ln_sigma": 1.4737, "flag": "0"}, {"name": "sa(1.0)", "value": 5.1126, "units": "%g", "ln_sigma": 1.0822, "flag": "0"}], "distance_stddev": 0.0, "distances": {"repi": 21.645, "rhypo": 24.995, "rjb": 14.832, "rjb_var": 0.0, "rrup": 14.832, "rrup_var": 0.0, "rx": 7.087, "ry0": 8.543, "rvolc": 0.0}}, "geometry": {"type": "Point", "coordinates": [110.629, -7.89]}}, {"type": "Feature", "id": "INTENSITY.OBS_19", "properties": {"code": "OBS_19", "name": "Semanu (Intensity IV)", "instrumentType": "OBSERVED", "source": "INTENSITY", "network": "INTENSITY", "commType": "UNK", "location": "", "intensity": 4.0, "intensity_flag": "0", "intensity_stddev": 0.3, "pga": 4.9979, "pgv": 2.0363, "distance": 19.967, "elev": null, "vs30": 301.11, "channels": [], "nresp": -1, "station_type": "macroseismic", "predictions": [{"name": "mmi", "value": 5.9471, "value_rock": 5.4642, "value_soil": 6.0505, "units": "intensity", "tau": 0.4993, "phi": 1.0351, "sigma": 1.1492, "sigma_rock": 1.1929, "sigma_soil": 1.088, "bias": -0.4158, "bias_sigma": 0.2846}, {"name": "pga", "value": 16.789, "value_rock": 12.4312, "value_soil": 17.9046, "units": "%g", "ln_tau": 0.3107, "ln_phi": 0.4962, "ln_sigma": 0.5855, "ln_sigma_rock": 0.6184, "ln_sigma_soil": 0.5383, "ln_bias": -0.0706, "ln_bias_sigma": 0.1857}, {"name": "sa(0.3)", "value": 42.3103, "value_rock": 23.3743, "value_soil": 49.7377, "units": "%g", "ln_tau": 0.2872, "ln_phi": 0.5597, "ln_sigma": 0.6291, "ln_sigma_rock": 0.6678, "ln_sigma_soil": 0.5674, "ln_bias": -0.2243, "ln_bias_sigma": 0.198}, {"name": "sa(1.0)", "value": 16.7595, "value_rock": 7.0396, "value_soil": 24.5046, "units": "%g", "ln_tau": 0.3451, "ln_phi": 0.6261, "ln_sigma": 0.7149, "ln_sigma_rock": 0.7235, "ln_sigma_soil": 0.6901, "ln_bias": -0.2962, "ln_bias_sigma": 0.2309}, {"name": "sa(3.0)", "value": 3.6639, "value_rock": 1.463, "value_soil": 6.0725, "units": "%g", "ln_tau": 0.3788, "ln_phi": 0.6169, "ln_sigma": 0.7239, "ln_sigma_rock": 0.7247, "ln_sigma_soil": 0.7241, "ln_bias": -0.3115, "ln_bias_sigma": 0.2651}, {"name": "pgv", "value": 15.7317, "value_rock": 8.4968, "value_soil": 20.3044, "units": "cm/s", "ln_tau": 0.3214, "ln_phi": 0.5272, "ln_sigma": 0.6174, "ln_sigma_rock": 0.6266, "ln_sigma_soil": 0.5853, "ln_bias": -0.2976, "ln_bias_sigma": 0.2002}], "pgm_from_mmi": [{"name": "pga", "value": 4.9979, "units": "%g", "ln_sigma": 0.8059, "flag": "0"}, {"name": "pgv", "value": 2.0363, "units": "cm/s", "ln_sigma": 0.875, "flag": "0"}, {"name": "sa(0.3)", "value": 6.1558, "units": "%g", "ln_sigma": 1.0131, "flag": "0"}, {"name": "sa(3.0)", "value": 0.2007, "units": "%g", "ln_sigma": 1.4737, "flag": "0"}, {"name": "sa(1.0)", "value": 1.3498, "units": "%g", "ln_sigma": 1.0822, "flag": "0"}], "distance_stddev": 0.0, "distances": {"repi": 22.259, "rhypo": 25.528, "rjb": 19.967, "rjb_var": 0.0, "rrup": 19.967, "rrup_var": 0.0, "rx": 14.529, "ry0": 3.171, "rvolc": 0.0}}, "geometry": {"type": "Point", "coordinates": [110.646, -7.99]}}, {"type": "Feature", "id": "INTENSITY.OBS_6", "properties": {"code": "OBS_6", "name": "Cawas (Intensity VI)", "instrumentType": "OBSERVED", "source": "INTENSITY", "network": "INTENSITY", "commType": "UNK", "location": "", "intensity": 6.0, "intensity_flag": "0", "intensity_stddev": 0.3, "pga": 16.0121, "pgv": 11.4348, "distance": 26.72, "elev": null, "vs30": 226.82, "channels": [], "nresp": -1, "station_type": "macroseismic", "predictions": [{"name": "mmi", "value": 5.7157, "value_rock": 5.0912, "value_soil": 5.7865, "units": "intensity", "tau": 0.4887, "phi": 1.0093, "sigma": 1.1213, "sigma_rock": 1.1934, "sigma_soil": 1.1046, "bias": -0.41, "bias_sigma": 0.2826}, {"name": "pga", "value": 13.4158, "value_rock": 9.0957, "value_soil": 14.02, "units": "%g", "ln_tau": 0.3041, "ln_phi": 0.4752, "ln_sigma": 0.5642, "ln_sigma_rock": 0.6188, "ln_sigma_soil": 0.5512, "ln_bias": -0.0695, "ln_bias_sigma": 0.1843}, {"name": "sa(0.3)", "value": 36.6022, "value_rock": 17.1422, "value_soil": 40.0598, "units": "%g", "ln_tau": 0.2761, "ln_phi": 0.5388, "ln_sigma": 0.6054, "ln_sigma_rock": 0.6679, "ln_sigma_soil": 0.5849, "ln_bias": -0.2159, "ln_bias_sigma": 0.1943}, {"name": "sa(1.0)", "value": 15.7813, "value_rock": 5.211, "value_soil": 18.8975, "units": "%g", "ln_tau": 0.3403, "ln_phi": 0.6167, "ln_sigma": 0.7044, "ln_sigma_rock": 0.7235, "ln_sigma_soil": 0.6962, "ln_bias": -0.2925, "ln_bias_sigma": 0.2294}, {"name": "sa(3.0)", "value": 3.5912, "value_rock": 1.0908, "value_soil": 4.5311, "units": "%g", "ln_tau": 0.3788, "ln_phi": 0.6169, "ln_sigma": 0.7239, "ln_sigma_rock": 0.7247, "ln_sigma_soil": 0.7243, "ln_bias": -0.3115, "ln_bias_sigma": 0.2651}, {"name": "pgv", "value": 13.6462, "value_rock": 6.2107, "value_soil": 15.4331, "units": "cm/s", "ln_tau": 0.3175, "ln_phi": 0.5051, "ln_sigma": 0.5966, "ln_sigma_rock": 0.6266, "ln_sigma_soil": 0.5901, "ln_bias": -0.2947, "ln_bias_sigma": 0.1993}], "pgm_from_mmi": [{"name": "pga", "value": 16.0121, "units": "%g", "ln_sigma": 0.8059, "flag": "0"}, {"name": "pgv", "value": 11.4348, "units": "cm/s", "ln_sigma": 0.875, "flag": "0"}, {"name": "sa(0.3)", "value": 32.1261, "units": "%g", "ln_sigma": 1.0131, "flag": "0"}, {"name": "sa(3.0)", "value": 2.6046, "units": "%g", "ln_sigma": 1.4737, "flag": "0"}, {"name": "sa(1.0)", "value": 12.4927, "units": "%g", "ln_sigma": 1.0822, "flag": "0"}], "distance_stddev": 0.0, "distances": {"repi": 35.637, "rhypo": 37.766, "rjb": 26.72, "rjb_var": 0.0, "rrup": 26.72, "rrup_var": 0.0, "rx": 0.743, "ry0": 22.627, "rvolc": 0.0}}, "geometry": {"type": "Point", "coordinates": [110.698, -7.76]}}, {"type": "Feature", "id": "INTENSITY.OBS_1", "properties": {"code": "OBS_1", "name": "Bantul (Intensity VII)", "instrumentType": "OBSERVED", "source": "INTENSITY", "network": "INTENSITY", "commType": "UNK", "location": "", "intensity": 7.0, "intensity_flag": "0", "intensity_stddev": 0.3, "pga": 37.931, "pgv": 23.6965, "distance": 11.183, "elev": null, "vs30": 258.84, "channels": [], "nresp": -1, "station_type": "macroseismic", "predictions": [{"name": "mmi", "value": 6.4605, "value_rock": 6.0915, "value_soil": 6.4287, "units": "intensity", "tau": 0.4614, "phi": 1.0039, "sigma": 1.1048, "sigma_rock": 1.1917, "sigma_soil": 1.0574, "bias": -0.3939, "bias_sigma": 0.277}, {"name": "pga", "value": 27.1132, "value_rock": 21.5498, "value_soil": 26.5817, "units": "%g", "ln_tau": 0.2871, "ln_phi": 0.4707, "ln_sigma": 0.5514, "ln_sigma_rock": 0.6175, "ln_sigma_soil": 0.5141, "ln_bias": -0.0665, "ln_bias_sigma": 0.1803}, {"name": "sa(0.3)", "value": 68.5299, "value_rock": 40.4426, "value_soil": 69.1031, "units": "%g", "ln_tau": 0.2579, "ln_phi": 0.5284, "ln_sigma": 0.5879, "ln_sigma_rock": 0.6675, "ln_sigma_soil": 0.535, "ln_bias": -0.2013, "ln_bias_sigma": 0.1876}, {"name": "sa(1.0)", "value": 31.1811, "value_rock": 12.1653, "value_soil": 38.4627, "units": "%g", "ln_tau": 0.3367, "ln_phi": 0.6153, "ln_sigma": 0.7014, "ln_sigma_rock": 0.7234, "ln_sigma_soil": 0.677, "ln_bias": -0.2897, "ln_bias_sigma": 0.2283}, {"name": "sa(3.0)", "value": 7.2103, "value_rock": 2.4879, "value_soil": 10.3093, "units": "%g", "ln_tau": 0.3786, "ln_phi": 0.6167, "ln_sigma": 0.7236, "ln_sigma_rock": 0.7246, "ln_sigma_soil": 0.7239, "ln_bias": -0.3113, "ln_bias_sigma": 0.265}, {"name": "pgv", "value": 28.9534, "value_rock": 15.051, "value_soil": 32.8751, "units": "cm/s", "ln_tau": 0.3143, "ln_phi": 0.5107, "ln_sigma": 0.5997, "ln_sigma_rock": 0.6265, "ln_sigma_soil": 0.5763, "ln_bias": -0.2924, "ln_bias_sigma": 0.1985}], "pgm_from_mmi": [{"name": "pga", "value": 37.931, "units": "%g", "ln_sigma": 0.8059, "flag": "0"}, {"name": "pgv", "value": 23.6965, "units": "cm/s", "ln_sigma": 0.875, "flag": "0"}, {"name": "sa(0.3)", "value": 63.5658, "units": "%g", "ln_sigma": 1.0131, "flag": "0"}, {"name": "sa(3.0)", "value": 4.7461, "units": "%g", "ln_sigma": 1.4737, "flag": "0"}, {"name": "sa(1.0)", "value": 23.8546, "units": "%g", "ln_sigma": 1.0822, "flag": "0"}], "distance_stddev": 0.0, "distances": {"repi": 15.112, "rhypo": 19.612, "rjb": 11.183, "rjb_var": 0.0, "rrup": 11.183, "rrup_var": 0.0, "rx": -13.242, "ry0": 0.0, "rvolc": 0.0}}, "geometry": {"type": "Point", "coordinates": [110.329, -7.89]}}, {"type": "Feature", "id": "INTENSITY.OBS_12", "properties": {"code": "OBS_12", "name": "Delanggu (Intensity V)", "instrumentType": "OBSERVED", "source": "INTENSITY", "network": "INTENSITY", "commType": "UNK", "location": "", "intensity": 5.0, "intensity_flag": "0", "intensity_stddev": 0.3, "pga": 7.8976, "pgv": 5.5179, "distance": 36.299, "elev": null, "vs30": 290.95, "channels": [], "nresp": -1, "station_type": "macroseismic", "predictions": [{"name": "mmi", "value": 5.2499, "value_rock": 4.667, "value_soil": 5.4595, "units": "intensity", "tau": 0.5158, "phi": 1.0428, "sigma": 1.1634, "sigma_rock": 1.1938, "sigma_soil": 1.1209, "bias": -0.4245, "bias_sigma": 0.2876}, {"name": "pga", "value": 9.2267, "value_rock": 6.4195, "value_soil": 10.5119, "units": "%g", "ln_tau": 0.321, "ln_phi": 0.5025, "ln_sigma": 0.5962, "ln_sigma_rock": 0.6191, "ln_sigma_soil": 0.5638, "ln_bias": -0.0722, "ln_bias_sigma": 0.1878}, {"name": "sa(0.3)", "value": 24.0446, "value_rock": 12.1501, "value_soil": 30.8256, "units": "%g", "ln_tau": 0.298, "ln_phi": 0.5683, "ln_sigma": 0.6417, "ln_sigma_rock": 0.668, "ln_sigma_soil": 0.6019, "ln_bias": -0.2321, "ln_bias_sigma": 0.2014}, {"name": "sa(1.0)", "value": 9.4884, "value_rock": 3.7632, "value_soil": 14.1496, "units": "%g", "ln_tau": 0.3471, "ln_phi": 0.6275, "ln_sigma": 0.7171, "ln_sigma_rock": 0.7235, "ln_sigma_soil": 0.7017, "ln_bias": -0.2977, "ln_bias_sigma": 0.2314}, {"name": "sa(3.0)", "value": 2.0666, "value_rock": 0.795, "value_soil": 3.3045, "units": "%g", "ln_tau": 0.3789, "ln_phi": 0.617, "ln_sigma": 0.7241, "ln_sigma_rock": 0.7247, "ln_sigma_soil": 0.7244, "ln_bias": -0.3116, "ln_bias_sigma": 0.2651}, {"name": "pgv", "value": 8.6091, "value_rock": 4.4264, "value_soil": 11.3884, "units": "cm/s", "ln_tau": 0.3234, "ln_phi": 0.5271, "ln_sigma": 0.6184, "ln_sigma_rock": 0.6266, "ln_sigma_soil": 0.5946, "ln_bias": -0.299, "ln_bias_sigma": 0.2007}], "pgm_from_mmi": [{"name": "pga", "value": 7.8976, "units": "%g", "ln_sigma": 0.8059, "flag": "0"}, {"name": "pgv", "value": 5.5179, "units": "cm/s", "ln_sigma": 0.875, "flag": "0"}, {"name": "sa(0.3)", "value": 17.6209, "units": "%g", "ln_sigma": 1.0131, "flag": "0"}, {"name": "sa(3.0)", "value": 1.2844, "units": "%g", "ln_sigma": 1.4737, "flag": "0"}, {"name": "sa(1.0)", "value": 5.9472, "units": "%g", "ln_sigma": 1.0822, "flag": "0"}], "distance_stddev": 0.0, "distances": {"repi": 45.851, "rhypo": 47.524, "rjb": 36.299, "rjb_var": 0.0, "rrup": 36.299, "rrup_var": 0.0, "rx": -12.199, "ry0": 30.226, "rvolc": 0.0}}, "geometry": {"type": "Point", "coordinates": [110.68, -7.62]}}, {"type": "Feature", "id": "INTENSITY.OBS_2", "properties": {"code": "OBS_2", "name": "Prambanan (Intensity VII)", "instrumentType": "OBSERVED", "source": "INTENSITY", "network": "INTENSITY", "commType": "UNK", "location": "", "intensity": 7.0, "intensity_flag": "0", "intensity_stddev": 0.3, "pga": 34.6024, "pgv": 23.6965, "distance": 15.605, "elev": null, "vs30": 304.11, "channels": [], "nresp": -1, "station_type": "macroseismic", "predictions": [{"name": "mmi", "value": 6.1862, "value_rock": 5.7519, "value_soil": 6.2357, "units": "intensity", "tau": 0.4915, "phi": 1.0306, "sigma": 1.1418, "sigma_rock": 1.1924, "sigma_soil": 1.0743, "bias": -0.4116, "bias_sigma": 0.2832}, {"name": "pga", "value": 20.8528, "value_rock": 15.9144, "value_soil": 21.5053, "units": "%g", "ln_tau": 0.3059, "ln_phi": 0.4926, "ln_sigma": 0.5799, "ln_sigma_rock": 0.618, "ln_sigma_soil": 0.5275, "ln_bias": -0.0698, "ln_bias_sigma": 0.1847}, {"name": "sa(0.3)", "value": 51.9941, "value_rock": 29.8915, "value_soil": 58.1619, "units": "%g", "ln_tau": 0.2822, "ln_phi": 0.5552, "ln_sigma": 0.6228, "ln_sigma_rock": 0.6677, "ln_sigma_soil": 0.5528, "ln_bias": -0.2205, "ln_bias_sigma": 0.1964}, {"name": "sa(1.0)", "value": 20.9646, "value_rock": 8.9768, "value_soil": 30.0493, "units": "%g", "ln_tau": 0.3442, "ln_phi": 0.6252, "ln_sigma": 0.7137, "ln_sigma_rock": 0.7235, "ln_sigma_soil": 0.6845, "ln_bias": -0.2955, "ln_bias_sigma": 0.2306}, {"name": "sa(3.0)", "value": 4.5977, "value_rock": 1.8541, "value_soil": 7.6906, "units": "%g", "ln_tau": 0.3788, "ln_phi": 0.6168, "ln_sigma": 0.7238, "ln_sigma_rock": 0.7247, "ln_sigma_soil": 0.724, "ln_bias": -0.3115, "ln_bias_sigma": 0.265}, {"name": "pgv", "value": 19.9354, "value_rock": 10.951, "value_soil": 25.2208, "units": "cm/s", "ln_tau": 0.3206, "ln_phi": 0.5263, "ln_sigma": 0.6163, "ln_sigma_rock": 0.6266, "ln_sigma_soil": 0.5813, "ln_bias": -0.297, "ln_bias_sigma": 0.2}], "pgm_from_mmi": [{"name": "pga", "value": 34.6024, "units": "%g", "ln_sigma": 0.8059, "flag": "0"}, {"name": "pgv", "value": 23.6965, "units": "cm/s", "ln_sigma": 0.875, "flag": "0"}, {"name": "sa(0.3)", "value": 60.5695, "units": "%g", "ln_sigma": 1.0131, "flag": "0"}, {"name": "sa(3.0)", "value": 5.0551, "units": "%g", "ln_sigma": 1.4737, "flag": "0"}, {"name": "sa(1.0)", "value": 25.236, "units": "%g", "ln_sigma": 1.0822, "flag": "0"}], "distance_stddev": 0.0, "distances": {"repi": 24.051, "rhypo": 27.105, "rjb": 15.605, "rjb_var": 0.0, "rrup": 15.605, "rrup_var": 0.0, "rx": -13.222, "ry0": 8.552, "rvolc": 0.0}}, "geometry": {"type": "Point", "coordinates": [110.494, -7.75]}}, {"type": "Feature", "id": "INTENSITY.OBS_23", "properties": {"code": "OBS_23", "name": "Mungkid (Intensity IV)", "instrumentType": "OBSERVED", "source": "INTENSITY", "network": "INTENSITY", "commType": "UNK", "location": "", "intensity": 4.0, "intensity_flag": "0", "intensity_stddev": 0.3, "pga": 3.9946, "pgv": 2.0363, "distance": 45.009, "elev": null, "vs30": 271.76, "channels": [], "nresp": -1, "station_type": "macroseismic", "predictions": [{"name": "mmi", "value": 4.9967, "value_rock": 4.3514, "value_soil": 5.2011, "units": "intensity", "tau": 0.5184, "phi": 1.0395, "sigma": 1.1616, "sigma_rock": 1.1941, "sigma_soil": 1.1312, "bias": -0.4258, "bias_sigma": 0.288}, {"name": "pga", "value": 7.4275, "value_rock": 4.9711, "value_soil": 8.4352, "units": "%g", "ln_tau": 0.3226, "ln_phi": 0.4998, "ln_sigma": 0.5949, "ln_sigma_rock": 0.6193, "ln_sigma_soil": 0.5717, "ln_bias": -0.0725, "ln_bias_sigma": 0.1882}, {"name": "sa(0.3)", "value": 19.8956, "value_rock": 9.4513, "value_soil": 25.1511, "units": "%g", "ln_tau": 0.2992, "ln_phi": 0.5667, "ln_sigma": 0.6409, "ln_sigma_rock": 0.6681, "ln_sigma_soil": 0.6123, "ln_bias": -0.233, "ln_bias_sigma": 0.2018}, {"name": "sa(1.0)", "value": 8.0476, "value_rock": 2.9867, "value_soil": 11.4706, "units": "%g", "ln_tau": 0.347, "ln_phi": 0.6263, "ln_sigma": 0.716, "ln_sigma_rock": 0.7235, "ln_sigma_soil": 0.7049, "ln_bias": -0.2976, "ln_bias_sigma": 0.2314}, {"name": "sa(3.0)", "value": 1.7652, "value_rock": 0.6362, "value_soil": 2.6455, "units": "%g", "ln_tau": 0.379, "ln_phi": 0.617, "ln_sigma": 0.7241, "ln_sigma_rock": 0.7248, "ln_sigma_soil": 0.7245, "ln_bias": -0.3116, "ln_bias_sigma": 0.2651}, {"name": "pgv", "value": 7.1138, "value_rock": 3.4812, "value_soil": 9.1414, "un