{
   "type":"FeatureCollection",
   "features":[
      {
         "type":"Feature",
         "id":"DYFI.UTM:(13Q 047 228 10000)",
         "properties":{
            "code":"UTM:(13Q 047 228 10000)",
            "name":null,
            "instrumentType":"OBSERVED",
            "source":"DYFI",
            "network":"DYFI",
            "commType":"UNK",
            "location":"",
            "intensity":2.8,
            "intensity_flag":"0",
            "intensity_stddev":0.3,
            "pga":"null",
            "pgv":"null",
            "distance":691.657,
            "elev":null,
            "vs30":760.0,
            "channels":[
               
            ],
            "nresp":10,
            "station_type":"macroseismic",
            "predictions":[
               {
                  "name":"mmi",
                  "value":1.1168,
                  "value_rock":1.1168,
                  "value_soil":1.4971,
                  "units":"intensity",
                  "tau":0.3261,
                  "phi":0.8294,
                  "sigma":0.8912,
                  "sigma_rock":0.8929,
                  "sigma_soil":0.8914,
                  "bias":0.0435,
                  "bias_sigma":0.3039
               },
               {
                  "name":"pga",
                  "value":0.033,
                  "value_rock":0.033,
                  "value_soil":0.0502,
                  "units":"%g",
                  "ln_tau":0.361,
                  "ln_phi":0.5561,
                  "ln_sigma":0.663,
                  "ln_sigma_rock":0.6658,
                  "ln_sigma_soil":0.6633,
                  "ln_bias":0.0529,
                  "ln_bias_sigma":0.3116
               },
               {
                  "name":"sa(0.3)",
                  "value":0.0366,
                  "value_rock":0.0366,
                  "value_soil":0.0797,
                  "units":"%g",
                  "ln_tau":0.3594,
                  "ln_phi":0.621,
                  "ln_sigma":0.7175,
                  "ln_sigma_rock":0.7203,
                  "ln_sigma_soil":0.7189,
                  "ln_bias":-0.0492,
                  "ln_bias_sigma":0.3231
               },
               {
                  "name":"sa(1.0)",
                  "value":0.0368,
                  "value_rock":0.0368,
                  "value_soil":0.104,
                  "units":"%g",
                  "ln_tau":0.4013,
                  "ln_phi":0.6374,
                  "ln_sigma":0.7532,
                  "ln_sigma_rock":0.7562,
                  "ln_sigma_soil":0.7557,
                  "ln_bias":0.017,
                  "ln_bias_sigma":0.3569
               },
               {
                  "name":"sa(3.0)",
                  "value":0.0249,
                  "value_rock":0.0249,
                  "value_soil":0.0636,
                  "units":"%g",
                  "ln_tau":0.3946,
                  "ln_phi":0.6289,
                  "ln_sigma":0.7425,
                  "ln_sigma_rock":0.7447,
                  "ln_sigma_soil":0.7447,
                  "ln_bias":0.0278,
                  "ln_bias_sigma":0.366
               },
               {
                  "name":"pgv",
                  "value":0.0356,
                  "value_rock":0.0356,
                  "value_soil":0.0929,
                  "units":"cm/s",
                  "ln_tau":0.3986,
                  "ln_phi":0.7579,
                  "ln_sigma":0.8563,
                  "ln_sigma_rock":0.8588,
                  "ln_sigma_soil":0.855,
                  "ln_bias":0.0087,
                  "ln_bias_sigma":0.3525
               }
            ],
            "pgm_from_mmi":[
               {
                  "name":"sa(3.0)",
                  "value":null,
                  "units":"%g",
                  "ln_sigma":null,
                  "flag":"0"
               },
               {
                  "name":"pga",
                  "value":null,
                  "units":"%g",
                  "ln_sigma":null,
                  "flag":"0"
               },
               {
                  "name":"sa(0.3)",
                  "value":null,
                  "units":"%g",
                  "ln_sigma":null,
                  "flag":"0"
               },
               {
                  "name":"sa(1.0)",
                  "value":null,
                  "units":"%g",
                  "ln_sigma":null,
                  "flag":"0"
               },
               {
                  "name":"pgv",
                  "value":null,
                  "units":"cm/s",
                  "ln_sigma":null,
                  "flag":"0"
               }
            ],
            "distance_stddev":0.0,
            "distances":{
               "repi":709.298,
               "rhypo":709.58,
               "rjb":692.38,
               "rjb_var":0.0,
               "rrup":691.657,
               "rrup_var":0.0,
               "rx":203.335,
               "ry0":667.71,
               "rvolc":0.0
            }
         },
         "geometry":{
            "type":"Point",
            "coordinates":[
               -105.24,
               20.6642
            ]
         }
      },
      {
         "type":"Feature",
         "id":"DYFI.UTM:(14Q 026 217 10000)",
         "properties":{
            "code":"UTM:(14Q 026 217 10000)",
            "name":null,
            "instrumentType":"OBSERVED",
            "source":"DYFI",
            "network":"DYFI",
            "commType":"UNK",
            "location":"",
            "intensity":3.2,
            "intensity_flag":"0",
            "intensity_stddev":0.3,
            "pga":"null",
            "pgv":"null",
            "distance":319.877,
            "elev":null,
            "vs30":485.56,
            "channels":[
               
            ],
            "nresp":5,
            "station_type":"macroseismic",
            "predictions":[
               {
                  "name":"mmi",
                  "value":3.301,
                  "value_rock":3.1653,
                  "value_soil":3.4445,
                  "units":"intensity",
                  "tau":0.2429,
                  "phi":0.7587,
                  "sigma":0.7967,
                  "sigma_rock":0.7978,
                  "sigma_soil":0.7966,
                  "bias":0.0257,
                  "bias_sigma":0.2333
               },
               {
                  "name":"pga",
                  "value":0.518,
                  "value_rock":0.4234,
                  "value_soil":0.6411,
                  "units":"%g",
                  "ln_tau":0.3609,
                  "ln_phi":0.556,
                  "ln_sigma":0.6629,
                  "ln_sigma_rock":0.6658,
                  "ln_sigma_soil":0.6626,
                  "ln_bias":0.0529,
                  "ln_bias_sigma":0.3116
               },
               {
                  "name":"sa(0.3)",
                  "value":1.0093,
                  "value_rock":0.7056,
                  "value_soil":1.5251,
                  "units":"%g",
                  "ln_tau":0.3594,
                  "ln_phi":0.6209,
                  "ln_sigma":0.7174,
                  "ln_sigma_rock":0.7203,
                  "ln_sigma_soil":0.7179,
                  "ln_bias":-0.0492,
                  "ln_bias_sigma":0.323
               },
               {
                  "name":"sa(1.0)",
                  "value":0.553,
                  "value_rock":0.3985,
                  "value_soil":1.122,
                  "units":"%g",
                  "ln_tau":0.4013,
                  "ln_phi":0.6374,
                  "ln_sigma":0.7532,
                  "ln_sigma_rock":0.7562,
                  "ln_sigma_soil":0.755,
                  "ln_bias":0.017,
                  "ln_bias_sigma":0.3569
               },
               {
                  "name":"sa(3.0)",
                  "value":0.1816,
                  "value_rock":0.14,
                  "value_soil":0.3581,
                  "units":"%g",
                  "ln_tau":0.3946,
                  "ln_phi":0.6289,
                  "ln_sigma":0.7425,
                  "ln_sigma_rock":0.7447,
                  "ln_sigma_soil":0.7447,
                  "ln_bias":0.0278,
                  "ln_bias_sigma":0.366
               },
               {
                  "name":"pgv",
                  "value":0.5216,
                  "value_rock":0.386,
                  "value_soil":1.0032,
                  "units":"cm/s",
                  "ln_tau":0.3986,
                  "ln_phi":0.7578,
                  "ln_sigma":0.8563,
                  "ln_sigma_rock":0.8588,
                  "ln_sigma_soil":0.8544,
                  "ln_bias":0.0087,
                  "ln_bias_sigma":0.3524
               }
            ],
            "pgm_from_mmi":[
               {
                  "name":"sa(3.0)",
                  "value":null,
                  "units":"%g",
                  "ln_sigma":null,
                  "flag":"0"
               },
               {
                  "name":"pga",
                  "value":null,
                  "units":"%g",
                  "ln_sigma":null,
                  "flag":"0"
               },
               {
                  "name":"sa(0.3)",
                  "value":null,
                  "units":"%g",
                  "ln_sigma":null,
                  "flag":"0"
               },
               {
                  "name":"sa(1.0)",
                  "value":null,
                  "units":"%g",
                  "ln_sigma":null,
                  "flag":"0"
               },
               {
                  "name":"pgv",
                  "value":null,
                  "units":"cm/s",
                  "ln_sigma":null,
                  "flag":"0"
               }
            ],
            "distance_stddev":0.0,
            "distances":{
               "repi":337.773,
               "rhypo":338.364,
               "rjb":319.847,
               "rjb_var":0.0,
               "rrup":319.877,
               "rrup_var":0.0,
               "rx":238.001,
               "ry0":238.18,
               "rvolc":0.0
            }
         },
         "geometry":{
            "type":"Point",
            "coordinates":[
               -101.2413,
               19.6563
            ]
         }
      },
      {
         "type":"Feature",
         "id":"DYFI.UTM:(14Q 027 217 10000)",
         "properties":{
            "code":"UTM:(14Q 027 217 10000)",
            "name":null,
            "instrumentType":"OBSERVED",
            "source":"DYFI",
            "network":"DYFI",
            "commType":"UNK",
            "location":"",
            "intensity":3.8,
            "intensity_flag":"0",
            "intensity_stddev":0.3,
            "pga":"null",
            "pgv":"null",
            "distance":315.463,
            "elev":null,
            "vs30":366.42,
            "channels":[
               
            ],
            "nresp":4,
            "station_type":"macroseismic",
            "predictions":[
               {
                  "name":"mmi",
                  "value":3.3677,
                  "value_rock":3.1893,
                  "value_soil":3.4684,
                  "units":"intensity",
                  "tau":0.2429,
                  "phi":0.7587,
                  "sigma":0.7966,
                  "sigma_rock":0.7978,
                  "sigma_soil":0.7966,
                  "bias":0.0257,
                  "bias_sigma":0.2333
               },
               {
                  "name":"pga",
                  "value":0.572,
                  "value_rock":0.4389,
                  "value_soil":0.6643,
                  "units":"%g",
                  "ln_tau":0.3608,
                  "ln_phi":0.5559,
                  "ln_sigma":0.6628,
                  "ln_sigma_rock":0.6658,
                  "ln_sigma_soil":0.6625,
                  "ln_bias":0.0529,
                  "ln_bias_sigma":0.3115
               },
               {
                  "name":"sa(0.3)",
                  "value":1.1612,
                  "value_rock":0.7343,
                  "value_soil":1.5867,
                  "units":"%g",
                  "ln_tau":0.3593,
                  "ln_phi":0.6208,
                  "ln_sigma":0.7173,
                  "ln_sigma_rock":0.7203,
                  "ln_sigma_soil":0.7179,
                  "ln_bias":-0.0492,
                  "ln_bias_sigma":0.323
               },
               {
                  "name":"sa(1.0)",
                  "value":0.6507,
                  "value_rock":0.4115,
                  "value_soil":1.1585,
                  "units":"%g",
                  "ln_tau":0.4013,
                  "ln_phi":0.6373,
                  "ln_sigma":0.7531,
                  "ln_sigma_rock":0.7562,
                  "ln_sigma_soil":0.755,
                  "ln_bias":0.017,
                  "ln_bias_sigma":0.3569
               },
               {
                  "name":"sa(3.0)",
                  "value":0.2088,
                  "value_rock":0.1434,
                  "value_soil":0.3668,
                  "units":"%g",
                  "ln_tau":0.3946,
                  "ln_phi":0.6289,
                  "ln_sigma":0.7425,
                  "ln_sigma_rock":0.7447,
                  "ln_sigma_soil":0.7447,
                  "ln_bias":0.0278,
                  "ln_bias_sigma":0.3659
               },
               {
                  "name":"pgv",
                  "value":0.6046,
                  "value_rock":0.3986,
                  "value_soil":1.0359,
                  "units":"cm/s",
                  "ln_tau":0.3985,
                  "ln_phi":0.7578,
                  "ln_sigma":0.8562,
                  "ln_sigma_rock":0.8588,
                  "ln_sigma_soil":0.8543,
                  "ln_bias":0.0087,
                  "ln_bias_sigma":0.3524
               }
            ],
            "pgm_from_mmi":[
               {
                  "name":"sa(3.0)",
                  "value":null,
                  "units":"%g",
                  "ln_sigma":null,
                  "flag":"0"
               },
               {
                  "name":"pga",
                  "value":null,
                  "units":"%g",
                  "ln_sigma":null,
                  "flag":"0"
               },
               {
                  "name":"sa(0.3)",
                  "value":null,
                  "units":"%g",
                  "ln_sigma":null,
                  "flag":"0"
               },
               {
                  "name":"sa(1.0)",
                  "value":null,
                  "units":"%g",
                  "ln_sigma":null,
                  "flag":"0"
               },
               {
                  "name":"pgv",
                  "value":null,
                  "units":"cm/s",
                  "ln_sigma":null,
                  "flag":"0"
               }
            ],
            "distance_stddev":0.0,
            "distances":{
               "repi":333.296,
               "rhypo":333.896,
               "rjb":315.42,
               "rjb_var":0.0,
               "rrup":315.463,
               "rrup_var":0.0,
               "rx":241.597,
               "ry0":228.866,
               "rvolc":0.0
            }
         },
         "geometry":{
            "type":"Point",
            "coordinates":[
               -101.1459,
               19.6575
            ]
         }
      },
      {
         "type":"Feature",
         "id":"DYFI.UTM:(14Q 035 227 10000)",
         "properties":{
            "code":"UTM:(14Q 035 227 10000)",
            "name":null,
            "instrumentType":"OBSERVED",
            "source":"DYFI",
            "network":"DYFI",
            "commType":"UNK",
            "location":"",
            "intensity":2.0,
            "intensity_flag":"0",
            "intensity_stddev":0.3,
            "pga":"null",
            "pgv":"null",
            "distance":388.593,
            "elev":null,
            "vs30":760.0,
            "channels":[
               
            ],
            "nresp":8,
            "station_type":"macroseismic",
            "predictions":[
               {
                  "name":"mmi",
                  "value":2.807,
                  "value_rock":2.807,
                  "value_soil":3.088,
                  "units":"intensity",
                  "tau":0.243,
                  "phi":0.7588,
                  "sigma":0.7967,
                  "sigma_rock":0.7978,
                  "sigma_soil":0.7967,
                  "bias":0.0257,
                  "bias_sigma":0.2334
               },
               {
                  "name":"pga",
                  "value":0.2487,
                  "value_rock":0.2487,
                  "value_soil":0.3775,
                  "units":"%g",
                  "ln_tau":0.361,
                  "ln_phi":0.5561,
                  "ln_sigma":0.663,
                  "ln_sigma_rock":0.6658,
                  "ln_sigma_soil":0.6629,
                  "ln_bias":0.0529,
                  "ln_bias_sigma":0.3116
               },
               {
                  "name":"sa(0.3)",
                  "value":0.3876,
                  "value_rock":0.3876,
                  "value_soil":0.8405,
                  "units":"%g",
                  "ln_tau":0.3594,
                  "ln_phi":0.621,
                  "ln_sigma":0.7175,
                  "ln_sigma_rock":0.7203,
                  "ln_sigma_soil":0.7184,
                  "ln_bias":-0.0492,
                  "ln_bias_sigma":0.3231
               },
               {
                  "name":"sa(1.0)",
                  "value":0.246,
                  "value_rock":0.246,
                  "value_soil":0.6938,
                  "units":"%g",
                  "ln_tau":0.4013,
                  "ln_phi":0.6374,
                  "ln_sigma":0.7532,
                  "ln_sigma_rock":0.7562,
                  "ln_sigma_soil":0.7553,
                  "ln_bias":0.017,
                  "ln_bias_sigma":0.3569
               },
               {
                  "name":"sa(3.0)",
                  "value":0.0979,
                  "value_rock":0.0979,
                  "value_soil":0.2505,
                  "units":"%g",
                  "ln_tau":0.3946,
                  "ln_phi":0.6289,
                  "ln_sigma":0.7425,
                  "ln_sigma_rock":0.7447,
                  "ln_sigma_soil":0.7447,
                  "ln_bias":0.0278,
                  "ln_bias_sigma":0.366
               },
               {
                  "name":"pgv",
                  "value":0.2381,
                  "value_rock":0.2381,
                  "value_soil":0.6199,
                  "units":"cm/s",
                  "ln_tau":0.3986,
                  "ln_phi":0.7579,
                  "ln_sigma":0.8563,
                  "ln_sigma_rock":0.8588,
                  "ln_sigma_soil":0.8546,
                  "ln_bias":0.0087,
                  "ln_bias_sigma":0.3525
               }
            ],
            "pgm_from_mmi":[
               {
                  "name":"sa(3.0)",
                  "value":null,
                  "units":"%g",
                  "ln_sigma":null,
                  "flag":"0"
               },
               {
                  "name":"pga",
                  "value":null,
                  "units":"%g",
                  "ln_sigma":null,
                  "flag":"0"
               },
               {
                  "name":"sa(0.3)",
                  "value":null,
                  "units":"%g",
                  "ln_sigma":null,
                  "flag":"0"
               },
               {
                  "name":"sa(1.0)",
                  "value":null,
                  "units":"%g",
                  "ln_sigma":null,
                  "flag":"0"
               },
               {
                  "name":"pgv",
                  "value":null,
