{"type": "FeatureCollection", "features": [{"type": "Feature", "id": "NSMON.5601", "properties": {"code": "5601", "name": "Merkez, SIRT", "instrumentType": "UNK", "source": "NSMON", "network": "NSMON", "commType": "UNK", "location": "", "intensity": 4.5, "intensity_flag": "", "intensity_stddev": 0.63, "pga": 1.01, "pgv": 4.221, "distance": 147.296, "elev": null, "vs30": 570.08, "channels": [{"name": "Merkez, SIRT", "amplitudes": [{"name": "pga", "value": 1.01, "units": "%g", "flag": "0", "ln_sigma": 0.0}, {"name": "sa(1.0)", "value": 2.045, "units": "%g", "flag": "0", "ln_sigma": 0.0}, {"name": "sa(3.0)", "value": 0.863, "units": "%g", "flag": "0", "ln_sigma": 0.0}, {"name": "pgv", "value": 4.221, "units": "cm/s", "flag": "0", "ln_sigma": 0.0}, {"name": "sa(0.3)", "value": 1.83, "units": "%g", "flag": "0", "ln_sigma": 0.0}]}], "station_type": "seismic", "nresp": "null", "predictions": [{"name": "sa(1.0)", "value": 2.9213, "value_rock": 2.1926, "value_soil": 8.369, "units": "%g", "ln_tau": 0.4268, "ln_phi": 0.6773, "ln_sigma": 0.8006, "ln_sigma_rock": 0.8058, "ln_sigma_soil": 0.8028, "ln_bias": 0.3462, "ln_bias_sigma": 0.2529}, {"name": "pga", "value": 2.7274, "value_rock": 2.4, "value_soil": 3.8071, "units": "%g", "ln_tau": 0.3974, "ln_phi": 0.5895, "ln_sigma": 0.711, "ln_sigma_rock": 0.713, "ln_sigma_soil": 0.7071, "ln_bias": -0.684, "ln_bias_sigma": 0.1689}, {"name": "sa(0.3)", "value": 5.5409, "value_rock": 4.3116, "value_soil": 11.1629, "units": "%g", "ln_tau": 0.3832, "ln_phi": 0.6623, "ln_sigma": 0.7651, "ln_sigma_rock": 0.766, "ln_sigma_soil": 0.7596, "ln_bias": 0.0762, "ln_bias_sigma": 0.238}, {"name": "pgv", "value": 2.9566, "value_rock": 2.3948, "value_soil": 6.3686, "units": "cm/s", "ln_tau": 0.3909, "ln_phi": 0.6015, "ln_sigma": 0.7174, "ln_sigma_rock": 0.7232, "ln_sigma_soil": 0.7179, "ln_bias": 0.2042, "ln_bias_sigma": 0.2153}, {"name": "sa(3.0)", "value": 0.927, "value_rock": 0.733, "value_soil": 2.3074, "units": "%g", "ln_tau": 0.4335, "ln_phi": 0.6604, "ln_sigma": 0.79, "ln_sigma_rock": 0.7991, "ln_sigma_soil": 0.7992, "ln_bias": 0.4395, "ln_bias_sigma": 0.2559}, {"name": "mmi", "value": 4.0941, "value_rock": 3.9595, "value_soil": 5.0528, "units": "intensity", "tau": 0.2496, "phi": 0.7378, "sigma": 0.7789, "sigma_rock": 0.7811, "sigma_soil": 1.1694, "bias": 0.2095, "bias_sigma": 0.2164}], "mmi_from_pgm": [{"name": "sa(1.0)", "value": 3.62, "sigma": 0.75, "flag": "0"}, {"name": "pga", "value": 3.42, "sigma": 0.66, "flag": "0"}, {"name": "sa(0.3)", "value": 3.63, "sigma": 0.82, "flag": "0"}, {"name": "pgv", "value": 4.49, "sigma": 0.63, "flag": "0"}, {"name": "sa(3.0)", "value": 4.08, "sigma": 0.89, "flag": "0"}], "distance_stddev": 0.0, "distances": {"repi": 164.377, "rhypo": 165.36, "rjb": 147.176, "rjb_var": 0.0, "rrup": 147.296, "rrup_var": 0.0, "rx": 17.057, "ry0": 146.081, "rvolc": 0.0}}, "geometry": {"type": "Point", "coordinates": [41.931, 37.912]}}, {"type": "Feature", "id": "NSMON.2307", "properties": {"code": "2307", "name": "Palu, PALU", "instrumentType": "UNK", "source": "NSMON", "network": "NSMON", "commType": "UNK", "location": "", "intensity": 3.6, "intensity_flag": "", "intensity_stddev": 0.63, "pga": 0.216, "pgv": 1.296, "distance": 294.707, "elev": null, "vs30": 269.85, "channels": [{"name": "Palu, PALU", "amplitudes": [{"name": "pga", "value": 0.216, "units": "%g", "flag": "0", "ln_sigma": 0.0}, {"name": "sa(1.0)", "value": 0.49, "units": "%g", "flag": "0", "ln_sigma": 0.0}, {"name": "sa(3.0)", "value": 0.649, "units": "%g", "flag": "0", "ln_sigma": 0.0}, {"name": "pgv", "value": 1.296, "units": "cm/s", "flag": "0", "ln_sigma": 0.0}, {"name": "sa(0.3)", "value": 0.229, "units": "%g", "flag": "Outlier", "ln_sigma": 0.0}]}], "station_type": "seismic", "nresp": "null", "predictions": [{"name": "sa(1.0)", "value": 2.9833, "value_rock": 1.1068, "value_soil": 4.3578, "units": "%g", "ln_tau": 0.4266, "ln_phi": 0.6802, "ln_sigma": 0.8029, "ln_sigma_rock": 0.809, "ln_sigma_soil": 0.8073, "ln_bias": 0.346, "ln_bias_sigma": 0.2529}, {"name": "pga", "value": 1.1745, "value_rock": 0.8147, "value_soil": 1.3384, "units": "%g", "ln_tau": 0.3973, "ln_phi": 0.5915, "ln_sigma": 0.7125, "ln_sigma_rock": 0.7158, "ln_sigma_soil": 0.7124, "ln_bias": -0.6839, "ln_bias_sigma": 0.1689}, {"name": "sa(0.3)", "value": 3.3611, "value_rock": 1.5855, "value_soil": 4.3276, "units": "%g", "ln_tau": 0.3829, "ln_phi": 0.6654, "ln_sigma": 0.7677, "ln_sigma_rock": 0.77, "ln_sigma_soil": 0.7671, "ln_bias": 0.0762, "ln_bias_sigma": 0.2379}, {"name": "pgv", "value": 2.3907, "value_rock": 1.1617, "value_soil": 3.1607, "units": "cm/s", "ln_tau": 0.3907, "ln_phi": 0.6024, "ln_sigma": 0.718, "ln_sigma_rock": 0.7254, "ln_sigma_soil": 0.721, "ln_bias": 0.2041, "ln_bias_sigma": 0.2152}, {"name": "sa(3.0)", "value": 0.8965, "value_rock": 0.3936, "value_soil": 1.2536, "units": "%g", "ln_tau": 0.4335, "ln_phi": 0.6635, "ln_sigma": 0.7925, "ln_sigma_rock": 0.8018, "ln_sigma_soil": 0.802, "ln_bias": 0.4395, "ln_bias_sigma": 0.2559}, {"name": "mmi", "value": 3.9584, "value_rock": 3.4977, "value_soil": 4.1367, "units": "intensity", "tau": 0.2494, "phi": 0.7381, "sigma": 0.7791, "sigma_rock": 0.7819, "sigma_soil": 0.7802, "bias": 0.2093, "bias_sigma": 0.2163}], "mmi_from_pgm": [{"name": "sa(1.0)", "value": 2.53, "sigma": 0.75, "flag": "0"}, {"name": "pga", "value": 2.69, "sigma": 0.66, "flag": "0"}, {"name": "sa(0.3)", "value": 2.26, "sigma": 0.82, "flag": "Outlier"}, {"name": "pgv", "value": 3.57, "sigma": 0.63, "flag": "0"}, {"name": "sa(3.0)", "value": 3.76, "sigma": 0.89, "flag": "0"}], "distance_stddev": 0.0, "distances": {"repi": 310.281, "rhypo": 310.802, "rjb": 293.868, "rjb_var": 0.0, "rrup": 294.707, "rrup_var": 0.0, "rx": 189.378, "ry0": 237.074, "rvolc": 0.0}}, "geometry": {"type": "Point", "coordinates": [39.932, 38.696]}}, {"type": "Feature", "id": "ISMN.5322", "properties": {"code": "5322", "name": "Avagiq", "instrumentType": "UNK", "source": "ISMN", "network": "ISMN", "commType": "UNK", "location": "", "intensity": "null", "intensity_flag": "", "intensity_stddev": "null", "pga": 1.43, "pgv": "null", "distance": 88.666, "elev": null, "vs30": 461.33, "channels": [{"name": "Avagiq", "amplitudes": [{"name": "pga", "value": 1.43, "units": "%g", "flag": "0", "ln_sigma": 0.0}]}], "station_type": "seismic", "nresp": "null", "predictions": [{"name": "sa(1.0)", "value": 5.725, "value_rock": 3.5622, "value_soil": 13.0698, "units": "%g", "ln_tau": 0.4267, "ln_phi": 0.6759, "ln_sigma": 0.7993, "ln_sigma_rock": 0.8046, "ln_sigma_soil": 0.8001, "ln_bias": 0.3461, "ln_bias_sigma": 0.2529}, {"name": "pga", "value": 5.8034, "value_rock": 4.7759, "value_soil": 7.2352, "units": "%g", "ln_tau": 0.3966, "ln_phi": 0.5873, "ln_sigma": 0.7087, "ln_sigma_rock": 0.7116, "ln_sigma_soil": 0.7022, "ln_bias": -0.6835, "ln_bias_sigma": 0.1688}, {"name": "sa(0.3)", "value": 12.087, "value_rock": 8.21, "value_soil": 19.8333, "units": "%g", "ln_tau": 0.3826, "ln_phi": 0.6592, "ln_sigma": 0.7622, "ln_sigma_rock": 0.7637, "ln_sigma_soil": 0.7525, "ln_bias": 0.0761, "ln_bias_sigma": 0.2378}, {"name": "pgv", "value": 5.71, "value_rock": 4.0512, "value_soil": 10.4638, "units": "cm/s", "ln_tau": 0.3908, "ln_phi": 0.6, "ln_sigma": 0.7161, "ln_sigma_rock": 0.7219, "ln_sigma_soil": 0.7156, "ln_bias": 0.2041, "ln_bias_sigma": 0.2152}, {"name": "sa(3.0)", "value": 1.7136, "value_rock": 1.1563, "value_soil": 3.5877, "units": "%g", "ln_tau": 0.4335, "ln_phi": 0.6591, "ln_sigma": 0.7889, "ln_sigma_rock": 0.7979, "ln_sigma_soil": 0.798, "ln_bias": 0.4395, "ln_bias_sigma": 0.2559}, {"name": "mmi", "value": 4.903, "value_rock": 4.432, "value_soil": 5.7342, "units": "intensity", "tau": 0.5364, "phi": 1.0368, "sigma": 1.1673, "sigma_rock": 1.1741, "sigma_soil": 1.1668, "bias": 0.5098, "bias_sigma": 0.3375}], "mmi_from_pgm": [{"name": "sa(1.0)", "value": null, "sigma": null, "flag": "0"}, {"name": "pga", "value": 3.43, "sigma": 0.66, "flag": "0"}, {"name": "sa(0.3)", "value": null, "sigma": null, "flag": "0"}, {"name": "pgv", "value": null, "sigma": null, "flag": "0"}, {"name": "sa(3.0)", "value": null, "sigma": null, "flag": "0"}], "distance_stddev": 0.0, "distances": {"repi": 88.249, "rhypo": 90.066, "rjb": 84.358, "rjb_var": 0.0, "rrup": 88.666, "rrup_var": 0.0, "rx": 38.51, "ry0": 82.886, "rvolc": 0.0}}, "geometry": {"type": "Point", "coordinates": [44.16, 39.332]}}, {"type": "Feature", "id": "NSMON.0401", "properties": {"code": "0401", "name": "Merkez, AGR", "instrumentType": "UNK", "source": "NSMON", "network": "NSMON", "commType": "UNK", "location": "", "intensity": 4.9, "intensity_flag": "", "intensity_stddev": 0.63, "pga": 1.882, "pgv": 5.827, "distance": 116.205, "elev": null, "vs30": 298.82, "channels": [{"name": "Merkez, AGR", "amplitudes": [{"name": "pga", "value": 1.882, "units": "%g", "flag": "0", "ln_sigma": 0.0}, {"name": "sa(1.0)", "value": 4.232, "units": "%g", "flag": "0", "ln_sigma": 0.0}, {"name": "sa(3.0)", "value": 2.221, "units": "%g", "flag": "0", "ln_sigma": 0.0}, {"name": "pgv", "value": 5.827, "units": "cm/s", "flag": "0", "ln_sigma": 0.0}, {"name": "sa(0.3)", "value": 3.648, "units": "%g", "flag": "0", "ln_sigma": 0.0}]}], "station_type": "seismic", "nresp": "null", "predictions": [{"name": "sa(1.0)", "value": 6.7238, "value_rock": 2.7638, "value_soil": 10.3691, "units": "%g", "ln_tau": 0.4263, "ln_phi": 0.6754, "ln_sigma": 0.7987, "ln_sigma_rock": 0.8046, "ln_sigma_soil": 0.801, "ln_bias": 0.3459, "ln_bias_sigma": 0.2528}, {"name": "pga", "value": 4.6018, "value_rock": 3.3577, "value_soil": 5.2216, "units": "%g", "ln_tau": 0.3958, "ln_phi": 0.5867, "ln_sigma": 0.7078, "ln_sigma_rock": 0.7118, "ln_sigma_soil": 0.7045, "ln_bias": -0.6831, "ln_bias_sigma": 0.1688}, {"name": "sa(0.3)", "value": 11.4216, "value_rock": 5.8986, "value_soil": 14.821, "units": "%g", "ln_tau": 0.3814, "ln_phi": 0.6586, "ln_sigma": 0.761, "ln_sigma_rock": 0.7642, "ln_sigma_soil": 0.7559, "ln_bias": 0.0759, "ln_bias_sigma": 0.2375}, {"name": "pgv", "value": 5.8825, "value_rock": 3.0764, "value_soil": 8.0782, "units": "cm/s", "ln_tau": 0.3904, "ln_phi": 0.5998, "ln_sigma": 0.7157, "ln_sigma_rock": 0.7222, "ln_sigma_soil": 0.7165, "ln_bias": 0.204, "ln_bias_sigma": 0.2152}, {"name": "sa(3.0)", "value": 1.9135, "value_rock": 0.91, "value_soil": 2.8463, "units": "%g", "ln_tau": 0.4335, "ln_phi": 0.6591, "ln_sigma": 0.7889, "ln_sigma_rock": 0.7979, "ln_sigma_soil": 0.7981, "ln_bias": 0.4395, "ln_bias_sigma": 0.2559}, {"name": "mmi", "value": 4.9438, "value_rock": 4.1194, "value_soil": 5.3791, "units": "intensity", "tau": 0.5358, "phi": 1.0366, "sigma": 1.1668, "sigma_rock": 0.7807, "sigma_soil": 1.1678, "bias": 0.5093, "bias_sigma": 0.3374}], "mmi_from_pgm": [{"name": "sa(1.0)", "value": 4.14, "sigma": 0.75, "flag": "0"}, {"name": "pga", "value": 3.73, "sigma": 0.66, "flag": "0"}, {"name": "sa(0.3)", "value": 4.07, "sigma": 0.82, "flag": "0"}, {"name": "pgv", "value": 4.93, "sigma": 0.63, "flag": "0"}, {"name": "sa(3.0)", "value": 5.26, "sigma": 0.89, "flag": "0"}], "distance_stddev": 0.0, "distances": {"repi": 118.894, "rhypo": 120.249, "rjb": 112.532, "rjb_var": 0.0, "rrup": 116.205, "rrup_var": 0.0, "rx": 128.912, "ry0": 25.628, "rvolc": 0.0}}, "geometry": {"type": "Point", "coordinates": [43.016, 39.72]}}, {"type": "Feature", "id": "ISMN.5327", "properties": {"code": "5327", "name": "Salmas1", "instrumentType": "UNK", "source": "ISMN", "network": "ISMN", "commType": "UNK", "location": "", "intensity": "null", "intensity_flag": "", "intensity_stddev": "null", "pga": 0.82, "pgv": "null", "distance": 118.15, "elev": null, "vs30": 289.89, "channels": [{"name": "Salmas1", "amplitudes": [{"name": "pga", "value": 0.82, "units": "%g", "flag": "0", "ln_sigma": 0.0}]}], "station_type": "seismic", "nresp": "null", "predictions": [{"name": "sa(1.0)", "value": 6.7244, "value_rock": 2.6922, "value_soil": 10.1322, "units": "%g", "ln_tau": 0.4262, "ln_phi": 0.6754, "ln_sigma": 0.7986, "ln_sigma_rock": 0.8046, "ln_sigma_soil": 0.8011, "ln_bias": 0.3458, "ln_bias_sigma": 0.2528}, {"name": "pga", "value": 4.4713, "value_rock": 3.2307, "value_soil": 5.0414, "units": "%g", "ln_tau": 0.3958, "ln_phi": 0.5866, "ln_sigma": 0.7076, "ln_sigma_rock": 0.712, "ln_sigma_soil": 0.7048, "ln_bias": -0.683, "ln_bias_sigma": 0.1688}, {"name": "sa(0.3)", "value": 11.2298, "value_rock": 5.6887, "value_soil": 14.3688, "units": "%g", "ln_tau": 0.3813, "ln_phi": 0.6586, "ln_sigma": 0.761, "ln_sigma_rock": 0.7646, "ln_sigma_soil": 0.7564, "ln_bias": 0.0759, "ln_bias_sigma": 0.2375}, {"name": "pgv", "value": 5.8223, "value_rock": 2.9885, "value_soil": 7.8653, "units": "cm/s", "ln_tau": 0.3903, "ln_phi": 0.5996, "ln_sigma": 0.7154, "ln_sigma_rock": 0.7224, "ln_sigma_soil": 0.7167, "ln_bias": 0.204, "ln_bias_sigma": 0.2152}, {"name": "sa(3.0)", "value": 1.912, "value_rock": 0.8892, "value_soil": 2.7847, "units": "%g", "ln_tau": 0.4335, "ln_phi": 0.6591, "ln_sigma": 0.7889, "ln_sigma_rock": 0.7979, "ln_sigma_soil": 0.7981, "ln_bias": 0.4395, "ln_bias_sigma": 0.2559}, {"name": "mmi", "value": 4.9297, "value_rock": 4.1009, "value_soil": 5.3425, "units": "intensity", "tau": 0.5357, "phi": 1.0363, "sigma": 1.1666, "sigma_rock": 0.7808, "sigma_soil": 1.1681, "bias": 0.5093, "bias_sigma": 0.3374}], "mmi_from_pgm": [{"name": "sa(1.0)", "value": null, "sigma": null, "flag": "0"}, {"name": "pga", "value": 3.18, "sigma": 0.66, "flag": "0"}, {"name": "sa(0.3)", "value": null, "sigma": null, "flag": "0"}, {"name": "pgv", "value": null, "sigma": null, "flag": "0"}, {"name": "sa(3.0)", "value": null, "sigma": null, "flag": "0"}], "distance_stddev": 0.0, "distances": {"repi": 130.213, "rhypo": 131.451, "rjb": 118.14, "rjb_var": 0.0, "rrup": 118.15, "rrup_var": 0.0, "rx": -99.05, "ry0": 63.434, "rvolc": 0.0}}, "geometry": {"type": "Point", "coordinates": [44.848, 38.201]}}, {"type": "Feature", "id": "NSMON.2305", "properties": {"code": "2305", "name": "Beyhan, BEYHN", "instrumentType": "UNK", "source": "NSMON", "network": "NSMON", "commType": "UNK", "location": "", "intensity": 3.3, "intensity_flag": "", "intensity_stddev": 0.63, "pga": "null", "pgv": 0.828, "distance": 277.521, "elev": null, "vs30": 424.42, "channels": [{"name": "Beyhan, BEYHN", "amplitudes": [{"name": "pga", "value": 0.123, "units": "%g", "flag": "Outlier", "ln_sigma": 0.0}, {"name": "sa(1.0)", "value": 0.259, "units": "%g", "flag": "0", "ln_sigma": 0.0}, {"name": "sa(3.0)", "value": 0.275, "units": "%g", "flag": "0", "ln_sigma": 0.0}, {"name": "pgv", "value": 0.828, "units": "cm/s", "flag": "0", "ln_sigma": 0.0}, {"name": "sa(0.3)", "value": 0.155, "units": "%g", "flag": "Outlier", "ln_sigma": 0.0}]}], "station_type": "seismic", "nresp": "null", "predictions": [{"name": "sa(1.0)", "value": 2.0491, "value_rock": 1.1784, "value_soil": 4.6301, "units": "%g", "ln_tau": 0.4268, "ln_phi": 0.6808, "ln_sigma": 0.8035, "ln_sigma_rock": 0.809, "ln_sigma_soil": 0.8072, "ln_bias": 0.3461, "ln_bias_sigma": 0.2529}, {"name": "pga", "value": 1.14, "value_rock": 0.9052, "value_soil": 1.4838, "units": "%g", "ln_tau": 0.3974, "ln_phi": 0.5929, "ln_sigma": 0.7138, "ln_sigma_rock": 0.7158, "ln_sigma_soil": 0.7123, "ln_bias": -0.6841, "ln_bias_sigma": 0.1689}, {"name": "sa(0.3)", "value": 2.7457, "value_rock": 1.7475, "value_soil": 4.7541, "units": "%g", "ln_tau": 0.3832, "ln_phi": 0.6665, "ln_sigma": 0.7688, "ln_sigma_rock": 0.77, "ln_sigma_soil": 0.7669, "ln_bias": 0.0762, "ln_bias_sigma": 0.238}, {"name": "pgv", "value": 1.8487, "value_rock": 1.24, "value_soil": 3.3687, "units": "cm/s", "ln_tau": 0.3909, "ln_phi": 0.6041, "ln_sigma": 0.7195, "ln_sigma_rock": 0.7254, "ln_sigma_soil": 0.7209, "ln_bias": 0.2041, "ln_bias_sigma": 0.2153}, {"name": "sa(3.0)", "value": 0.6569, "value_rock": 0.4159, "value_soil": 1.3237, "units": "%g", "ln_tau": 0.4335, "ln_phi": 0.6635, "ln_sigma": 0.7925, "ln_sigma_rock": 0.8018, "ln_sigma_soil": 0.802, "ln_bias": 0.4395, "ln_bias_sigma": 0.2559}, {"name": "mmi", "value": 3.7943, "value_rock": 3.5393, "value_soil": 4.1774, "units": "intensity", "tau": 0.2496, "phi": 0.7387, "sigma": 0.7797, "sigma_rock": 0.7819, "sigma_soil": 0.7802, "bias": 0.2095, "bias_sigma": 0.2164}], "mmi_from_pgm": [{"name": "sa(1.0)", "value": 2.13, "sigma": 0.75, "flag": "0"}, {"name": "pga", "value": 2.25, "sigma": 0.66, "flag": "Outlier"}, {"name": "sa(0.3)", "value": 1.92, "sigma": 0.82, "flag": "Outlier"}, {"name": "pgv", "value": 3.28, "sigma": 0.63, "flag": "0"}, {"name": "sa(3.0)", "value": 3.34, "sigma": 0.89, "flag": "0"}], "distance_stddev": 0.0, "distances": {"repi": 292.94, "rhypo": 293.492, "rjb": 276.545, "rjb_var": 0.0, "rrup": 277.521, "rrup_var": 0.0, "rx": 182.048, "ry0": 221.041, "rvolc": 0.0}}, "geometry": {"type": "Point", "coordinates": [40.131, 38.728]}}, {"type": "Feature", "id": "ISMN.5329", "properties": {"code": "5329", "name": "Qotoor", "instrumentType": "UNK", "source": "ISMN", "network": "ISMN", "commType": "UNK", "location": "", "intensity": "null", "intensity_flag": "", "intensity_stddev": "null", "pga": 1.02, "pgv": "null", "distance": 71.427, "elev": null, "vs30": 587.96, "channels": [{"name": "Qotoor", "amplitudes": [{"name": "pga", "value": 1.02, "units": "%g", "flag": "0", "ln_sigma": 0.0}]}], "station_type": "seismic", "nresp": "null", "predictions": [{"name": "sa(1.0)", "value": 5.4916, "value_rock": 4.2438, "value_soil": 15.3406, "units": "%g", "ln_tau": 0.4268, "ln_phi": 0.676, "ln_sigma": 0.7994, "ln_sigma_rock": 0.8046, "ln_sigma_soil": 0.7995, "ln_bias": 0.3462, "ln_bias_sigma": 0.2529}, {"name": "pga", "value": 6.7446, "value_rock": 6.0119, "value_soil": 8.9463, "units": "%g", "ln_tau": 0.397, "ln_phi": 0.5877, "ln_sigma": 0.7092, "ln_sigma_rock": 0.7116, "ln_sigma_soil": 0.7007, "ln_bias": -0.6838, "ln_bias_sigma": 0.1689}, {"name": "sa(0.3)", "value": 12.8047, "value_rock": 10.2006, "value_soil": 23.9876, "units": "%g", "ln_tau": 0.3831, "ln_phi": 0.6597, "ln_sigma": 0.7629, "ln_sigma_rock": 0.7637, "ln_sigma_soil": 0.7504, "ln_bias": 0.0762, "ln_bias_sigma": 0.2379}, {"name": "pgv", "value": 5.933, "value_rock": 4.906, "value_soil": 12.532, "units": "cm/s", "ln_tau": 0.3909, "ln_phi": 0.6001, "ln_sigma": 0.7162, "ln_sigma_rock": 0.7219, "ln_sigma_soil": 0.7151, "ln_bias": 0.2042, "ln_bias_sigma": 0.2153}, {"name": "sa(3.0)", "value": 1.695, "value_rock": 1.3729, "value_soil": 4.2378, "units": "%g", "ln_tau": 0.4335, "ln_phi": 0.6591, "ln_sigma": 0.7889, "ln_sigma_rock": 0.7979, "ln_sigma_soil": 0.798, "ln_bias": 0.4395, "ln_bias_sigma": 0.2559}, {"name": "mmi", "value": 4.9555, "value_rock": 4.6947, "value_soil": 5.9817, "units": "intensity", "tau": 0.5365, "phi": 1.0369, "sigma": 1.1675, "sigma_rock": 1.1741, "sigma_soil": 1.1662, "bias": 0.5099, "bias_sigma": 0.3376}], "mmi_from_pgm": [{"name": "sa(1.0)", "value": null, "sigma": null, "flag": "0"}, {"name": "pga", "value": 3.1, "sigma": 0.66, "flag": "0"}, {"name": "sa(0.3)", "value": null, "sigma": null, "flag": "0"}, {"name": "pgv", "value": null, "sigma": null, "flag": "0"}, {"name": "sa(3.0)", "value": null, "sigma": null, "flag": "0"}], "distance_stddev": 0.0, "distances": {"repi": 82.546, "rhypo": 84.486, "rjb": 71.38, "rjb_var": 0.0, "rrup": 71.427, "rrup_var": 0.0, "rx": -52.197, "ry0": 48.234, "rvolc": 0.0}}, "geometry": {"type": "Point", "coordinates": [44.406, 38.479]}}, {"type": "Feature", "id": "NSMON.1206", "properties": {"code": "1206", "name": "Karliova, KRL", "instrumentType": "UNK", "source": "NSMON", "network": "NSMON", "commType": "UNK", "location": "", "intensity": 4.2, "intensity_flag": "", "intensity_stddev": 0.63, "pga": 0.767, "pgv": 3.262, "distance": 212.278, "elev": null, "vs30": 628.07, "channels": [{"name": "Karliova, KRL", "amplitudes": [{"name": "pga", "value": 0.767, "units": "%g", "flag": "0", "ln_sigma": 0.0}, {"name": "sa(1.0)", "value": 2.24, "units": "%g", "flag": "0", "ln_sigma": 0.0}, {"name": "sa(3.0)", "value": 2.231, "units": "%g", "flag": "0", "ln_sigma": 0.0}, {"name": "pgv", "value": 3.262, "units": "cm/s", "flag": "0", "ln_sigma"