{"type": "FeatureCollection", "features": [{"type": "Feature", "id": "DYFI.UTM:(32T 039 499 10000)", "properties": {"code": "UTM:(32T 039 499 10000)", "name": null, "instrumentType": "OBSERVED", "source": "DYFI", "network": "DYFI", "commType": "UNK", "location": "", "intensity": 2.1, "intensity_flag": "0", "intensity_stddev": 0.3, "pga": "null", "pgv": "null", "distance": 230.912, "elev": null, "vs30": 760.0, "channels": [], "nresp": 16, "station_type": "macroseismic", "predictions": [{"name": "mmi", "value": 1.7368, "value_rock": 1.7368, "value_soil": 2.4729, "units": "intensity", "tau": 0.3764, "phi": 0.8597, "sigma": 0.9384, "sigma_rock": 0.9416, "sigma_soil": 0.7871, "bias": 0.453, "bias_sigma": 0.1844}, {"name": "sa(0.3)", "value": 0.1252, "value_rock": 0.1252, "value_soil": 0.3566, "units": "%g", "ln_tau": 0.4, "ln_phi": 0.6858, "ln_sigma": 0.7939, "ln_sigma_rock": 0.7946, "ln_sigma_soil": 0.7924, "ln_bias": 0.6578, "ln_bias_sigma": 0.2921}, {"name": "sa(1.0)", "value": 0.0366, "value_rock": 0.0366, "value_soil": 0.1479, "units": "%g", "ln_tau": 0.4462, "ln_phi": 0.6845, "ln_sigma": 0.8171, "ln_sigma_rock": 0.8187, "ln_sigma_soil": 0.8179, "ln_bias": 0.8547, "ln_bias_sigma": 0.317}, {"name": "sa(3.0)", "value": 0.0064, "value_rock": 0.0064, "value_soil": 0.0205, "units": "%g", "ln_tau": 0.4527, "ln_phi": 0.664, "ln_sigma": 0.8036, "ln_sigma_rock": 0.8068, "ln_sigma_soil": 0.8069, "ln_bias": 0.8603, "ln_bias_sigma": 0.3519}, {"name": "pgv", "value": 0.0478, "value_rock": 0.0478, "value_soil": 0.1328, "units": "cm/s", "ln_tau": 0.3994, "ln_phi": 0.6206, "ln_sigma": 0.738, "ln_sigma_rock": 0.7426, "ln_sigma_soil": 0.7392, "ln_bias": 0.8655, "ln_bias_sigma": 0.2757}, {"name": "pga", "value": 0.0782, "value_rock": 0.0782, "value_soil": 0.132, "units": "%g", "ln_tau": 0.4138, "ln_phi": 0.6165, "ln_sigma": 0.7425, "ln_sigma_rock": 0.7449, "ln_sigma_soil": 0.742, "ln_bias": 0.7036, "ln_bias_sigma": 0.2711}], "pgm_from_mmi": [{"name": "pgv", "value": null, "units": "cm/s", "ln_sigma": null, "flag": "0"}, {"name": "sa(3.0)", "value": null, "units": "%g", "ln_sigma": null, "flag": "0"}, {"name": "sa(1.0)", "value": null, "units": "%g", "ln_sigma": null, "flag": "0"}, {"name": "sa(0.3)", "value": null, "units": "%g", "ln_sigma": null, "flag": "0"}, {"name": "pga", "value": null, "units": "%g", "ln_sigma": null, "flag": "0"}], "distance_stddev": 3.055, "distances": {"repi": 233.468, "rhypo": 234.101, "rjb": 230.693, "rjb_var": 6.764, "rrup": 230.912, "rrup_var": 9.334, "rx": 0.0, "ry0": 0.0, "rvolc": 0.0}}, "geometry": {"type": "Point", "coordinates": [7.6655, 45.1007]}}, {"type": "Feature", "id": "DYFI.UTM:(32T 045 506 10000)", "properties": {"code": "UTM:(32T 045 506 10000)", "name": null, "instrumentType": "OBSERVED", "source": "DYFI", "network": "DYFI", "commType": "UNK", "location": "", "intensity": 2.0, "intensity_flag": "0", "intensity_stddev": 0.3, "pga": "null", "pgv": "null", "distance": 164.243, "elev": null, "vs30": 760.0, "channels": [], "nresp": 4, "station_type": "macroseismic", "predictions": [{"name": "mmi", "value": 2.1489, "value_rock": 2.1489, "value_soil": 2.7998, "units": "intensity", "tau": 0.255, "phi": 0.7438, "sigma": 0.7863, "sigma_rock": 0.788, "sigma_soil": 0.7867, "bias": 0.3531, "bias_sigma": 0.1628}, {"name": "sa(0.3)", "value": 0.2359, "value_rock": 0.2359, "value_soil": 0.6693, "units": "%g", "ln_tau": 0.4, "ln_phi": 0.6836, "ln_sigma": 0.7921, "ln_sigma_rock": 0.7926, "ln_sigma_soil": 0.7902, "ln_bias": 0.6578, "ln_bias_sigma": 0.2921}, {"name": "sa(1.0)", "value": 0.0591, "value_rock": 0.0591, "value_soil": 0.2387, "units": "%g", "ln_tau": 0.4462, "ln_phi": 0.6827, "ln_sigma": 0.8156, "ln_sigma_rock": 0.8172, "ln_sigma_soil": 0.8163, "ln_bias": 0.8547, "ln_bias_sigma": 0.317}, {"name": "sa(3.0)", "value": 0.01, "value_rock": 0.01, "value_soil": 0.0322, "units": "%g", "ln_tau": 0.4527, "ln_phi": 0.6623, "ln_sigma": 0.8022, "ln_sigma_rock": 0.8054, "ln_sigma_soil": 0.8055, "ln_bias": 0.8603, "ln_bias_sigma": 0.3519}, {"name": "pgv", "value": 0.0799, "value_rock": 0.0799, "value_soil": 0.2215, "units": "cm/s", "ln_tau": 0.3994, "ln_phi": 0.6195, "ln_sigma": 0.737, "ln_sigma_rock": 0.7415, "ln_sigma_soil": 0.7381, "ln_bias": 0.8655, "ln_bias_sigma": 0.2757}, {"name": "pga", "value": 0.1579, "value_rock": 0.1579, "value_soil": 0.2659, "units": "%g", "ln_tau": 0.4138, "ln_phi": 0.6151, "ln_sigma": 0.7413, "ln_sigma_rock": 0.7436, "ln_sigma_soil": 0.7406, "ln_bias": 0.7036, "ln_bias_sigma": 0.2711}], "pgm_from_mmi": [{"name": "pgv", "value": null, "units": "cm/s", "ln_sigma": null, "flag": "0"}, {"name": "sa(3.0)", "value": null, "units": "%g", "ln_sigma": null, "flag": "0"}, {"name": "sa(1.0)", "value": null, "units": "%g", "ln_sigma": null, "flag": "0"}, {"name": "sa(0.3)", "value": null, "units": "%g", "ln_sigma": null, "flag": "0"}, {"name": "pga", "value": null, "units": "%g", "ln_sigma": null, "flag": "0"}], "distance_stddev": 3.124, "distances": {"repi": 166.499, "rhypo": 167.385, "rjb": 163.734, "rjb_var": 6.743, "rrup": 164.243, "rrup_var": 9.758, "rx": 0.0, "ry0": 0.0, "rvolc": 0.0}}, "geometry": {"type": "Point", "coordinates": [8.4216, 45.737]}}, {"type": "Feature", "id": "DYFI.UTM:(32T 047 506 10000)", "properties": {"code": "UTM:(32T 047 506 10000)", "name": null, "instrumentType": "OBSERVED", "source": "DYFI", "network": "DYFI", "commType": "UNK", "location": "", "intensity": 3.1, "intensity_flag": "0", "intensity_stddev": 0.3, "pga": "null", "pgv": "null", "distance": 144.498, "elev": null, "vs30": 760.0, "channels": [], "nresp": 18, "station_type": "macroseismic", "predictions": [{"name": "mmi", "value": 2.2703, "value_rock": 2.2703, "value_soil": 2.9206, "units": "intensity", "tau": 0.255, "phi": 0.7437, "sigma": 0.7862, "sigma_rock": 0.7879, "sigma_soil": 0.7866, "bias": 0.3531, "bias_sigma": 0.1628}, {"name": "sa(0.3)", "value": 0.2957, "value_rock": 0.2957, "value_soil": 0.8374, "units": "%g", "ln_tau": 0.4, "ln_phi": 0.6829, "ln_sigma": 0.7914, "ln_sigma_rock": 0.7919, "ln_sigma_soil": 0.7894, "ln_bias": 0.6578, "ln_bias_sigma": 0.2921}, {"name": "sa(1.0)", "value": 0.0706, "value_rock": 0.0706, "value_soil": 0.2849, "units": "%g", "ln_tau": 0.4462, "ln_phi": 0.6821, "ln_sigma": 0.8151, "ln_sigma_rock": 0.8166, "ln_sigma_soil": 0.8157, "ln_bias": 0.8547, "ln_bias_sigma": 0.317}, {"name": "sa(3.0)", "value": 0.0118, "value_rock": 0.0118, "value_soil": 0.0381, "units": "%g", "ln_tau": 0.4527, "ln_phi": 0.661, "ln_sigma": 0.8012, "ln_sigma_rock": 0.8043, "ln_sigma_soil": 0.8045, "ln_bias": 0.8603, "ln_bias_sigma": 0.3519}, {"name": "pgv", "value": 0.0967, "value_rock": 0.0967, "value_soil": 0.2677, "units": "cm/s", "ln_tau": 0.3994, "ln_phi": 0.6191, "ln_sigma": 0.7367, "ln_sigma_rock": 0.7412, "ln_sigma_soil": 0.7378, "ln_bias": 0.8655, "ln_bias_sigma": 0.2757}, {"name": "pga", "value": 0.2027, "value_rock": 0.2027, "value_soil": 0.3409, "units": "%g", "ln_tau": 0.4138, "ln_phi": 0.6146, "ln_sigma": 0.7409, "ln_sigma_rock": 0.7432, "ln_sigma_soil": 0.74, "ln_bias": 0.7036, "ln_bias_sigma": 0.2711}], "pgm_from_mmi": [{"name": "pgv", "value": null, "units": "cm/s", "ln_sigma": null, "flag": "0"}, {"name": "sa(3.0)", "value": null, "units": "%g", "ln_sigma": null, "flag": "0"}, {"name": "sa(1.0)", "value": null, "units": "%g", "ln_sigma": null, "flag": "0"}, {"name": "sa(0.3)", "value": null, "units": "%g", "ln_sigma": null, "flag": "0"}, {"name": "pga", "value": null, "units": "%g", "ln_sigma": null, "flag": "0"}], "distance_stddev": 3.163, "distances": {"repi": 146.599, "rhypo": 147.604, "rjb": 143.839, "rjb_var": 6.732, "rrup": 144.498, "rrup_var": 10.003, "rx": 0.0, "ry0": 0.0, "rvolc": 0.0}}, "geometry": {"type": "Point", "coordinates": [8.6787, 45.7381]}}, {"type": "Feature", "id": "DYFI.UTM:(32T 047 507 10000)", "properties": {"code": "UTM:(32T 047 507 10000)", "name": null, "instrumentType": "OBSERVED", "source": "DYFI", "network": "DYFI", "commType": "UNK", "location": "", "intensity": 2.0, "intensity_flag": "0", "intensity_stddev": 0.3, "pga": "null", "pgv": "null", "distance": 145.599, "elev": null, "vs30": 760.0, "channels": [], "nresp": 6, "station_type": "macroseismic", "predictions": [{"name": "mmi", "value": 2.2631, "value_rock": 2.2631, "value_soil": 2.9135, "units": "intensity", "tau": 0.255, "phi": 0.7437, "sigma": 0.7862, "sigma_rock": 0.7879, "sigma_soil": 0.7866, "bias": 0.3531, "bias_sigma": 0.1628}, {"name": "sa(0.3)", "value": 0.2918, "value_rock": 0.2918, "value_soil": 0.8265, "units": "%g", "ln_tau": 0.4, "ln_phi": 0.6829, "ln_sigma": 0.7914, "ln_sigma_rock": 0.7919, "ln_sigma_soil": 0.7894, "ln_bias": 0.6578, "ln_bias_sigma": 0.2921}, {"name": "sa(1.0)", "value": 0.0699, "value_rock": 0.0699, "value_soil": 0.2819, "units": "%g", "ln_tau": 0.4462, "ln_phi": 0.6821, "ln_sigma": 0.8151, "ln_sigma_rock": 0.8167, "ln_sigma_soil": 0.8158, "ln_bias": 0.8547, "ln_bias_sigma": 0.317}, {"name": "sa(3.0)", "value": 0.0117, "value_rock": 0.0117, "value_soil": 0.0377, "units": "%g", "ln_tau": 0.4527, "ln_phi": 0.6611, "ln_sigma": 0.8013, "ln_sigma_rock": 0.8044, "ln_sigma_soil": 0.8045, "ln_bias": 0.8603, "ln_bias_sigma": 0.3519}, {"name": "pgv", "value": 0.0956, "value_rock": 0.0956, "value_soil": 0.2647, "units": "cm/s", "ln_tau": 0.3994, "ln_phi": 0.6191, "ln_sigma": 0.7367, "ln_sigma_rock": 0.7412, "ln_sigma_soil": 0.7378, "ln_bias": 0.8655, "ln_bias_sigma": 0.2757}, {"name": "pga", "value": 0.1997, "value_rock": 0.1997, "value_soil": 0.336, "units": "%g", "ln_tau": 0.4138, "ln_phi": 0.6146, "ln_sigma": 0.7409, "ln_sigma_rock": 0.7432, "ln_sigma_soil": 0.7401, "ln_bias": 0.7036, "ln_bias_sigma": 0.2711}], "pgm_from_mmi": [{"name": "pgv", "value": null, "units": "cm/s", "ln_sigma": null, "flag": "0"}, {"name": "sa(3.0)", "value": null, "units": "%g", "ln_sigma": null, "flag": "0"}, {"name": "sa(1.0)", "value": null, "units": "%g", "ln_sigma": null, "flag": "0"}, {"name": "sa(0.3)", "value": null, "units": "%g", "ln_sigma": null, "flag": "0"}, {"name": "pga", "value": null, "units": "%g", "ln_sigma": null, "flag": "0"}], "distance_stddev": 3.161, "distances": {"repi": 147.709, "rhypo": 148.707, "rjb": 144.949, "rjb_var": 6.733, "rrup": 145.599, "rrup_var": 9.989, "rx": 0.0, "ry0": 0.0, "rvolc": 0.0}}, "geometry": {"type": "Point", "coordinates": [8.6782, 45.8281]}}, {"type": "Feature", "id": "DYFI.UTM:(32T 047 508 10000)", "properties": {"code": "UTM:(32T 047 508 10000)", "name": null, "instrumentType": "OBSERVED", "source": "DYFI", "network": "DYFI", "commType": "UNK", "location": "", "intensity": 2.7, "intensity_flag": "0", "intensity_stddev": 0.3, "pga": "null", "pgv": "null", "distance": 147.365, "elev": null, "vs30": 760.0, "channels": [], "nresp": 6, "station_type": "macroseismic", "predictions": [{"name": "mmi", "value": 2.2517, "value_rock": 2.2517, "value_soil": 2.9021, "units": "intensity", "tau": 0.255, "phi": 0.7437, "sigma": 0.7862, "sigma_rock": 0.7879, "sigma_soil": 0.7866, "bias": 0.3531, "bias_sigma": 0.1628}, {"name": "sa(0.3)", "value": 0.2857, "value_rock": 0.2857, "value_soil": 0.8094, "units": "%g", "ln_tau": 0.4, "ln_phi": 0.683, "ln_sigma": 0.7915, "ln_sigma_rock": 0.792, "ln_sigma_soil": 0.7895, "ln_bias": 0.6578, "ln_bias_sigma": 0.2921}, {"name": "sa(1.0)", "value": 0.0687, "value_rock": 0.0687, "value_soil": 0.2773, "units": "%g", "ln_tau": 0.4462, "ln_phi": 0.6822, "ln_sigma": 0.8151, "ln_sigma_rock": 0.8167, "ln_sigma_soil": 0.8158, "ln_bias": 0.8547, "ln_bias_sigma": 0.317}, {"name": "sa(3.0)", "value": 0.0115, "value_rock": 0.0115, "value_soil": 0.0371, "units": "%g", "ln_tau": 0.4527, "ln_phi": 0.6612, "ln_sigma": 0.8014, "ln_sigma_rock": 0.8045, "ln_sigma_soil": 0.8046, "ln_bias": 0.8603, "ln_bias_sigma": 0.3519}, {"name": "pgv", "value": 0.0939, "value_rock": 0.0939, "value_soil": 0.26, "units": "cm/s", "ln_tau": 0.3994, "ln_phi": 0.6191, "ln_sigma": 0.7368, "ln_sigma_rock": 0.7413, "ln_sigma_soil": 0.7378, "ln_bias": 0.8655, "ln_bias_sigma": 0.2757}, {"name": "pga", "value": 0.1951, "value_rock": 0.1951, "value_soil": 0.3283, "units": "%g", "ln_tau": 0.4138, "ln_phi": 0.6147, "ln_sigma": 0.741, "ln_sigma_rock": 0.7432, "ln_sigma_soil": 0.7401, "ln_bias": 0.7036, "ln_bias_sigma": 0.2711}], "pgm_from_mmi": [{"name": "pgv", "value": null, "units": "cm/s", "ln_sigma": null, "flag": "0"}, {"name": "sa(3.0)", "value": null, "units": "%g", "ln_sigma": null, "flag": "0"}, {"name": "sa(1.0)", "value": null, "units": "%g", "ln_sigma": null, "flag": "0"}, {"name": "sa(0.3)", "value": null, "units": "%g", "ln_sigma": null, "flag": "0"}, {"name": "pga", "value": null, "units": "%g", "ln_sigma": null, "flag": "0"}], "distance_stddev": 3.157, "distances": {"repi": 149.489, "rhypo": 150.475, "rjb": 146.728, "rjb_var": 6.734, "rrup": 147.365, "rrup_var": 9.967, "rx": 0.0, "ry0": 0.0, "rvolc": 0.0}}, "geometry": {"type": "Point", "coordinates": [8.6776, 45.9181]}}, {"type": "Feature", "id": "DYFI.UTM:(32T 048 505 10000)", "properties": {"code": "UTM:(32T 048 505 10000)", "name": null, "instrumentType": "OBSERVED", "source": "DYFI", "network": "DYFI", "commType": "UNK", "location": "", "intensity": 3.8, "intensity_flag": "0", "intensity_stddev": 0.3, "pga": "null", "pgv": "null", "distance": 134.177, "elev": null, "vs30": 760.0, "channels": [], "nresp": 4, "station_type": "macroseismic", "predictions": [{"name": "mmi", "value": 2.34, "value_rock": 2.34, "value_soil": 2.99, "units": "intensity", "tau": 0.255, "phi": 0.7436, "sigma": 0.7861, "sigma_rock": 0.7878, "sigma_soil": 0.7865, "bias": 0.3531, "bias_sigma": 0.1628}, {"name": "sa(0.3)", "value": 0.3362, "value_rock": 0.3362, "value_soil": 0.9507, "units": "%g", "ln_tau": 0.4, "ln_phi": 0.6825, "ln_sigma": 0.7911, "ln_sigma_rock": 0.7915, "ln_sigma_soil": 0.7889, "ln_bias": 0.6578, "ln_bias_sigma": 0.2921}, {"name": "sa(1.0)", "value": 0.0782, "value_rock": 0.0782, "value_soil": 0.3153, "units": "%g", "ln_tau": 0.4462, "ln_phi": 0.6818, "ln_sigma": 0.8148, "ln_sigma_rock": 0.8163, "ln_sigma_soil": 0.8154, "ln_bias": 0.8547, "ln_bias_sigma": 0.317}, {"name": "sa(3.0)", "value": 0.013, "value_rock": 0.013, "value_soil": 0.0419, "units": "%g", "ln_tau": 0.4527, "ln_phi": 0.6603, "ln_sigma": 0.8006, "ln_sigma_rock": 0.8037, "ln_sigma_soil": 0.8039, "ln_bias": 0.8603, "ln_bias_sigma": 0.3519}, {"name": "pgv", "value": 0.1078, "value_rock": 0.1078, "value_soil": 0.2984, "units": "cm/s", "ln_tau": 0.3994, "ln_phi": 0.6189, "ln_sigma": 0.7366, "ln_sigma_rock": 0.741, "ln_sigma_soil": 0.7376, "ln_bias": 0.8655, "ln_bias_sigma": 0.2757}, {"name": "pga", "value": 0.2334, "value_rock": 0.2334, "value_soil": 0.3923, "units": "%g", "ln_tau": 0.4138, "ln_phi": 0.6143, "ln_sigma": 0.7407, "ln_sigma_rock": 0.7429, "ln_sigma_soil": 0.7398, "ln_bias": 0.7036, "ln_bias_sigma": 0.2711}], "pgm_from_mmi": [{"name": "pgv", "value": null, "units": "cm/s", "ln_sigma": null, "flag": "0"}, {"name": "sa(3.0)", "value": null, "units": "%g", "ln_sigma": null, "flag": "0"}, {"name": "sa(1.0)", "value": null, "units": "%g", "ln_sigma": null, "flag": "0"}, {"name": "sa(0.3)", "value": null, "units": "%g", "ln_sigma": null, "flag": "0"}, {"name": "pga", "value": null, "units": "%g", "ln_sigma": null, "flag": "0"}], "distance_stddev": 3.183, "distances": {"repi": 136.195, "rhypo": 137.276, "rjb": 133.438, "rjb_var": 6.726, "rrup": 134.177, "rrup_var": 10.134, "rx": 0.0, "ry0": 0.0, "rvolc": 0.0}}, "geometry": {"type": "Point", "coordinates": [8.8075, 45.6484]}}, {"type": "Feature", "id": "DYFI.UTM:(32T 048 507 10000)", "properties": {"code": "UTM:(32T 048 507 10000)", "name": null, "instrumentType": "OBSERVED", "source": "DYFI", "network": "DYFI", "commType": "UNK", "location": "", "intensity": 3.5, "intensity_flag": "0", "intensity_stddev": 0.3, "pga": "null", "pgv": "null", "distance": 135.818, "elev": null, "vs30": 760.0, "channels": [], "nresp": 30, "station_type": "macroseismic", "predictions": [{"name": "mmi", "value": 2.3286, "value_rock": 2.3286, "value_soil": 2.9786, "units": "intensity", "tau": 0.255, "phi": 0.7437, "sigma": 0.7861, "sigma_rock": 0.7879, "sigma_soil": 0.7865, "bias": 0.3531, "bias_sigma": 0.1628}, {"name": "sa(0.3)", "value": 0.3292, "value_rock": 0.3292, "value_soil": 0.9312, "units": "%g", "ln_tau": 0.4, "ln_phi": 0.6825, "ln_sigma": 0.7911, "ln_sigma_rock": 0.7915, "ln_sigma_soil": 0.789, "ln_bias": 0.6578, "ln_bias_sigma": 0.2921}, {"name": "sa(1.0)", "value": 0.0769, "value_rock": 0.0769, "value_soil": 0.3101, "units": "%g", "ln_tau": 0.4462, "ln_phi": 0.6818, "ln_sigma": 0.8148, "ln_sigma_rock": 0.8164, "ln_sigma_soil": 0.8155, "ln_bias": 0.8547, "ln_bias_sigma": 0.317}, {"name": "sa(3.0)", "value": 0.0128, "value_rock": 0.0128, "value_soil": 0.0413, "units": "%g", "ln_tau": 0.4527, "ln_phi": 0.6604, "ln_sigma": 0.8007, "ln_sigma_rock": 0.8038, "ln_sigma_soil": 0.804, "ln_bias": 0.8603, "ln_bias_sigma": 0.3519}, {"name": "pgv", "value": 0.1059, "value_rock": 0.1059, "value_soil": 0.2932, "units": "cm/s", "ln_tau": 0.3994, "ln_phi": 0.6189, "ln_sigma": 0.7366, "ln_sigma_rock": 0.7411, "ln_sigma_soil": 0.7376, "ln_bias": 0.8655, "ln_bias_sigma": 0.2757}, {"name": "pga", "value": 0.2281, "value_rock": 0.2281, "value_soil": 0.3834, "units": "%g", "ln_tau": 0.4138, "ln_phi": 0.6144, "ln_sigma": 0.7407, "ln_sigma_rock": 0.743, "ln_sigma_soil": 0.7398, "ln_bias": 0.7036, "ln_bias_sigma": 0.2711}], "pgm_from_mmi": [{"name": "pgv", "value": null, "units": "cm/s", "ln_sigma": null, "flag": "0"}, {"name": "sa(3.0)", "value": null, "units": "%g", "ln_sigma": null, "flag": "0"}, {"name": "sa(1.0)", "value": null, "units": "%g", "ln_sigma": null, "flag": "0"}, {"name": "sa(0.3)", "value": null, "units": "%g", "ln_sigma": null, "flag": "0"}, {"name": "pga", "value": null, "units": "%g", "ln_sigma": null, "flag": "0"}], "distance_stddev": 3.18, "distances": {"repi": 137.849, "rhypo": 138.918, "rjb": 135.092, "rjb_var": 6.727, "rrup": 135.818, "rrup_var": 10.114, "rx": 0.0, "ry0": 0.0, "rvolc": 0.0}}, "geometry": {"type": "Point", "coordinates": [8.8069, 45.8284]}}, {"type": "Feature", "id": "DYFI.UTM:(32T 049 491 10000)", "properties": {"code": "UTM:(32T 049 491 10000)", "name": null, "instrumentType": "OBSERVED", "source": "DYFI", "network": "DYFI", "commType": "UNK", "location": "", "intensity": 2.8, "intensity_flag": "0", "intensity_stddev": 0.3, "pga": "null", "pgv": "null", "distance": 185.243, "elev": null, "vs30": 760.0, "channels": [], "nresp": 4, "station_type": "macroseismic", "predictions": [{"name": "mmi", "value": 2.0342, "value_rock": 2.0342, "value_soil": 2.6854, "units": "intensity", "tau": 0.255, "phi": 0.744, "sigma": 0.7865, "sigma_rock": 0.7882, "sigma_soil": 0.7869, "bias": 0.3531, "bias_sigma": 0.1628}, {"name": "sa(0.3)", "value": 0.1897, "value_rock": 0.1897, "value_soil": 0.5391, "units": "%g", "ln_tau": 0.4, "ln_phi": 0.6844, "ln_sigma": 0.7927, "ln_sigma_rock": 0.7933, "ln_sigma_soil": 0.791, "ln_bias": 0.6578, "ln_bias_sigma": 0.2921}, {"name": "sa(1.0)", "value": 0.05, "value_rock": 0.05, "value_soil": 0.2019, "units": "%g", "ln_tau": 0.4462, "ln_phi": 0.6833, "ln_sigma": 0.8161, "ln_sigma_rock": 0.8177, "ln_sigma_soil": 0.8169, "ln_bias": 0.8547, "ln_bias_sigma": 0.317}, {"name": "sa(3.0)", "value": 0.0085, "value_rock": 0.0085, "value_soil": 0.0275, "units": "%g", "ln_tau": 0.4527, "ln_phi": 0.6635, "ln_sigma": 0.8032, "ln_sigma_rock": 0.8064, "ln_sigma_soil": 0.8065, "ln_bias": 0.8603, "ln_bias_sigma": 0.3519}, {"name": "pgv", "value": 0.0668, "value_rock": 0.0668, "value_soil": 0.1852, "units": "cm/s", "ln_tau": 0.3994, "ln_phi": 0.6198, "ln_sigma": 0.7374, "ln_sigma_rock": 0.7419, "ln_sigma_soil": 0.7385, "ln_bias": 0.8655, "ln_bias_sigma": 0.2757}, {"name": "pga", "value": 0.1241, "value_rock": 0.1241, "value_soil": 0.2092, "units": "%g", "ln_tau": 0.4138, "ln_phi": 0.6155, "ln_sigma": 0.7417, "ln_sigma_rock": 0.744, "ln_sigma_soil": 0.7411, "ln_bias": 0.7036, "ln_bias_sigma": 0.2711}], "pgm_from_mmi": [{"name": "pgv", "value": null, "units": "cm/s", "ln_sigma": null, "fla