{
   "type":"FeatureCollection",
   "features":[
      {
         "type":"Feature",
         "id":"CERESIS.1",
         "properties":{
            "code":"CERESIS.1",
            "name":"CONCEPCION",
            "instrumentType":"OBSERVED",
            "source":"CERESIS",
            "network":"CERESIS",
            "commType":"UNK",
            "location":"",
            "intensity":8.0,
            "intensity_flag":"0",
            "intensity_stddev":0.3,
            "pga":41.4507,
            "pgv":55.9888,
            "distance":113.72,
            "elev":null,
            "vs30":542.25,
            "channels":[
               
            ],
            "nresp":-1,
            "station_type":"macroseismic",
            "predictions":[
               {
                  "name":"mmi",
                  "value":6.5999,
                  "value_rock":6.3873,
                  "value_soil":6.6862,
                  "units":"intensity",
                  "tau":0.576,
                  "phi":1.1201,
                  "sigma":1.2595,
                  "sigma_rock":1.2877,
                  "sigma_soil":1.2889,
                  "bias":0.1023,
                  "bias_sigma":0.2761
               },
               {
                  "name":"pga",
                  "value":17.3435,
                  "value_rock":15.1939,
                  "value_soil":18.2994,
                  "units":"%g",
                  "ln_tau":0.3584,
                  "ln_phi":0.5632,
                  "ln_sigma":0.6676,
                  "ln_sigma_rock":0.6881,
                  "ln_sigma_soil":0.6889,
                  "ln_bias":0.0506,
                  "ln_bias_sigma":0.1971
               },
               {
                  "name":"sa(0.3)",
                  "value":47.6067,
                  "value_rock":36.4345,
                  "value_soil":60.2684,
                  "units":"%g",
                  "ln_tau":0.3476,
                  "ln_phi":0.625,
                  "ln_sigma":0.7151,
                  "ln_sigma_rock":0.7523,
                  "ln_sigma_soil":0.7543,
                  "ln_bias":-0.2457,
                  "ln_bias_sigma":0.219
               },
               {
                  "name":"sa(1.0)",
                  "value":18.2906,
                  "value_rock":15.0511,
                  "value_soil":30.7647,
                  "units":"%g",
                  "ln_tau":0.4265,
                  "ln_phi":0.6206,
                  "ln_sigma":0.753,
                  "ln_sigma_rock":0.7907,
                  "ln_sigma_soil":0.7917,
                  "ln_bias":0.2927,
                  "ln_bias_sigma":0.244
               },
               {
                  "name":"sa(3.0)",
                  "value":4.8352,
                  "value_rock":4.3339,
                  "value_soil":7.6598,
                  "units":"%g",
                  "ln_tau":0.4125,
                  "ln_phi":0.5947,
                  "ln_sigma":0.7238,
                  "ln_sigma_rock":0.769,
                  "ln_sigma_soil":0.769,
                  "ln_bias":0.143,
                  "ln_bias_sigma":0.2759
               },
               {
                  "name":"pgv",
                  "value":17.7905,
                  "value_rock":14.6396,
                  "value_soil":29.9236,
                  "units":"cm/s",
                  "ln_tau":0.4265,
                  "ln_phi":0.788,
                  "ln_sigma":0.8961,
                  "ln_sigma_rock":0.9403,
                  "ln_sigma_soil":0.9415,
                  "ln_bias":0.0287,
                  "ln_bias_sigma":0.2417
               }
            ],
            "pgm_from_mmi":[
               {
                  "name":"pga",
                  "value":41.4507,
                  "units":"%g",
                  "ln_sigma":0.8059,
                  "flag":"0"
               },
               {
                  "name":"sa(1.0)",
                  "value":98.309,
                  "units":"%g",
                  "ln_sigma":1.0822,
                  "flag":"0"
               },
               {
                  "name":"sa(3.0)",
                  "value":18.5811,
                  "units":"%g",
                  "ln_sigma":1.4737,
                  "flag":"0"
               },
               {
                  "name":"sa(0.3)",
                  "value":79.2117,
                  "units":"%g",
                  "ln_sigma":1.0131,
                  "flag":"0"
               },
               {
                  "name":"pgv",
                  "value":55.9888,
                  "units":"cm/s",
                  "ln_sigma":0.875,
                  "flag":"0"
               }
            ],
            "distance_stddev":0.0,
            "distances":{
               "repi":148.271,
               "rhypo":150.363,
               "rjb":108.111,
               "rjb_var":0.0,
               "rrup":113.72,
               "rrup_var":0.0,
               "rvolc":0.0
            }
         },
         "geometry":{
            "type":"Point",
            "coordinates":[
               -73.05,
               -36.84
            ]
         }
      },
      {
         "type":"Feature",
         "id":"CERESIS.2",
         "properties":{
            "code":"CERESIS.2",
            "name":"PITRUFQUEN",
            "instrumentType":"OBSERVED",
            "source":"CERESIS",
            "network":"CERESIS",
            "commType":"UNK",
            "location":"",
            "intensity":6.0,
            "intensity_flag":"0",
            "intensity_stddev":0.3,
            "pga":14.075,
            "pgv":13.0374,
            "distance":62.608,
            "elev":null,
            "vs30":270.11,
            "channels":[
               
            ],
            "nresp":-1,
            "station_type":"macroseismic",
            "predictions":[
               {
                  "name":"mmi",
                  "value":7.1927,
                  "value_rock":7.1034,
                  "value_soil":7.2632,
                  "units":"intensity",
                  "tau":0.576,
                  "phi":1.1201,
                  "sigma":1.2595,
                  "sigma_rock":1.2877,
                  "sigma_soil":1.2889,
                  "bias":0.1023,
                  "bias_sigma":0.2761
               },
               {
                  "name":"pga",
                  "value":29.5673,
                  "value_rock":27.9675,
                  "value_soil":30.8921,
                  "units":"%g",
                  "ln_tau":0.3584,
                  "ln_phi":0.5632,
                  "ln_sigma":0.6676,
                  "ln_sigma_rock":0.6881,
                  "ln_sigma_soil":0.6889,
                  "ln_bias":0.0506,
                  "ln_bias_sigma":0.1971
               },
               {
                  "name":"sa(0.3)",
                  "value":98.6387,
                  "value_rock":67.1767,
                  "value_soil":92.3201,
                  "units":"%g",
                  "ln_tau":0.3476,
                  "ln_phi":0.625,
                  "ln_sigma":0.7151,
                  "ln_sigma_rock":0.7523,
                  "ln_sigma_soil":0.7543,
                  "ln_bias":-0.2457,
                  "ln_bias_sigma":0.219
               },
               {
                  "name":"sa(1.0)",
                  "value":42.5119,
                  "value_rock":24.1757,
                  "value_soil":46.8174,
                  "units":"%g",
                  "ln_tau":0.4265,
                  "ln_phi":0.6206,
                  "ln_sigma":0.753,
                  "ln_sigma_rock":0.7907,
                  "ln_sigma_soil":0.7917,
                  "ln_bias":0.2927,
                  "ln_bias_sigma":0.244
               },
               {
                  "name":"sa(3.0)",
                  "value":9.2226,
                  "value_rock":6.2956,
                  "value_soil":11.127,
                  "units":"%g",
                  "ln_tau":0.4125,
                  "ln_phi":0.5947,
                  "ln_sigma":0.7238,
                  "ln_sigma_rock":0.769,
                  "ln_sigma_soil":0.769,
                  "ln_bias":0.143,
                  "ln_bias_sigma":0.2759
               },
               {
                  "name":"pgv",
                  "value":41.3816,
                  "value_rock":23.533,
                  "value_soil":45.5727,
                  "units":"cm/s",
                  "ln_tau":0.4265,
                  "ln_phi":0.788,
                  "ln_sigma":0.8961,
                  "ln_sigma_rock":0.9403,
                  "ln_sigma_soil":0.9415,
                  "ln_bias":0.0287,
                  "ln_bias_sigma":0.2417
               }
            ],
            "pgm_from_mmi":[
               {
                  "name":"pga",
                  "value":14.075,
                  "units":"%g",
                  "ln_sigma":0.8059,
                  "flag":"0"
               },
               {
                  "name":"sa(1.0)",
                  "value":18.1611,
                  "units":"%g",
                  "ln_sigma":1.0822,
                  "flag":"0"
               },
               {
                  "name":"sa(3.0)",
                  "value":3.5936,
                  "units":"%g",
                  "ln_sigma":1.4737,
                  "flag":"0"
               },
               {
                  "name":"sa(0.3)",
                  "value":28.3964,
                  "units":"%g",
                  "ln_sigma":1.0131,
                  "flag":"0"
               },
               {
                  "name":"pgv",
                  "value":13.0374,
                  "units":"cm/s",
                  "ln_sigma":0.875,
                  "flag":"0"
               }
            ],
            "distance_stddev":0.0,
            "distances":{
               "repi":113.491,
               "rhypo":116.212,
               "rjb":41.489,
               "rjb_var":0.0,
               "rrup":62.608,
               "rrup_var":0.0,
               "rvolc":0.0
            }
         },
         "geometry":{
            "type":"Point",
            "coordinates":[
               -72.66,
               -38.98
            ]
         }
      },
      {
         "type":"Feature",
         "id":"CERESIS.3",
         "properties":{
            "code":"CERESIS.3",
            "name":"LONCOCHE",
            "instrumentType":"OBSERVED",
            "source":"CERESIS",
            "network":"CERESIS",
            "commType":"UNK",
            "location":"",
            "intensity":6.0,
            "intensity_flag":"0",
            "intensity_stddev":0.3,
            "pga":13.7081,
            "pgv":13.0374,
            "distance":68.904,
            "elev":null,
            "vs30":533.01,
            "channels":[
               
            ],
            "nresp":-1,
            "station_type":"macroseismic",
            "predictions":[
               {
                  "name":"mmi",
                  "value":7.1993,
                  "value_rock":7.0071,
                  "value_soil":7.1936,
                  "units":"intensity",
                  "tau":0.576,
                  "phi":1.1201,
                  "sigma":1.2595,
                  "sigma_rock":1.2877,
                  "sigma_soil":1.2889,
                  "bias":0.1023,
                  "bias_sigma":0.2761
               },
               {
                  "name":"pga",
                  "value":28.9142,
                  "value_rock":25.6549,
                  "value_soil":28.8126,
                  "units":"%g",
                  "ln_tau":0.3584,
                  "ln_phi":0.5632,
                  "ln_sigma":0.6676,
                  "ln_sigma_rock":0.6881,
                  "ln_sigma_soil":0.6889,
                  "ln_bias":0.0506,
                  "ln_bias_sigma":0.1971
               },
               {
                  "name":"sa(0.3)",
                  "value":78.8901,
                  "value_rock":61.7429,
                  "value_soil":88.0083,
                  "units":"%g",
                  "ln_tau":0.3476,
                  "ln_phi":0.625,
                  "ln_sigma":0.7151,
                  "ln_sigma_rock":0.7523,
                  "ln_sigma_soil":0.7543,
                  "ln_bias":-0.2457,
                  "ln_bias_sigma":0.219
               },
               {
                  "name":"sa(1.0)",
                  "value":27.5652,
                  "value_rock":22.5943,
                  "value_soil":44.2121,
                  "units":"%g",
                  "ln_tau":0.4265,
                  "ln_phi":0.6206,
                  "ln_sigma":0.753,
                  "ln_sigma_rock":0.7907,
                  "ln_sigma_soil":0.7917,
                  "ln_bias":0.2927,
                  "ln_bias_sigma":0.244
               },
               {
                  "name":"sa(3.0)",
                  "value":6.6628,
                  "value_rock":5.9604,
                  "value_soil":10.5345,
                  "units":"%g",
                  "ln_tau":0.4125,
                  "ln_phi":0.5947,
                  "ln_sigma":0.7238,
                  "ln_sigma_rock":0.769,
                  "ln_sigma_soil":0.769,
                  "ln_bias":0.143,
                  "ln_bias_sigma":0.2759
               },
               {
                  "name":"pgv",
                  "value":26.829,
                  "value_rock":21.9908,
                  "value_soil":43.0313,
                  "units":"cm/s",
                  "ln_tau":0.4265,
                  "ln_phi":0.788,
                  "ln_sigma":0.8961,
                  "ln_sigma_rock":0.9403,
                  "ln_sigma_soil":0.9415,
                  "ln_bias":0.0287,
                  "ln_bias_sigma":0.2417
               }
            ],
            "pgm_from_mmi":[
               {
                  "name":"pga",
                  "value":13.7081,
                  "units":"%g",
                  "ln_sigma":0.8059,
                  "flag":"0"
               },
               {
                  "name":"sa(1.0)",
                  "value":18.4575,
                  "units":"%g",
                  "ln_sigma":1.0822,
                  "flag":"0"
               },
               {
                  "name":"sa(3.0)",
                  "value":3.6594,
                  "units":"%g",
                  "ln_sigma":1.4737,
                  "flag":"0"
               },
               {
                  "name":"sa(0.3)",
                  "value":28.0048,
                  "units":"%g",
                  "ln_sigma":1.0131,
                  "flag":"0"
               },
               {
                  "name":"pgv",
                  "value":13.0374,
                  "units":"cm/s",
                  "ln_sigma":0.875,
                  "flag":"0"
               }
            ],
            "distance_stddev":0.0,
            "distances":{
               "repi":170.306,
               "rhypo":172.131,
               "rjb":48.177,
               "rjb_var":0.0,
               "rrup":68.904,
               "rrup_var":0.0,
               "rvolc":0.0
            }
         },
         "geometry":{
            "type":"Point",
            "coordinates":[
               -72.63,
               -39.55
            ]
         }
      },
      {
         "type":"Feature",
         "id":"CERESIS.4",
         "properties":{
            "code":"CERESIS.4",
            "name":"LANCO",
            "instrumentType":"OBSERVED",
            "source":"CERESIS",
            "network":"CERESIS",
            "commType":"UNK",
            "location":"",
            "intensity":6.0,
            "intensity_flag":"0",
            "intensity_stddev":0.3,
            "pga":14.2073,
            "pgv":13.0374,
            "distance":60.519,
            "elev":null,
            "vs30":413.21,
            "channels":[
               
            ],
            "nresp":-1,
            "station_type":"macroseismic",
            "predictions":[
               {
                  "name":"mmi",
                  "value":7.3325,
                  "value_rock":7.1359,
                  "value_soil":7.2857,
                  "units":"intensity",
                  "tau":0.576,
                  "phi":1.1201,
                  "sigma":1.2595,
                  "sigma_rock":1.2877,
                  "sigma_soil":1.2889,
                  "bias":0.1023,
                  "bias_sigma":0.2761
               },
               {
                  "name":"pga",
                  "value":32.5569,
                  "value_rock":28.808,
                  "value_soil":31.6234,
                  "units":"%g",
                  "ln_tau":0.3584,
                  "ln_phi":0.5632,
                  "ln_sigma":0.6676,
                  "ln_sigma_rock":0.6881,
                  "ln_sigma_soil":0.6889,
                  "ln_bias":0.0506,
                  "ln_bias_sigma":0.1971
               },
               {
                  "name":"sa(0.3)",
                  "value":89.4821,
                  "value_rock":69.1387,
                  "value_soil":93.7475,
                  "units":"%g",
                  "ln_tau":0.3476,
                  "ln_phi":0.625,
                  "ln_sigma":0.7151,
                  "ln_sigma_rock":0.7523,
                  "ln_sigma_soil":0.7543,
                  "ln_bias":-0.2457,
                  "ln_bias_sigma":0.219
               },
               {
                  "name":"sa(1.0)",
                  "value":31.9965,
                  "value_rock":24.7448,
                  "value_soil":47.7348,
                  "units":"%g",
                  "ln_tau":0.4265,
                  "ln_phi":0.6206,
                  "ln_sigma":0.753,
                  "ln_sigma_rock":0.7907,
                  "ln_sigma_soil":0.7917,
                  "ln_bias":0.2927,
                  "ln_bias_sigma":0.244
               },
               {
                  "name":"sa(3.0)",
                  "value":7.3814,
                  "value_rock":6.4159,
                  "value_soil":11.3395,
                  "units":"%g",
                  "ln_tau":0.4125,
                  "ln_phi":0.5947,
                  "ln_sigma":0.7238,
                  "ln_sigma_rock":0.769,
                  "ln_sigma_soil":0.769,
                  "ln_bias":0.143,
                  "ln_bias_sigma":0.2759
               },
               {
                  "name":"pgv",
                  "value":31.1472,
                  "value_rock":24.088,
                  "value_soil":46.4678,
                  "units":"cm/s",
                  "ln_tau":0.4265,
                  "ln_phi":0.788,
                  "ln_sigma":0.8961,
                  "ln_sigma_rock":0.9403,
                  "ln_sigma_soil":0.9415,
                  "ln_bias":0.0287,
                  "ln_bias_sigma":0.2417
               }
            ],
            "pgm_from_mmi":[
               {
                  "name":"pga",
                  "value":14.2073,
                  "units":"%g",
                  "ln_sigma":0.8059,
                  "flag":"0"
               },
               {
                  "name":"sa(1.0)",
                  "value":18.0572,
                  "units":"%g",
                  "ln_sigma":1.0822,
                  "flag":"0"
               },
               {
                  "name":"sa(3.0)",
                  "value":3.5706,
                  "units":"%g",
                  "ln_sigma":1.4737,
                  "flag":"0"
               },
               {
                  "name":"sa(0.3)",
                  "value":28.5364,
                  "units":"%g",
                  "ln_sigma":1.0131,
                  "flag":"0"
               },
               {
                  "name":"pgv",
                  "value":13.0374,
                  "units":"cm/s",
                  "ln_sigma":0.875,
                  "flag":"0"
               }
            ],
