{"type": "FeatureCollection", "features": [{"type": "Feature", "id": "BHRC.1357-1", "properties": {"code": "1357-1", "name": "Lahijan", "instrumentType": "UNK", "source": "BHRC", "network": "BHRC", "commType": "UNK", "location": "", "intensity": 7.4, "intensity_flag": "", "intensity_stddev": 0.63, "pga": 17.941, "pgv": 36.3, "distance": 56.982, "elev": null, "vs30": 652.3, "channels": [{"name": "H2", "amplitudes": [{"name": "sa(3.0)", "value": "null", "units": "%g", "flag": "Glitch,0,Outlier", "ln_sigma": "null"}, {"name": "pgv", "value": 36.3, "units": "cm/s", "flag": "0", "ln_sigma": 0.0}, {"name": "sa(0.3)", "value": "null", "units": "%g", "flag": "Glitch,0,Outlier", "ln_sigma": "null"}, {"name": "sa(1.0)", "value": "null", "units": "%g", "flag": "Glitch,0,Outlier", "ln_sigma": "null"}, {"name": "pga", "value": 17.941, "units": "%g", "flag": "0", "ln_sigma": 0.0}]}, {"name": "UP", "amplitudes": [{"name": "sa(3.0)", "value": "null", "units": "%g", "flag": "G,UnknownOrientation,0,Outlier", "ln_sigma": "null"}, {"name": "pgv", "value": 7.3, "units": "cm/s", "flag": "UnknownOrientation,0", "ln_sigma": 0.0}, {"name": "sa(0.3)", "value": "null", "units": "%g", "flag": "G,UnknownOrientation,0,Outlier", "ln_sigma": "null"}, {"name": "sa(1.0)", "value": "null", "units": "%g", "flag": "G,UnknownOrientation,0,Outlier", "ln_sigma": "null"}, {"name": "pga", "value": 7.645, "units": "%g", "flag": "UnknownOrientation,0", "ln_sigma": 0.0}]}, {"name": "H1", "amplitudes": [{"name": "sa(3.0)", "value": "null", "units": "%g", "flag": "Glitch,0,Outlier", "ln_sigma": "null"}, {"name": "pgv", "value": 13.5, "units": "cm/s", "flag": "0", "ln_sigma": 0.0}, {"name": "sa(0.3)", "value": "null", "units": "%g", "flag": "Glitch,0,Outlier", "ln_sigma": "null"}, {"name": "sa(1.0)", "value": "null", "units": "%g", "flag": "Glitch,0,Outlier", "ln_sigma": "null"}, {"name": "pga", "value": 11.009, "units": "%g", "flag": "0", "ln_sigma": 0.0}]}], "station_type": "seismic", "nresp": "null", "predictions": [{"name": "pga", "value": 9.5502, "value_rock": 8.9362, "value_soil": 13.8946, "units": "%g", "ln_tau": 0.32, "ln_phi": 0.5091, "ln_sigma": 0.6013, "ln_sigma_rock": 0.604, "ln_sigma_soil": 0.5345, "ln_bias": 0.2892, "ln_bias_sigma": 0.1329}, {"name": "sa(0.3)", "value": 19.4655, "value_rock": 17.1824, "value_soil": 40.565, "units": "%g", "ln_tau": 0.2991, "ln_phi": 0.5791, "ln_sigma": 0.6518, "ln_sigma_rock": 0.6535, "ln_sigma_soil": 0.5649, "ln_bias": 0.279, "ln_bias_sigma": 0.1687}, {"name": "sa(3.0)", "value": 2.2697, "value_rock": 1.9355, "value_soil": 8.2295, "units": "%g", "ln_tau": 0.3614, "ln_phi": 0.6112, "ln_sigma": 0.7101, "ln_sigma_rock": 0.7088, "ln_sigma_soil": 0.7081, "ln_bias": 0.2273, "ln_bias_sigma": 0.2126}, {"name": "pgv", "value": 9.4804, "value_rock": 8.4716, "value_soil": 21.0126, "units": "cm/s", "ln_tau": 0.3172, "ln_phi": 0.5137, "ln_sigma": 0.6037, "ln_sigma_rock": 0.6039, "ln_sigma_soil": 0.5626, "ln_bias": 0.0839, "ln_bias_sigma": 0.1435}, {"name": "sa(1.0)", "value": 7.703, "value_rock": 6.5809, "value_soil": 24.1012, "units": "%g", "ln_tau": 0.3316, "ln_phi": 0.6239, "ln_sigma": 0.7066, "ln_sigma_rock": 0.7044, "ln_sigma_soil": 0.6723, "ln_bias": 0.3134, "ln_bias_sigma": 0.1886}, {"name": "mmi", "value": 5.5628, "value_rock": 5.4084, "value_soil": 6.655, "units": "intensity", "tau": 0.4353, "phi": 0.9454, "sigma": 1.0408, "sigma_rock": 1.0411, "sigma_soil": 0.9965, "bias": 0.1529, "bias_sigma": 0.219}], "mmi_from_pgm": [{"name": "pga", "value": 6.35, "sigma": 0.66, "flag": "0"}, {"name": "sa(0.3)", "value": null, "sigma": null, "flag": "0"}, {"name": "sa(3.0)", "value": null, "sigma": null, "flag": "0"}, {"name": "pgv", "value": 7.41, "sigma": 0.63, "flag": "0"}, {"name": "sa(1.0)", "value": null, "sigma": null, "flag": "0"}], "distance_stddev": 0.0, "distances": {"repi": 61.854, "rhypo": 64.562, "rjb": 56.983, "rjb_var": 0.0, "rrup": 56.982, "rrup_var": 0.0, "rx": -56.948, "ry0": 0.0}}, "geometry": {"type": "Point", "coordinates": [50.03, 37.21]}}, {"type": "Feature", "id": "ESD.GCR", "properties": {"code": "GCR", "name": "Gachsar", "instrumentType": "UNK", "source": "ESD", "network": "ESD", "commType": "UNK", "location": "", "intensity": 4.5, "intensity_flag": "", "intensity_stddev": 0.63, "pga": 10.5102, "pgv": 4.36, "distance": 143.853, "elev": null, "vs30": 900.0, "channels": [{"name": "Z", "amplitudes": [{"name": "pgv", "value": 2.72, "units": "cm/s", "flag": "0", "ln_sigma": 0.0}, {"name": "sa(0.3)", "value": 3.2959, "units": "%g", "flag": "0", "ln_sigma": 0.0}, {"name": "sa(1.0)", "value": 11.3265, "units": "%g", "flag": "0", "ln_sigma": 0.0}, {"name": "pga", "value": 4.2143, "units": "%g", "flag": "0", "ln_sigma": 0.0}]}, {"name": "N", "amplitudes": [{"name": "sa(3.0)", "value": 0.7561, "units": "%g", "flag": "0", "ln_sigma": 0.0}, {"name": "pgv", "value": 4.08, "units": "cm/s", "flag": "0", "ln_sigma": 0.0}, {"name": "sa(0.3)", "value": 26.9388, "units": "%g", "flag": "0", "ln_sigma": 0.0}, {"name": "sa(1.0)", "value": 3.3469, "units": "%g", "flag": "0", "ln_sigma": 0.0}, {"name": "pga", "value": 10.5102, "units": "%g", "flag": "0", "ln_sigma": 0.0}]}, {"name": "E", "amplitudes": [{"name": "sa(3.0)", "value": 1.3776, "units": "%g", "flag": "0", "ln_sigma": 0.0}, {"name": "pgv", "value": 4.36, "units": "cm/s", "flag": "0", "ln_sigma": 0.0}, {"name": "sa(0.3)", "value": 20.102, "units": "%g", "flag": "0", "ln_sigma": 0.0}, {"name": "sa(1.0)", "value": 4.5816, "units": "%g", "flag": "0", "ln_sigma": 0.0}, {"name": "pga", "value": 6.7653, "units": "%g", "flag": "0", "ln_sigma": 0.0}]}], "station_type": "seismic", "nresp": "null", "predictions": [{"name": "pga", "value": 2.5421, "value_rock": 2.7515, "value_soil": 5.0115, "units": "%g", "ln_tau": 0.3222, "ln_phi": 0.5185, "ln_sigma": 0.6105, "ln_sigma_rock": 0.6109, "ln_sigma_soil": 0.5743, "ln_bias": 0.2899, "ln_bias_sigma": 0.1331}, {"name": "sa(0.3)", "value": 4.7168, "value_rock": 5.4318, "value_soil": 15.9222, "units": "%g", "ln_tau": 0.2999, "ln_phi": 0.5918, "ln_sigma": 0.6634, "ln_sigma_rock": 0.6649, "ln_sigma_soil": 0.623, "ln_bias": 0.2794, "ln_bias_sigma": 0.1688}, {"name": "sa(3.0)", "value": 0.7728, "value_rock": 0.895, "value_soil": 3.8124, "units": "%g", "ln_tau": 0.3616, "ln_phi": 0.6167, "ln_sigma": 0.7148, "ln_sigma_rock": 0.7135, "ln_sigma_soil": 0.713, "ln_bias": 0.2273, "ln_bias_sigma": 0.2126}, {"name": "pgv", "value": 3.1241, "value_rock": 3.5405, "value_soil": 9.5744, "units": "cm/s", "ln_tau": 0.3174, "ln_phi": 0.5205, "ln_sigma": 0.6096, "ln_sigma_rock": 0.6096, "ln_sigma_soil": 0.5784, "ln_bias": 0.084, "ln_bias_sigma": 0.1435}, {"name": "sa(1.0)", "value": 2.3254, "value_rock": 2.7672, "value_soil": 11.1589, "units": "%g", "ln_tau": 0.3318, "ln_phi": 0.6302, "ln_sigma": 0.7122, "ln_sigma_rock": 0.7099, "ln_sigma_soil": 0.6931, "ln_bias": 0.3135, "ln_bias_sigma": 0.1887}, {"name": "mmi", "value": 4.0932, "value_rock": 4.2111, "value_soil": 5.5763, "units": "intensity", "tau": 0.2026, "phi": 0.7123, "sigma": 0.7405, "sigma_rock": 1.0473, "sigma_soil": 1.0134, "bias": 0.0798, "bias_sigma": 0.1583}], "mmi_from_pgm": [{"name": "pga", "value": 5.9, "sigma": 0.66, "flag": "0"}, {"name": "sa(0.3)", "value": 6.12, "sigma": 0.82, "flag": "0"}, {"name": "sa(3.0)", "value": 4.54, "sigma": 0.89, "flag": "0"}, {"name": "pgv", "value": 4.5, "sigma": 0.63, "flag": "0"}, {"name": "sa(1.0)", "value": 4.09, "sigma": 0.75, "flag": "0"}], "distance_stddev": 0.0, "distances": {"repi": 193.425, "rhypo": 194.308, "rjb": 143.862, "rjb_var": 0.0, "rrup": 143.853, "rrup_var": 0.0, "rx": 12.247, "ry0": 136.984}}, "geometry": {"type": "Point", "coordinates": [51.3, 36.11]}}, {"type": "Feature", "id": "BHRC.ZANJAN", "properties": {"code": "ZANJAN", "name": "ZANJAN", "instrumentType": "UNK", "source": "BHRC", "network": "BHRC", "commType": "UNK", "location": "", "intensity": "null", "intensity_flag": "", "intensity_stddev": "null", "pga": 13.5056, "pgv": "null", "distance": 56.833, "elev": null, "vs30": 386.11, "channels": [{"name": "UNK", "amplitudes": [{"name": "pga", "value": 13.5056, "units": "%g", "flag": "0", "ln_sigma": 0.0}]}], "station_type": "seismic", "nresp": "null", "predictions": [{"name": "pga", "value": 11.641, "value_rock": 8.9594, "value_soil": 13.9235, "units": "%g", "ln_tau": 0.3091, "ln_phi": 0.5, "ln_sigma": 0.5878, "ln_sigma_rock": 0.604, "ln_sigma_soil": 0.5344, "ln_bias": 0.2857, "ln_bias_sigma": 0.1321}, {"name": "sa(0.3)", "value": 28.402, "value_rock": 17.2274, "value_soil": 40.6415, "units": "%g", "ln_tau": 0.2884, "ln_phi": 0.5687, "ln_sigma": 0.6376, "ln_sigma_rock": 0.6535, "ln_sigma_soil": 0.5647, "ln_bias": 0.2724, "ln_bias_sigma": 0.1667}, {"name": "sa(3.0)", "value": 3.8881, "value_rock": 1.9397, "value_soil": 8.2475, "units": "%g", "ln_tau": 0.3612, "ln_phi": 0.611, "ln_sigma": 0.7098, "ln_sigma_rock": 0.7088, "ln_sigma_soil": 0.7081, "ln_bias": 0.2272, "ln_bias_sigma": 0.2126}, {"name": "pgv", "value": 13.7328, "value_rock": 8.4913, "value_soil": 21.0554, "units": "cm/s", "ln_tau": 0.3154, "ln_phi": 0.5118, "ln_sigma": 0.6012, "ln_sigma_rock": 0.6039, "ln_sigma_soil": 0.5626, "ln_bias": 0.0838, "ln_bias_sigma": 0.1433}, {"name": "sa(1.0)", "value": 12.9786, "value_rock": 6.5961, "value_soil": 24.1493, "units": "%g", "ln_tau": 0.33, "ln_phi": 0.6222, "ln_sigma": 0.7043, "ln_sigma_rock": 0.7044, "ln_sigma_soil": 0.6723, "ln_bias": 0.3124, "ln_bias_sigma": 0.1883}, {"name": "mmi", "value": 6.0713, "value_rock": 5.4116, "value_soil": 6.6578, "units": "intensity", "tau": 0.4329, "phi": 0.9436, "sigma": 1.0381, "sigma_rock": 1.0411, "sigma_soil": 0.9965, "bias": 0.1524, "bias_sigma": 0.2187}], "mmi_from_pgm": [{"name": "pga", "value": 5.89, "sigma": 0.66, "flag": "0"}, {"name": "sa(0.3)", "value": null, "sigma": null, "flag": "0"}, {"name": "sa(3.0)", "value": null, "sigma": null, "flag": "0"}, {"name": "pgv", "value": null, "sigma": null, "flag": "0"}, {"name": "sa(1.0)", "value": null, "sigma": null, "flag": "0"}], "distance_stddev": 0.0, "distances": {"repi": 88.644, "rhypo": 90.554, "rjb": 56.834, "rjb_var": 0.0, "rrup": 56.833, "rrup_var": 0.0, "rx": 44.806, "ry0": 27.164}}, "geometry": {"type": "Point", "coordinates": [48.48, 36.67]}}, {"type": "Feature", "id": "BHRC.1370-2", "properties": {"code": "1370-2", "name": "Robat-Karim", "instrumentType": "UNK", "source": "BHRC", "network": "BHRC", "commType": "UNK", "location": "", "intensity": "null", "intensity_flag": "", "intensity_stddev": "null", "pga": "null", "pgv": "null", "distance": 1889.583, "elev": null, "vs30": 760.0, "channels": [{"name": "H2", "amplitudes": [{"name": "sa(3.0)", "value": "null", "units": "%g", "flag": "Glitch,0,Outlier", "ln_sigma": "null"}, {"name": "pgv", "value": 1.05, "units": "cm/s", "flag": "Outlier,0,Outlier", "ln_sigma": 0.0}, {"name": "sa(0.3)", "value": "null", "units": "%g", "flag": "Glitch,0,Outlier", "ln_sigma": "null"}, {"name": "sa(1.0)", "value": "null", "units": "%g", "flag": "Glitch,0,Outlier", "ln_sigma": "null"}, {"name": "pga", "value": 1.733, "units": "%g", "flag": "Outlier,0,Outlier", "ln_sigma": 0.0}]}, {"name": "UP", "amplitudes": [{"name": "sa(3.0)", "value": "null", "units": "%g", "flag": "G,UnknownOrientation,0,Outlier", "ln_sigma": "null"}, {"name": "pgv", "value": 1.24, "units": "cm/s", "flag": "T,UnknownOrientation,0,Outlier", "ln_sigma": 0.0}, {"name": "sa(0.3)", "value": "null", "units": "%g", "flag": "G,UnknownOrientation,0,Outlier", "ln_sigma": "null"}, {"name": "sa(1.0)", "value": "null", "units": "%g", "flag": "G,UnknownOrientation,0,Outlier", "ln_sigma": "null"}, {"name": "pga", "value": 1.937, "units": "%g", "flag": "T,UnknownOrientation,0,Outlier", "ln_sigma": 0.0}]}, {"name": "H1", "amplitudes": [{"name": "sa(3.0)", "value": "null", "units": "%g", "flag": "Glitch,0,Outlier", "ln_sigma": "null"}, {"name": "pgv", "value": 0.68, "units": "cm/s", "flag": "Outlier,0,Outlier", "ln_sigma": 0.0}, {"name": "sa(0.3)", "value": "null", "units": "%g", "flag": "Glitch,0,Outlier", "ln_sigma": "null"}, {"name": "sa(1.0)", "value": "null", "units": "%g", "flag": "Glitch,0,Outlier", "ln_sigma": "null"}, {"name": "pga", "value": 1.325, "units": "%g", "flag": "Outlier,0,Outlier", "ln_sigma": 0.0}]}], "station_type": "seismic", "nresp": "null", "predictions": [{"name": "pga", "value": 0.0, "value_rock": 0.0, "value_soil": 0.0, "units": "%g", "ln_tau": 0.3222, "ln_phi": 0.5358, "ln_sigma": 0.6252, "ln_sigma_rock": 0.6261, "ln_sigma_soil": 0.6115, "ln_bias": 0.2899, "ln_bias_sigma": 0.1331}, {"name": "sa(0.3)", "value": 0.0, "value_rock": 0.0, "value_soil": 0.0, "units": "%g", "ln_tau": 0.2999, "ln_phi": 0.6141, "ln_sigma": 0.6834, "ln_sigma_rock": 0.6861, "ln_sigma_soil": 0.6747, "ln_bias": 0.2795, "ln_bias_sigma": 0.1688}, {"name": "sa(3.0)", "value": 0.0353, "value_rock": 0.0353, "value_soil": 0.1508, "units": "%g", "ln_tau": 0.3616, "ln_phi": 0.633, "ln_sigma": 0.729, "ln_sigma_rock": 0.7281, "ln_sigma_soil": 0.7281, "ln_bias": 0.2273, "ln_bias_sigma": 0.2126}, {"name": "pgv", "value": 0.0147, "value_rock": 0.0147, "value_soil": 0.0425, "units": "cm/s", "ln_tau": 0.3174, "ln_phi": 0.5339, "ln_sigma": 0.6211, "ln_sigma_rock": 0.6214, "ln_sigma_soil": 0.6019, "ln_bias": 0.084, "ln_bias_sigma": 0.1435}, {"name": "sa(1.0)", "value": 0.0099, "value_rock": 0.0099, "value_soil": 0.0424, "units": "%g", "ln_tau": 0.3318, "ln_phi": 0.6483, "ln_sigma": 0.7283, "ln_sigma_rock": 0.7266, "ln_sigma_soil": 0.724, "ln_bias": 0.3135, "ln_bias_sigma": 0.1887}, {"name": "mmi", "value": 1.0, "value_rock": 1.0, "value_soil": 1.2291, "units": "intensity", "tau": 0.2991, "phi": 0.8063, "sigma": 0.86, "sigma_rock": 0.8601, "sigma_soil": 0.8478, "bias": 0.1191, "bias_sigma": 0.1933}], "mmi_from_pgm": [{"name": "pga", "value": null, "sigma": null, "flag": "0"}, {"name": "sa(0.3)", "value": null, "sigma": null, "flag": "0"}, {"name": "sa(3.0)", "value": null, "sigma": null, "flag": "0"}, {"name": "pgv", "value": null, "sigma": null, "flag": "0"}, {"name": "sa(1.0)", "value": null, "sigma": null, "flag": "0"}], "distance_stddev": 0.0, "distances": {"repi": 1918.73, "rhypo": 1918.819, "rjb": 1892.45, "rjb_var": 0.0, "rrup": 1889.583, "rrup_var": 0.0, "rx": -1167.405, "ry0": 1428.05}}, "geometry": {"type": "Point", "coordinates": [35.47, 51.08]}}, {"type": "Feature", "id": "BHRC.1362-1", "properties": {"code": "1362-1", "name": "Abbar", "instrumentType": "UNK", "source": "BHRC", "network": "BHRC", "commType": "UNK", "location": "", "intensity": 7.7, "intensity_flag": "", "intensity_stddev": 0.63, "pga": 53.619, "pgv": 43.6, "distance": 6.074, "elev": null, "vs30": 644.49, "channels": [{"name": "H2", "amplitudes": [{"name": "sa(3.0)", "value": "null", "units": "%g", "flag": "Glitch,0,Outlier", "ln_sigma": "null"}, {"name": "pgv", "value": 43.6, "units": "cm/s", "flag": "0", "ln_sigma": 0.0}, {"name": "sa(0.3)", "value": "null", "units": "%g", "flag": "Glitch,0,Outlier", "ln_sigma": "null"}, {"name": "sa(1.0)", "value": "null", "units": "%g", "flag": "Glitch,0,Outlier", "ln_sigma": "null"}, {"name": "pga", "value": 51.274, "units": "%g", "flag": "0", "ln_sigma": 0.0}]}, {"name": "UP", "amplitudes": [{"name": "sa(3.0)", "value": "null", "units": "%g", "flag": "G,UnknownOrientation,0,Outlier", "ln_sigma": "null"}, {"name": "pgv", "value": 48.4, "units": "cm/s", "flag": "UnknownOrientation,0", "ln_sigma": 0.0}, {"name": "sa(0.3)", "value": "null", "units": "%g", "flag": "G,UnknownOrientation,0,Outlier", "ln_sigma": "null"}, {"name": "sa(1.0)", "value": "null", "units": "%g", "flag": "G,UnknownOrientation,0,Outlier", "ln_sigma": "null"}, {"name": "pga", "value": 55.861, "units": "%g", "flag": "UnknownOrientation,0", "ln_sigma": 0.0}]}, {"name": "H1", "amplitudes": [{"name": "sa(3.0)", "value": "null", "units": "%g", "flag": "Glitch,0,Outlier", "ln_sigma": "null"}, {"name": "pgv", "value": 38.0, "units": "cm/s", "flag": "0", "ln_sigma": 0.0}, {"name": "sa(0.3)", "value": "null", "units": "%g", "flag": "Glitch,0,Outlier", "ln_sigma": "null"}, {"name": "sa(1.0)", "value": "null", "units": "%g", "flag": "Glitch,0,Outlier", "ln_sigma": "null"}, {"name": "pga", "value": 53.619, "units": "%g", "flag": "0", "ln_sigma": 0.0}]}], "station_type": "seismic", "nresp": "null", "predictions": [{"name": "pga", "value": 49.5495, "value_rock": 46.989, "value_soil": 42.7, "units": "%g", "ln_tau": 0.3146, "ln_phi": 0.5041, "ln_sigma": 0.5942, "ln_sigma_rock": 0.6012, "ln_sigma_soil": 0.4703, "ln_bias": 0.2875, "ln_bias_sigma": 0.1325}, {"name": "sa(0.3)", "value": 107.8733, "value_rock": 95.1534, "value_soil": 102.2692, "units": "%g", "ln_tau": 0.2979, "ln_phi": 0.5779, "ln_sigma": 0.6502, "ln_sigma_rock": 0.6528, "ln_sigma_soil": 0.4806, "ln_bias": 0.2783, "ln_bias_sigma": 0.1684}, {"name": "sa(3.0)", "value": 11.9594, "value_rock": 10.0783, "value_soil": 42.5786, "units": "%g", "ln_tau": 0.3613, "ln_phi": 0.6111, "ln_sigma": 0.7099, "ln_sigma_rock": 0.7087, "ln_sigma_soil": 0.7075, "ln_bias": 0.2272, "ln_bias_sigma": 0.2126}, {"name": "pgv", "value": 54.138, "value_rock": 48.0717, "value_soil": 86.8141, "units": "cm/s", "ln_tau": 0.3171, "ln_phi": 0.5135, "ln_sigma": 0.6035, "ln_sigma_rock": 0.6039, "ln_sigma_soil": 0.5383, "ln_bias": 0.0839, "ln_bias_sigma": 0.1435}, {"name": "sa(1.0)", "value": 42.699, "value_rock": 36.1177, "value_soil": 91.7165, "units": "%g", "ln_tau": 0.3314, "ln_phi": 0.6237, "ln_sigma": 0.7063, "ln_sigma_rock": 0.7043, "ln_sigma_soil": 0.6276, "ln_bias": 0.3133, "ln_bias_sigma": 0.1886}, {"name": "mmi", "value": 7.9539, "value_rock": 7.7908, "value_soil": 8.6019, "units": "intensity", "tau": 0.4351, "phi": 0.9453, "sigma": 1.0406, "sigma_rock": 1.041, "sigma_soil": 0.9709, "bias": 0.1528, "bias_sigma": 0.219}], "mmi_from_pgm": [{"name": "pga", "value": 7.34, "sigma": 0.66, "flag": "0"}, {"name": "sa(0.3)", "value": null, "sigma": null, "flag": "0"}, {"name": "sa(3.0)", "value": null, "sigma": null, "flag": "0"}, {"name": "pgv", "value": 7.66, "sigma": 0.63, "flag": "0"}, {"name": "sa(1.0)", "value": null, "sigma": null, "flag": "0"}], "distance_stddev": 0.0, "distances": {"repi": 39.233, "rhypo": 43.376, "rjb": 6.074, "rjb_var": 0.0, "rrup": 6.074, "rrup_var": 0.0, "rx": 5.445, "ry0": 0.0}}, "geometry": {"type": "Point", "coordinates": [48.97, 36.92]}}, {"type": "Feature", "id": "BHRC.1355", "properties": {"code": "1355", "name": "Rudsar", "instrumentType": "UNK", "source": "BHRC", "network": "BHRC", "commType": "UNK", "location": "", "intensity": 5.6, "intensity_flag": "", "intensity_stddev": 0.63, "pga": 9.093, "pgv": 10.0, "distance": 61.345, "elev": null, "vs30": 241.62, "channels": [{"name": "H2", "amplitudes": [{"name": "sa(3.0)", "value": "null", "units": "%g", "flag": "Glitch,0,Outlier", "ln_sigma": "null"}, {"name": "pgv", "value": 8.84, "units": "cm/s", "flag": "0", "ln_sigma": 0.0}, {"name": "sa(0.3)", "value": "null", "units": "%g", "flag": "Glitch,0,Outlier", "ln_sigma": "null"}, {"name": "sa(1.0)", "value": "null", "units": "%g", "flag": "Glitch,0,Outlier", "ln_sigma": "null"}, {"name": "pga", "value": 7.013, "units": "%g", "flag": "0", "ln_sigma": 0.0}]}, {"name": "UP", "amplitudes": [{"name": "sa(3.0)", "value": "null", "units": "%g", "flag": "G,UnknownOrientation,0,Outlier", "ln_sigma": "null"}, {"name": "pgv", "value": 4.73, "units": "cm/s", "flag": "UnknownOrientation,0", "ln_sigma": 0.0}, {"name": "sa(0.3)", "value": "null", "units": "%g", "flag": "G,UnknownOrientation,0,Outlier", "ln_sigma": "null"}, {"name": "sa(1.0)", "value": "null", "units": "%g", "flag": "G,UnknownOrientation,0,Outlier", "ln_sigma": "null"}, {"name": "pga", "value": 7.513, "units": "%g", "flag": "UnknownOrientation,0", "ln_sigma": 0.0}]}, {"name": "H1", "amplitudes": [{"name": "sa(3.0)", "value": "null", "units": "%g", "flag": "Glitch,0,Outlier", "ln_sigma": "null"}, {"name": "pgv", "value": 10.0, "units": "cm/s", "flag": "0", "ln_sigma": 0.0}, {"name": "sa(0.3)", "value": "null", "units": "%g", "flag": "Glitch,0,Outlier", "ln_sigma": "null"}, {"name": "sa(1.0)", "v