{
   "type":"FeatureCollection",
   "features":[
      {
         "type":"Feature",
         "id":"CL.GO01",
         "properties":{
            "code":"GO01",
            "name":"GO01",
            "instrumentType":"UNK",
            "source":"CL",
            "network":"CL",
            "commType":"UNK",
            "location":"",
            "intensity":5.8,
            "intensity_flag":"",
            "intensity_stddev":0.63,
            "pga":35.7726,
            "pgv":11.4304,
            "distance":101.124,
            "elev":null,
            "vs30":684.61,
            "channels":[
               {
                  "name":"HNZ",
                  "amplitudes":[
                     {
                        "name":"sa(3.0)",
                        "value":1.2369,
                        "units":"%g",
                        "flag":"0",
                        "ln_sigma":0.0
                     },
                     {
                        "name":"pga",
                        "value":16.2622,
                        "units":"%g",
                        "flag":"0",
                        "ln_sigma":0.0
                     },
                     {
                        "name":"sa(1.0)",
                        "value":3.4314,
                        "units":"%g",
                        "flag":"0",
                        "ln_sigma":0.0
                     },
                     {
                        "name":"pgv",
                        "value":6.9934,
                        "units":"cm/s",
                        "flag":"0",
                        "ln_sigma":0.0
                     },
                     {
                        "name":"sa(0.3)",
                        "value":16.6118,
                        "units":"%g",
                        "flag":"0",
                        "ln_sigma":0.0
                     }
                  ]
               },
               {
                  "name":"HNN",
                  "amplitudes":[
                     {
                        "name":"sa(3.0)",
                        "value":1.1277,
                        "units":"%g",
                        "flag":"0",
                        "ln_sigma":0.0
                     },
                     {
                        "name":"pga",
                        "value":35.7726,
                        "units":"%g",
                        "flag":"0",
                        "ln_sigma":0.0
                     },
                     {
                        "name":"sa(1.0)",
                        "value":4.8764,
                        "units":"%g",
                        "flag":"0",
                        "ln_sigma":0.0
                     },
                     {
                        "name":"pgv",
                        "value":11.4304,
                        "units":"cm/s",
                        "flag":"0",
                        "ln_sigma":0.0
                     },
                     {
                        "name":"sa(0.3)",
                        "value":79.6111,
                        "units":"%g",
                        "flag":"0",
                        "ln_sigma":0.0
                     }
                  ]
               },
               {
                  "name":"HNE",
                  "amplitudes":[
                     {
                        "name":"sa(3.0)",
                        "value":1.8162,
                        "units":"%g",
                        "flag":"0",
                        "ln_sigma":0.0
                     },
                     {
                        "name":"pga",
                        "value":23.9467,
                        "units":"%g",
                        "flag":"0",
                        "ln_sigma":0.0
                     },
                     {
                        "name":"sa(1.0)",
                        "value":4.0246,
                        "units":"%g",
                        "flag":"0",
                        "ln_sigma":0.0
                     },
                     {
                        "name":"pgv",
                        "value":8.3889,
                        "units":"cm/s",
                        "flag":"0",
                        "ln_sigma":0.0
                     },
                     {
                        "name":"sa(0.3)",
                        "value":36.2826,
                        "units":"%g",
                        "flag":"0",
                        "ln_sigma":0.0
                     }
                  ]
               }
            ],
            "station_type":"seismic",
            "nresp":"null",
            "predictions":[
               {
                  "name":"sa(0.3)",
                  "value":30.4968,
                  "value_rock":29.4526,
                  "value_soil":51.0683,
                  "units":"%g",
                  "ln_tau":0.352,
                  "ln_phi":0.6405,
                  "ln_sigma":0.7309,
                  "ln_sigma_rock":0.7342,
                  "ln_sigma_soil":0.7134,
                  "ln_bias":-0.0531,
                  "ln_bias_sigma":0.1671
               },
               {
                  "name":"pga",
                  "value":14.7413,
                  "value_rock":14.5039,
                  "value_soil":17.9552,
                  "units":"%g",
                  "ln_tau":0.3565,
                  "ln_phi":0.5614,
                  "ln_sigma":0.665,
                  "ln_sigma_rock":0.6725,
                  "ln_sigma_soil":0.6571,
                  "ln_bias":0.0655,
                  "ln_bias_sigma":0.1505
               },
               {
                  "name":"pgv",
                  "value":11.0919,
                  "value_rock":10.7317,
                  "value_soil":22.6103,
                  "units":"cm/s",
                  "ln_tau":0.4178,
                  "ln_phi":0.7607,
                  "ln_sigma":0.8679,
                  "ln_sigma_rock":0.8809,
                  "ln_sigma_soil":0.8747,
                  "ln_bias":0.0124,
                  "ln_bias_sigma":0.1987
               },
               {
                  "name":"sa(3.0)",
                  "value":2.6336,
                  "value_rock":2.5593,
                  "value_soil":5.2664,
                  "units":"%g",
                  "ln_tau":0.4026,
                  "ln_phi":0.5957,
                  "ln_sigma":0.719,
                  "ln_sigma_rock":0.7577,
                  "ln_sigma_soil":0.7575,
                  "ln_bias":-0.0301,
                  "ln_bias_sigma":0.1697
               },
               {
                  "name":"sa(1.0)",
                  "value":11.0312,
                  "value_rock":10.6163,
                  "value_soil":23.8556,
                  "units":"%g",
                  "ln_tau":0.4191,
                  "ln_phi":0.6341,
                  "ln_sigma":0.7601,
                  "ln_sigma_rock":0.7741,
                  "ln_sigma_soil":0.7661,
                  "ln_bias":-0.0888,
                  "ln_bias_sigma":0.1753
               },
               {
                  "name":"mmi",
                  "value":6.2867,
                  "value_rock":6.2606,
                  "value_soil":6.6036,
                  "units":"intensity",
                  "tau":0.5728,
                  "phi":1.1178,
                  "sigma":1.256,
                  "sigma_rock":1.2663,
                  "sigma_soil":1.2451,
                  "bias":-0.0205,
                  "bias_sigma":0.2879
               }
            ],
            "mmi_from_pgm":[
               {
                  "name":"sa(0.3)",
                  "value":7.98,
                  "sigma":0.82,
                  "flag":"0"
               },
               {
                  "name":"pga",
                  "value":7.71,
                  "sigma":0.66,
                  "flag":"0"
               },
               {
                  "name":"pgv",
                  "value":5.82,
                  "sigma":0.63,
                  "flag":"0"
               },
               {
                  "name":"sa(3.0)",
                  "value":4.99,
                  "sigma":0.89,
                  "flag":"0"
               },
               {
                  "name":"sa(1.0)",
                  "value":4.24,
                  "sigma":0.75,
                  "flag":"0"
               }
            ],
            "distance_stddev":0.0,
            "distances":{
               "repi":165.063,
               "rhypo":166.945,
               "rjb":91.648,
               "rjb_var":0.0,
               "rrup":101.124,
               "rrup_var":0.0,
               "rx":186.909,
               "ry0":0.0,
               "rvolc":0.0
            }
         },
         "geometry":{
            "type":"Point",
            "coordinates":[
               -69.1942,
               -19.6685
            ]
         }
      },
      {
         "type":"Feature",
         "id":"CL.PB06",
         "properties":{
            "code":"PB06",
            "name":"PB06",
            "instrumentType":"UNK",
            "source":"CL",
            "network":"CL",
            "commType":"UNK",
            "location":"",
            "intensity":4.1,
            "intensity_flag":"",
            "intensity_stddev":0.63,
            "pga":1.9484,
            "pgv":3.295,
            "distance":317.035,
            "elev":null,
            "vs30":273.2,
            "channels":[
               {
                  "name":"HLE",
                  "amplitudes":[
                     {
                        "name":"sa(3.0)",
                        "value":1.4946,
                        "units":"%g",
                        "flag":"0",
                        "ln_sigma":0.0
                     },
                     {
                        "name":"pga",
                        "value":1.7554,
                        "units":"%g",
                        "flag":"0",
                        "ln_sigma":0.0
                     },
                     {
                        "name":"sa(1.0)",
                        "value":2.7518,
                        "units":"%g",
                        "flag":"0",
                        "ln_sigma":0.0
                     },
                     {
                        "name":"pgv",
                        "value":3.295,
                        "units":"cm/s",
                        "flag":"0",
                        "ln_sigma":0.0
                     },
                     {
                        "name":"sa(0.3)",
                        "value":5.3514,
                        "units":"%g",
                        "flag":"0",
                        "ln_sigma":0.0
                     }
                  ]
               },
               {
                  "name":"HLN",
                  "amplitudes":[
                     {
                        "name":"sa(3.0)",
                        "value":0.7698,
                        "units":"%g",
                        "flag":"0",
                        "ln_sigma":0.0
                     },
                     {
                        "name":"pga",
                        "value":1.9484,
                        "units":"%g",
                        "flag":"0",
                        "ln_sigma":0.0
                     },
                     {
                        "name":"sa(1.0)",
                        "value":5.1322,
                        "units":"%g",
                        "flag":"0",
                        "ln_sigma":0.0
                     },
                     {
                        "name":"pgv",
                        "value":2.7079,
                        "units":"cm/s",
                        "flag":"0",
                        "ln_sigma":0.0
                     },
                     {
                        "name":"sa(0.3)",
                        "value":3.4316,
                        "units":"%g",
                        "flag":"0",
                        "ln_sigma":0.0
                     }
                  ]
               },
               {
                  "name":"HLZ",
                  "amplitudes":[
                     {
                        "name":"sa(3.0)",
                        "value":0.8105,
                        "units":"%g",
                        "flag":"0",
                        "ln_sigma":0.0
                     },
                     {
                        "name":"pga",
                        "value":1.3042,
                        "units":"%g",
                        "flag":"0",
                        "ln_sigma":0.0
                     },
                     {
                        "name":"sa(1.0)",
                        "value":2.9728,
                        "units":"%g",
                        "flag":"0",
                        "ln_sigma":0.0
                     },
                     {
                        "name":"pgv",
                        "value":2.4773,
                        "units":"cm/s",
                        "flag":"0",
                        "ln_sigma":0.0
                     },
                     {
                        "name":"sa(0.3)",
                        "value":2.9924,
                        "units":"%g",
                        "flag":"0",
                        "ln_sigma":0.0
                     }
                  ]
               }
            ],
            "station_type":"seismic",
            "nresp":"null",
            "predictions":[
               {
                  "name":"sa(0.3)",
                  "value":6.6588,
                  "value_rock":3.7023,
                  "value_soil":7.6377,
                  "units":"%g",
                  "ln_tau":0.3505,
                  "ln_phi":0.6442,
                  "ln_sigma":0.7334,
                  "ln_sigma_rock":0.7398,
                  "ln_sigma_soil":0.7343,
                  "ln_bias":-0.053,
                  "ln_bias_sigma":0.167
               },
               {
                  "name":"pga",
                  "value":2.492,
                  "value_rock":2.0209,
                  "value_soil":2.8356,
                  "units":"%g",
                  "ln_tau":0.3553,
                  "ln_phi":0.5638,
                  "ln_sigma":0.6664,
                  "ln_sigma_rock":0.6763,
                  "ln_sigma_soil":0.6714,
                  "ln_bias":0.0655,
                  "ln_bias_sigma":0.1504
               },
               {
                  "name":"pgv",
                  "value":5.0084,
                  "value_rock":2.695,
                  "value_soil":6.0347,
                  "units":"cm/s",
                  "ln_tau":0.417,
                  "ln_phi":0.762,
                  "ln_sigma":0.8687,
                  "ln_sigma_rock":0.8838,
                  "ln_sigma_soil":0.8798,
                  "ln_bias":0.0124,
                  "ln_bias_sigma":0.1986
               },
               {
                  "name":"sa(3.0)",
                  "value":1.5143,
                  "value_rock":0.924,
                  "value_soil":1.9023,
                  "units":"%g",
                  "ln_tau":0.4025,
                  "ln_phi":0.5989,
                  "ln_sigma":0.7216,
                  "ln_sigma_rock":0.7609,
                  "ln_sigma_soil":0.7608,
                  "ln_bias":-0.0301,
                  "ln_bias_sigma":0.1697
               },
               {
                  "name":"sa(1.0)",
                  "value":5.1869,
                  "value_rock":2.6517,
                  "value_soil":6.3751,
                  "units":"%g",
                  "ln_tau":0.4183,
                  "ln_phi":0.6369,
                  "ln_sigma":0.7619,
                  "ln_sigma_rock":0.7778,
                  "ln_sigma_soil":0.7749,
                  "ln_bias":-0.0887,
                  "ln_bias_sigma":0.1752
               },
               {
                  "name":"mmi",
                  "value":4.3074,
                  "value_rock":4.1663,
                  "value_soil":4.3944,
                  "units":"intensity",
                  "tau":0.2392,
                  "phi":0.7613,
                  "sigma":0.798,
                  "sigma_rock":0.8018,
                  "sigma_soil":0.7999,
                  "bias":-0.0093,
                  "bias_sigma":0.1943
               }
            ],
            "mmi_from_pgm":[
               {
                  "name":"sa(0.3)",
                  "value":4.6,
                  "sigma":0.82,
                  "flag":"0"
               },
               {
                  "name":"pga",
                  "value":4.14,
                  "sigma":0.66,
                  "flag":"0"
               },
               {
                  "name":"pgv",
                  "value":4.13,
                  "sigma":0.63,
                  "flag":"0"
               },
               {
                  "name":"sa(3.0)",
                  "value":4.47,
                  "sigma":0.89,
                  "flag":"0"
               },
               {
                  "name":"sa(1.0)",
                  "value":4.07,
                  "sigma":0.75,
                  "flag":"0"
               }
            ],
            "distance_stddev":0.0,
            "distances":{
               "repi":365.965,
               "rhypo":366.818,
               "rjb":315.762,
               "rjb_var":0.0,
               "rrup":317.035,
               "rrup_var":0.0,
               "rx":70.335,
               "ry0":317.321,
               "rvolc":0.0
            }
         },
         "geometry":{
            "type":"Point",
            "coordinates":[
               -69.57188,
               -22.7058
            ]
         }
      },
      {
         "type":"Feature",
         "id":"CL.PB03",
         "properties":{
            "code":"PB03",
            "name":"PB03",
            "instrumentType":"UNK",
            "source":"CL",
            "network":"CL",
            "commType":"UNK",
            "location":"",
            "intensity":4.5,
            "intensity_flag":"",
            "intensity_stddev":0.63,
            "pga":3.6841,
            "pgv":4.4375,
            "distance":242.763,
            "elev":null,
            "vs30":542.68,
            "channels":[
               {
                  "name":"HLE",
                  "amplitudes":[
                     {
                        "name":"sa(3.0)",
                        "value":0.6781,
                        "units":"%g",
                        "flag":"0",
                        "ln_sigma":0.0
                     },
                     {
                        "name":"pga",
                        "value":3.6841,
                        "units":"%g",
                        "flag":"0",
                        "ln_sigma":0.0
                     },
                     {
                        "name":"sa(1.0)",
                        "value":5.7873,
                        "units":"%g",
                        "flag":"0",
                        "ln_sigma":0.0
                     },
                     {
                        "name":"pgv",
                        "value":4.4375,
                        "units":"cm/s",
                        "flag":"0",
                        "ln_sigma":0.0
                     },
                     {
                        "name":"sa(0.3)",
                        "value":7.6927,
                        "units":"%g",
                        "flag":"0",
                        "ln_sigma":0.0
                     }
                  ]
               },
               {
                  "name":"HLN",
                  "amplitudes":[
                     {
                        "name":"sa(3.0)",
                        "value":0.7859,
                        "units":"%g",
                        "flag":"0",
                        "ln_sigma":0.0
