{"type": "FeatureCollection", "features": [{"type": "Feature", "id": "DYFI.UTM:(33T 0285 4775 5000)", "properties": {"code": "UTM:(33T 0285 4775 5000)", "name": null, "instrumentType": "OBSERVED", "source": "DYFI", "network": "DYFI", "commType": "UNK", "location": "", "intensity": 2.7, "intensity_flag": "0", "intensity_stddev": 0.3, "pga": "null", "pgv": "null", "distance": 125.257, "elev": null, "vs30": 536.82, "channels": [], "nresp": -1, "station_type": "macroseismic", "predictions": [{"name": "mmi", "value": 2.9406, "value_rock": 2.7809, "value_soil": 3.4282, "units": "intensity", "tau": 0.2486, "phi": 0.7374, "sigma": 0.7782, "sigma_rock": 0.7799, "sigma_soil": 0.7785, "bias": 0.0, "bias_sigma": 0.2486}, {"name": "pga", "value": 0.5331, "value_rock": 0.4588, "value_soil": 0.7662, "units": "%g", "ln_tau": 0.4018, "ln_phi": 0.5932, "ln_sigma": 0.7164, "ln_sigma_rock": 0.7187, "ln_sigma_soil": 0.7151, "ln_bias": 0.0, "ln_bias_sigma": 0.4018}, {"name": "sa(0.3)", "value": 0.9282, "value_rock": 0.6918, "value_soil": 1.9383, "units": "%g", "ln_tau": 0.3873, "ln_phi": 0.663, "ln_sigma": 0.7678, "ln_sigma_rock": 0.769, "ln_sigma_soil": 0.7656, "ln_bias": 0.0, "ln_bias_sigma": 0.3873}, {"name": "sa(1.0)", "value": 0.2753, "value_rock": 0.1954, "value_soil": 0.7829, "units": "%g", "ln_tau": 0.4299, "ln_phi": 0.6721, "ln_sigma": 0.7979, "ln_sigma_rock": 0.7997, "ln_sigma_soil": 0.7984, "ln_bias": 0.0, "ln_bias_sigma": 0.4299}, {"name": "sa(3.0)", "value": 0.0522, "value_rock": 0.0394, "value_soil": 0.1266, "units": "%g", "ln_tau": 0.4376, "ln_phi": 0.6538, "ln_sigma": 0.7867, "ln_sigma_rock": 0.7888, "ln_sigma_soil": 0.7888, "ln_bias": 0.0, "ln_bias_sigma": 0.4376}, {"name": "pgv", "value": 0.3092, "value_rock": 0.2408, "value_soil": 0.6636, "units": "cm/s", "ln_tau": 0.3895, "ln_phi": 0.6003, "ln_sigma": 0.7156, "ln_sigma_rock": 0.72, "ln_sigma_soil": 0.7164, "ln_bias": 0.0, "ln_bias_sigma": 0.3895}], "pgm_from_mmi": [{"name": "sa(0.3)", "value": null, "units": "%g", "ln_sigma": null, "flag": "0"}, {"name": "sa(1.0)", "value": null, "units": "%g", "ln_sigma": null, "flag": "0"}, {"name": "pgv", "value": null, "units": "cm/s", "ln_sigma": null, "flag": "0"}, {"name": "pga", "value": null, "units": "%g", "ln_sigma": null, "flag": "0"}, {"name": "sa(3.0)", "value": null, "units": "%g", "ln_sigma": null, "flag": "0"}], "distance_stddev": 4.538, "distances": {"repi": 128.724, "rhypo": 129.606, "rjb": 124.653, "rjb_var": 14.183, "rrup": 125.257, "rrup_var": 20.594, "rx": 0.0, "ry0": 0.0, "rvolc": 0.0}}, "geometry": {"type": "Point", "coordinates": [12.3879, 43.1204]}}, {"type": "Feature", "id": "DYFI.UTM:(33T 0435 4520 5000)", "properties": {"code": "UTM:(33T 0435 4520 5000)", "name": null, "instrumentType": "OBSERVED", "source": "DYFI", "network": "DYFI", "commType": "UNK", "location": "", "intensity": 2.4, "intensity_flag": "0", "intensity_stddev": 0.3, "pga": "null", "pgv": "null", "distance": 167.736, "elev": null, "vs30": 760.0, "channels": [], "nresp": -1, "station_type": "macroseismic", "predictions": [{"name": "mmi", "value": 2.5228, "value_rock": 2.5228, "value_soil": 3.1722, "units": "intensity", "tau": 0.2486, "phi": 0.7376, "sigma": 0.7783, "sigma_rock": 0.78, "sigma_soil": 0.7787, "bias": 0.0, "bias_sigma": 0.2486}, {"name": "pga", "value": 0.27, "value_rock": 0.27, "value_soil": 0.4532, "units": "%g", "ln_tau": 0.4018, "ln_phi": 0.5937, "ln_sigma": 0.7169, "ln_sigma_rock": 0.7191, "ln_sigma_soil": 0.7159, "ln_bias": 0.0, "ln_bias_sigma": 0.4018}, {"name": "sa(0.3)", "value": 0.4263, "value_rock": 0.4263, "value_soil": 1.2039, "units": "%g", "ln_tau": 0.3873, "ln_phi": 0.6643, "ln_sigma": 0.7689, "ln_sigma_rock": 0.7702, "ln_sigma_soil": 0.7674, "ln_bias": 0.0, "ln_bias_sigma": 0.3873}, {"name": "sa(1.0)", "value": 0.1338, "value_rock": 0.1338, "value_soil": 0.5385, "units": "%g", "ln_tau": 0.4299, "ln_phi": 0.6732, "ln_sigma": 0.7987, "ln_sigma_rock": 0.8007, "ln_sigma_soil": 0.7996, "ln_bias": 0.0, "ln_bias_sigma": 0.4299}, {"name": "sa(3.0)", "value": 0.0275, "value_rock": 0.0275, "value_soil": 0.0886, "units": "%g", "ln_tau": 0.4376, "ln_phi": 0.6558, "ln_sigma": 0.7884, "ln_sigma_rock": 0.7906, "ln_sigma_soil": 0.7906, "ln_bias": 0.0, "ln_bias_sigma": 0.4376}, {"name": "pgv", "value": 0.1607, "value_rock": 0.1607, "value_soil": 0.4444, "units": "cm/s", "ln_tau": 0.3895, "ln_phi": 0.6008, "ln_sigma": 0.716, "ln_sigma_rock": 0.7204, "ln_sigma_soil": 0.7169, "ln_bias": 0.0, "ln_bias_sigma": 0.3895}], "pgm_from_mmi": [{"name": "sa(0.3)", "value": null, "units": "%g", "ln_sigma": null, "flag": "0"}, {"name": "sa(1.0)", "value": null, "units": "%g", "ln_sigma": null, "flag": "0"}, {"name": "pgv", "value": null, "units": "cm/s", "ln_sigma": null, "flag": "0"}, {"name": "pga", "value": null, "units": "%g", "ln_sigma": null, "flag": "0"}, {"name": "sa(3.0)", "value": null, "units": "%g", "ln_sigma": null, "flag": "0"}], "distance_stddev": 4.428, "distances": {"repi": 171.562, "rhypo": 172.226, "rjb": 167.466, "rjb_var": 14.25, "rrup": 167.736, "rrup_var": 19.61, "rx": 0.0, "ry0": 0.0, "rvolc": 0.0}}, "geometry": {"type": "Point", "coordinates": [14.2585, 40.8512]}}], "metadata": {"eventid": "usp000gvvw"}}