{
    "type": "FeatureCollection",
    "features": [
        {
            "type": "Feature",
            "id": "IGN.ALM",
            "properties": {
                "code": "ALM",
                "name": "ALMERIA",
                "instrumentType": "UNK",
                "source": "IGN",
                "network": "IGN",
                "commType": "UNK",
                "location": "",
                "intensity": 2.8,
                "intensity_flag": "",
                "intensity_stddev": 0.63,
                "pga": 0.1918,
                "pgv": 0.3089,
                "distance": 218.515,
                "elev": null,
                "vs30": 447.28,
                "channels": [
                    {
                        "name": "V",
                        "amplitudes": [
                            {
                                "name": "pgv",
                                "value": 0.1063,
                                "units": "cm/s",
                                "flag": "UnknownOrientation,0",
                                "ln_sigma": 0.0
                            },
                            {
                                "name": "pga",
                                "value": 0.0955,
                                "units": "%g",
                                "flag": "UnknownOrientation,0",
                                "ln_sigma": 0.0
                            }
                        ]
                    },
                    {
                        "name": "N",
                        "amplitudes": [
                            {
                                "name": "pgv",
                                "value": 0.1759,
                                "units": "cm/s",
                                "flag": "0",
                                "ln_sigma": 0.0
                            },
                            {
                                "name": "pga",
                                "value": 0.1606,
                                "units": "%g",
                                "flag": "0",
                                "ln_sigma": 0.0
                            }
                        ]
                    },
                    {
                        "name": "E",
                        "amplitudes": [
                            {
                                "name": "pgv",
                                "value": 0.3089,
                                "units": "cm/s",
                                "flag": "0",
                                "ln_sigma": 0.0
                            },
                            {
                                "name": "pga",
                                "value": 0.1918,
                                "units": "%g",
                                "flag": "0",
                                "ln_sigma": 0.0
                            }
                        ]
                    }
                ],
                "station_type": "seismic",
                "nresp": "null",
                "predictions": [
                    {
                        "name": "pga",
                        "value": 0.4941,
                        "value_rock": 0.3851,
                        "value_soil": 0.7553,
                        "units": "%g",
                        "ln_tau": 0.3264,
                        "ln_phi": 0.5225,
                        "ln_sigma": 0.616,
                        "ln_sigma_rock": 0.6176,
                        "ln_sigma_soil": 0.6001,
                        "ln_bias": 0.3837,
                        "ln_bias_sigma": 0.1751
                    },
                    {
                        "name": "pgv",
                        "value": 0.8456,
                        "value_rock": 0.5706,
                        "value_soil": 1.6257,
                        "units": "cm/s",
                        "ln_tau": 0.3162,
                        "ln_phi": 0.5259,
                        "ln_sigma": 0.6136,
                        "ln_sigma_rock": 0.6147,
                        "ln_sigma_soil": 0.5956,
                        "ln_bias": 0.3289,
                        "ln_bias_sigma": 0.1781
                    },
                    {
                        "name": "sa(1.0)",
                        "value": 0.9126,
                        "value_rock": 0.5272,
                        "value_soil": 2.2365,
                        "units": "%g",
                        "ln_tau": 0.3386,
                        "ln_phi": 0.6369,
                        "ln_sigma": 0.7213,
                        "ln_sigma_rock": 0.7226,
                        "ln_sigma_soil": 0.7156,
                        "ln_bias": 0.3674,
                        "ln_bias_sigma": 0.2076
                    },
                    {
                        "name": "sa(0.3)",
                        "value": 1.2871,
                        "value_rock": 0.8256,
                        "value_soil": 2.6657,
                        "units": "%g",
                        "ln_tau": 0.3044,
                        "ln_phi": 0.5978,
                        "ln_sigma": 0.6708,
                        "ln_sigma_rock": 0.6743,
                        "ln_sigma_soil": 0.6585,
                        "ln_bias": 0.2615,
                        "ln_bias_sigma": 0.1834
                    },
                    {
                        "name": "sa(3.0)",
                        "value": 0.2602,
                        "value_rock": 0.1496,
                        "value_soil": 0.6383,
                        "units": "%g",
                        "ln_tau": 0.3682,
                        "ln_phi": 0.6271,
                        "ln_sigma": 0.7272,
                        "ln_sigma_rock": 0.7286,
                        "ln_sigma_soil": 0.7285,
                        "ln_bias": 0.4553,
                        "ln_bias_sigma": 0.2283
                    },
                    {
                        "name": "mmi",
                        "value": 3.4209,
                        "value_rock": 3.1698,
                        "value_soil": 3.8382,
                        "units": "intensity",
                        "tau": 0.2018,
                        "phi": 0.7139,
                        "sigma": 0.7419,
                        "sigma_rock": 0.7422,
                        "sigma_soil": 0.7358,
                        "bias": 0.1801,
                        "bias_sigma": 0.1667
                    }
                ],
                "mmi_from_pgm": [
                    {
                        "name": "pga",
                        "value": 2.59,
                        "sigma": 0.66,
                        "flag": "0"
                    },
                    {
                        "name": "pgv",
                        "value": 2.78,
                        "sigma": 0.63,
                        "flag": "0"
                    },
                    {
                        "name": "sa(1.0)",
                        "value": null,
                        "sigma": null,
                        "flag": "0"
                    },
                    {
                        "name": "sa(0.3)",
                        "value": null,
                        "sigma": null,
                        "flag": "0"
                    },
                    {
                        "name": "sa(3.0)",
                        "value": null,
                        "sigma": null,
                        "flag": "0"
                    }
                ],
                "distance_stddev": 0.0,
                "distances": {
                    "repi": 235.155,
                    "rhypo": 235.155,
                    "rjb": 218.458,
                    "rjb_var": 0.0,
                    "rrup": 218.515,
                    "rrup_var": 0.0,
                    "rx": 99.0,
                    "ry0": 197.041
                }
            },
            "geometry": {
                "type": "Point",
                "coordinates": [
                    -2.4597,
                    36.8525
                ]
            }
        },
        {
            "type": "Feature",
            "id": "IGN.DUR",
            "properties": {
                "code": "DUR",
                "name": "DURCAL",
                "instrumentType": "UNK",
                "source": "IGN",
                "network": "IGN",
                "commType": "UNK",
                "location": "",
                "intensity": 2.9,
                "intensity_flag": "",
                "intensity_stddev": 0.63,
                "pga": 0.1302,
                "pgv": 0.3575,
                "distance": 190.775,
                "elev": null,
                "vs30": 457.38,
                "channels": [
                    {
                        "name": "V",
                        "amplitudes": [
                            {
                                "name": "pgv",
                                "value": 0.1528,
                                "units": "cm/s",
                                "flag": "UnknownOrientation,0",
                                "ln_sigma": 0.0
                            },
                            {
                                "name": "pga",
                                "value": 0.0769,
                                "units": "%g",
                                "flag": "UnknownOrientation,0",
                                "ln_sigma": 0.0
                            }
                        ]
                    },
                    {
                        "name": "N",
                        "amplitudes": [
                            {
                                "name": "pgv",
                                "value": 0.2427,
                                "units": "cm/s",
                                "flag": "0",
                                "ln_sigma": 0.0
                            },
                            {
                                "name": "pga",
                                "value": 0.1161,
                                "units": "%g",
                                "flag": "0",
                                "ln_sigma": 0.0
                            }
                        ]
                    },
                    {
                        "name": "E",
                        "amplitudes": [
                            {
                                "name": "pgv",
                                "value": 0.3575,
                                "units": "cm/s",
                                "flag": "0",
                                "ln_sigma": 0.0
                            },
                            {
                                "name": "pga",
                                "value": 0.1302,
                                "units": "%g",
                                "flag": "0",
                                "ln_sigma": 0.0
                            }
                        ]
                    }
                ],
                "station_type": "seismic",
                "nresp": "null",
                "predictions": [
                    {
                        "name": "pga",
                        "value": 0.6703,
                        "value_rock": 0.5283,
                        "value_soil": 1.0311,
                        "units": "%g",
                        "ln_tau": 0.3262,
                        "ln_phi": 0.5187,
                        "ln_sigma": 0.6128,
                        "ln_sigma_rock": 0.6145,
                        "ln_sigma_soil": 0.5959,
                        "ln_bias": 0.3836,
                        "ln_bias_sigma": 0.1751
                    },
                    {
                        "name": "pgv",
                        "value": 1.004,
                        "value_rock": 0.6886,
                        "value_soil": 1.9556,
                        "units": "cm/s",
                        "ln_tau": 0.3162,
                        "ln_phi": 0.523,
                        "ln_sigma": 0.6112,
                        "ln_sigma_rock": 0.6123,
                        "ln_sigma_soil": 0.5927,
                        "ln_bias": 0.3289,
                        "ln_bias_sigma": 0.1781
                    },
                    {
                        "name": "sa(1.0)",
                        "value": 1.0665,
                        "value_rock": 0.6299,
                        "value_soil": 2.6637,
                        "units": "%g",
                        "ln_tau": 0.3386,
                        "ln_phi": 0.6331,
                        "ln_sigma": 0.7179,
                        "ln_sigma_rock": 0.7191,
                        "ln_sigma_soil": 0.7115,
                        "ln_bias": 0.3674,
                        "ln_bias_sigma": 0.2076
                    },
                    {
                        "name": "sa(0.3)",
                        "value": 1.6933,
                        "value_rock": 1.1066,
                        "value_soil": 3.5505,
                        "units": "%g",
                        "ln_tau": 0.3043,
                        "ln_phi": 0.5929,
                        "ln_sigma": 0.6665,
                        "ln_sigma_rock": 0.6698,
                        "ln_sigma_soil": 0.6526,
                        "ln_bias": 0.2615,
                        "ln_bias_sigma": 0.1834
                    },
                    {
                        "name": "sa(3.0)",
                        "value": 0.2936,
                        "value_rock": 0.1726,
                        "value_soil": 0.7362,
                        "units": "%g",
                        "ln_tau": 0.3682,
                        "ln_phi": 0.626,
                        "ln_sigma": 0.7262,
                        "ln_sigma_rock": 0.7276,
                        "ln_sigma_soil": 0.7275,
                        "ln_bias": 0.4553,
                        "ln_bias_sigma": 0.2283
                    },
                    {
                        "name": "mmi",
                        "value": 3.5305,
                        "value_rock": 3.2898,
                        "value_soil": 3.9562,
                        "units": "intensity",
                        "tau": 0.2018,
                        "phi": 0.713,
                        "sigma": 0.741,
                        "sigma_rock": 0.7414,
                        "sigma_soil": 0.7349,
                        "bias": 0.1801,
                        "bias_sigma": 0.1667
                    }
                ],
                "mmi_from_pgm": [
                    {
                        "name": "pga",
                        "value": 2.26,
                        "sigma": 0.66,
                        "flag": "0"
                    },
                    {
                        "name": "pgv",
                        "value": 2.87,
                        "sigma": 0.63,
                        "flag": "0"
                    },
                    {
                        "name": "sa(1.0)",
                        "value": null,
                        "sigma": null,
                        "flag": "0"
                    },
                    {
                        "name": "sa(0.3)",
                        "value": null,
                        "sigma": null,
                        "flag": "0"
                    },
                    {
                        "name": "sa(3.0)",
                        "value": null,
                        "sigma": null,
                        "flag": "0"
                    }
                ],
                "distance_stddev": 0.0,
                "distances": {
                    "repi": 208.763,
                    "rhypo": 208.763,
                    "rjb": 190.797,
                    "rjb_var": 0.0,
                    "rrup": 190.775,
                    "rrup_var": 0.0,
                    "rx": -0.213,
                    "ry0": 191.225
                }
            },
            "geometry": {
                "type": "Point",
                "coordinates": [
                    -3.565,
                    36.9867
                ]
            }
        },
        {
            "type": "Feature",
            "id": "IGN.EALB",
            "properties": {
                "code": "EALB",
                "name": "EALB",
                "instrumentType": "UNK",
                "source": "IGN",
                "network": "IGN",
                "commType": "UNK",
                "location": "",
                "intensity": 5.0,
                "intensity_flag": "",
                "intensity_stddev": 0.63,
                "pga": "null",
                "pgv": 5.7635,
                "distance": 109.454,
                "elev": null,
                "vs30": 600.0,
                "channels": [
                    {
                        "name": "N",
                        "amplitudes": [
                            {
                                "name": "pgv",
                                "value": 5.551,
                                "units": "cm/s",
                                "flag": "0",
                                "ln_sigma": 0.0
                            },
                            {
                                "name": "pga",
                                "value": 15.4169,
                                "units": "%g",
                                "flag": "Outlier,0,Outlier",
                                "ln_sigma": 0.0
                            },
                            {
                                "name": "sa(3.0)",
                                "value": 2.5672,
                                "units": "%g",
                                "flag": "0",
                                "ln_sigma": 0.0
                            },
                            {
                                "name": "sa(1.0)",
                                "value": 3.4796,
                                "units": "%g",
                                "flag": "0",
                                "ln_sigma": 0.0
                            },
                            {
                                "name": "sa(0.3)",
                                "value": 9.2241,
                                "units": "%g",
                                "flag": "0",
                                "ln_sigma": 0.0
                            }
                        ]
                    },
                    {
                        "name": "E",
                        "amplitudes": [
                            {
                                "name": "pgv",
                                "value": 5.7635,
                                "units": "cm/s",
                                "flag": "0",
                                "ln_sigma": 0.0
                            },
                            {
                                "name": "pga",
                                "value": 44.7378,
                                "units": "%g",
                                "flag": "Outlier,0,Outlier",
                                "ln_sigma": 0.0
                            },
                            {
                                "name": "sa(3.0)",
                                "value": 2.7113,
                                "units": "%g",
                                "flag": "0",
                                "ln_sigma": 0.0
                            },
                            {
                                "name": "sa(1.0)",
                                "value": 4.2668,
                                "units": "%g",
                                "flag": "0",
                                "ln_sigma": 0.0
                            },
                            {
