{"type": "FeatureCollection", "features": [{"type": "Feature", "id": "G.USK", "properties": {"code": "USK", "name": "Usak-Meteorologji Mudurlugu", "instrumentType": "UNK", "source": "G", "network": "G", "commType": "UNK", "location": "", "intensity": 3.1, "intensity_flag": "", "intensity_stddev": 0.63, "pga": 0.2806, "pgv": 0.687, "distance": 267.799, "elev": null, "vs30": 465.21, "channels": [{"name": "N", "amplitudes": [{"name": "sa(0.3)", "value": 0.3602, "units": "%g", "flag": "0", "ln_sigma": 0.0}, {"name": "sa(3.0)", "value": 0.5561, "units": "%g", "flag": "0", "ln_sigma": 0.0}, {"name": "pga", "value": 0.2796, "units": "%g", "flag": "0", "ln_sigma": 0.0}, {"name": "sa(1.0)", "value": 0.5714, "units": "%g", "flag": "0", "ln_sigma": 0.0}, {"name": "pgv", "value": 0.687, "units": "cm/s", "flag": "0", "ln_sigma": 0.0}]}, {"name": "Z", "amplitudes": [{"name": "sa(0.3)", "value": 0.3, "units": "%g", "flag": "0", "ln_sigma": 0.0}, {"name": "sa(3.0)", "value": 0.2286, "units": "%g", "flag": "0", "ln_sigma": 0.0}, {"name": "pga", "value": 0.0893, "units": "%g", "flag": "0", "ln_sigma": 0.0}, {"name": "sa(1.0)", "value": 0.1908, "units": "%g", "flag": "0", "ln_sigma": 0.0}, {"name": "pgv", "value": 0.281, "units": "cm/s", "flag": "0", "ln_sigma": 0.0}]}, {"name": "E", "amplitudes": [{"name": "sa(0.3)", "value": 0.3796, "units": "%g", "flag": "0", "ln_sigma": 0.0}, {"name": "sa(3.0)", "value": 0.35, "units": "%g", "flag": "0", "ln_sigma": 0.0}, {"name": "pga", "value": 0.2806, "units": "%g", "flag": "0", "ln_sigma": 0.0}, {"name": "sa(1.0)", "value": 0.5796, "units": "%g", "flag": "0", "ln_sigma": 0.0}, {"name": "pgv", "value": 0.474, "units": "cm/s", "flag": "0", "ln_sigma": 0.0}]}], "station_type": "seismic", "nresp": "null", "predictions": [{"name": "pga", "value": 1.2147, "value_rock": 0.9954, "value_soil": 1.6296, "units": "%g", "ln_tau": 0.3979, "ln_phi": 0.5936, "ln_sigma": 0.7147, "ln_sigma_rock": 0.718, "ln_sigma_soil": 0.713, "ln_bias": -0.2933, "ln_bias_sigma": 0.1629}, {"name": "pgv", "value": 1.9496, "value_rock": 1.386, "value_soil": 3.7615, "units": "cm/s", "ln_tau": 0.3912, "ln_phi": 0.6046, "ln_sigma": 0.7201, "ln_sigma_rock": 0.7261, "ln_sigma_soil": 0.7214, "ln_bias": -0.1281, "ln_bias_sigma": 0.1716}, {"name": "sa(3.0)", "value": 0.7342, "value_rock": 0.4976, "value_soil": 1.5831, "units": "%g", "ln_tau": 0.4336, "ln_phi": 0.6636, "ln_sigma": 0.7927, "ln_sigma_rock": 0.8023, "ln_sigma_soil": 0.8024, "ln_bias": -0.2468, "ln_bias_sigma": 0.1997}, {"name": "sa(0.3)", "value": 2.8493, "value_rock": 1.9287, "value_soil": 5.2365, "units": "%g", "ln_tau": 0.3839, "ln_phi": 0.6678, "ln_sigma": 0.7702, "ln_sigma_rock": 0.7734, "ln_sigma_soil": 0.7675, "ln_bias": -0.1491, "ln_bias_sigma": 0.1775}, {"name": "sa(1.0)", "value": 2.1284, "value_rock": 1.3285, "value_soil": 5.2133, "units": "%g", "ln_tau": 0.4267, "ln_phi": 0.6808, "ln_sigma": 0.8035, "ln_sigma_rock": 0.8104, "ln_sigma_soil": 0.8078, "ln_bias": -0.0426, "ln_bias_sigma": 0.1933}, {"name": "mmi", "value": 3.8102, "value_rock": 3.5924, "value_soil": 4.3122, "units": "intensity", "tau": 0.2498, "phi": 0.7388, "sigma": 0.7799, "sigma_rock": 0.7822, "sigma_soil": 1.1734, "bias": 0.1813, "bias_sigma": 0.1935}], "mmi_from_pgm": [{"name": "pga", "value": 2.8, "sigma": 0.66, "flag": "0"}, {"name": "pgv", "value": 3.14, "sigma": 0.63, "flag": "0"}, {"name": "sa(3.0)", "value": 3.69, "sigma": 0.89, "flag": "0"}, {"name": "sa(0.3)", "value": 2.63, "sigma": 0.82, "flag": "0"}, {"name": "sa(1.0)", "value": 2.63, "sigma": 0.75, "flag": "0"}], "distance_stddev": 0.0, "distances": {"repi": 276.462, "rhypo": 276.642, "rjb": 267.799, "rjb_var": 0.0, "rrup": 267.799, "rrup_var": 0.0, "rx": -224.09, "ry0": 167.873, "rvolc": 0.0}}, "geometry": {"type": "Point", "coordinates": [29.404, 38.671]}}, {"type": "Feature", "id": "G.C1060", "properties": {"code": "C1060", "name": "LDEO Station No. C1060 BU", "instrumentType": "UNK", "source": "G", "network": "G", "commType": "UNK", "location": "", "intensity": 4.6, "intensity_flag": "", "intensity_stddev": 0.63, "pga": 5.2551, "pgv": 4.64, "distance": 28.559, "elev": null, "vs30": 451.76, "channels": [{"name": "N", "amplitudes": [{"name": "sa(0.3)", "value": 7.6837, "units": "%g", "flag": "0", "ln_sigma": 0.0}, {"name": "sa(3.0)", "value": 2.4796, "units": "%g", "flag": "0", "ln_sigma": 0.0}, {"name": "pga", "value": 3.0408, "units": "%g", "flag": "0", "ln_sigma": 0.0}, {"name": "sa(1.0)", "value": 3.6735, "units": "%g", "flag": "0", "ln_sigma": 0.0}, {"name": "pgv", "value": 4.47, "units": "cm/s", "flag": "0", "ln_sigma": 0.0}]}, {"name": "Z", "amplitudes": [{"name": "sa(0.3)", "value": 4.8776, "units": "%g", "flag": "0", "ln_sigma": 0.0}, {"name": "sa(3.0)", "value": 1.5612, "units": "%g", "flag": "0", "ln_sigma": 0.0}, {"name": "pga", "value": 2.0612, "units": "%g", "flag": "0", "ln_sigma": 0.0}, {"name": "sa(1.0)", "value": 3.0, "units": "%g", "flag": "0", "ln_sigma": 0.0}, {"name": "pgv", "value": 2.69, "units": "cm/s", "flag": "0", "ln_sigma": 0.0}]}, {"name": "E", "amplitudes": [{"name": "sa(0.3)", "value": 14.5918, "units": "%g", "flag": "0", "ln_sigma": 0.0}, {"name": "sa(3.0)", "value": 1.3163, "units": "%g", "flag": "0", "ln_sigma": 0.0}, {"name": "pga", "value": 5.2551, "units": "%g", "flag": "0", "ln_sigma": 0.0}, {"name": "sa(1.0)", "value": 3.4286, "units": "%g", "flag": "0", "ln_sigma": 0.0}, {"name": "pgv", "value": 4.64, "units": "cm/s", "flag": "0", "ln_sigma": 0.0}]}], "station_type": "seismic", "nresp": "null", "predictions": [{"name": "pga", "value": 18.7436, "value_rock": 15.5949, "value_soil": 20.9077, "units": "%g", "ln_tau": 0.3957, "ln_phi": 0.5869, "ln_sigma": 0.7078, "ln_sigma_rock": 0.7137, "ln_sigma_soil": 0.6956, "ln_bias": -0.2927, "ln_bias_sigma": 0.1627}, {"name": "pgv", "value": 16.8979, "value_rock": 11.9396, "value_soil": 28.5189, "units": "cm/s", "ln_tau": 0.3911, "ln_phi": 0.6004, "ln_sigma": 0.7166, "ln_sigma_rock": 0.7227, "ln_sigma_soil": 0.7136, "ln_bias": -0.1281, "ln_bias_sigma": 0.1716}, {"name": "sa(3.0)", "value": 4.8197, "value_rock": 3.2186, "value_soil": 9.6258, "units": "%g", "ln_tau": 0.4335, "ln_phi": 0.6592, "ln_sigma": 0.789, "ln_sigma_rock": 0.7984, "ln_sigma_soil": 0.7984, "ln_bias": -0.2468, "ln_bias_sigma": 0.1997}, {"name": "sa(0.3)", "value": 37.6828, "value_rock": 25.8727, "value_soil": 51.8816, "units": "%g", "ln_tau": 0.3823, "ln_phi": 0.6595, "ln_sigma": 0.7623, "ln_sigma_rock": 0.7669, "ln_sigma_soil": 0.7426, "ln_bias": -0.1488, "ln_bias_sigma": 0.1773}, {"name": "sa(1.0)", "value": 15.6208, "value_rock": 9.659, "value_soil": 31.8951, "units": "%g", "ln_tau": 0.4265, "ln_phi": 0.6758, "ln_sigma": 0.7991, "ln_sigma_rock": 0.806, "ln_sigma_soil": 0.7967, "ln_bias": -0.0426, "ln_bias_sigma": 0.1933}, {"name": "mmi", "value": 6.374, "value_rock": 5.8973, "value_soil": 7.0922, "units": "intensity", "tau": 0.5367, "phi": 1.0373, "sigma": 1.1679, "sigma_rock": 1.175, "sigma_soil": 1.1644, "bias": 0.3422, "bias_sigma": 0.2659}], "mmi_from_pgm": [{"name": "pga", "value": 4.09, "sigma": 0.66, "flag": "0"}, {"name": "pgv", "value": 4.6, "sigma": 0.63, "flag": "0"}, {"name": "sa(3.0)", "value": 5.73, "sigma": 0.89, "flag": "0"}, {"name": "sa(0.3)", "value": 4.73, "sigma": 0.82, "flag": "0"}, {"name": "sa(1.0)", "value": 4.32, "sigma": 0.75, "flag": "0"}], "distance_stddev": 0.0, "distances": {"repi": 46.198, "rhypo": 47.268, "rjb": 28.559, "rjb_var": 0.0, "rrup": 28.559, "rrup_var": 0.0, "rx": 1.644, "ry0": 57.249, "rvolc": 0.0}}, "geometry": {"type": "Point", "coordinates": [30.613, 40.777]}}, {"type": "Feature", "id": "DAPHNE.3401", "properties": {"code": "3401", "name": "", "instrumentType": "UNK", "source": "DAPHNE", "network": "DAPHNE", "commType": "UNK", "location": "", "intensity": 4.5, "intensity_flag": "", "intensity_stddev": 0.63, "pga": 0.9146, "pgv": 4.1938, "distance": 166.729, "elev": null, "vs30": 473.15, "channels": [{"name": "N", "amplitudes": [{"name": "sa(0.3)", "value": 2.0399, "units": "%g", "flag": "0", "ln_sigma": 0.0}, {"name": "sa(3.0)", "value": 0.7826, "units": "%g", "flag": "0", "ln_sigma": 0.0}, {"name": "pga", "value": 0.9146, "units": "%g", "flag": "0", "ln_sigma": 0.0}, {"name": "sa(1.0)", "value": 1.4964, "units": "%g", "flag": "0", "ln_sigma": 0.0}, {"name": "pgv", "value": 2.1519, "units": "cm/s", "flag": "0", "ln_sigma": 0.0}]}, {"name": "E", "amplitudes": [{"name": "sa(0.3)", "value": 1.523, "units": "%g", "flag": "0", "ln_sigma": 0.0}, {"name": "sa(3.0)", "value": 0.3494, "units": "%g", "flag": "0", "ln_sigma": 0.0}, {"name": "pga", "value": 0.5351, "units": "%g", "flag": "0", "ln_sigma": 0.0}, {"name": "sa(1.0)", "value": 0.8896, "units": "%g", "flag": "0", "ln_sigma": 0.0}, {"name": "pgv", "value": 4.1938, "units": "cm/s", "flag": "0", "ln_sigma": 0.0}]}], "station_type": "seismic", "nresp": "null", "predictions": [{"name": "pga", "value": 2.4971, "value_rock": 2.0616, "value_soil": 3.2988, "units": "%g", "ln_tau": 0.3978, "ln_phi": 0.5909, "ln_sigma": 0.7123, "ln_sigma_rock": 0.7158, "ln_sigma_soil": 0.7093, "ln_bias": -0.2932, "ln_bias_sigma": 0.1629}, {"name": "pgv", "value": 3.1294, "value_rock": 2.2506, "value_soil": 6.0169, "units": "cm/s", "ln_tau": 0.3912, "ln_phi": 0.6026, "ln_sigma": 0.7184, "ln_sigma_rock": 0.7244, "ln_sigma_soil": 0.7191, "ln_bias": -0.1281, "ln_bias_sigma": 0.1716}, {"name": "sa(3.0)", "value": 1.0984, "value_rock": 0.7542, "value_soil": 2.3806, "units": "%g", "ln_tau": 0.4336, "ln_phi": 0.6619, "ln_sigma": 0.7913, "ln_sigma_rock": 0.8008, "ln_sigma_soil": 0.8008, "ln_bias": -0.2468, "ln_bias_sigma": 0.1997}, {"name": "sa(0.3)", "value": 5.5194, "value_rock": 3.7867, "value_soil": 9.9318, "units": "%g", "ln_tau": 0.3837, "ln_phi": 0.6643, "ln_sigma": 0.7672, "ln_sigma_rock": 0.7702, "ln_sigma_soil": 0.7622, "ln_bias": -0.1491, "ln_bias_sigma": 0.1775}, {"name": "sa(1.0)", "value": 3.3102, "value_rock": 2.0997, "value_soil": 8.0729, "units": "%g", "ln_tau": 0.4267, "ln_phi": 0.678, "ln_sigma": 0.8011, "ln_sigma_rock": 0.8079, "ln_sigma_soil": 0.8045, "ln_bias": -0.0426, "ln_bias_sigma": 0.1933}, {"name": "mmi", "value": 4.1123, "value_rock": 3.9019, "value_soil": 4.9568, "units": "intensity", "tau": 0.2498, "phi": 0.7382, "sigma": 0.7793, "sigma_rock": 0.7815, "sigma_soil": 1.1708, "bias": 0.1813, "bias_sigma": 0.1935}], "mmi_from_pgm": [{"name": "pga", "value": 3.39, "sigma": 0.66, "flag": "0"}, {"name": "pgv", "value": 4.46, "sigma": 0.63, "flag": "0"}, {"name": "sa(3.0)", "value": 3.98, "sigma": 0.89, "flag": "0"}, {"name": "sa(0.3)", "value": 3.74, "sigma": 0.82, "flag": "0"}, {"name": "sa(1.0)", "value": 3.35, "sigma": 0.75, "flag": "0"}], "distance_stddev": 0.0, "distances": {"repi": 183.855, "rhypo": 184.127, "rjb": 166.729, "rjb_var": 0.0, "rrup": 166.729, "rrup_var": 0.0, "rx": 37.231, "ry0": 187.045, "rvolc": 0.0}}, "geometry": {"type": "Point", "coordinates": [29.00951, 41.0582]}}, {"type": "Feature", "id": "DAPHNE.1404", "properties": {"code": "1404", "name": "", "instrumentType": "UNK", "source": "DAPHNE", "network": "DAPHNE", "commType": "UNK", "location": "", "intensity": 5.6, "intensity_flag": "", "intensity_stddev": 0.63, "pga": 2.843, "pgv": 9.3399, "distance": 43.483, "elev": null, "vs30": 877.65, "channels": [{"name": "N", "amplitudes": [{"name": "sa(0.3)", "value": 7.6184, "units": "%g", "flag": "0", "ln_sigma": 0.0}, {"name": "sa(3.0)", "value": 1.9081, "units": "%g", "flag": "0", "ln_sigma": 0.0}, {"name": "pga", "value": 2.843, "units": "%g", "flag": "0", "ln_sigma": 0.0}, {"name": "sa(1.0)", "value": 3.6512, "units": "%g", "flag": "0", "ln_sigma": 0.0}, {"name": "pgv", "value": 9.3399, "units": "cm/s", "flag": "0", "ln_sigma": 0.0}]}, {"name": "E", "amplitudes": [{"name": "sa(0.3)", "value": 13.4296, "units": "%g", "flag": "0", "ln_sigma": 0.0}, {"name": "sa(3.0)", "value": 1.4146, "units": "%g", "flag": "0", "ln_sigma": 0.0}, {"name": "pga", "value": 2.5299, "units": "%g", "flag": "0", "ln_sigma": 0.0}, {"name": "sa(1.0)", "value": 2.9705, "units": "%g", "flag": "0", "ln_sigma": 0.0}, {"name": "pgv", "value": 7.2297, "units": "cm/s", "flag": "0", "ln_sigma": 0.0}]}], "station_type": "seismic", "nresp": "null", "predictions": [{"name": "pga", "value": 9.7769, "value_rock": 10.2769, "value_soil": 14.5318, "units": "%g", "ln_tau": 0.398, "ln_phi": 0.5889, "ln_sigma": 0.7108, "ln_sigma_rock": 0.7138, "ln_sigma_soil": 0.6988, "ln_bias": -0.2933, "ln_bias_sigma": 0.1629}, {"name": "pgv", "value": 7.4449, "value_rock": 8.1655, "value_soil": 20.1779, "units": "cm/s", "ln_tau": 0.3913, "ln_phi": 0.6007, "ln_sigma": 0.7169, "ln_sigma_rock": 0.7227, "ln_sigma_soil": 0.7147, "ln_bias": -0.1281, "ln_bias_sigma": 0.1716}, {"name": "sa(3.0)", "value": 2.0937, "value_rock": 2.3243, "value_soil": 7.0611, "units": "%g", "ln_tau": 0.4336, "ln_phi": 0.6593, "ln_sigma": 0.7891, "ln_sigma_rock": 0.7985, "ln_sigma_soil": 0.7984, "ln_bias": -0.2468, "ln_bias_sigma": 0.1997}, {"name": "sa(0.3)", "value": 15.6207, "value_rock": 17.2383, "value_soil": 37.4972, "units": "%g", "ln_tau": 0.3839, "ln_phi": 0.6611, "ln_sigma": 0.7645, "ln_sigma_rock": 0.767, "ln_sigma_soil": 0.747, "ln_bias": -0.1491, "ln_bias_sigma": 0.1775}, {"name": "sa(1.0)", "value": 6.0021, "value_rock": 6.8387, "value_soil": 23.6358, "units": "%g", "ln_tau": 0.4268, "ln_phi": 0.676, "ln_sigma": 0.7995, "ln_sigma_rock": 0.806, "ln_sigma_soil": 0.7985, "ln_bias": -0.0426, "ln_bias_sigma": 0.1933}, {"name": "mmi", "value": 5.2491, "value_rock": 5.3759, "value_soil": 6.6174, "units": "intensity", "tau": 0.537, "phi": 1.0375, "sigma": 1.1683, "sigma_rock": 1.175, "sigma_soil": 1.1657, "bias": 0.3423, "bias_sigma": 0.2659}], "mmi_from_pgm": [{"name": "pga", "value": 3.56, "sigma": 0.66, "flag": "0"}, {"name": "pgv", "value": 5.56, "sigma": 0.63, "flag": "0"}, {"name": "sa(3.0)", "value": 5.28, "sigma": 0.89, "flag": "0"}, {"name": "sa(0.3)", "value": 4.78, "sigma": 0.82, "flag": "0"}, {"name": "sa(1.0)", "value": 4.23, "sigma": 0.75, "flag": "0"}], "distance_stddev": 0.0, "distances": {"repi": 51.32, "rhypo": 52.285, "rjb": 43.483, "rjb_var": 0.0, "rrup": 43.483, "rrup_var": 0.0, "rx": -40.972, "ry0": 45.492, "rvolc": 0.0}}, "geometry": {"type": "Point", "coordinates": [30.78307, 40.39659]}}, {"type": "Feature", "id": "G.BRN", "properties": {"code": "BRN", "name": "Bornova-Eylul Universite Ziraat Fakultesi", "instrumentType": "UNK", "source": "G", "network": "G", "commType": "UNK", "location": "", "intensity": 2.8, "intensity_flag": "", "intensity_stddev": 0.63, "pga": 0.1776, "pgv": 0.428, "distance": 409.783, "elev": null, "vs30": 287.83, "channels": [{"name": "N", "amplitudes": [{"name": "sa(0.3)", "value": 0.2388, "units": "%g", "flag": "0", "ln_sigma": 0.0}, {"name": "sa(3.0)", "value": 0.2143, "units": "%g", "flag": "0", "ln_sigma": 0.0}, {"name": "pga", "value": 0.1776, "units": "%g", "flag": "0", "ln_sigma": 0.0}, {"name": "sa(1.0)", "value": 0.4163, "units": "%g", "flag": "0", "ln_sigma": 0.0}, {"name": "pgv", "value": 0.428, "units": "cm/s", "flag": "0", "ln_sigma": 0.0}]}, {"name": "Z", "amplitudes": [{"name": "sa(0.3)", "value": 0.1408, "units": "%g", "flag": "0", "ln_sigma": 0.0}, {"name": "sa(3.0)", "value": 0.0822, "units": "%g", "flag": "0", "ln_sigma": 0.0}, {"name": "pga", "value": 0.0834, "units": "%g", "flag": "0", "ln_sigma": 0.0}, {"name": "sa(1.0)", "value": 0.1653, "units": "%g", "flag": "0", "ln_sigma": 0.0}, {"name": "pgv", "value": 0.159, "units": "cm/s", "flag": "0", "ln_sigma": 0.0}]}, {"name": "E", "amplitudes": [{"name": "sa(0.3)", "value": 0.2745, "units": "%g", "flag": "0", "ln_sigma": 0.0}, {"name": "sa(3.0)", "value": 0.3061, "units": "%g", "flag": "0", "ln_sigma": 0.0}, {"name": "pga", "value": 0.15, "units": "%g", "flag": "0", "ln_sigma": 0.0}, {"name": "sa(1.0)", "value": 0.4194, "units": "%g", "flag": "0", "ln_sigma": 0.0}, {"name": "pgv", "value": 0.408, "units": "cm/s", "flag": "0", "ln_sigma": 0.0}]}], "station_type": "seismic", "nresp": "null", "predictions": [{"name": "pga", "value": 0.6439, "value_rock": 0.4549, "value_soil": 0.7543, "units": "%g", "ln_tau": 0.398, "ln_phi": 0.5932, "ln_sigma": 0.7143, "ln_sigma_rock": 0.7181, "ln_sigma_soil": 0.7137, "ln_bias": -0.2933, "ln_bias_sigma": 0.1629}, {"name": "pgv", "value": 1.7315, "value_rock": 0.8742, "value_soil": 2.3937, "units": "cm/s", "ln_tau": 0.3911, "ln_phi": 0.604, "ln_sigma": 0.7195, "ln_sigma_rock": 0.7262, "ln_sigma_soil": 0.7218, "ln_bias": -0.1281, "ln_bias_sigma": 0.1716}, {"name": "sa(3.0)", "value": 0.7357, "value_rock": 0.3383, "value_soil": 1.0815, "units": "%g", "ln_tau": 0.4336, "ln_phi": 0.6636, "ln_sigma": 0.7927, "ln_sigma_rock": 0.8023, "ln_sigma_soil": 0.8024, "ln_bias": -0.2468, "ln_bias_sigma": 0.1997}, {"name": "sa(0.3)", "value": 1.9106, "value_rock": 0.9356, "value_soil": 2.59, "units": "%g", "ln_tau": 0.3838, "ln_phi": 0.6674, "ln_sigma": 0.7699, "ln_sigma_rock": 0.7734, "ln_sigma_soil": 0.7684, "ln_bias": -0.1491, "ln_bias_sigma": 0.1775}, {"name": "sa(1.0)", "value": 2.1682, "value_rock": 0.849, "value_soil": 3.3721, "units": "%g", "ln_tau": 0.4267, "ln_phi": 0.6806, "ln_sigma": 0.8033, "ln_sigma_rock": 0.8105, "ln_sigma_soil": 0.8084, "ln_bias": -0.0426, "ln_bias_sigma": 0.1933}, {"name": "mmi", "value": 3.7345, "value_rock": 3.2981, "value_soil": 3.9412, "units": "intensity", "tau": 0.2497, "phi": 0.7386, "sigma": 0.7797, "sigma_rock": 0.7822, "sigma_soil": 0.7806, "bias": 0.1812, "bias_sigma": 0.1935}], "mmi_from_pgm": [{"name": "pga", "value": 2.55, "sigma": 0.66, "flag": "0"}, {"name": "pgv", "value": 2.84, "sigma": 0.63, "flag": "0"}, {"name": "sa(3.0)", "value": 3.35, "sigma": 0.89, "flag": "0"}, {"name": "sa(0.3)", "value": 2.41, "sigma": 0.82, "flag": "0"}, {"name": "sa(1.0)", "value": 2.4, "sigma": 0.75, "flag": "0"}], "distance_stddev": 0.0, "distances": {"repi": 423.062, "rhypo": 423.181, "rjb": 409.783, "rjb_var": 0.0, "rrup": 409.783, "rrup_var": 0.0, "rx": -236.333, "ry0": 353.347, "rvolc": 0.0}}, "geometry": {"type": "Point", "coordinates": [27.229, 38.455]}}, {"type": "Feature", "id": "G.DHM", "properties": {"code": "DHM", "name": "Yesilkoy-Havaalani", "instrumentType": "UNK", "source": "G", "network": "G", "commType": "UNK", "location": "", "intensity": 4.5, "intensity_flag": "", "intensity_stddev": 0.63, "pga": 1.8061, "pgv": 4.3, "distance": 181.206, "elev": null, "vs30": 335.04, "channels": [{"name": "N", "amplitudes": [{"name": "sa(0.3)", "value": 2.6735, "units": "%g", "flag": "0", "ln_sigma": 0.0}, {"name": "sa(3.0)", "value": 0.9745, "units": "%g", "flag": "0", "ln_sigma": 0.0}, {"name": "pga", "value": 1.7551, "units": "%g", "flag": "0", "ln_sigma": 0.0}, {"name": "sa(1.0)", "value": 4.1224, "units": "%g", "flag": "0", "ln_sigma": 0.0}, {"name": "pgv", "value": 3.85, "units": "cm/s", "flag": "0", "ln_sigma": 0.0}]}, {"name": "Z", "amplitudes": [{"name": "sa(0.3)", "value": 1.1327, "units": "%g", "flag": "0", "ln_sigma": 0.0}, {"name": "sa(3.0)", "value": 0.4867, "units": "%g", "flag": "0", "ln_sigma": 0.0}, {"name": "pga", "value": 0.6969, "units": "%g", "flag": "0", "ln_sigma": 0.0}, {"name": "sa(1.0)", "value": 2.5306, "units": "%g", "flag": "0", "ln_sigma": 0.0}, {"name": "pgv", "value": 1.49, "units": "cm/s", "flag": "0", "ln_sigma": 0.0}]}, {"name": "E", "amplitudes": [{"name": "sa(0.3)", "value": 2.4388, "units": "%g", "flag": "0", "ln_sigma": 0.0}, {"name": "sa(3.0)", "value": 1.7143, "units": "%g", "flag": "0", "ln_sigma": 0.0}, {"name": "pga", "value": 1.8061, "units": "%g", "flag": "0", "ln_sigma": 0.0}, {"name": "sa(1.0)", "value": 3.9694, "units": "%g", "flag": "0", "ln_sigma": 0.0}, {"name": "pgv", "value": 4.3, "units": "cm/s", "flag": "0", "ln_sigma": 0.0}]}], "station_type": "seismic", "nresp": "null", "predictions": [{"name": "pga", "value": 2.4856, "value_rock": 1.8293, "value_soil": 2.9412, "units": "%g", "ln_tau": 0.3975, "ln_phi": 0.5911, "ln_sigma": 0.7123, "ln_sigma_rock": 0.7162, "ln_sigma_soil": 0.71, "ln_bias": -0.2931, "ln_bias_sigma": 0.1628}, {"name": "pgv", "v