{
   "type":"FeatureCollection",
   "features":[
      {
         "type":"Feature",
         "id":"unknown.PET2",
         "properties":{
            "code":"PET2",
            "name":"PET2",
            "instrumentType":"UNK",
            "source":"unknown",
            "network":"unknown",
            "commType":"UNK",
            "location":"",
            "intensity":3.2,
            "intensity_flag":"",
            "intensity_stddev":0.63,
            "pga":0.2324,
            "pgv":0.73,
            "distance":739.75,
            "elev":null,
            "vs30":760.0,
            "channels":[
               {
                  "name":"UNK",
                  "amplitudes":[
                     {
                        "name":"sa(3.0)",
                        "value":0.1682,
                        "units":"%g",
                        "flag":"0",
                        "ln_sigma":0.0
                     },
                     {
                        "name":"pga",
                        "value":0.2324,
                        "units":"%g",
                        "flag":"0",
                        "ln_sigma":0.0
                     },
                     {
                        "name":"pgv",
                        "value":0.73,
                        "units":"cm/s",
                        "flag":"0",
                        "ln_sigma":0.0
                     },
                     {
                        "name":"sa(1.0)",
                        "value":0.2681,
                        "units":"%g",
                        "flag":"0",
                        "ln_sigma":0.0
                     },
                     {
                        "name":"sa(0.3)",
                        "value":0.2966,
                        "units":"%g",
                        "flag":"0",
                        "ln_sigma":0.0
                     }
                  ]
               }
            ],
            "station_type":"seismic",
            "nresp":"null",
            "predictions":[
               {
                  "name":"pgv",
                  "value":0.1908,
                  "value_rock":0.1908,
                  "value_soil":0.4476,
                  "units":"cm/s",
                  "ln_tau":0.3678,
                  "ln_phi":0.7793,
                  "ln_sigma":0.8617,
                  "ln_sigma_rock":0.866,
                  "ln_sigma_soil":0.8651,
                  "ln_bias":0.0877,
                  "ln_bias_sigma":0.3508
               },
               {
                  "name":"sa(1.0)",
                  "value":0.1838,
                  "value_rock":0.1838,
                  "value_soil":0.4512,
                  "units":"%g",
                  "ln_tau":0.3714,
                  "ln_phi":0.6314,
                  "ln_sigma":0.7325,
                  "ln_sigma_rock":0.7366,
                  "ln_sigma_soil":0.736,
                  "ln_bias":0.1214,
                  "ln_bias_sigma":0.356
               },
               {
                  "name":"sa(0.3)",
                  "value":0.2419,
                  "value_rock":0.2419,
                  "value_soil":0.4752,
                  "units":"%g",
                  "ln_tau":0.3412,
                  "ln_phi":0.6334,
                  "ln_sigma":0.7195,
                  "ln_sigma_rock":0.7246,
                  "ln_sigma_soil":0.7247,
                  "ln_bias":0.0443,
                  "ln_bias_sigma":0.328
               },
               {
                  "name":"sa(3.0)",
                  "value":0.1309,
                  "value_rock":0.1309,
                  "value_soil":0.2879,
                  "units":"%g",
                  "ln_tau":0.3458,
                  "ln_phi":0.6265,
                  "ln_sigma":0.7156,
                  "ln_sigma_rock":0.7265,
                  "ln_sigma_soil":0.7264,
                  "ln_bias":0.0444,
                  "ln_bias_sigma":0.338
               },
               {
                  "name":"pga",
                  "value":0.1502,
                  "value_rock":0.1502,
                  "value_soil":0.2077,
                  "units":"%g",
                  "ln_tau":0.391,
                  "ln_phi":0.5741,
                  "ln_sigma":0.6946,
                  "ln_sigma_rock":0.6962,
                  "ln_sigma_soil":0.6965,
                  "ln_bias":0.1214,
                  "ln_bias_sigma":0.3636
               },
               {
                  "name":"mmi",
                  "value":2.4165,
                  "value_rock":2.4165,
                  "value_soil":2.6349,
                  "units":"intensity",
                  "tau":0.2632,
                  "phi":0.7648,
                  "sigma":0.8088,
                  "sigma_rock":0.8095,
                  "sigma_soil":0.8096,
                  "bias":-0.1009,
                  "bias_sigma":0.2515
               }
            ],
            "mmi_from_pgm":[
               {
                  "name":"pgv",
                  "value":3.17,
                  "sigma":0.63,
                  "flag":"0"
               },
               {
                  "name":"sa(1.0)",
                  "value":2.07,
                  "sigma":0.75,
                  "flag":"0"
               },
               {
                  "name":"sa(0.3)",
                  "value":2.48,
                  "sigma":0.82,
                  "flag":"0"
               },
               {
                  "name":"sa(3.0)",
                  "value":3.03,
                  "sigma":0.89,
                  "flag":"0"
               },
               {
                  "name":"pga",
                  "value":2.71,
                  "sigma":0.66,
                  "flag":"0"
               }
            ],
            "distance_stddev":0.0,
            "distances":{
               "repi":833.928,
               "rhypo":835.274,
               "rjb":740.661,
               "rjb_var":0.0,
               "rrup":739.75,
               "rrup_var":0.0,
               "rx":-339.346,
               "ry0":657.89,
               "rvolc":0.0
            }
         },
         "geometry":{
            "type":"Point",
            "coordinates":[
               -101.26,
               17.54
            ]
         }
      },
      {
         "type":"Feature",
         "id":"unknown.ACAM",
         "properties":{
            "code":"ACAM",
            "name":"ACAM",
            "instrumentType":"UNK",
            "source":"unknown",
            "network":"unknown",
            "commType":"UNK",
            "location":"",
            "intensity":3.7,
            "intensity_flag":"",
            "intensity_stddev":0.63,
            "pga":0.2508,
            "pgv":1.69,
            "distance":810.569,
            "elev":null,
            "vs30":760.0,
            "channels":[
               {
                  "name":"UNK",
                  "amplitudes":[
                     {
                        "name":"sa(3.0)",
                        "value":0.6504,
                        "units":"%g",
                        "flag":"0",
                        "ln_sigma":0.0
                     },
                     {
                        "name":"pga",
                        "value":0.2508,
                        "units":"%g",
                        "flag":"0",
                        "ln_sigma":0.0
                     },
                     {
                        "name":"pgv",
                        "value":1.69,
                        "units":"cm/s",
                        "flag":"0",
                        "ln_sigma":0.0
                     },
                     {
                        "name":"sa(1.0)",
                        "value":0.5178,
                        "units":"%g",
                        "flag":"0",
                        "ln_sigma":0.0
                     },
                     {
                        "name":"sa(0.3)",
                        "value":0.2752,
                        "units":"%g",
                        "flag":"0",
                        "ln_sigma":0.0
                     }
                  ]
               }
            ],
            "station_type":"seismic",
            "nresp":"null",
            "predictions":[
               {
                  "name":"pgv",
                  "value":0.1348,
                  "value_rock":0.1348,
                  "value_soil":0.3163,
                  "units":"cm/s",
                  "ln_tau":0.3678,
                  "ln_phi":0.7793,
                  "ln_sigma":0.8617,
                  "ln_sigma_rock":0.866,
                  "ln_sigma_soil":0.8652,
                  "ln_bias":0.0877,
                  "ln_bias_sigma":0.3508
               },
               {
                  "name":"sa(1.0)",
                  "value":0.1289,
                  "value_rock":0.1289,
                  "value_soil":0.3166,
                  "units":"%g",
                  "ln_tau":0.3714,
                  "ln_phi":0.6314,
                  "ln_sigma":0.7325,
                  "ln_sigma_rock":0.7366,
                  "ln_sigma_soil":0.7361,
                  "ln_bias":0.1214,
                  "ln_bias_sigma":0.356
               },
               {
                  "name":"sa(0.3)",
                  "value":0.1608,
                  "value_rock":0.1608,
                  "value_soil":0.3163,
                  "units":"%g",
                  "ln_tau":0.3412,
                  "ln_phi":0.6334,
                  "ln_sigma":0.7195,
                  "ln_sigma_rock":0.7246,
                  "ln_sigma_soil":0.7248,
                  "ln_bias":0.0443,
                  "ln_bias_sigma":0.328
               },
               {
                  "name":"sa(3.0)",
                  "value":0.098,
                  "value_rock":0.098,
                  "value_soil":0.2155,
                  "units":"%g",
                  "ln_tau":0.3458,
                  "ln_phi":0.6265,
                  "ln_sigma":0.7156,
                  "ln_sigma_rock":0.7265,
                  "ln_sigma_soil":0.7264,
                  "ln_bias":0.0444,
                  "ln_bias_sigma":0.338
               },
               {
                  "name":"pga",
                  "value":0.1035,
                  "value_rock":0.1035,
                  "value_soil":0.1433,
                  "units":"%g",
                  "ln_tau":0.391,
                  "ln_phi":0.5741,
                  "ln_sigma":0.6946,
                  "ln_sigma_rock":0.6962,
                  "ln_sigma_soil":0.6965,
                  "ln_bias":0.1214,
                  "ln_bias_sigma":0.3636
               },
               {
                  "name":"mmi",
                  "value":2.0997,
                  "value_rock":2.0997,
                  "value_soil":2.385,
                  "units":"intensity",
                  "tau":0.3532,
                  "phi":0.8394,
                  "sigma":0.9107,
                  "sigma_rock":0.9117,
                  "sigma_soil":0.8096,
                  "bias":-0.1699,
                  "bias_sigma":0.3263
               }
            ],
            "mmi_from_pgm":[
               {
                  "name":"pgv",
                  "value":3.7,
                  "sigma":0.63,
                  "flag":"0"
               },
               {
                  "name":"sa(1.0)",
                  "value":2.51,
                  "sigma":0.75,
                  "flag":"0"
               },
               {
                  "name":"sa(0.3)",
                  "value":2.41,
                  "sigma":0.82,
                  "flag":"0"
               },
               {
                  "name":"sa(3.0)",
                  "value":3.72,
                  "sigma":0.89,
                  "flag":"0"
               },
               {
                  "name":"pga",
                  "value":2.76,
                  "sigma":0.66,
                  "flag":"0"
               }
            ],
            "distance_stddev":0.0,
            "distances":{
               "repi":913.149,
               "rhypo":914.379,
               "rjb":811.622,
               "rjb_var":0.0,
               "rrup":810.569,
               "rrup_var":0.0,
               "rx":-97.764,
               "ry0":806.658,
               "rvolc":0.0
            }
         },
         "geometry":{
            "type":"Point",
            "coordinates":[
               -100.72,
               20.04
            ]
         }
      },
      {
         "type":"Feature",
         "id":"unknown.PPIG",
         "properties":{
            "code":"PPIG",
            "name":"PPIG",
            "instrumentType":"UNK",
            "source":"unknown",
            "network":"unknown",
            "commType":"UNK",
            "location":"",
            "intensity":5.3,
            "intensity_flag":"",
            "intensity_stddev":0.63,
            "pga":2.1723,
            "pgv":"null",
            "distance":572.951,
            "elev":null,
            "vs30":655.42,
            "channels":[
               {
                  "name":"UNK",
                  "amplitudes":[
                     {
                        "name":"sa(3.0)",
                        "value":2.9174,
                        "units":"%g",
                        "flag":"Outlier",
                        "ln_sigma":0.0
                     },
                     {
                        "name":"pga",
                        "value":2.1723,
                        "units":"%g",
                        "flag":"0",
                        "ln_sigma":0.0
                     },
                     {
                        "name":"pgv",
                        "value":7.58,
                        "units":"cm/s",
                        "flag":"Outlier",
                        "ln_sigma":0.0
                     },
                     {
                        "name":"sa(1.0)",
                        "value":5.1111,
                        "units":"%g",
                        "flag":"Outlier",
                        "ln_sigma":0.0
                     },
                     {
                        "name":"sa(0.3)",
                        "value":2.3935,
                        "units":"%g",
                        "flag":"0",
                        "ln_sigma":0.0
                     }
                  ]
               }
            ],
            "station_type":"seismic",
            "nresp":"null",
            "predictions":[
               {
                  "name":"pgv",
                  "value":0.4462,
                  "value_rock":0.4251,
                  "value_soil":0.9947,
                  "units":"cm/s",
                  "ln_tau":0.3678,
                  "ln_phi":0.7792,
                  "ln_sigma":0.8617,
                  "ln_sigma_rock":0.866,
                  "ln_sigma_soil":0.8647,
                  "ln_bias":0.0877,
                  "ln_bias_sigma":0.3508
               },
               {
                  "name":"sa(1.0)",
                  "value":0.4389,
                  "value_rock":0.4161,
                  "value_soil":1.0195,
                  "units":"%g",
                  "ln_tau":0.3714,
                  "ln_phi":0.6314,
                  "ln_sigma":0.7325,
                  "ln_sigma_rock":0.7366,
                  "ln_sigma_soil":0.7356,
                  "ln_bias":0.1214,
                  "ln_bias_sigma":0.356
               },
               {
                  "name":"sa(0.3)",
                  "value":0.6638,
                  "value_rock":0.6372,
                  "value_soil":1.2472,
                  "units":"%g",
                  "ln_tau":0.3412,
                  "ln_phi":0.6334,
                  "ln_sigma":0.7195,
                  "ln_sigma_rock":0.7246,
                  "ln_sigma_soil":0.7244,
                  "ln_bias":0.0443,
                  "ln_bias_sigma":0.328
               },
               {
                  "name":"sa(3.0)",
                  "value":0.2653,
                  "value_rock":0.2533,
                  "value_soil":0.5569,
                  "units":"%g",
                  "ln_tau":0.3458,
                  "ln_phi":0.6264,
                  "ln_sigma":0.7156,
                  "ln_sigma_rock":0.7265,
                  "ln_sigma_soil":0.7264,
                  "ln_bias":0.0444,
                  "ln_bias_sigma":0.338
               },
               {
                  "name":"pga",
                  "value":0.3792,
                  "value_rock":0.3698,
                  "value_soil":0.51,
                  "units":"%g",
                  "ln_tau":0.391,
                  "ln_phi":0.5741,
                  "ln_sigma":0.6946,
                  "ln_sigma_rock":0.6962,
                  "ln_sigma_soil":0.6963,
                  "ln_bias":0.1214,
                  "ln_bias_sigma":0.3636
               },
               {
                  "name":"mmi",
                  "value":3.04,
                  "value_rock":3.023,
                  "value_soil":3.2394,
                  "units":"intensity",
                  "tau":0.2632,
                  "phi":0.7648,
                  "sigma":0.8088,
                  "sigma_rock":0.8095,
                  "sigma_soil":0.8095,
                  "bias":-0.1009,
                  "bias_sigma":0.2515
               }
            ],
            "mmi_from_pgm":[
               {
                  "name":"pgv",
                  "value":5.26,
                  "sigma":0.63,
                  "flag":"Outlier"
               },
               {
                  "name":"sa(1.0)",
                  "value":4.07,
                  "sigma":0.75,
                  "flag":"Outlier"
               },
               {
                  "name":"sa(0.3)",
                  "value":4.01,
                  "sigma":0.82,
                  "flag":"0"
               },
               {
                  "name":"sa(3.0)",
                  "value":5.34,
                  "sigma":0.89,
                  "flag":"Outlier"
               },
               {
                  "name":"pga",
                  "value":4.21,
                  "sigma":0.66,
                  "flag":"0"
               }
            ],
            "distance_stddev":0.0,
            "distances":{
               "repi":674.809,
               "rhypo":676.472,
               "rjb":573.51,
               "rjb_var":0.0,
               "rrup":572.951,
               "rrup_var":0.0,
               "rx":-25.099,
               "ry0":574.054,
               "rvolc":0.0
            }
         },
         "geometry":{
            "type":"Point",
            "coordinates":[
               -98.63,
               19.07
            ]
         }
      },
      {
         "type":"Feature",
         "id":"unknown.TEJU",
         "properties":{
            "code":"TEJU",
            "name":"TEJU",
            "instrumentType":"UNK",
            "source":"unknown",
            "network":"unknown",
            "commType":"UNK",
            "location":"",
            "intensity":3.7,
            "intensity_flag":"",
            "intensity_stddev":0.63,
            "pga":0.5973,
            "pgv":1.69,
            "distance":692.208,
            "elev":null,
            "vs30":760.0,
            "channels":[
               {
                  "name":"UNK",
                  "amplitudes":[
                     {
                        "name":"sa(3.0)",
                        "value":0.5719,
                        "units":"%g",
                        "flag":"0",
                        "ln_sigma":0.0
                     },
                     {
                        "name":"pga",
                        "value":0.5973,
                        "units":"%g",
                        "flag":"0",
                        "ln_sigma":0.0
                     },
                     {
                        "name":"pgv",
