{
   "type":"FeatureCollection",
   "features":[
      {
         "type":"Feature",
         "id":"C1.BO01",
         "properties":{
            "code":"BO01",
            "name":"Tunca",
            "instrumentType":"UNK",
            "source":"C1",
            "network":"C1",
            "commType":"UNK",
            "location":"",
            "intensity":5.9,
            "intensity_flag":"",
            "intensity_stddev":0.63,
            "pga":7.7251,
            "pgv":11.8938,
            "distance":220.686,
            "elev":null,
            "vs30":584.56,
            "channels":[
               {
                  "name":"HNE",
                  "amplitudes":[
                     {
                        "name":"pgv",
                        "value":11.8938,
                        "units":"cm/s",
                        "flag":"0",
                        "ln_sigma":0.0
                     },
                     {
                        "name":"sa(1.0)",
                        "value":10.8188,
                        "units":"%g",
                        "flag":"0",
                        "ln_sigma":0.0
                     },
                     {
                        "name":"sa(3.0)",
                        "value":7.0596,
                        "units":"%g",
                        "flag":"0",
                        "ln_sigma":0.0
                     },
                     {
                        "name":"sa(0.3)",
                        "value":22.7218,
                        "units":"%g",
                        "flag":"0",
                        "ln_sigma":0.0
                     },
                     {
                        "name":"pga",
                        "value":7.7251,
                        "units":"%g",
                        "flag":"0",
                        "ln_sigma":0.0
                     }
                  ]
               },
               {
                  "name":"HNZ",
                  "amplitudes":[
                     {
                        "name":"pgv",
                        "value":1.4747,
                        "units":"cm/s",
                        "flag":"0",
                        "ln_sigma":0.0
                     },
                     {
                        "name":"sa(1.0)",
                        "value":1.7576,
                        "units":"%g",
                        "flag":"0",
                        "ln_sigma":0.0
                     },
                     {
                        "name":"sa(3.0)",
                        "value":0.7667,
                        "units":"%g",
                        "flag":"0",
                        "ln_sigma":0.0
                     },
                     {
                        "name":"sa(0.3)",
                        "value":3.0497,
                        "units":"%g",
                        "flag":"0",
                        "ln_sigma":0.0
                     },
                     {
                        "name":"pga",
                        "value":1.4566,
                        "units":"%g",
                        "flag":"0",
                        "ln_sigma":0.0
                     }
                  ]
               },
               {
                  "name":"HNN",
                  "amplitudes":[
                     {
                        "name":"pgv",
                        "value":1.3573,
                        "units":"cm/s",
                        "flag":"0",
                        "ln_sigma":0.0
                     },
                     {
                        "name":"sa(1.0)",
                        "value":2.0726,
                        "units":"%g",
                        "flag":"0",
                        "ln_sigma":0.0
                     },
                     {
                        "name":"sa(3.0)",
                        "value":0.9761,
                        "units":"%g",
                        "flag":"0",
                        "ln_sigma":0.0
                     },
                     {
                        "name":"sa(0.3)",
                        "value":4.3584,
                        "units":"%g",
                        "flag":"0",
                        "ln_sigma":0.0
                     },
                     {
                        "name":"pga",
                        "value":1.7985,
                        "units":"%g",
                        "flag":"0",
                        "ln_sigma":0.0
                     }
                  ]
               }
            ],
            "station_type":"seismic",
            "nresp":"null",
            "predictions":[
               {
                  "name":"sa(3.0)",
                  "value":1.527,
                  "value_rock":1.3705,
                  "value_soil":2.5123,
                  "units":"%g",
                  "ln_tau":0.424,
                  "ln_phi":0.6184,
                  "ln_sigma":0.7498,
                  "ln_sigma_rock":0.7689,
                  "ln_sigma_soil":0.7689,
                  "ln_bias":-0.1774,
                  "ln_bias_sigma":0.1967
               },
               {
                  "name":"pgv",
                  "value":5.3428,
                  "value_rock":4.4697,
                  "value_soil":9.6367,
                  "units":"cm/s",
                  "ln_tau":0.4384,
                  "ln_phi":0.8091,
                  "ln_sigma":0.9202,
                  "ln_sigma_rock":0.9234,
                  "ln_sigma_soil":0.9243,
                  "ln_bias":-0.0795,
                  "ln_bias_sigma":0.2254
               },
               {
                  "name":"pga",
                  "value":4.4628,
                  "value_rock":3.9048,
                  "value_soil":5.1446,
                  "units":"%g",
                  "ln_tau":0.3648,
                  "ln_phi":0.575,
                  "ln_sigma":0.681,
                  "ln_sigma_rock":0.6825,
                  "ln_sigma_soil":0.6826,
                  "ln_bias":-0.0093,
                  "ln_bias_sigma":0.1671
               },
               {
                  "name":"sa(1.0)",
                  "value":5.5068,
                  "value_rock":4.5918,
                  "value_soil":10.0677,
                  "units":"%g",
                  "ln_tau":0.4388,
                  "ln_phi":0.6463,
                  "ln_sigma":0.7812,
                  "ln_sigma_rock":0.7848,
                  "ln_sigma_soil":0.7858,
                  "ln_bias":-0.0791,
                  "ln_bias_sigma":0.197
               },
               {
                  "name":"sa(0.3)",
                  "value":11.1256,
                  "value_rock":8.587,
                  "value_soil":16.2877,
                  "units":"%g",
                  "ln_tau":0.3628,
                  "ln_phi":0.6558,
                  "ln_sigma":0.7495,
                  "ln_sigma_rock":0.7487,
                  "ln_sigma_soil":0.7486,
                  "ln_bias":-0.2767,
                  "ln_bias_sigma":0.1853
               },
               {
                  "name":"mmi",
                  "value":4.7124,
                  "value_rock":4.4977,
                  "value_soil":4.9408,
                  "units":"intensity",
                  "tau":0.5862,
                  "phi":1.1355,
                  "sigma":1.2779,
                  "sigma_rock":1.28,
                  "sigma_soil":1.2802,
                  "bias":-0.1607,
                  "bias_sigma":0.3028
               }
            ],
            "mmi_from_pgm":[
               {
                  "name":"sa(3.0)",
                  "value":6.57,
                  "sigma":0.89,
                  "flag":"0"
               },
               {
                  "name":"pgv",
                  "value":5.87,
                  "sigma":0.63,
                  "flag":"0"
               },
               {
                  "name":"pga",
                  "value":5.59,
                  "sigma":0.66,
                  "flag":"0"
               },
               {
                  "name":"sa(1.0)",
                  "value":5.08,
                  "sigma":0.75,
                  "flag":"0"
               },
               {
                  "name":"sa(0.3)",
                  "value":5.93,
                  "sigma":0.82,
                  "flag":"0"
               }
            ],
            "distance_stddev":0.0,
            "distances":{
               "repi":318.222,
               "rhypo":319.01,
               "rjb":220.295,
               "rjb_var":0.0,
               "rrup":220.686,
               "rrup_var":0.0,
               "rx":141.106,
               "ry0":200.727,
               "rvolc":0.0
            }
         },
         "geometry":{
            "type":"Point",
            "coordinates":[
               -71.0848,
               -34.3917
            ]
         }
      },
      {
         "type":"Feature",
         "id":"C1.V02A Componente",
         "properties":{
            "code":"V02A Componente",
            "name":"V02A Componente",
            "instrumentType":"UNK",
            "source":"C1",
            "network":"C1",
            "commType":"UNK",
            "location":"",
            "intensity":4.5,
            "intensity_flag":"",
            "intensity_stddev":0.63,
            "pga":13.9535,
            "pgv":4.3817,
            "distance":69.471,
            "elev":null,
            "vs30":698.13,
            "channels":[
               {
                  "name":"HNE",
                  "amplitudes":[
                     {
                        "name":"pgv",
                        "value":4.3817,
                        "units":"cm/s",
                        "flag":"0",
                        "ln_sigma":0.0
                     },
                     {
                        "name":"sa(1.0)",
                        "value":2.1976,
                        "units":"%g",
                        "flag":"0",
                        "ln_sigma":0.0
                     },
                     {
                        "name":"sa(3.0)",
                        "value":0.6813,
                        "units":"%g",
                        "flag":"0",
                        "ln_sigma":0.0
                     },
                     {
                        "name":"sa(0.3)",
                        "value":8.7025,
                        "units":"%g",
                        "flag":"0",
                        "ln_sigma":0.0
                     },
                     {
                        "name":"pga",
                        "value":8.8684,
                        "units":"%g",
                        "flag":"0",
                        "ln_sigma":0.0
                     }
                  ]
               },
               {
                  "name":"HNZ",
                  "amplitudes":[
                     {
                        "name":"pgv",
                        "value":2.2194,
                        "units":"cm/s",
                        "flag":"0",
                        "ln_sigma":0.0
                     },
                     {
                        "name":"sa(1.0)",
                        "value":1.9723,
                        "units":"%g",
                        "flag":"0",
                        "ln_sigma":0.0
                     },
                     {
                        "name":"sa(3.0)",
                        "value":0.6495,
                        "units":"%g",
                        "flag":"0",
                        "ln_sigma":0.0
                     },
                     {
                        "name":"sa(0.3)",
                        "value":4.323,
                        "units":"%g",
                        "flag":"0",
                        "ln_sigma":0.0
                     },
                     {
                        "name":"pga",
                        "value":5.1505,
                        "units":"%g",
                        "flag":"0",
                        "ln_sigma":0.0
                     }
                  ]
               },
               {
                  "name":"HNN",
                  "amplitudes":[
                     {
                        "name":"pgv",
                        "value":3.6553,
                        "units":"cm/s",
                        "flag":"0",
                        "ln_sigma":0.0
                     },
                     {
                        "name":"sa(1.0)",
                        "value":2.0845,
                        "units":"%g",
                        "flag":"0",
                        "ln_sigma":0.0
                     },
                     {
                        "name":"sa(3.0)",
                        "value":0.6637,
                        "units":"%g",
                        "flag":"0",
                        "ln_sigma":0.0
                     },
                     {
                        "name":"sa(0.3)",
                        "value":8.9191,
                        "units":"%g",
                        "flag":"0",
                        "ln_sigma":0.0
                     },
                     {
                        "name":"pga",
                        "value":13.9535,
                        "units":"%g",
                        "flag":"0",
                        "ln_sigma":0.0
                     }
                  ]
               }
            ],
            "station_type":"seismic",
            "nresp":"null",
            "predictions":[
               {
                  "name":"sa(3.0)",
                  "value":3.4778,
                  "value_rock":3.4333,
                  "value_soil":6.2932,
                  "units":"%g",
                  "ln_tau":0.424,
                  "ln_phi":0.6176,
                  "ln_sigma":0.7492,
                  "ln_sigma_rock":0.7681,
                  "ln_sigma_soil":0.7681,
                  "ln_bias":-0.1774,
                  "ln_bias_sigma":0.1967
               },
               {
                  "name":"pgv",
                  "value":15.0336,
                  "value_rock":14.7185,
                  "value_soil":29.485,
                  "units":"cm/s",
                  "ln_tau":0.4384,
                  "ln_phi":0.8085,
                  "ln_sigma":0.9197,
                  "ln_sigma_rock":0.9228,
                  "ln_sigma_soil":0.9232,
                  "ln_bias":-0.0795,
                  "ln_bias_sigma":0.2254
               },
               {
                  "name":"pga",
                  "value":19.662,
                  "value_rock":19.5073,
                  "value_soil":22.6308,
                  "units":"%g",
                  "ln_tau":0.3647,
                  "ln_phi":0.5742,
                  "ln_sigma":0.6803,
                  "ln_sigma_rock":0.6818,
                  "ln_sigma_soil":0.6799,
                  "ln_bias":-0.0093,
                  "ln_bias_sigma":0.1671
               },
               {
                  "name":"sa(1.0)",
                  "value":15.4612,
                  "value_rock":15.1215,
                  "value_soil":30.7723,
                  "units":"%g",
                  "ln_tau":0.4388,
                  "ln_phi":0.6455,
                  "ln_sigma":0.7805,
                  "ln_sigma_rock":0.7841,
                  "ln_sigma_soil":0.7841,
                  "ln_bias":-0.0791,
                  "ln_bias_sigma":0.197
               },
               {
                  "name":"sa(0.3)",
                  "value":45.3718,
                  "value_rock":44.3895,
                  "value_soil":68.9863,
                  "units":"%g",
                  "ln_tau":0.3628,
                  "ln_phi":0.6547,
                  "ln_sigma":0.7485,
                  "ln_sigma_rock":0.7476,
                  "ln_sigma_soil":0.7445,
                  "ln_bias":-0.2767,
                  "ln_bias_sigma":0.1853
               },
               {
                  "name":"mmi",
                  "value":6.5832,
                  "value_rock":6.5705,
                  "value_soil":6.8092,
                  "units":"intensity",
                  "tau":0.5861,
                  "phi":1.1344,
                  "sigma":1.2769,
                  "sigma_rock":1.279,
                  "sigma_soil":1.2764,
                  "bias":-0.1607,
                  "bias_sigma":0.3028
               }
            ],
            "mmi_from_pgm":[
               {
                  "name":"sa(3.0)",
                  "value":4.1,
                  "sigma":0.89,
                  "flag":"0"
               },
               {
                  "name":"pgv",
                  "value":4.5,
                  "sigma":0.63,
                  "flag":"0"
               },
               {
                  "name":"pga",
                  "value":6.03,
                  "sigma":0.66,
                  "flag":"0"
               },
               {
                  "name":"sa(1.0)",
                  "value":3.76,
                  "sigma":0.75,
                  "flag":"0"
               },
               {
                  "name":"sa(0.3)",
                  "value":4.6,
                  "sigma":0.82,
                  "flag":"0"
               }
            ],
            "distance_stddev":0.0,
            "distances":{
               "repi":161.928,
               "rhypo":163.47,
               "rjb":67.323,
               "rjb_var":0.0,
               "rrup":69.471,
               "rrup_var":0.0,
               "rx":93.408,
               "ry0":50.592,
               "rvolc":0.0
            }
         },
         "geometry":{
            "type":"Point",
            "coordinates":[
               -71.517829895,
               -33.0231246948
            ]
         }
      },
      {
         "type":"Feature",
         "id":"C1.MT09 Componente",
         "properties":{
            "code":"MT09 Componente",
            "name":"MT09 Componente",
            "instrumentType":"UNK",
            "source":"C1",
            "network":"C1",
            "commType":"UNK",
            "location":"",
            "intensity":4.1,
            "intensity_flag":"",
            "intensity_stddev":0.63,
            "pga":3.4021,
            "pgv":3.1067,
            "distance":164.584,
            "elev":null,
            "vs30":900.0,
            "channels":[
               {
                  "name":"HNE",
                  "amplitudes":[
                     {
                        "name":"pgv",
                        "value":3.1067,
                        "units":"cm/s",
                        "flag":"0",
                        "ln_sigma":0.0
                     },
                     {
                        "name":"sa(1.0)",
                        "value":3.6521,
                        "units":"%g",
                        "flag":"0",
                        "ln_sigma":0.0
                     },
                     {
                        "name":"sa(3.0)",
                        "value":0.8893,
                        "units":"%g",
                        "flag":"0",
                        "ln_sigma":0.0
                     },
                     {
                        "name":"sa(0.3)",
                        "value":9.3485,
                        "units":"%g",
                        "flag":"0",
                        "ln_sigma":0.0
                     },
                     {
                        "name":"pga",
                        "value":3.1177,
                        "units":"%g",
                        "flag":"0",
                        "ln_sigma":0.0
                     }
                  ]
               },
               {
                  "name":"HNZ",
                  "amplitudes":[
                     {
                        "name":"pgv",
                        "value":2.0312,
                        "units":"cm/s",
