{"type": "FeatureCollection", "features": [{"type": "Feature", "id": "G.HIST_1", "properties": {"code": "HIST_1", "name": "Puriscal, Costa Rica", "instrumentType": "UNK", "source": "G", "network": "G", "commType": "UNK", "location": "", "intensity": 5.3, "intensity_flag": "", "intensity_stddev": 0.63, "pga": "null", "pgv": 7.7, "distance": 8.952, "elev": null, "vs30": 900.0, "channels": [{"name": "E", "amplitudes": [{"name": "sa(3.0)", "value": 2.2041, "units": "%g", "flag": "0", "ln_sigma": 0.0}, {"name": "pgv", "value": 7.7, "units": "cm/s", "flag": "0", "ln_sigma": 0.0}, {"name": "sa(1.0)", "value": 7.6122, "units": "%g", "flag": "0", "ln_sigma": 0.0}, {"name": "pga", "value": 6.602, "units": "%g", "flag": "Outlier", "ln_sigma": 0.0}, {"name": "sa(0.3)", "value": 14.0816, "units": "%g", "flag": "Outlier", "ln_sigma": 0.0}]}, {"name": "Z", "amplitudes": [{"name": "sa(3.0)", "value": 2.2041, "units": "%g", "flag": "0", "ln_sigma": 0.0}, {"name": "pgv", "value": 3.9, "units": "cm/s", "flag": "0", "ln_sigma": 0.0}, {"name": "sa(1.0)", "value": 7.6122, "units": "%g", "flag": "0", "ln_sigma": 0.0}, {"name": "pga", "value": 6.1429, "units": "%g", "flag": "Outlier", "ln_sigma": 0.0}, {"name": "sa(0.3)", "value": 14.0816, "units": "%g", "flag": "Outlier", "ln_sigma": 0.0}]}, {"name": "N", "amplitudes": [{"name": "sa(3.0)", "value": 2.2041, "units": "%g", "flag": "0", "ln_sigma": 0.0}, {"name": "pgv", "value": 7.6, "units": "cm/s", "flag": "0", "ln_sigma": 0.0}, {"name": "sa(1.0)", "value": 7.6122, "units": "%g", "flag": "0", "ln_sigma": 0.0}, {"name": "pga", "value": 9.0102, "units": "%g", "flag": "Outlier", "ln_sigma": 0.0}, {"name": "sa(0.3)", "value": 14.0816, "units": "%g", "flag": "Outlier", "ln_sigma": 0.0}]}], "station_type": "seismic", "nresp": "null", "predictions": [{"name": "pga", "value": 69.1899, "value_rock": 73.9628, "value_soil": 54.2827, "units": "%g", "ln_tau": 0.3218, "ln_phi": 0.5084, "ln_sigma": 0.6017, "ln_sigma_rock": 0.6034, "ln_sigma_soil": 0.4755, "ln_bias": -0.0878, "ln_bias_sigma": 0.1639}, {"name": "sa(1.0)", "value": 43.0378, "value_rock": 50.8729, "value_soil": 111.4912, "units": "%g", "ln_tau": 0.3357, "ln_phi": 0.6198, "ln_sigma": 0.7049, "ln_sigma_rock": 0.7124, "ln_sigma_soil": 0.6256, "ln_bias": -0.2185, "ln_bias_sigma": 0.1888}, {"name": "pgv", "value": 49.2783, "value_rock": 55.7063, "value_soil": 94.2062, "units": "cm/s", "ln_tau": 0.3236, "ln_phi": 0.5342, "ln_sigma": 0.6246, "ln_sigma_rock": 0.633, "ln_sigma_soil": 0.5726, "ln_bias": -0.3715, "ln_bias_sigma": 0.1681}, {"name": "sa(0.3)", "value": 126.8083, "value_rock": 144.9803, "value_soil": 112.8855, "units": "%g", "ln_tau": 0.3013, "ln_phi": 0.5752, "ln_sigma": 0.6493, "ln_sigma_rock": 0.6552, "ln_sigma_soil": 0.4888, "ln_bias": -0.0716, "ln_bias_sigma": 0.1744}, {"name": "sa(3.0)", "value": 9.6673, "value_rock": 11.1374, "value_soil": 44.5576, "units": "%g", "ln_tau": 0.3624, "ln_phi": 0.6083, "ln_sigma": 0.7081, "ln_sigma_rock": 0.7187, "ln_sigma_soil": 0.7177, "ln_bias": -0.6345, "ln_bias_sigma": 0.1939}, {"name": "mmi", "value": 7.7463, "value_rock": 7.8535, "value_soil": 7.3564, "units": "intensity", "tau": 0.5172, "phi": 1.0502, "sigma": 1.1706, "sigma_rock": 1.1729, "sigma_soil": 1.0096, "bias": -0.2304, "bias_sigma": 0.331}], "mmi_from_pgm": [{"name": "pga", "value": 4.47, "sigma": 0.66, "flag": "Outlier"}, {"name": "sa(1.0)", "value": 5.3, "sigma": 0.75, "flag": "0"}, {"name": "pgv", "value": 5.28, "sigma": 0.63, "flag": "0"}, {"name": "sa(0.3)", "value": 4.43, "sigma": 0.82, "flag": "Outlier"}, {"name": "sa(3.0)", "value": 5.82, "sigma": 0.89, "flag": "0"}], "distance_stddev": 0.0, "distances": {"repi": 32.031, "rhypo": 33.556, "rjb": 0.0, "rjb_var": 0.0, "rrup": 8.952, "rrup_var": 0.0, "rx": 21.346, "ry0": 0.0, "rvolc": 0.0}}, "geometry": {"type": "Point", "coordinates": [-83.314, 9.848]}}, {"type": "Feature", "id": "G.HIST_7", "properties": {"code": "HIST_7", "name": "Golfito, Costa Rica", "instrumentType": "UNK", "source": "G", "network": "G", "commType": "UNK", "location": "", "intensity": 4.4, "intensity_flag": "", "intensity_stddev": 0.63, "pga": 5.8571, "pgv": 4.2, "distance": 92.208, "elev": null, "vs30": 900.0, "channels": [{"name": "E", "amplitudes": [{"name": "sa(3.0)", "value": 1.3061, "units": "%g", "flag": "0", "ln_sigma": 0.0}, {"name": "pgv", "value": 3.3, "units": "cm/s", "flag": "0", "ln_sigma": 0.0}, {"name": "sa(1.0)", "value": 3.949, "units": "%g", "flag": "0", "ln_sigma": 0.0}, {"name": "pga", "value": 4.2755, "units": "%g", "flag": "0", "ln_sigma": 0.0}, {"name": "sa(0.3)", "value": 14.1837, "units": "%g", "flag": "0", "ln_sigma": 0.0}]}, {"name": "Z", "amplitudes": [{"name": "sa(3.0)", "value": 1.3061, "units": "%g", "flag": "0", "ln_sigma": 0.0}, {"name": "pgv", "value": 2.2, "units": "cm/s", "flag": "0", "ln_sigma": 0.0}, {"name": "sa(1.0)", "value": 3.949, "units": "%g", "flag": "0", "ln_sigma": 0.0}, {"name": "pga", "value": 2.4286, "units": "%g", "flag": "0", "ln_sigma": 0.0}, {"name": "sa(0.3)", "value": 14.1837, "units": "%g", "flag": "0", "ln_sigma": 0.0}]}, {"name": "N", "amplitudes": [{"name": "sa(3.0)", "value": 1.3061, "units": "%g", "flag": "0", "ln_sigma": 0.0}, {"name": "pgv", "value": 4.2, "units": "cm/s", "flag": "0", "ln_sigma": 0.0}, {"name": "sa(1.0)", "value": 3.949, "units": "%g", "flag": "0", "ln_sigma": 0.0}, {"name": "pga", "value": 5.8571, "units": "%g", "flag": "0", "ln_sigma": 0.0}, {"name": "sa(0.3)", "value": 14.1837, "units": "%g", "flag": "0", "ln_sigma": 0.0}]}], "station_type": "seismic", "nresp": "null", "predictions": [{"name": "pga", "value": 6.1281, "value_rock": 6.6471, "value_soil": 10.7288, "units": "%g", "ln_tau": 0.3219, "ln_phi": 0.5084, "ln_sigma": 0.6018, "ln_sigma_rock": 0.607, "ln_sigma_soil": 0.5535, "ln_bias": -0.0878, "ln_bias_sigma": 0.1639}, {"name": "sa(1.0)", "value": 4.3644, "value_rock": 5.1618, "value_soil": 18.8582, "units": "%g", "ln_tau": 0.3357, "ln_phi": 0.6198, "ln_sigma": 0.7049, "ln_sigma_rock": 0.7126, "ln_sigma_soil": 0.6837, "ln_bias": -0.2185, "ln_bias_sigma": 0.1888}, {"name": "pgv", "value": 5.8052, "value_rock": 6.5658, "value_soil": 16.7914, "units": "cm/s", "ln_tau": 0.3236, "ln_phi": 0.5342, "ln_sigma": 0.6246, "ln_sigma_rock": 0.6331, "ln_sigma_soil": 0.6008, "ln_bias": -0.3715, "ln_bias_sigma": 0.1681}, {"name": "sa(0.3)", "value": 10.7081, "value_rock": 12.2887, "value_soil": 30.3805, "units": "%g", "ln_tau": 0.3015, "ln_phi": 0.5754, "ln_sigma": 0.6496, "ln_sigma_rock": 0.656, "ln_sigma_soil": 0.5869, "ln_bias": -0.0716, "ln_bias_sigma": 0.1744}, {"name": "sa(3.0)", "value": 1.3755, "value_rock": 1.5854, "value_soil": 6.3886, "units": "%g", "ln_tau": 0.3624, "ln_phi": 0.6084, "ln_sigma": 0.7081, "ln_sigma_rock": 0.7189, "ln_sigma_soil": 0.7183, "ln_bias": -0.6345, "ln_bias_sigma": 0.1939}, {"name": "mmi", "value": 4.8353, "value_rock": 4.966, "value_soil": 5.7353, "units": "intensity", "tau": 0.5173, "phi": 1.0503, "sigma": 1.1708, "sigma_rock": 1.1777, "sigma_soil": 1.1075, "bias": -0.2304, "bias_sigma": 0.331}], "mmi_from_pgm": [{"name": "pga", "value": 4.76, "sigma": 0.66, "flag": "0"}, {"name": "sa(1.0)", "value": 4.09, "sigma": 0.75, "flag": "0"}, {"name": "pgv", "value": 4.45, "sigma": 0.63, "flag": "0"}, {"name": "sa(0.3)", "value": 5.01, "sigma": 0.82, "flag": "0"}, {"name": "sa(3.0)", "value": 4.58, "sigma": 0.89, "flag": "0"}], "distance_stddev": 0.0, "distances": {"repi": 116.152, "rhypo": 116.582, "rjb": 90.133, "rjb_var": 0.0, "rrup": 92.208, "rrup_var": 0.0, "rx": 149.325, "ry0": 0.0, "rvolc": 0.0}}, "geometry": {"type": "Point", "coordinates": [-83.172, 8.645]}}, {"type": "Feature", "id": "G.HIST_9", "properties": {"code": "HIST_9", "name": "Alajuela, Costa Rica", "instrumentType": "UNK", "source": "G", "network": "G", "commType": "UNK", "location": "", "intensity": 5.7, "intensity_flag": "", "intensity_stddev": 0.63, "pga": 11.4592, "pgv": 10.6, "distance": 86.497, "elev": null, "vs30": 426.74, "channels": [{"name": "E", "amplitudes": [{"name": "sa(3.0)", "value": 1.6939, "units": "%g", "flag": "0", "ln_sigma": 0.0}, {"name": "pgv", "value": 10.6, "units": "cm/s", "flag": "0", "ln_sigma": 0.0}, {"name": "sa(1.0)", "value": 15.2041, "units": "%g", "flag": "0", "ln_sigma": 0.0}, {"name": "pga", "value": 11.4592, "units": "%g", "flag": "0", "ln_sigma": 0.0}, {"name": "sa(0.3)", "value": 25.7143, "units": "%g", "flag": "0", "ln_sigma": 0.0}]}, {"name": "Z", "amplitudes": [{"name": "sa(3.0)", "value": 1.6939, "units": "%g", "flag": "0", "ln_sigma": 0.0}, {"name": "pgv", "value": 3.7, "units": "cm/s", "flag": "0", "ln_sigma": 0.0}, {"name": "sa(1.0)", "value": 15.2041, "units": "%g", "flag": "0", "ln_sigma": 0.0}, {"name": "pga", "value": 4.3571, "units": "%g", "flag": "0", "ln_sigma": 0.0}, {"name": "sa(0.3)", "value": 25.7143, "units": "%g", "flag": "0", "ln_sigma": 0.0}]}, {"name": "N", "amplitudes": [{"name": "sa(3.0)", "value": 1.6939, "units": "%g", "flag": "0", "ln_sigma": 0.0}, {"name": "pgv", "value": 10.2, "units": "cm/s", "flag": "0", "ln_sigma": 0.0}, {"name": "sa(1.0)", "value": 15.2041, "units": "%g", "flag": "0", "ln_sigma": 0.0}, {"name": "pga", "value": 11.0714, "units": "%g", "flag": "0", "ln_sigma": 0.0}, {"name": "sa(0.3)", "value": 25.7143, "units": "%g", "flag": "0", "ln_sigma": 0.0}]}], "station_type": "seismic", "nresp": "null", "predictions": [{"name": "pga", "value": 8.6525, "value_rock": 6.8308, "value_soil": 10.9889, "units": "%g", "ln_tau": 0.315, "ln_phi": 0.5025, "ln_sigma": 0.593, "ln_sigma_rock": 0.6069, "ln_sigma_soil": 0.5533, "ln_bias": -0.0868, "ln_bias_sigma": 0.163}, {"name": "sa(1.0)", "value": 9.2313, "value_rock": 5.2479, "value_soil": 19.1172, "units": "%g", "ln_tau": 0.3347, "ln_phi": 0.6187, "ln_sigma": 0.7034, "ln_sigma_rock": 0.7126, "ln_sigma_soil": 0.6841, "ln_bias": -0.218, "ln_bias_sigma": 0.1887}, {"name": "pgv", "value": 10.2529, "value_rock": 6.8046, "value_soil": 17.3128, "units": "cm/s", "ln_tau": 0.3225, "ln_phi": 0.533, "ln_sigma": 0.623, "ln_sigma_rock": 0.6331, "ln_sigma_soil": 0.6002, "ln_bias": -0.3708, "ln_bias_sigma": 0.168}, {"name": "sa(0.3)", "value": 19.6566, "value_rock": 12.6143, "value_soil": 31.0528, "units": "%g", "ln_tau": 0.2964, "ln_phi": 0.5703, "ln_sigma": 0.6427, "ln_sigma_rock": 0.656, "ln_sigma_soil": 0.5872, "ln_bias": -0.0708, "ln_bias_sigma": 0.1734}, {"name": "sa(3.0)", "value": 2.8909, "value_rock": 1.6389, "value_soil": 6.6036, "units": "%g", "ln_tau": 0.3622, "ln_phi": 0.6081, "ln_sigma": 0.7078, "ln_sigma_rock": 0.7189, "ln_sigma_soil": 0.7183, "ln_bias": -0.6343, "ln_bias_sigma": 0.1939}, {"name": "mmi", "value": 5.3614, "value_rock": 4.9815, "value_soil": 5.7454, "units": "intensity", "tau": 0.5061, "phi": 1.0429, "sigma": 1.1592, "sigma_rock": 1.1776, "sigma_soil": 1.1073, "bias": -0.2263, "bias_sigma": 0.3281}], "mmi_from_pgm": [{"name": "pga", "value": 5.81, "sigma": 0.66, "flag": "0"}, {"name": "sa(1.0)", "value": 5.71, "sigma": 0.75, "flag": "0"}, {"name": "pgv", "value": 5.72, "sigma": 0.63, "flag": "0"}, {"name": "sa(0.3)", "value": 5.91, "sigma": 0.82, "flag": "0"}, {"name": "sa(3.0)", "value": 4.94, "sigma": 0.89, "flag": "0"}], "distance_stddev": 0.0, "distances": {"repi": 131.033, "rhypo": 131.414, "rjb": 86.055, "rjb_var": 0.0, "rrup": 86.497, "rrup_var": 0.0, "rx": 22.332, "ry0": 86.062, "rvolc": 0.0}}, "geometry": {"type": "Point", "coordinates": [-84.22, 10.019]}}, {"type": "Feature", "id": "G.HIST_11", "properties": {"code": "HIST_11", "name": "San Jose, Costa Rica", "instrumentType": "UNK", "source": "G", "network": "G", "commType": "UNK", "location": "", "intensity": 5.3, "intensity_flag": "", "intensity_stddev": 0.63, "pga": 11.9082, "pgv": 7.8, "distance": 71.659, "elev": null, "vs30": 340.0, "channels": [{"name": "E", "amplitudes": [{"name": "sa(3.0)", "value": 1.7041, "units": "%g", "flag": "0", "ln_sigma": 0.0}, {"name": "pgv", "value": 6.6, "units": "cm/s", "flag": "0", "ln_sigma": 0.0}, {"name": "sa(1.0)", "value": 8.7857, "units": "%g", "flag": "0", "ln_sigma": 0.0}, {"name": "pga", "value": 8.2347, "units": "%g", "flag": "0", "ln_sigma": 0.0}, {"name": "sa(0.3)", "value": 27.0408, "units": "%g", "flag": "0", "ln_sigma": 0.0}]}, {"name": "Z", "amplitudes": [{"name": "sa(3.0)", "value": 1.7041, "units": "%g", "flag": "0", "ln_sigma": 0.0}, {"name": "pgv", "value": 2.6, "units": "cm/s", "flag": "0", "ln_sigma": 0.0}, {"name": "sa(1.0)", "value": 8.7857, "units": "%g", "flag": "0", "ln_sigma": 0.0}, {"name": "pga", "value": 5.398, "units": "%g", "flag": "0", "ln_sigma": 0.0}, {"name": "sa(0.3)", "value": 27.0408, "units": "%g", "flag": "0", "ln_sigma": 0.0}]}, {"name": "N", "amplitudes": [{"name": "sa(3.0)", "value": 1.7041, "units": "%g", "flag": "0", "ln_sigma": 0.0}, {"name": "pgv", "value": 7.8, "units": "cm/s", "flag": "0", "ln_sigma": 0.0}, {"name": "sa(1.0)", "value": 8.7857, "units": "%g", "flag": "0", "ln_sigma": 0.0}, {"name": "pga", "value": 11.9082, "units": "%g", "flag": "0", "ln_sigma": 0.0}, {"name": "sa(0.3)", "value": 27.0408, "units": "%g", "flag": "0", "ln_sigma": 0.0}]}], "station_type": "seismic", "nresp": "null", "predictions": [{"name": "pga", "value": 11.4574, "value_rock": 8.4715, "value_soil": 13.1476, "units": "%g", "ln_tau": 0.3079, "ln_phi": 0.4967, "ln_sigma": 0.5843, "ln_sigma_rock": 0.6068, "ln_sigma_soil": 0.5467, "ln_bias": -0.0857, "ln_bias_sigma": 0.162}, {"name": "sa(1.0)", "value": 13.4337, "value_rock": 6.2392, "value_soil": 22.2457, "units": "%g", "ln_tau": 0.3328, "ln_phi": 0.6168, "ln_sigma": 0.7009, "ln_sigma_rock": 0.7126, "ln_sigma_soil": 0.6809, "ln_bias": -0.2173, "ln_bias_sigma": 0.1883}, {"name": "pgv", "value": 14.0709, "value_rock": 8.0744, "value_soil": 20.1631, "units": "cm/s", "ln_tau": 0.3205, "ln_phi": 0.531, "ln_sigma": 0.6202, "ln_sigma_rock": 0.6331, "ln_sigma_soil": 0.5983, "ln_bias": -0.3695, "ln_bias_sigma": 0.1677}, {"name": "sa(0.3)", "value": 27.7033, "value_rock": 15.6295, "value_soil": 36.5979, "units": "%g", "ln_tau": 0.2868, "ln_phi": 0.5613, "ln_sigma": 0.6304, "ln_sigma_rock": 0.656, "ln_sigma_soil": 0.5776, "ln_bias": -0.0692, "ln_bias_sigma": 0.1714}, {"name": "sa(3.0)", "value": 4.1768, "value_rock": 1.9119, "value_soil": 7.7006, "units": "%g", "ln_tau": 0.3621, "ln_phi": 0.608, "ln_sigma": 0.7077, "ln_sigma_rock": 0.7189, "ln_sigma_soil": 0.7182, "ln_bias": -0.6342, "ln_bias_sigma": 0.1939}, {"name": "mmi", "value": 5.7292, "value_rock": 5.244, "value_soil": 5.9503, "units": "intensity", "tau": 0.4947, "phi": 1.0356, "sigma": 1.1477, "sigma_rock": 1.1774, "sigma_soil": 1.0988, "bias": -0.2219, "bias_sigma": 0.3249}], "mmi_from_pgm": [{"name": "pga", "value": 5.79, "sigma": 0.66, "flag": "0"}, {"name": "sa(1.0)", "value": 5.06, "sigma": 0.75, "flag": "0"}, {"name": "pgv", "value": 5.3, "sigma": 0.63, "flag": "0"}, {"name": "sa(0.3)", "value": 5.95, "sigma": 0.82, "flag": "0"}, {"name": "sa(3.0)", "value": 4.99, "sigma": 0.89, "flag": "0"}], "distance_stddev": 0.0, "distances": {"repi": 115.318, "rhypo": 115.751, "rjb": 70.762, "rjb_var": 0.0, "rrup": 71.659, "rrup_var": 0.0, "rx": 30.955, "ry0": 70.819, "rvolc": 0.0}}, "geometry": {"type": "Point", "coordinates": [-84.099, 9.916]}}, {"type": "Feature", "id": "G.HIST_8", "properties": {"code": "HIST_8", "name": "San Jose, Costa Rica", "instrumentType": "UNK", "source": "G", "network": "G", "commType": "UNK", "location": "", "intensity": 6.4, "intensity_flag": "", "intensity_stddev": 0.63, "pga": 10.2347, "pgv": 18.0, "distance": 69.796, "elev": null, "vs30": 285.48, "channels": [{"name": "E", "amplitudes": [{"name": "sa(3.0)", "value": 5.2347, "units": "%g", "flag": "0", "ln_sigma": 0.0}, {"name": "pgv", "value": 14.8, "units": "cm/s", "flag": "0", "ln_sigma": 0.0}, {"name": "sa(1.0)", "value": 11.3265, "units": "%g", "flag": "0", "ln_sigma": 0.0}, {"name": "pga", "value": 7.2245, "units": "%g", "flag": "0", "ln_sigma": 0.0}, {"name": "sa(0.3)", "value": 14.898, "units": "%g", "flag": "0", "ln_sigma": 0.0}]}, {"name": "Z", "amplitudes": [{"name": "sa(3.0)", "value": 1.0204, "units": "%g", "flag": "0", "ln_sigma": 0.0}, {"name": "pgv", "value": 6.1, "units": "cm/s", "flag": "0", "ln_sigma": 0.0}, {"name": "sa(1.0)", "value": 4.7347, "units": "%g", "flag": "0", "ln_sigma": 0.0}, {"name": "pga", "value": 9.7755, "units": "%g", "flag": "0", "ln_sigma": 0.0}, {"name": "sa(0.3)", "value": 27.551, "units": "%g", "flag": "0", "ln_sigma": 0.0}]}, {"name": "N", "amplitudes": [{"name": "sa(3.0)", "value": 5.2347, "units": "%g", "flag": "0", "ln_sigma": 0.0}, {"name": "pgv", "value": 18.0, "units": "cm/s", "flag": "0", "ln_sigma": 0.0}, {"name": "sa(1.0)", "value": 11.3265, "units": "%g", "flag": "0", "ln_sigma": 0.0}, {"name": "pga", "value": 10.2347, "units": "%g", "flag": "0", "ln_sigma": 0.0}, {"name": "sa(0.3)", "value": 14.898, "units": "%g", "flag": "0", "ln_sigma": 0.0}]}], "station_type": "seismic", "nresp": "null", "predictions": [{"name": "pga", "value": 12.1634, "value_rock": 8.6975, "value_soil": 13.434, "units": "%g", "ln_tau": 0.3018, "ln_phi": 0.4891, "ln_sigma": 0.5747, "ln_sigma_rock": 0.6068, "ln_sigma_soil": 0.5458, "ln_bias": -0.0848, "ln_bias_sigma": 0.1611}, {"name": "sa(1.0)", "value": 15.9584, "value_rock": 6.3804, "value_soil": 22.6842, "units": "%g", "ln_tau": 0.3295, "ln_phi": 0.6125, "ln_sigma": 0.6955, "ln_sigma_rock": 0.7126, "ln_sigma_soil": 0.6805, "ln_bias": -0.2159, "ln_bias_sigma": 0.1877}, {"name": "pgv", "value": 16.0465, "value_rock": 8.2569, "value_soil": 20.5679, "units": "cm/s", "ln_tau": 0.318, "ln_phi": 0.5255, "ln_sigma": 0.6142, "ln_sigma_rock": 0.6331, "ln_sigma_soil": 0.5981, "ln_bias": -0.3679, "ln_bias_sigma": 0.1673}, {"name": "sa(0.3)", "value": 30.8857, "value_rock": 16.0482, "value_soil": 37.3272, "units": "%g", "ln_tau": 0.2778, "ln_phi": 0.5512, "ln_sigma": 0.6173, "ln_sigma_rock": 0.656, "ln_sigma_soil": 0.5764, "ln_bias": -0.0676, "ln_bias_sigma": 0.1694}, {"name": "sa(3.0)", "value": 5.0464, "value_rock": 1.952, "value_soil": 7.8618, "units": "%g", "ln_tau": 0.362, "ln_phi": 0.608, "ln_sigma": 0.7076, "ln_sigma_rock": 0.7189, "ln_sigma_soil": 0.7182, "ln_bias": -0.6341, "ln_bias_sigma": 0.1939}, {"name": "mmi", "value": 5.8136, "value_rock": 5.2746, "value_soil": 5.9732, "units": "intensity", "tau": 0.485, "phi": 1.0263, "sigma": 1.1351, "sigma_rock": 1.1774, "sigma_soil": 1.0977, "bias": -0.2181, "bias_sigma": 0.3221}], "mmi_from_pgm": [{"name": "pga", "value": 5.54, "sigma": 0.66, "flag": "0"}, {"name": "sa(1.0)", "value": 5.38, "sigma": 0.75, "flag": "0"}, {"name": "pgv", "value": 6.44, "sigma": 0.63, "flag": "0"}, {"name": "sa(0.3)", "value": 4.97, "sigma": 0.82, "flag": "0"}, {"name": "sa(3.0)", "value": 6.46, "sigma": 0.89, "flag": "0"}], "distance_stddev": 0.0, "distances": {"repi": 113.653, "rhypo": 114.092, "rjb": 68.998, "rjb_var": 0.0, "rrup": 69.796, "rrup_var": 0.0, "rx": 28.104, "ry0": 69.045, "rvolc": 0.0}}, "geometry": {"type": "Point", "coordinates": [-84.078, 9.938]}}, {"type": "Feature", "id": "G.HIST_4", "properties": {"code": "HIST_4", "name": "Cartago, Costa Rica", "instrumentType": "UNK", "source": "G", "network": "G", "commType": "UNK", "location": "", "intensity": 6.6, "intensity_flag": "", "intensity_stddev": 0.63, "pga": 26.1735, "pgv": 20.7, "distance": 52.346, "elev": null, "vs30": 402.89, "channels": [{"name": "E", "amplitudes": [{"name": "sa(3.0)", "value": 2.9592, "units": "%g", "flag": "0", "ln_sigma": 0.0}, {"name": "pgv", "value": 17.6, "units": "cm/s", "flag": "0", "ln_sigma": 0.0}, {"name": "sa(1.0)", "value": 23.2653, "units": "%g", "flag": "0", "ln_sigma": 0.0}, {"name": "pga", "value": 22.0612, "units": "%g", "flag": "0", "ln_sigma": 0.0}, {"name": "sa(0.3)", "value": 59.4898, "units": "%g", "flag": "0", "ln_sigma": 0.0}]}, {"name": "Z", "amplitudes": [{"name": "sa(3.0)", "value": 2.9592, "units": "%g", "flag": "0", "ln_sigma": 0.0}, {"name": "pgv", "value": 9.5, "units": "cm/s", "flag": "0", "ln_sigma": 0.0}, {"name": "sa(1.0)", "value": 23.2653, "units": "%g", "flag": "0", "ln_sigma