{"type": "FeatureCollection", "features": [{"type": "Feature", "id": "DYFI.UTM:(33T 0291 4641 1000)", "properties": {"code": "UTM:(33T 0291 4641 1000)", "name": null, "instrumentType": "OBSERVED", "source": "DYFI", "network": "DYFI", "commType": "UNK", "location": "", "intensity": 2.9, "intensity_flag": "0", "intensity_stddev": 0.3, "pga": "null", "pgv": "null", "distance": 95.038, "elev": null, "vs30": 387.72, "channels": [], "nresp": -1, "station_type": "macroseismic", "predictions": [{"name": "mmi", "value": 3.3712, "value_rock": 3.0792, "value_soil": 3.7226, "units": "intensity", "tau": 0.2481, "phi": 0.737, "sigma": 0.7776, "sigma_rock": 0.7793, "sigma_soil": 0.7778, "bias": -0.108, "bias_sigma": 0.211}, {"name": "pga", "value": 1.0421, "value_rock": 0.8018, "value_soil": 1.3274, "units": "%g", "ln_tau": 0.4002, "ln_phi": 0.5916, "ln_sigma": 0.7143, "ln_sigma_rock": 0.7168, "ln_sigma_soil": 0.7128, "ln_bias": 0.0, "ln_bias_sigma": 0.4002}, {"name": "sa(0.3)", "value": 2.1793, "value_rock": 1.3045, "value_soil": 3.6062, "units": "%g", "ln_tau": 0.3858, "ln_phi": 0.661, "ln_sigma": 0.7653, "ln_sigma_rock": 0.7666, "ln_sigma_soil": 0.7627, "ln_bias": 0.0, "ln_bias_sigma": 0.3858}, {"name": "sa(1.0)", "value": 0.7722, "value_rock": 0.4093, "value_soil": 1.6267, "units": "%g", "ln_tau": 0.4285, "ln_phi": 0.6722, "ln_sigma": 0.7972, "ln_sigma_rock": 0.7991, "ln_sigma_soil": 0.7976, "ln_bias": 0.0, "ln_bias_sigma": 0.4285}, {"name": "sa(3.0)", "value": 0.1412, "value_rock": 0.0835, "value_soil": 0.2673, "units": "%g", "ln_tau": 0.4363, "ln_phi": 0.655, "ln_sigma": 0.787, "ln_sigma_rock": 0.7891, "ln_sigma_soil": 0.7891, "ln_bias": 0.0, "ln_bias_sigma": 0.4363}, {"name": "pgv", "value": 0.6421, "value_rock": 0.4064, "value_soil": 1.1135, "units": "cm/s", "ln_tau": 0.3886, "ln_phi": 0.5989, "ln_sigma": 0.7139, "ln_sigma_rock": 0.7184, "ln_sigma_soil": 0.7146, "ln_bias": 0.0, "ln_bias_sigma": 0.3886}], "pgm_from_mmi": [{"name": "sa(1.0)", "value": null, "units": "%g", "ln_sigma": null, "flag": "0"}, {"name": "sa(0.3)", "value": null, "units": "%g", "ln_sigma": null, "flag": "0"}, {"name": "sa(3.0)", "value": null, "units": "%g", "ln_sigma": null, "flag": "0"}, {"name": "pgv", "value": null, "units": "cm/s", "ln_sigma": null, "flag": "0"}, {"name": "pga", "value": null, "units": "%g", "ln_sigma": null, "flag": "0"}], "distance_stddev": 4.496, "distances": {"repi": 99.139, "rhypo": 99.385, "rjb": 94.698, "rjb_var": 15.395, "rrup": 95.038, "rrup_var": 20.212, "rx": 0.0, "ry0": 0.0, "rvolc": 0.0}}, "geometry": {"type": "Point", "coordinates": [12.4865, 41.8979]}}, {"type": "Feature", "id": "DYFI.UTM:(33T 0289 4641 1000)", "properties": {"code": "UTM:(33T 0289 4641 1000)", "name": null, "instrumentType": "OBSERVED", "source": "DYFI", "network": "DYFI", "commType": "UNK", "location": "", "intensity": 3.2, "intensity_flag": "0", "intensity_stddev": 0.3, "pga": "null", "pgv": "null", "distance": 96.3, "elev": null, "vs30": 377.95, "channels": [], "nresp": -1, "station_type": "macroseismic", "predictions": [{"name": "mmi", "value": 3.3705, "value_rock": 3.0681, "value_soil": 3.7117, "units": "intensity", "tau": 0.2481, "phi": 0.7369, "sigma": 0.7776, "sigma_rock": 0.7792, "sigma_soil": 0.7778, "bias": -0.108, "bias_sigma": 0.211}, {"name": "pga", "value": 1.0291, "value_rock": 0.7848, "value_soil": 1.2999, "units": "%g", "ln_tau": 0.4001, "ln_phi": 0.5915, "ln_sigma": 0.7142, "ln_sigma_rock": 0.7167, "ln_sigma_soil": 0.7128, "ln_bias": 0.0, "ln_bias_sigma": 0.4001}, {"name": "sa(0.3)", "value": 2.1736, "value_rock": 1.279, "value_soil": 3.538, "units": "%g", "ln_tau": 0.3857, "ln_phi": 0.6609, "ln_sigma": 0.7652, "ln_sigma_rock": 0.7666, "ln_sigma_soil": 0.7627, "ln_bias": 0.0, "ln_bias_sigma": 0.3857}, {"name": "sa(1.0)", "value": 0.7773, "value_rock": 0.4028, "value_soil": 1.6012, "units": "%g", "ln_tau": 0.4285, "ln_phi": 0.6721, "ln_sigma": 0.7971, "ln_sigma_rock": 0.799, "ln_sigma_soil": 0.7976, "ln_bias": 0.0, "ln_bias_sigma": 0.4285}, {"name": "sa(3.0)", "value": 0.1417, "value_rock": 0.0822, "value_soil": 0.2632, "units": "%g", "ln_tau": 0.4363, "ln_phi": 0.655, "ln_sigma": 0.787, "ln_sigma_rock": 0.789, "ln_sigma_soil": 0.789, "ln_bias": 0.0, "ln_bias_sigma": 0.4363}, {"name": "pgv", "value": 0.6414, "value_rock": 0.3994, "value_soil": 1.0947, "units": "cm/s", "ln_tau": 0.3886, "ln_phi": 0.5988, "ln_sigma": 0.7139, "ln_sigma_rock": 0.7183, "ln_sigma_soil": 0.7146, "ln_bias": 0.0, "ln_bias_sigma": 0.3886}], "pgm_from_mmi": [{"name": "sa(1.0)", "value": null, "units": "%g", "ln_sigma": null, "flag": "0"}, {"name": "sa(0.3)", "value": null, "units": "%g", "ln_sigma": null, "flag": "0"}, {"name": "sa(3.0)", "value": null, "units": "%g", "ln_sigma": null, "flag": "0"}, {"name": "pgv", "value": null, "units": "cm/s", "ln_sigma": null, "flag": "0"}, {"name": "pga", "value": null, "units": "%g", "ln_sigma": null, "flag": "0"}], "distance_stddev": 4.49, "distances": {"repi": 100.413, "rhypo": 100.657, "rjb": 95.971, "rjb_var": 15.4, "rrup": 96.3, "rrup_var": 20.161, "rx": 0.0, "ry0": 0.0, "rvolc": 0.0}}, "geometry": {"type": "Point", "coordinates": [12.4624, 41.8974]}}, {"type": "Feature", "id": "DYFI.UTM:(33T 0258 4701 1000)", "properties": {"code": "UTM:(33T 0258 4701 1000)", "name": null, "instrumentType": "OBSERVED", "source": "DYFI", "network": "DYFI", "commType": "UNK", "location": "", "intensity": 2.7, "intensity_flag": "0", "intensity_stddev": 0.3, "pga": "null", "pgv": "null", "distance": 93.124, "elev": null, "vs30": 339.71, "channels": [], "nresp": -1, "station_type": "macroseismic", "predictions": [{"name": "mmi", "value": 3.4416, "value_rock": 3.0963, "value_soil": 3.7394, "units": "intensity", "tau": 0.248, "phi": 0.737, "sigma": 0.7776, "sigma_rock": 0.7793, "sigma_soil": 0.7779, "bias": -0.108, "bias_sigma": 0.211}, {"name": "pga", "value": 1.1265, "value_rock": 0.8286, "value_soil": 1.3709, "units": "%g", "ln_tau": 0.4001, "ln_phi": 0.5917, "ln_sigma": 0.7143, "ln_sigma_rock": 0.7169, "ln_sigma_soil": 0.7129, "ln_bias": 0.0, "ln_bias_sigma": 0.4001}, {"name": "sa(0.3)", "value": 2.4531, "value_rock": 1.3448, "value_soil": 3.7138, "units": "%g", "ln_tau": 0.3856, "ln_phi": 0.661, "ln_sigma": 0.7652, "ln_sigma_rock": 0.7667, "ln_sigma_soil": 0.7628, "ln_bias": 0.0, "ln_bias_sigma": 0.3856}, {"name": "sa(1.0)", "value": 0.8905, "value_rock": 0.4197, "value_soil": 1.6668, "units": "%g", "ln_tau": 0.4285, "ln_phi": 0.6723, "ln_sigma": 0.7972, "ln_sigma_rock": 0.7991, "ln_sigma_soil": 0.7976, "ln_bias": 0.0, "ln_bias_sigma": 0.4285}, {"name": "sa(3.0)", "value": 0.1595, "value_rock": 0.0855, "value_soil": 0.2737, "units": "%g", "ln_tau": 0.4363, "ln_phi": 0.6551, "ln_sigma": 0.7871, "ln_sigma_rock": 0.7892, "ln_sigma_soil": 0.7891, "ln_bias": 0.0, "ln_bias_sigma": 0.4363}, {"name": "pgv", "value": 0.7169, "value_rock": 0.4174, "value_soil": 1.1431, "units": "cm/s", "ln_tau": 0.3885, "ln_phi": 0.599, "ln_sigma": 0.714, "ln_sigma_rock": 0.7185, "ln_sigma_soil": 0.7147, "ln_bias": 0.0, "ln_bias_sigma": 0.3885}], "pgm_from_mmi": [{"name": "sa(1.0)", "value": null, "units": "%g", "ln_sigma": null, "flag": "0"}, {"name": "sa(0.3)", "value": null, "units": "%g", "ln_sigma": null, "flag": "0"}, {"name": "sa(3.0)", "value": null, "units": "%g", "ln_sigma": null, "flag": "0"}, {"name": "pgv", "value": null, "units": "cm/s", "ln_sigma": null, "flag": "0"}, {"name": "pga", "value": null, "units": "%g", "ln_sigma": null, "flag": "0"}], "distance_stddev": 4.505, "distances": {"repi": 97.203, "rhypo": 97.454, "rjb": 92.766, "rjb_var": 15.388, "rrup": 93.124, "rrup_var": 20.292, "rx": 0.0, "ry0": 0.0, "rvolc": 0.0}}, "geometry": {"type": "Point", "coordinates": [12.0643, 42.4282]}}, {"type": "Feature", "id": "DYFI.UTM:(33T 0435 4701 1000)", "properties": {"code": "UTM:(33T 0435 4701 1000)", "name": null, "instrumentType": "OBSERVED", "source": "DYFI", "network": "DYFI", "commType": "UNK", "location": "", "intensity": 3.2, "intensity_flag": "0", "intensity_stddev": 0.3, "pga": "null", "pgv": "null", "distance": 78.566, "elev": null, "vs30": 254.42, "channels": [], "nresp": -1, "station_type": "macroseismic", "predictions": [{"name": "mmi", "value": 3.7227, "value_rock": 3.2384, "value_soil": 3.8788, "units": "intensity", "tau": 0.2479, "phi": 0.7366, "sigma": 0.7772, "sigma_rock": 0.7796, "sigma_soil": 0.7782, "bias": -0.108, "bias_sigma": 0.2109}, {"name": "pga", "value": 1.5939, "value_rock": 1.0856, "value_soil": 1.7847, "units": "%g", "ln_tau": 0.3996, "ln_phi": 0.5906, "ln_sigma": 0.7131, "ln_sigma_rock": 0.7179, "ln_sigma_soil": 0.7134, "ln_bias": 0.0, "ln_bias_sigma": 0.3996}, {"name": "sa(0.3)", "value": 3.7996, "value_rock": 1.7273, "value_soil": 4.7246, "units": "%g", "ln_tau": 0.3851, "ln_phi": 0.6599, "ln_sigma": 0.7641, "ln_sigma_rock": 0.7675, "ln_sigma_soil": 0.7629, "ln_bias": 0.0, "ln_bias_sigma": 0.3851}, {"name": "sa(1.0)", "value": 1.4666, "value_rock": 0.5166, "value_soil": 2.0401, "units": "%g", "ln_tau": 0.4283, "ln_phi": 0.6724, "ln_sigma": 0.7972, "ln_sigma_rock": 0.7998, "ln_sigma_soil": 0.7982, "ln_bias": 0.0, "ln_bias_sigma": 0.4283}, {"name": "sa(3.0)", "value": 0.2484, "value_rock": 0.1044, "value_soil": 0.3332, "units": "%g", "ln_tau": 0.4363, "ln_phi": 0.656, "ln_sigma": 0.7879, "ln_sigma_rock": 0.7899, "ln_sigma_soil": 0.7899, "ln_bias": 0.0, "ln_bias_sigma": 0.4363}, {"name": "pgv", "value": 1.1137, "value_rock": 0.5215, "value_soil": 1.4221, "units": "cm/s", "ln_tau": 0.3883, "ln_phi": 0.5978, "ln_sigma": 0.7128, "ln_sigma_rock": 0.7194, "ln_sigma_soil": 0.7155, "ln_bias": 0.0, "ln_bias_sigma": 0.3883}], "pgm_from_mmi": [{"name": "sa(1.0)", "value": null, "units": "%g", "ln_sigma": null, "flag": "0"}, {"name": "sa(0.3)", "value": null, "units": "%g", "ln_sigma": null, "flag": "0"}, {"name": "sa(3.0)", "value": null, "units": "%g", "ln_sigma": null, "flag": "0"}, {"name": "pgv", "value": null, "units": "cm/s", "ln_sigma": null, "flag": "0"}, {"name": "pga", "value": null, "units": "%g", "ln_sigma": null, "flag": "0"}], "distance_stddev": 4.585, "distances": {"repi": 82.455, "rhypo": 82.752, "rjb": 78.045, "rjb_var": 15.317, "rrup": 78.566, "rrup_var": 21.021, "rx": 0.0, "ry0": 0.0, "rvolc": 0.0}}, "geometry": {"type": "Point", "coordinates": [14.2155, 42.4631]}}, {"type": "Feature", "id": "DYFI.UTM:(33T 0293 4641 1000)", "properties": {"code": "UTM:(33T 0293 4641 1000)", "name": null, "instrumentType": "OBSERVED", "source": "DYFI", "network": "DYFI", "commType": "UNK", "location": "", "intensity": 3.4, "intensity_flag": "0", "intensity_stddev": 0.3, "pga": "null", "pgv": "null", "distance": 93.792, "elev": null, "vs30": 317.95, "channels": [], "nresp": -1, "station_type": "macroseismic", "predictions": [{"name": "mmi", "value": 3.4622, "value_rock": 3.0903, "value_soil": 3.7335, "units": "intensity", "tau": 0.248, "phi": 0.737, "sigma": 0.7776, "sigma_rock": 0.7793, "sigma_soil": 0.7779, "bias": -0.108, "bias_sigma": 0.211}, {"name": "pga", "value": 1.1388, "value_rock": 0.8191, "value_soil": 1.3555, "units": "%g", "ln_tau": 0.4, "ln_phi": 0.5916, "ln_sigma": 0.7142, "ln_sigma_rock": 0.7169, "ln_sigma_soil": 0.7129, "ln_bias": 0.0, "ln_bias_sigma": 0.4}, {"name": "sa(0.3)", "value": 2.5358, "value_rock": 1.3305, "value_soil": 3.6757, "units": "%g", "ln_tau": 0.3856, "ln_phi": 0.6608, "ln_sigma": 0.7651, "ln_sigma_rock": 0.7667, "ln_sigma_soil": 0.7627, "ln_bias": 0.0, "ln_bias_sigma": 0.3856}, {"name": "sa(1.0)", "value": 0.9362, "value_rock": 0.416, "value_soil": 1.6526, "units": "%g", "ln_tau": 0.4285, "ln_phi": 0.6722, "ln_sigma": 0.7972, "ln_sigma_rock": 0.7991, "ln_sigma_soil": 0.7976, "ln_bias": 0.0, "ln_bias_sigma": 0.4285}, {"name": "sa(3.0)", "value": 0.1661, "value_rock": 0.0848, "value_soil": 0.2714, "units": "%g", "ln_tau": 0.4363, "ln_phi": 0.6551, "ln_sigma": 0.7871, "ln_sigma_rock": 0.7891, "ln_sigma_soil": 0.7891, "ln_bias": 0.0, "ln_bias_sigma": 0.4363}, {"name": "pgv", "value": 0.7405, "value_rock": 0.4135, "value_soil": 1.1326, "units": "cm/s", "ln_tau": 0.3885, "ln_phi": 0.5989, "ln_sigma": 0.7139, "ln_sigma_rock": 0.7185, "ln_sigma_soil": 0.7147, "ln_bias": 0.0, "ln_bias_sigma": 0.3885}], "pgm_from_mmi": [{"name": "sa(1.0)", "value": null, "units": "%g", "ln_sigma": null, "flag": "0"}, {"name": "sa(0.3)", "value": null, "units": "%g", "ln_sigma": null, "flag": "0"}, {"name": "sa(3.0)", "value": null, "units": "%g", "ln_sigma": null, "flag": "0"}, {"name": "pgv", "value": null, "units": "cm/s", "ln_sigma": null, "flag": "0"}, {"name": "pga", "value": null, "units": "%g", "ln_sigma": null, "flag": "0"}], "distance_stddev": 4.501, "distances": {"repi": 97.879, "rhypo": 98.129, "rjb": 93.44, "rjb_var": 15.39, "rrup": 93.792, "rrup_var": 20.263, "rx": 0.0, "ry0": 0.0, "rvolc": 0.0}}, "geometry": {"type": "Point", "coordinates": [12.5106, 41.8985]}}, {"type": "Feature", "id": "DYFI.UTM:(33T 0282 4632 1000)", "properties": {"code": "UTM:(33T 0282 4632 1000)", "name": null, "instrumentType": "OBSERVED", "source": "DYFI", "network": "DYFI", "commType": "UNK", "location": "", "intensity": 3.4, "intensity_flag": "0", "intensity_stddev": 0.3, "pga": "null", "pgv": "null", "distance": 107.581, "elev": null, "vs30": 278.05, "channels": [], "nresp": -1, "station_type": "macroseismic", "predictions": [{"name": "mmi", "value": 3.4257, "value_rock": 2.975, "value_soil": 3.62, "units": "intensity", "tau": 0.248, "phi": 0.7364, "sigma": 0.7771, "sigma_rock": 0.7791, "sigma_soil": 0.7777, "bias": -0.108, "bias_sigma": 0.211}, {"name": "pga", "value": 0.9372, "value_rock": 0.6545, "value_soil": 1.0876, "units": "%g", "ln_tau": 0.4, "ln_phi": 0.5898, "ln_sigma": 0.7127, "ln_sigma_rock": 0.7161, "ln_sigma_soil": 0.7124, "ln_bias": 0.0, "ln_bias_sigma": 0.4}, {"name": "sa(0.3)", "value": 2.2603, "value_rock": 1.0817, "value_soil": 3.0073, "units": "%g", "ln_tau": 0.3855, "ln_phi": 0.6598, "ln_sigma": 0.7641, "ln_sigma_rock": 0.7663, "ln_sigma_soil": 0.7628, "ln_bias": 0.0, "ln_bias_sigma": 0.3855}, {"name": "sa(1.0)", "value": 0.9261, "value_rock": 0.3515, "value_soil": 1.4014, "units": "%g", "ln_tau": 0.4285, "ln_phi": 0.6714, "ln_sigma": 0.7964, "ln_sigma_rock": 0.7986, "ln_sigma_soil": 0.7973, "ln_bias": 0.0, "ln_bias_sigma": 0.4285}, {"name": "sa(3.0)", "value": 0.1612, "value_rock": 0.0722, "value_soil": 0.2314, "units": "%g", "ln_tau": 0.4363, "ln_phi": 0.6545, "ln_sigma": 0.7866, "ln_sigma_rock": 0.7887, "ln_sigma_soil": 0.7887, "ln_bias": 0.0, "ln_bias_sigma": 0.4363}, {"name": "pgv", "value": 0.6994, "value_rock": 0.3452, "value_soil": 0.9482, "units": "cm/s", "ln_tau": 0.3885, "ln_phi": 0.5973, "ln_sigma": 0.7125, "ln_sigma_rock": 0.718, "ln_sigma_soil": 0.7143, "ln_bias": 0.0, "ln_bias_sigma": 0.3885}], "pgm_from_mmi": [{"name": "sa(1.0)", "value": null, "units": "%g", "ln_sigma": null, "flag": "0"}, {"name": "sa(0.3)", "value": null, "units": "%g", "ln_sigma": null, "flag": "0"}, {"name": "sa(3.0)", "value": null, "units": "%g", "ln_sigma": null, "flag": "0"}, {"name": "pgv", "value": null, "units": "cm/s", "ln_sigma": null, "flag": "0"}, {"name": "pga", "value": null, "units": "%g", "ln_sigma": null, "flag": "0"}], "distance_stddev": 4.445, "distances": {"repi": 111.805, "rhypo": 112.024, "rjb": 107.348, "rjb_var": 15.438, "rrup": 107.581, "rrup_var": 19.759, "rx": 0.0, "ry0": 0.0, "rvolc": 0.0}}, "geometry": {"type": "Point", "coordinates": [12.3814, 41.8145]}}], "metadata": {"eventid": "us10007twj"}}