{
   "type":"FeatureCollection",
   "features":[
      {
         "type":"Feature",
         "id":"NU.MGAN",
         "properties":{
            "code":"MGAN",
            "name":"Stasrv: unknown station",
            "instrumentType":"UNK",
            "source":"NU",
            "network":"NU",
            "commType":"UNK",
            "location":"",
            "intensity":"null",
            "intensity_flag":"",
            "intensity_stddev":"null",
            "pga":"null",
            "pgv":"null",
            "distance":339.97,
            "elev":null,
            "vs30":760.0,
            "channels":[
               {
                  "name":"HHZ",
                  "amplitudes":[
                     {
                        "name":"sa(0.3)",
                        "value":"null",
                        "units":"%g",
                        "flag":"Glitch,0,Outlier",
                        "ln_sigma":"null"
                     },
                     {
                        "name":"sa(1.0)",
                        "value":"null",
                        "units":"%g",
                        "flag":"Glitch,0,Outlier",
                        "ln_sigma":"null"
                     },
                     {
                        "name":"pgv",
                        "value":"null",
                        "units":"cm/s",
                        "flag":"Glitch,0,Outlier",
                        "ln_sigma":"null"
                     },
                     {
                        "name":"sa(3.0)",
                        "value":"null",
                        "units":"%g",
                        "flag":"Glitch,0,Outlier",
                        "ln_sigma":"null"
                     },
                     {
                        "name":"pga",
                        "value":"null",
                        "units":"%g",
                        "flag":"Glitch,0,Outlier",
                        "ln_sigma":"null"
                     }
                  ]
               },
               {
                  "name":"BHN",
                  "amplitudes":[
                     {
                        "name":"sa(0.3)",
                        "value":"null",
                        "units":"%g",
                        "flag":"Glitch,0,Outlier",
                        "ln_sigma":"null"
                     },
                     {
                        "name":"sa(1.0)",
                        "value":"null",
                        "units":"%g",
                        "flag":"Glitch,0,Outlier",
                        "ln_sigma":"null"
                     },
                     {
                        "name":"pgv",
                        "value":"null",
                        "units":"cm/s",
                        "flag":"Glitch,0,Outlier",
                        "ln_sigma":"null"
                     },
                     {
                        "name":"sa(3.0)",
                        "value":"null",
                        "units":"%g",
                        "flag":"Glitch,0,Outlier",
                        "ln_sigma":"null"
                     },
                     {
                        "name":"pga",
                        "value":"null",
                        "units":"%g",
                        "flag":"Glitch,0,Outlier",
                        "ln_sigma":"null"
                     }
                  ]
               },
               {
                  "name":"BHZ",
                  "amplitudes":[
                     {
                        "name":"sa(0.3)",
                        "value":"null",
                        "units":"%g",
                        "flag":"Glitch,0,Outlier",
                        "ln_sigma":"null"
                     },
                     {
                        "name":"sa(1.0)",
                        "value":"null",
                        "units":"%g",
                        "flag":"Glitch,0,Outlier",
                        "ln_sigma":"null"
                     },
                     {
                        "name":"pgv",
                        "value":"null",
                        "units":"cm/s",
                        "flag":"Glitch,0,Outlier",
                        "ln_sigma":"null"
                     },
                     {
                        "name":"sa(3.0)",
                        "value":"null",
                        "units":"%g",
                        "flag":"Glitch,0,Outlier",
                        "ln_sigma":"null"
                     },
                     {
                        "name":"pga",
                        "value":"null",
                        "units":"%g",
                        "flag":"Glitch,0,Outlier",
                        "ln_sigma":"null"
                     }
                  ]
               },
               {
                  "name":"HHN",
                  "amplitudes":[
                     {
                        "name":"sa(0.3)",
                        "value":"null",
                        "units":"%g",
                        "flag":"Glitch,0,Outlier",
                        "ln_sigma":"null"
                     },
                     {
                        "name":"sa(1.0)",
                        "value":"null",
                        "units":"%g",
                        "flag":"Glitch,0,Outlier",
                        "ln_sigma":"null"
                     },
                     {
                        "name":"pgv",
                        "value":"null",
                        "units":"cm/s",
                        "flag":"Glitch,0,Outlier",
                        "ln_sigma":"null"
                     },
                     {
                        "name":"sa(3.0)",
                        "value":"null",
                        "units":"%g",
                        "flag":"Glitch,0,Outlier",
                        "ln_sigma":"null"
                     },
                     {
                        "name":"pga",
                        "value":"null",
                        "units":"%g",
                        "flag":"Glitch,0,Outlier",
                        "ln_sigma":"null"
                     }
                  ]
               },
               {
                  "name":"BHE",
                  "amplitudes":[
                     {
                        "name":"sa(0.3)",
                        "value":"null",
                        "units":"%g",
                        "flag":"Glitch,0,Outlier",
                        "ln_sigma":"null"
                     },
                     {
                        "name":"sa(1.0)",
                        "value":"null",
                        "units":"%g",
                        "flag":"Glitch,0,Outlier",
                        "ln_sigma":"null"
                     },
                     {
                        "name":"pgv",
                        "value":"null",
                        "units":"cm/s",
                        "flag":"Glitch,0,Outlier",
                        "ln_sigma":"null"
                     },
                     {
                        "name":"sa(3.0)",
                        "value":"null",
                        "units":"%g",
                        "flag":"Glitch,0,Outlier",
                        "ln_sigma":"null"
                     },
                     {
                        "name":"pga",
                        "value":"null",
                        "units":"%g",
                        "flag":"Glitch,0,Outlier",
                        "ln_sigma":"null"
                     }
                  ]
               },
               {
                  "name":"HHE",
                  "amplitudes":[
                     {
                        "name":"sa(0.3)",
                        "value":"null",
                        "units":"%g",
                        "flag":"Glitch,0,Outlier",
                        "ln_sigma":"null"
                     },
                     {
                        "name":"sa(1.0)",
                        "value":"null",
                        "units":"%g",
                        "flag":"Glitch,0,Outlier",
                        "ln_sigma":"null"
                     },
                     {
                        "name":"pgv",
                        "value":"null",
                        "units":"cm/s",
                        "flag":"Glitch,0,Outlier",
                        "ln_sigma":"null"
                     },
                     {
                        "name":"sa(3.0)",
                        "value":"null",
                        "units":"%g",
                        "flag":"Glitch,0,Outlier",
                        "ln_sigma":"null"
                     },
                     {
                        "name":"pga",
                        "value":"null",
                        "units":"%g",
                        "flag":"Glitch,0,Outlier",
                        "ln_sigma":"null"
                     }
                  ]
               }
            ],
            "station_type":"seismic",
            "nresp":"null",
            "predictions":[
               {
                  "name":"pgv",
                  "value":0.1273,
                  "value_rock":0.1273,
                  "value_soil":0.3295,
                  "units":"cm/s",
                  "ln_tau":0.399,
                  "ln_phi":0.7689,
                  "ln_sigma":0.8663,
                  "ln_sigma_rock":0.8677,
                  "ln_sigma_soil":0.8654,
                  "ln_bias":0.225,
                  "ln_bias_sigma":0.2403
               },
               {
                  "name":"sa(1.0)",
                  "value":0.1355,
                  "value_rock":0.1355,
                  "value_soil":0.3693,
                  "units":"%g",
                  "ln_tau":0.4017,
                  "ln_phi":0.631,
                  "ln_sigma":0.748,
                  "ln_sigma_rock":0.7499,
                  "ln_sigma_soil":0.7492,
                  "ln_bias":0.2435,
                  "ln_bias_sigma":0.2374
               },
               {
                  "name":"sa(3.0)",
                  "value":0.0446,
                  "value_rock":0.0446,
                  "value_soil":0.1092,
                  "units":"%g",
                  "ln_tau":0.3953,
                  "ln_phi":0.6269,
                  "ln_sigma":0.7412,
                  "ln_sigma_rock":0.743,
                  "ln_sigma_soil":0.7429,
                  "ln_bias":0.3073,
                  "ln_bias_sigma":0.2632
               },
               {
                  "name":"pga",
                  "value":0.1544,
                  "value_rock":0.1544,
                  "value_soil":0.2295,
                  "units":"%g",
                  "ln_tau":0.36,
                  "ln_phi":0.5562,
                  "ln_sigma":0.6626,
                  "ln_sigma_rock":0.6646,
                  "ln_sigma_soil":0.6626,
                  "ln_bias":0.1301,
                  "ln_bias_sigma":0.1998
               },
               {
                  "name":"sa(0.3)",
                  "value":0.2571,
                  "value_rock":0.2571,
                  "value_soil":0.5395,
                  "units":"%g",
                  "ln_tau":0.3597,
                  "ln_phi":0.6186,
                  "ln_sigma":0.7156,
                  "ln_sigma_rock":0.7174,
                  "ln_sigma_soil":0.7157,
                  "ln_bias":-0.0983,
                  "ln_bias_sigma":0.2188
               },
               {
                  "name":"mmi",
                  "value":2.5712,
                  "value_rock":2.5712,
                  "value_soil":2.8381,
                  "units":"intensity",
                  "tau":0.2424,
                  "phi":0.7588,
                  "sigma":0.7966,
                  "sigma_rock":0.7973,
                  "sigma_soil":0.7966,
                  "bias":0.052,
                  "bias_sigma":0.1772
               }
            ],
            "mmi_from_pgm":[
               {
                  "name":"pgv",
                  "value":null,
                  "sigma":null,
                  "flag":"0"
               },
               {
                  "name":"sa(1.0)",
                  "value":null,
                  "sigma":null,
                  "flag":"0"
               },
               {
                  "name":"sa(3.0)",
                  "value":null,
                  "sigma":null,
                  "flag":"0"
               },
               {
                  "name":"pga",
                  "value":null,
                  "sigma":null,
                  "flag":"0"
               },
               {
                  "name":"sa(0.3)",
                  "value":null,
                  "sigma":null,
                  "flag":"0"
               }
            ],
            "distance_stddev":10.631,
            "distances":{
               "repi":350.448,
               "rhypo":350.985,
               "rjb":339.794,
               "rjb_var":90.615,
               "rrup":339.97,
               "rrup_var":113.01,
               "rx":0.0,
               "ry0":0.0,
               "rvolc":0.0
            }
         },
         "geometry":{
            "type":"Point",
            "coordinates":[
               -86.248313,
               12.148928
            ]
         }
      },
      {
         "type":"Feature",
         "id":"OV.RIOS",
         "properties":{
            "code":"RIOS",
            "name":"RINCON, Osa",
            "instrumentType":"UNK",
            "source":"OV",
            "network":"OV",
            "commType":"UNK",
            "location":"",
            "intensity":1.0,
            "intensity_flag":"",
            "intensity_stddev":0.63,
            "pga":"null",
            "pgv":"null",
            "distance":132.139,
            "elev":null,
            "vs30":650.7,
            "channels":[
               {
                  "name":"HHZ",
                  "amplitudes":[
                     {
                        "name":"sa(0.3)",
                        "value":0.001,
                        "units":"%g",
                        "flag":"Outlier",
                        "ln_sigma":0.0
                     },
                     {
                        "name":"sa(1.0)",
                        "value":0.0002,
                        "units":"%g",
                        "flag":"Outlier",
                        "ln_sigma":0.0
                     },
                     {
                        "name":"pgv",
                        "value":0.0007,
                        "units":"cm/s",
                        "flag":"Outlier",
                        "ln_sigma":0.0
                     },
                     {
                        "name":"sa(3.0)",
                        "value":0.0001,
                        "units":"%g",
                        "flag":"Outlier",
                        "ln_sigma":0.0
                     },
                     {
                        "name":"pga",
                        "value":0.0028,
                        "units":"%g",
                        "flag":"Outlier",
                        "ln_sigma":0.0
                     }
                  ]
               },
               {
                  "name":"HHE",
                  "amplitudes":[
                     {
                        "name":"sa(0.3)",
                        "value":0.0001,
                        "units":"%g",
                        "flag":"Outlier",
                        "ln_sigma":0.0
                     },
                     {
                        "name":"sa(1.0)",
                        "value":"null",
                        "units":"%g",
                        "flag":"Glitch,0,Outlier",
                        "ln_sigma":"null"
                     },
                     {
                        "name":"pgv",
                        "value":0.0001,
                        "units":"cm/s",
                        "flag":"Outlier",
                        "ln_sigma":0.0
                     },
                     {
                        "name":"sa(3.0)",
                        "value":"null",
                        "units":"%g",
                        "flag":"Glitch,0,Outlier",
                        "ln_sigma":"null"
                     },
                     {
                        "name":"pga",
                        "value":0.0003,
                        "units":"%g",
                        "flag":"Outlier",
                        "ln_sigma":0.0
                     }
                  ]
               },
               {
                  "name":"HHN",
                  "amplitudes":[
                     {
                        "name":"sa(0.3)",
                        "value":0.0007,
                        "units":"%g",
                        "flag":"Outlier",
                        "ln_sigma":0.0
                     },
                     {
                        "name":"sa(1.0)",
                        "value":0.0001,
                        "units":"%g",
                        "flag":"Outlier",
                        "ln_sigma":0.0
                     },
                     {
                        "name":"pgv",
                        "value":0.0003,
                        "units":"cm/s",
                        "flag":"Outlier",
                        "ln_sigma":0.0
                     },
                     {
                        "name":"sa(3.0)",
                        "value":"null",
                        "units":"%g",
                        "flag":"Glitch,0,Outlier",
                        "ln_sigma":"null"
                     },
                     {
                        "name":"pga",
                        "value":0.002,
                        "units":"%g",
                        "flag":"Outlier",
                        "ln_sigma":0.0
                     }
                  ]
               }
            ],
            "station_type":"seismic",
            "nresp":"null",
            "predictions":[
               {
                  "name":"pgv",
                  "value":0.9016,
                  "value_rock":0.8489,
                  "value_soil":2.1796,
                  "units":"cm/s",
                  "ln_tau":0.399,
                  "ln_phi":0.775,
                  "ln_sigma":0.8717,
                  "ln_sigma_rock":0.8731,
                  "ln_sigma_soil":0.8702,
                  "ln_bias":0.225,
                  "ln_bias_sigma":0.2403
               },
               {
                  "name":"sa(1.0)",
                  "value":0.9563,
                  "value_rock":0.895,
                  "value_soil":2.421,
                  "units":"%g",
                  "ln_tau":0.4017,
                  "ln_phi":0.6382,
                  "ln_sigma":0.7541,
                  "ln_sigma_rock":0.7558,
                  "ln_sigma_soil":0.7543,
                  "ln_bias":0.2435,
                  "ln_bias_sigma":0.2374
               },
               {
                  "name":"sa(3.0)",
                  "value":0.2057,
                  "value_rock":0.1942,
                  "value_soil":0.4754,
                  "units":"%g",
                  "ln_tau":0.3953,
                  "ln_phi":0.6311,
                  "ln_sigma":0.7447,
                  "ln_sigma_rock":0.7463,
                  "ln_sigma_soil":0.7463,
                  "ln_bias":0.3073,
                  "ln_bias_sigma":0.2632
               },
               {
                  "name":"pga",
                  "value":1.2818,
                  "value_rock":1.2419,
                  "value_soil":1.8214,
                  "units":"%g",
                  "ln_tau":0.36,
                  "ln_phi":0.5695,
                  "ln_sigma":0.6737,
                  "ln_sigma_rock":0.6758,
