{"type": "FeatureCollection", "features": [{"type": "Feature", "id": "G.MORIGAWACHI", "properties": {"code": "MORIGAWACHI", "name": "MORIGAWACHI", "instrumentType": "UNK", "source": "G", "network": "G", "commType": "UNK", "location": "", "intensity": 7.0, "intensity_flag": "", "intensity_stddev": 0.63, "pga": 21.385, "pgv": 26.269, "distance": 24.656, "elev": null, "vs30": 147.4, "channels": [{"name": "N", "amplitudes": [{"name": "sa(0.3)", "value": 31.345, "units": "%g", "flag": "0", "ln_sigma": 0.0}, {"name": "sa(1.0)", "value": 64.478, "units": "%g", "flag": "0", "ln_sigma": 0.0}, {"name": "sa(3.0)", "value": 8.305, "units": "%g", "flag": "0", "ln_sigma": 0.0}, {"name": "pga", "value": 21.385, "units": "%g", "flag": "0", "ln_sigma": 0.0}, {"name": "pgv", "value": 26.269, "units": "cm/s", "flag": "0", "ln_sigma": 0.0}]}, {"name": "E", "amplitudes": [{"name": "sa(0.3)", "value": 20.886, "units": "%g", "flag": "0", "ln_sigma": 0.0}, {"name": "sa(1.0)", "value": 31.488, "units": "%g", "flag": "0", "ln_sigma": 0.0}, {"name": "sa(3.0)", "value": 5.807, "units": "%g", "flag": "0", "ln_sigma": 0.0}, {"name": "pga", "value": 13.997, "units": "%g", "flag": "0", "ln_sigma": 0.0}, {"name": "pgv", "value": 18.005, "units": "cm/s", "flag": "0", "ln_sigma": 0.0}]}], "station_type": "seismic", "nresp": "null", "predictions": [{"name": "pga", "value": 21.7574, "value_rock": 16.083, "value_soil": 21.5297, "units": "%g", "ln_tau": 0.2715, "ln_phi": 0.462, "ln_sigma": 0.5359, "ln_sigma_rock": 0.6218, "ln_sigma_soil": 0.5546, "ln_bias": 0.321, "ln_bias_sigma": 0.1299}, {"name": "sa(1.0)", "value": 36.7036, "value_rock": 10.2069, "value_soil": 31.7289, "units": "%g", "ln_tau": 0.3253, "ln_phi": 0.5934, "ln_sigma": 0.6767, "ln_sigma_rock": 0.7241, "ln_sigma_soil": 0.6926, "ln_bias": 0.261, "ln_bias_sigma": 0.1649}, {"name": "sa(3.0)", "value": 10.4276, "value_rock": 2.3672, "value_soil": 8.579, "units": "%g", "ln_tau": 0.3734, "ln_phi": 0.6168, "ln_sigma": 0.721, "ln_sigma_rock": 0.7251, "ln_sigma_soil": 0.7246, "ln_bias": -0.0842, "ln_bias_sigma": 0.1777}, {"name": "sa(0.3)", "value": 60.6145, "value_rock": 31.7014, "value_soil": 59.264, "units": "%g", "ln_tau": 0.2374, "ln_phi": 0.5091, "ln_sigma": 0.5617, "ln_sigma_rock": 0.6723, "ln_sigma_soil": 0.5854, "ln_bias": 0.1561, "ln_bias_sigma": 0.1362}, {"name": "pgv", "value": 30.4824, "value_rock": 11.735, "value_soil": 27.356, "units": "cm/s", "ln_tau": 0.319, "ln_phi": 0.5498, "ln_sigma": 0.6357, "ln_sigma_rock": 0.6835, "ln_sigma_soil": 0.6489, "ln_bias": 0.1754, "ln_bias_sigma": 0.1535}, {"name": "mmi", "value": 6.3551, "value_rock": 5.8695, "value_soil": 6.3382, "units": "intensity", "tau": 0.4363, "phi": 0.9934, "sigma": 1.085, "sigma_rock": 1.1975, "sigma_soil": 1.1089, "bias": 0.7226, "bias_sigma": 0.2419}], "mmi_from_pgm": [{"name": "pga", "value": 6.33, "sigma": 0.66, "flag": "0"}, {"name": "sa(1.0)", "value": 7.91, "sigma": 0.75, "flag": "0"}, {"name": "sa(3.0)", "value": 7.41, "sigma": 0.89, "flag": "0"}, {"name": "sa(0.3)", "value": 5.93, "sigma": 0.82, "flag": "0"}, {"name": "pgv", "value": 7.03, "sigma": 0.63, "flag": "0"}], "distance_stddev": 0.0, "distances": {"repi": 51.822, "rhypo": 56.26, "rjb": 24.656, "rjb_var": 0.0, "rrup": 24.656, "rrup_var": 0.0, "rx": -24.679, "ry0": 6.666, "rvolc": 0.0}}, "geometry": {"type": "Point", "coordinates": [135.572, 34.68]}}, {"type": "Feature", "id": "unknown.KAK", "properties": {"code": "KAK", "name": "Kakogawa", "instrumentType": "UNK", "source": "unknown", "network": "unknown", "commType": "UNK", "location": "", "intensity": 7.1, "intensity_flag": "", "intensity_stddev": 0.63, "pga": 34.5, "pgv": 27.6, "distance": 22.108, "elev": null, "vs30": 271.6, "channels": [{"name": "UNK", "amplitudes": [{"name": "sa(0.3)", "value": 81.4414, "units": "%g", "flag": "0", "ln_sigma": 0.0}, {"name": "sa(1.0)", "value": 35.558, "units": "%g", "flag": "0", "ln_sigma": 0.0}, {"name": "sa(3.0)", "value": 4.6946, "units": "%g", "flag": "0", "ln_sigma": 0.0}, {"name": "pga", "value": 34.5, "units": "%g", "flag": "0", "ln_sigma": 0.0}, {"name": "pgv", "value": 27.6, "units": "cm/s", "flag": "0", "ln_sigma": 0.0}]}], "station_type": "seismic", "nresp": "null", "predictions": [{"name": "pga", "value": 22.5151, "value_rock": 17.8065, "value_soil": 23.234, "units": "%g", "ln_tau": 0.3037, "ln_phi": 0.4926, "ln_sigma": 0.5787, "ln_sigma_rock": 0.6217, "ln_sigma_soil": 0.5512, "ln_bias": 0.3365, "ln_bias_sigma": 0.133}, {"name": "sa(1.0)", "value": 26.917, "value_rock": 11.2482, "value_soil": 34.4154, "units": "%g", "ln_tau": 0.3453, "ln_phi": 0.6161, "ln_sigma": 0.7062, "ln_sigma_rock": 0.724, "ln_sigma_soil": 0.6907, "ln_bias": 0.2688, "ln_bias_sigma": 0.1674}, {"name": "sa(3.0)", "value": 6.4544, "value_rock": 2.5963, "value_soil": 9.4071, "units": "%g", "ln_tau": 0.3735, "ln_phi": 0.6169, "ln_sigma": 0.7212, "ln_sigma_rock": 0.7251, "ln_sigma_soil": 0.7246, "ln_bias": -0.0842, "ln_bias_sigma": 0.1777}, {"name": "sa(0.3)", "value": 60.3868, "value_rock": 35.1074, "value_soil": 63.1636, "units": "%g", "ln_tau": 0.283, "ln_phi": 0.5519, "ln_sigma": 0.6202, "ln_sigma_rock": 0.6723, "ln_sigma_soil": 0.5808, "ln_bias": 0.173, "ln_bias_sigma": 0.1434}, {"name": "pgv", "value": 25.0229, "value_rock": 12.9572, "value_soil": 29.7671, "units": "cm/s", "ln_tau": 0.3333, "ln_phi": 0.5724, "ln_sigma": 0.6624, "ln_sigma_rock": 0.6835, "ln_sigma_soil": 0.6476, "ln_bias": 0.1789, "ln_bias_sigma": 0.155}, {"name": "mmi", "value": 6.3618, "value_rock": 5.9848, "value_soil": 6.4123, "units": "intensity", "tau": 0.488, "phi": 1.0306, "sigma": 1.1403, "sigma_rock": 1.1973, "sigma_soil": 1.1046, "bias": 0.7701, "bias_sigma": 0.2498}], "mmi_from_pgm": [{"name": "pga", "value": 7.05, "sigma": 0.66, "flag": "0"}, {"name": "sa(1.0)", "value": 7.18, "sigma": 0.75, "flag": "0"}, {"name": "sa(3.0)", "value": 6.69, "sigma": 0.89, "flag": "0"}, {"name": "sa(0.3)", "value": 7.62, "sigma": 0.82, "flag": "0"}, {"name": "pgv", "value": 7.1, "sigma": 0.63, "flag": "0"}], "distance_stddev": 0.0, "distances": {"repi": 25.713, "rhypo": 33.775, "rjb": 22.108, "rjb_var": 0.0, "rrup": 22.108, "rrup_var": 0.0, "rx": 23.612, "ry0": 0.0, "rvolc": 0.0}}, "geometry": {"type": "Point", "coordinates": [134.843, 34.764]}}, {"type": "Feature", "id": "unknown.TOT", "properties": {"code": "TOT", "name": "TOT", "instrumentType": "UNK", "source": "unknown", "network": "unknown", "commType": "UNK", "location": "", "intensity": 5.8, "intensity_flag": "", "intensity_stddev": 0.63, "pga": 7.6, "pgv": 10.9, "distance": 119.103, "elev": null, "vs30": 202.8, "channels": [{"name": "UNK", "amplitudes": [{"name": "sa(0.3)", "value": 16.9914, "units": "%g", "flag": "0", "ln_sigma": 0.0}, {"name": "sa(1.0)", "value": 16.1923, "units": "%g", "flag": "0", "ln_sigma": 0.0}, {"name": "sa(3.0)", "value": 1.1079, "units": "%g", "flag": "0", "ln_sigma": 0.0}, {"name": "pga", "value": 7.6, "units": "%g", "flag": "0", "ln_sigma": 0.0}, {"name": "pgv", "value": 10.9, "units": "cm/s", "flag": "0", "ln_sigma": 0.0}]}], "station_type": "seismic", "nresp": "null", "predictions": [{"name": "pga", "value": 3.9367, "value_rock": 2.4418, "value_soil": 4.1931, "units": "%g", "ln_tau": 0.3241, "ln_phi": 0.5018, "ln_sigma": 0.5974, "ln_sigma_rock": 0.6244, "ln_sigma_soil": 0.5996, "ln_bias": 0.3445, "ln_bias_sigma": 0.1346}, {"name": "sa(1.0)", "value": 6.6225, "value_rock": 2.0665, "value_soil": 7.4652, "units": "%g", "ln_tau": 0.3492, "ln_phi": 0.6182, "ln_sigma": 0.7101, "ln_sigma_rock": 0.7246, "ln_sigma_soil": 0.7136, "ln_bias": 0.2702, "ln_bias_sigma": 0.1678}, {"name": "sa(3.0)", "value": 1.7356, "value_rock": 0.5513, "value_soil": 2.0031, "units": "%g", "ln_tau": 0.3737, "ln_phi": 0.6171, "ln_sigma": 0.7215, "ln_sigma_rock": 0.7252, "ln_sigma_soil": 0.725, "ln_bias": -0.0843, "ln_bias_sigma": 0.1777}, {"name": "sa(0.3)", "value": 12.1032, "value_rock": 4.9049, "value_soil": 13.0529, "units": "%g", "ln_tau": 0.3055, "ln_phi": 0.5705, "ln_sigma": 0.6471, "ln_sigma_rock": 0.6763, "ln_sigma_soil": 0.6484, "ln_bias": 0.1795, "ln_bias_sigma": 0.1461}, {"name": "pgv", "value": 5.6267, "value_rock": 2.3083, "value_soil": 6.1896, "units": "cm/s", "ln_tau": 0.3369, "ln_phi": 0.5683, "ln_sigma": 0.6606, "ln_sigma_rock": 0.6853, "ln_sigma_soil": 0.6655, "ln_bias": 0.1797, "ln_bias_sigma": 0.1554}, {"name": "mmi", "value": 4.3056, "value_rock": 3.9525, "value_soil": 4.407, "units": "intensity", "tau": 0.5208, "phi": 1.042, "sigma": 1.1649, "sigma_rock": 0.7825, "sigma_soil": 1.1678, "bias": 0.7955, "bias_sigma": 0.2538}], "mmi_from_pgm": [{"name": "pga", "value": 5.36, "sigma": 0.66, "flag": "0"}, {"name": "sa(1.0)", "value": 5.83, "sigma": 0.75, "flag": "0"}, {"name": "sa(3.0)", "value": 4.39, "sigma": 0.89, "flag": "0"}, {"name": "sa(0.3)", "value": 5.24, "sigma": 0.82, "flag": "0"}, {"name": "pgv", "value": 5.83, "sigma": 0.63, "flag": "0"}], "distance_stddev": 0.0, "distances": {"repi": 122.788, "rhypo": 124.726, "rjb": 119.103, "rjb_var": 0.0, "rrup": 119.103, "rrup_var": 0.0, "rx": 120.233, "ry0": 0.0, "rvolc": 0.0}}, "geometry": {"type": "Point", "coordinates": [134.24, 35.485]}}, {"type": "Feature", "id": "unknown.Takarazuka", "properties": {"code": "Takarazuka", "name": "Takarazuka", "instrumentType": "UNK", "source": "unknown", "network": "unknown", "commType": "UNK", "location": "", "intensity": 8.6, "intensity_flag": "", "intensity_stddev": 0.63, "pga": 69.4, "pgv": 85.3, "distance": 0.539, "elev": null, "vs30": 775.5, "channels": [{"name": "UNK", "amplitudes": [{"name": "sa(0.3)", "value": 147.3773, "units": "%g", "flag": "0", "ln_sigma": 0.0}, {"name": "sa(1.0)", "value": 97.1554, "units": "%g", "flag": "0", "ln_sigma": 0.0}, {"name": "sa(3.0)", "value": 16.0822, "units": "%g", "flag": "0", "ln_sigma": 0.0}, {"name": "pga", "value": 69.4, "units": "%g", "flag": "0", "ln_sigma": 0.0}, {"name": "pgv", "value": 85.3, "units": "cm/s", "flag": "0", "ln_sigma": 0.0}]}], "station_type": "seismic", "nresp": "null", "predictions": [{"name": "pga", "value": 66.2, "value_rock": 67.9076, "value_soil": 53.6087, "units": "%g", "ln_tau": 0.3319, "ln_phi": 0.5196, "ln_sigma": 0.6166, "ln_sigma_rock": 0.6198, "ln_sigma_soil": 0.5169, "ln_bias": 0.3473, "ln_bias_sigma": 0.1351}, {"name": "sa(1.0)", "value": 41.5647, "value_rock": 42.7769, "value_soil": 94.131, "units": "%g", "ln_tau": 0.3537, "ln_phi": 0.626, "ln_sigma": 0.719, "ln_sigma_rock": 0.724, "ln_sigma_soil": 0.6587, "ln_bias": 0.2718, "ln_bias_sigma": 0.1683}, {"name": "sa(3.0)", "value": 8.6808, "value_rock": 8.9321, "value_soil": 32.211, "units": "%g", "ln_tau": 0.3738, "ln_phi": 0.6172, "ln_sigma": 0.7215, "ln_sigma_rock": 0.725, "ln_sigma_soil": 0.7242, "ln_bias": -0.0843, "ln_bias_sigma": 0.1777}, {"name": "sa(0.3)", "value": 131.3293, "value_rock": 135.0738, "value_soil": 114.6075, "units": "%g", "ln_tau": 0.3171, "ln_phi": 0.5868, "ln_sigma": 0.667, "ln_sigma_rock": 0.6719, "ln_sigma_soil": 0.537, "ln_bias": 0.1825, "ln_bias_sigma": 0.1473}, {"name": "pgv", "value": 49.9297, "value_rock": 51.1596, "value_soil": 88.2426, "units": "cm/s", "ln_tau": 0.3411, "ln_phi": 0.5851, "ln_sigma": 0.6772, "ln_sigma_rock": 0.6835, "ln_sigma_soil": 0.6333, "ln_bias": 0.1806, "ln_bias_sigma": 0.1558}, {"name": "mmi", "value": 7.7433, "value_rock": 7.7843, "value_soil": 7.4043, "units": "intensity", "tau": 0.5334, "phi": 1.0643, "sigma": 1.1904, "sigma_rock": 1.1948, "sigma_soil": 1.0609, "bias": 0.8045, "bias_sigma": 0.2553}], "mmi_from_pgm": [{"name": "pga", "value": 7.82, "sigma": 0.66, "flag": "0"}, {"name": "sa(1.0)", "value": 8.62, "sigma": 0.75, "flag": "0"}, {"name": "sa(3.0)", "value": 8.5, "sigma": 0.89, "flag": "0"}, {"name": "sa(0.3)", "value": 8.48, "sigma": 0.82, "flag": "0"}, {"name": "pgv", "value": 8.65, "sigma": 0.63, "flag": "0"}], "distance_stddev": 0.0, "distances": {"repi": 38.984, "rhypo": 44.715, "rjb": 0.0, "rjb_var": 0.0, "rrup": 0.539, "rrup_var": 0.0, "rx": 0.526, "ry0": 0.0, "rvolc": 0.0}}, "geometry": {"type": "Point", "coordinates": [135.344, 34.809]}}, {"type": "Feature", "id": "unknown.FUK", "properties": {"code": "FUK", "name": "FUK", "instrumentType": "UNK", "source": "unknown", "network": "unknown", "commType": "UNK", "location": "", "intensity": 4.8, "intensity_flag": "", "intensity_stddev": 0.63, "pga": 4.2, "pgv": 5.3, "distance": 159.321, "elev": null, "vs30": 159.8, "channels": [{"name": "UNK", "amplitudes": [{"name": "sa(0.3)", "value": 11.1174, "units": "%g", "flag": "0", "ln_sigma": 0.0}, {"name": "sa(1.0)", "value": 10.0822, "units": "%g", "flag": "0", "ln_sigma": 0.0}, {"name": "sa(3.0)", "value": 1.2416, "units": "%g", "flag": "0", "ln_sigma": 0.0}, {"name": "pga", "value": 4.2, "units": "%g", "flag": "0", "ln_sigma": 0.0}, {"name": "pgv", "value": 5.3, "units": "cm/s", "flag": "0", "ln_sigma": 0.0}]}], "station_type": "seismic", "nresp": "null", "predictions": [{"name": "pga", "value": 2.7328, "value_rock": 1.4738, "value_soil": 2.5919, "units": "%g", "ln_tau": 0.3253, "ln_phi": 0.5087, "ln_sigma": 0.6038, "ln_sigma_rock": 0.6294, "ln_sigma_soil": 0.6098, "ln_bias": 0.345, "ln_bias_sigma": 0.1346}, {"name": "sa(1.0)", "value": 6.0726, "value_rock": 1.4483, "value_soil": 5.3071, "units": "%g", "ln_tau": 0.3486, "ln_phi": 0.6239, "ln_sigma": 0.7147, "ln_sigma_rock": 0.7302, "ln_sigma_soil": 0.7214, "ln_bias": 0.27, "ln_bias_sigma": 0.1678}, {"name": "sa(3.0)", "value": 1.6848, "value_rock": 0.4106, "value_soil": 1.4921, "units": "%g", "ln_tau": 0.3737, "ln_phi": 0.6252, "ln_sigma": 0.7283, "ln_sigma_rock": 0.7323, "ln_sigma_soil": 0.7321, "ln_bias": -0.0843, "ln_bias_sigma": 0.1777}, {"name": "sa(0.3)", "value": 8.9023, "value_rock": 2.9947, "value_soil": 8.2238, "units": "%g", "ln_tau": 0.3065, "ln_phi": 0.5792, "ln_sigma": 0.6553, "ln_sigma_rock": 0.6835, "ln_sigma_soil": 0.6626, "ln_bias": 0.1798, "ln_bias_sigma": 0.1462}, {"name": "pgv", "value": 4.8644, "value_rock": 1.6066, "value_soil": 4.366, "units": "cm/s", "ln_tau": 0.3364, "ln_phi": 0.5724, "ln_sigma": 0.6639, "ln_sigma_rock": 0.6892, "ln_sigma_soil": 0.671, "ln_bias": 0.1796, "ln_bias_sigma": 0.1553}, {"name": "mmi", "value": 4.1571, "value_rock": 3.7415, "value_soil": 4.1215, "units": "intensity", "tau": 0.2189, "phi": 0.7436, "sigma": 0.7751, "sigma_rock": 0.7843, "sigma_soil": 0.7772, "bias": 0.3776, "bias_sigma": 0.1749}], "mmi_from_pgm": [{"name": "pga", "value": 4.54, "sigma": 0.66, "flag": "0"}, {"name": "sa(1.0)", "value": 5.18, "sigma": 0.75, "flag": "0"}, {"name": "sa(3.0)", "value": 4.46, "sigma": 0.89, "flag": "0"}, {"name": "sa(0.3)", "value": 4.98, "sigma": 0.82, "flag": "0"}, {"name": "pgv", "value": 4.84, "sigma": 0.63, "flag": "0"}], "distance_stddev": 0.0, "distances": {"repi": 196.875, "rhypo": 198.089, "rjb": 158.971, "rjb_var": 0.0, "rrup": 159.321, "rrup_var": 0.0, "rx": 53.888, "ry0": 149.026, "rvolc": 0.0}}, "geometry": {"type": "Point", "coordinates": [136.227, 36.0533]}}, {"type": "Feature", "id": "unknown.OSAJ", "properties": {"code": "OSAJ", "name": "OSAJ", "instrumentType": "UNK", "source": "unknown", "network": "unknown", "commType": "UNK", "location": "", "intensity": 6.5, "intensity_flag": "", "intensity_stddev": 0.63, "pga": 7.9, "pgv": 18.3, "distance": 21.067, "elev": null, "vs30": 260.2, "channels": [{"name": "UNK", "amplitudes": [{"name": "sa(0.3)", "value": 20.8752, "units": "%g", "flag": "0", "ln_sigma": 0.0}, {"name": "sa(1.0)", "value": 21.8501, "units": "%g", "flag": "0", "ln_sigma": 0.0}, {"name": "sa(3.0)", "value": 8.0935, "units": "%g", "flag": "0", "ln_sigma": 0.0}, {"name": "pga", "value": 7.9, "units": "%g", "flag": "0", "ln_sigma": 0.0}, {"name": "pgv", "value": 18.3, "units": "cm/s", "flag": "0", "ln_sigma": 0.0}]}], "station_type": "seismic", "nresp": "null", "predictions": [{"name": "pga", "value": 23.4109, "value_rock": 18.5783, "value_soil": 23.9707, "units": "%g", "ln_tau": 0.3007, "ln_phi": 0.4885, "ln_sigma": 0.5736, "ln_sigma_rock": 0.6217, "ln_sigma_soil": 0.5498, "ln_bias": 0.3352, "ln_bias_sigma": 0.1327}, {"name": "sa(1.0)", "value": 28.6653, "value_rock": 11.721, "value_soil": 35.6095, "units": "%g", "ln_tau": 0.3438, "ln_phi": 0.614, "ln_sigma": 0.7037, "ln_sigma_rock": 0.724, "ln_sigma_soil": 0.6898, "ln_bias": 0.2682, "ln_bias_sigma": 0.1672}, {"name": "sa(3.0)", "value": 6.9511, "value_rock": 2.7022, "value_soil": 9.7894, "units": "%g", "ln_tau": 0.3735, "ln_phi": 0.6169, "ln_sigma": 0.7211, "ln_sigma_rock": 0.7251, "ln_sigma_soil": 0.7246, "ln_bias": -0.0842, "ln_bias_sigma": 0.1777}, {"name": "sa(0.3)", "value": 62.9922, "value_rock": 36.6369, "value_soil": 64.8124, "units": "%g", "ln_tau": 0.2788, "ln_phi": 0.5469, "ln_sigma": 0.6139, "ln_sigma_rock": 0.6723, "ln_sigma_soil": 0.5789, "ln_bias": 0.1716, "ln_bias_sigma": 0.1429}, {"name": "pgv", "value": 26.4834, "value_rock": 13.5203, "value_soil": 30.8585, "units": "cm/s", "ln_tau": 0.3321, "ln_phi": 0.5692, "ln_sigma": 0.659, "ln_sigma_rock": 0.6835, "ln_sigma_soil": 0.647, "ln_bias": 0.1786, "ln_bias_sigma": 0.1549}, {"name": "mmi", "value": 6.4031, "value_rock": 6.0316, "value_soil": 6.4411, "units": "intensity", "tau": 0.4832, "phi": 1.0255, "sigma": 1.1336, "sigma_rock": 1.1973, "sigma_soil": 1.1027, "bias": 0.7661, "bias_sigma": 0.2491}], "mmi_from_pgm": [{"name": "pga", "value": 4.66, "sigma": 0.66, "flag": "0"}, {"name": "sa(1.0)", "value": 6.58, "sigma": 0.75, "flag": "0"}, {"name": "sa(3.0)", "value": 7.41, "sigma": 0.89, "flag": "0"}, {"name": "sa(0.3)", "value": 5.16, "sigma": 0.82, "flag": "0"}, {"name": "pgv", "value": 6.54, "sigma": 0.63, "flag": "0"}], "distance_stddev": 0.0, "distances": {"repi": 47.137, "rhypo": 51.976, "rjb": 21.067, "rjb_var": 0.0, "rrup": 21.067, "rrup_var": 0.0, "rx": -21.729, "ry0": 2.896, "rvolc": 0.0}}, "geometry": {"type": "Point", "coordinates": [135.52, 34.6783]}}, {"type": "Feature", "id": "unknown.NIS", "properties": {"code": "NIS", "name": "Nishi-Akashi", "instrumentType": "UNK", "source": "unknown", "network": "unknown", "commType": "UNK", "location": "", "intensity": 7.5, "intensity_flag": "", "intensity_stddev": 0.63, "pga": 50.9, "pgv": 37.3, "distance": 6.732, "elev": null, "vs30": 299.3, "channels": [{"name": "UNK", "amplitudes": [{"name": "sa(0.3)", "value": 108.5116, "units": "%g", "flag": "0", "ln_sigma": 0.0}, {"name": "sa(1.0)", "value": 34.804, "units": "%g", "flag": "0", "ln_sigma": 0.0}, {"name": "sa(3.0)", "value": 7.7759, "units": "%g", "flag": "0", "ln_sigma": 0.0}, {"name": "pga", "value": 50.9, "units": "%g", "flag": "0", "ln_sigma": 0.0}, {"name": "pgv", "value": 37.3, "units": "cm/s", "flag": "0", "ln_sigma": 0.0}]}], "station_type": "seismic", "nresp": "null", "predictions": [{"name": "pga", "value": 45.4336, "value_rock": 41.7405, "value_soil": 40.8077, "units": "%g", "ln_tau": 0.2911, "ln_phi": 0.4885, "ln_sigma": 0.5686, "ln_sigma_rock": 0.6204, "ln_sigma_soil": 0.5254, "ln_bias": 0.3308, "ln_bias_sigma": 0.1319}, {"name": "sa(1.0)", "value": 56.1314, "value_rock": 26.2824, "value_soil": 66.7312, "units": "%g", "ln_tau": 0.3438, "ln_phi": 0.6157, "ln_sigma": 0.7052, "ln_sigma_rock": 0.724, "ln_sigma_soil": 0.6712, "ln_bias": 0.2682, "ln_bias_sigma": 0.1672}, {"name": "sa(3.0)", "value": 13.3176, "value_rock": 5.8005, "value_soil": 20.9594, "units": "%g", "ln_tau": 0.3734, "ln_phi": 0.6168, "ln_sigma": 0.721, "ln_sigma_rock": 0.7251, "ln_sigma_soil": 0.7243, "ln_bias": -0.0842, "ln_bias_sigma": 0.1777}, {"name": "sa(0.3)", "value": 115.3259, "value_rock": 82.8155, "value_soil": 96.3272, "units": "%g", "ln_tau": 0.2711, "ln_phi": 0.5444, "ln_sigma": 0.6082, "ln_sigma_rock": 0.672, "ln_sigma_soil": 0.5473, "ln_bias": 0.1691, "ln_bias_sigma": 0.1418}, {"name": "pgv", "value": 54.5344, "value_rock": 31.0291, "value_soil": 60.381, "units": "cm/s", "ln_tau": 0.3318, "ln_phi": 0.576, "ln_sigma": 0.6647, "ln_sigma_rock": 0.6835, "ln_sigma_soil": 0.6374, "ln_bias": 0.1785, "ln_bias_sigma": 0.1549}, {"name": "mmi", "value": 7.1385, "value_rock": 7.0022, "value_soil": 6.9659, "units": "intensity", "tau": 0.46