{"type": "FeatureCollection", "features": [{"type": "Feature", "id": "MN.TIP", "properties": {"code": "TIP", "name": "Timpagrande, Calabria, Italy", "instrumentType": "UNK", "source": "MN", "network": "MN", "commType": "UNK", "location": "", "intensity": 1.8, "intensity_flag": "", "intensity_stddev": 0.63, "pga": "null", "pgv": 0.0699, "distance": 325.823, "elev": null, "vs30": 760.0, "channels": [{"name": "BHE", "amplitudes": [{"name": "sa(0.3)", "value": 0.0225, "units": "%g", "flag": "Outlier", "ln_sigma": 0.0}, {"name": "pgv", "value": 0.0449, "units": "cm/s", "flag": "0", "ln_sigma": 0.0}, {"name": "pga", "value": 0.014, "units": "%g", "flag": "Outlier", "ln_sigma": 0.0}, {"name": "sa(3.0)", "value": 0.0247, "units": "%g", "flag": "0", "ln_sigma": 0.0}, {"name": "sa(1.0)", "value": 0.0428, "units": "%g", "flag": "0", "ln_sigma": 0.0}]}, {"name": "BHN", "amplitudes": [{"name": "sa(0.3)", "value": 0.0218, "units": "%g", "flag": "Outlier", "ln_sigma": 0.0}, {"name": "pgv", "value": 0.0699, "units": "cm/s", "flag": "0", "ln_sigma": 0.0}, {"name": "pga", "value": 0.018, "units": "%g", "flag": "Outlier", "ln_sigma": 0.0}, {"name": "sa(3.0)", "value": 0.04, "units": "%g", "flag": "0", "ln_sigma": 0.0}, {"name": "sa(1.0)", "value": 0.0495, "units": "%g", "flag": "0", "ln_sigma": 0.0}]}, {"name": "BHZ", "amplitudes": [{"name": "sa(0.3)", "value": 0.0209, "units": "%g", "flag": "Outlier", "ln_sigma": 0.0}, {"name": "pgv", "value": 0.0329, "units": "cm/s", "flag": "0", "ln_sigma": 0.0}, {"name": "pga", "value": 0.0133, "units": "%g", "flag": "Outlier", "ln_sigma": 0.0}, {"name": "sa(3.0)", "value": 0.0212, "units": "%g", "flag": "0", "ln_sigma": 0.0}, {"name": "sa(1.0)", "value": 0.0386, "units": "%g", "flag": "0", "ln_sigma": 0.0}]}], "station_type": "seismic", "nresp": "null", "predictions": [{"name": "sa(1.0)", "value": 0.3866, "value_rock": 0.3866, "value_soil": 1.5343, "units": "%g", "ln_tau": 0.0, "ln_phi": 0.6568, "ln_sigma": 0.6568, "ln_sigma_rock": 0.7864, "ln_sigma_soil": 0.785, "ln_bias": 0.0, "ln_bias_sigma": 0.4325}, {"name": "sa(0.3)", "value": 0.5556, "value_rock": 0.5556, "value_soil": 1.5456, "units": "%g", "ln_tau": 0.0, "ln_phi": 0.6281, "ln_sigma": 0.6281, "ln_sigma_rock": 0.7521, "ln_sigma_soil": 0.7495, "ln_bias": 0.0, "ln_bias_sigma": 0.4136}, {"name": "pgv", "value": 0.3884, "value_rock": 0.3884, "value_soil": 1.0681, "units": "cm/s", "ln_tau": 0.0, "ln_phi": 0.5912, "ln_sigma": 0.5912, "ln_sigma_rock": 0.7079, "ln_sigma_soil": 0.7041, "ln_bias": 0.0, "ln_bias_sigma": 0.3894}, {"name": "pga", "value": 0.2769, "value_rock": 0.2769, "value_soil": 0.4609, "units": "%g", "ln_tau": 0.0, "ln_phi": 0.5835, "ln_sigma": 0.5835, "ln_sigma_rock": 0.6986, "ln_sigma_soil": 0.6955, "ln_bias": 0.0, "ln_bias_sigma": 0.3842}, {"name": "sa(3.0)", "value": 0.1223, "value_rock": 0.1223, "value_soil": 0.3899, "units": "%g", "ln_tau": 0.0, "ln_phi": 0.65, "ln_sigma": 0.65, "ln_sigma_rock": 0.7783, "ln_sigma_soil": 0.7778, "ln_bias": 0.0, "ln_bias_sigma": 0.4281}, {"name": "mmi", "value": 2.9643, "value_rock": 2.9643, "value_soil": 3.3074, "units": "intensity", "tau": 0.0, "phi": 0.6768, "sigma": 0.6768, "sigma_rock": 0.8104, "sigma_soil": 0.8092, "bias": 0.0, "bias_sigma": 0.4457}], "mmi_from_pgm": [{"name": "sa(1.0)", "value": 1.2, "sigma": 0.75, "flag": "0"}, {"name": "sa(0.3)", "value": 1.0, "sigma": 0.82, "flag": "Outlier"}, {"name": "pgv", "value": 1.81, "sigma": 0.63, "flag": "0"}, {"name": "pga", "value": 1.0, "sigma": 0.66, "flag": "Outlier"}, {"name": "sa(3.0)", "value": 2.47, "sigma": 0.89, "flag": "0"}], "distance_stddev": 0.0, "distances": {"repi": 337.097, "rhypo": 337.277, "rjb": 325.912, "rjb_var": 0.0, "rrup": 325.823, "rrup_var": 0.0, "rx": -321.649, "ry0": 47.927, "rvolc": 0.0}}, "geometry": {"type": "Point", "coordinates": [16.7583, 39.1794]}}, {"type": "Feature", "id": "MN.PDG", "properties": {"code": "PDG", "name": "Podgorica, Crna Gora", "instrumentType": "UNK", "source": "MN", "network": "MN", "commType": "UNK", "location": "", "intensity": 1.3, "intensity_flag": "", "intensity_stddev": 0.63, "pga": 0.0224, "pgv": 0.039, "distance": 406.435, "elev": null, "vs30": 760.0, "channels": [{"name": "BHE", "amplitudes": [{"name": "sa(0.3)", "value": 0.0637, "units": "%g", "flag": "0", "ln_sigma": 0.0}, {"name": "pgv", "value": 0.0358, "units": "cm/s", "flag": "0", "ln_sigma": 0.0}, {"name": "pga", "value": 0.0224, "units": "%g", "flag": "0", "ln_sigma": 0.0}, {"name": "sa(3.0)", "value": 0.032, "units": "%g", "flag": "0", "ln_sigma": 0.0}, {"name": "sa(1.0)", "value": 0.0314, "units": "%g", "flag": "0", "ln_sigma": 0.0}]}, {"name": "BHN", "amplitudes": [{"name": "sa(0.3)", "value": 0.0521, "units": "%g", "flag": "0", "ln_sigma": 0.0}, {"name": "pgv", "value": 0.039, "units": "cm/s", "flag": "0", "ln_sigma": 0.0}, {"name": "pga", "value": 0.0178, "units": "%g", "flag": "0", "ln_sigma": 0.0}, {"name": "sa(3.0)", "value": 0.0187, "units": "%g", "flag": "0", "ln_sigma": 0.0}, {"name": "sa(1.0)", "value": 0.0285, "units": "%g", "flag": "0", "ln_sigma": 0.0}]}, {"name": "BHZ", "amplitudes": [{"name": "sa(0.3)", "value": 0.0456, "units": "%g", "flag": "0", "ln_sigma": 0.0}, {"name": "pgv", "value": 0.0414, "units": "cm/s", "flag": "0", "ln_sigma": 0.0}, {"name": "pga", "value": 0.0179, "units": "%g", "flag": "0", "ln_sigma": 0.0}, {"name": "sa(3.0)", "value": 0.0209, "units": "%g", "flag": "0", "ln_sigma": 0.0}, {"name": "sa(1.0)", "value": 0.0336, "units": "%g", "flag": "0", "ln_sigma": 0.0}]}], "station_type": "seismic", "nresp": "null", "predictions": [{"name": "sa(1.0)", "value": 0.2931, "value_rock": 0.2931, "value_soil": 1.1671, "units": "%g", "ln_tau": 0.0, "ln_phi": 0.6568, "ln_sigma": 0.6568, "ln_sigma_rock": 0.7864, "ln_sigma_soil": 0.7851, "ln_bias": 0.0, "ln_bias_sigma": 0.4325}, {"name": "sa(0.3)", "value": 0.3606, "value_rock": 0.3606, "value_soil": 1.0078, "units": "%g", "ln_tau": 0.0, "ln_phi": 0.6281, "ln_sigma": 0.6281, "ln_sigma_rock": 0.7521, "ln_sigma_soil": 0.7497, "ln_bias": 0.0, "ln_bias_sigma": 0.4136}, {"name": "pgv", "value": 0.2922, "value_rock": 0.2922, "value_soil": 0.8056, "units": "cm/s", "ln_tau": 0.0, "ln_phi": 0.5912, "ln_sigma": 0.5912, "ln_sigma_rock": 0.7079, "ln_sigma_soil": 0.7043, "ln_bias": 0.0, "ln_bias_sigma": 0.3894}, {"name": "pga", "value": 0.1733, "value_rock": 0.1733, "value_soil": 0.2894, "units": "%g", "ln_tau": 0.0, "ln_phi": 0.5835, "ln_sigma": 0.5835, "ln_sigma_rock": 0.6986, "ln_sigma_soil": 0.6956, "ln_bias": 0.0, "ln_bias_sigma": 0.3842}, {"name": "sa(3.0)", "value": 0.0963, "value_rock": 0.0963, "value_soil": 0.3076, "units": "%g", "ln_tau": 0.0, "ln_phi": 0.65, "ln_sigma": 0.65, "ln_sigma_rock": 0.7783, "ln_sigma_soil": 0.7778, "ln_bias": 0.0, "ln_bias_sigma": 0.4281}, {"name": "mmi", "value": 2.6488, "value_rock": 2.6488, "value_soil": 2.994, "units": "intensity", "tau": 0.0, "phi": 0.6768, "sigma": 0.6768, "sigma_rock": 0.8104, "sigma_soil": 0.8092, "bias": 0.0, "bias_sigma": 0.4457}], "mmi_from_pgm": [{"name": "sa(1.0)", "value": 1.0, "sigma": 0.75, "flag": "0"}, {"name": "sa(0.3)", "value": 1.19, "sigma": 0.82, "flag": "0"}, {"name": "pgv", "value": 1.29, "sigma": 0.63, "flag": "0"}, {"name": "pga", "value": 1.0, "sigma": 0.66, "flag": "0"}, {"name": "sa(3.0)", "value": 2.35, "sigma": 0.89, "flag": "0"}], "distance_stddev": 0.0, "distances": {"repi": 433.084, "rhypo": 433.224, "rjb": 406.564, "rjb_var": 0.0, "rrup": 406.435, "rrup_var": 0.0, "rx": -268.956, "ry0": 305.513, "rvolc": 0.0}}, "geometry": {"type": "Point", "coordinates": [19.2608, 42.4297]}}, {"type": "Feature", "id": "MN.VTS", "properties": {"code": "VTS", "name": "Stasrv: unknown station", "instrumentType": "UNK", "source": "MN", "network": "MN", "commType": "UNK", "location": "", "intensity": 1.2, "intensity_flag": "", "intensity_stddev": 0.63, "pga": "null", "pgv": 0.034, "distance": 461.981, "elev": null, "vs30": 760.0, "channels": [{"name": "BHE", "amplitudes": [{"name": "sa(0.3)", "value": 0.0106, "units": "%g", "flag": "Outlier", "ln_sigma": 0.0}, {"name": "pgv", "value": 0.034, "units": "cm/s", "flag": "0", "ln_sigma": 0.0}, {"name": "pga", "value": 0.0047, "units": "%g", "flag": "Outlier", "ln_sigma": 0.0}, {"name": "sa(3.0)", "value": 0.0112, "units": "%g", "flag": "0", "ln_sigma": 0.0}, {"name": "sa(1.0)", "value": 0.0096, "units": "%g", "flag": "Outlier", "ln_sigma": 0.0}]}, {"name": "BHN", "amplitudes": [{"name": "sa(0.3)", "value": 0.0075, "units": "%g", "flag": "Outlier", "ln_sigma": 0.0}, {"name": "pgv", "value": 0.022, "units": "cm/s", "flag": "0", "ln_sigma": 0.0}, {"name": "pga", "value": 0.0041, "units": "%g", "flag": "Outlier", "ln_sigma": 0.0}, {"name": "sa(3.0)", "value": 0.0091, "units": "%g", "flag": "0", "ln_sigma": 0.0}, {"name": "sa(1.0)", "value": 0.0094, "units": "%g", "flag": "Outlier", "ln_sigma": 0.0}]}, {"name": "BHZ", "amplitudes": [{"name": "sa(0.3)", "value": 0.0055, "units": "%g", "flag": "Outlier", "ln_sigma": 0.0}, {"name": "pgv", "value": 0.0193, "units": "cm/s", "flag": "0", "ln_sigma": 0.0}, {"name": "pga", "value": 0.0044, "units": "%g", "flag": "Outlier", "ln_sigma": 0.0}, {"name": "sa(3.0)", "value": 0.0114, "units": "%g", "flag": "0", "ln_sigma": 0.0}, {"name": "sa(1.0)", "value": 0.0079, "units": "%g", "flag": "Outlier", "ln_sigma": 0.0}]}], "station_type": "seismic", "nresp": "null", "predictions": [{"name": "sa(1.0)", "value": 0.2482, "value_rock": 0.2482, "value_soil": 0.9899, "units": "%g", "ln_tau": 0.0, "ln_phi": 0.6568, "ln_sigma": 0.6568, "ln_sigma_rock": 0.7864, "ln_sigma_soil": 0.7851, "ln_bias": 0.0, "ln_bias_sigma": 0.4325}, {"name": "sa(0.3)", "value": 0.2753, "value_rock": 0.2753, "value_soil": 0.771, "units": "%g", "ln_tau": 0.0, "ln_phi": 0.6281, "ln_sigma": 0.6281, "ln_sigma_rock": 0.7521, "ln_sigma_soil": 0.7497, "ln_bias": 0.0, "ln_bias_sigma": 0.4136}, {"name": "pgv", "value": 0.2468, "value_rock": 0.2468, "value_soil": 0.6811, "units": "cm/s", "ln_tau": 0.0, "ln_phi": 0.5912, "ln_sigma": 0.5912, "ln_sigma_rock": 0.7079, "ln_sigma_soil": 0.7043, "ln_bias": 0.0, "ln_bias_sigma": 0.3894}, {"name": "pga", "value": 0.1293, "value_rock": 0.1293, "value_soil": 0.2162, "units": "%g", "ln_tau": 0.0, "ln_phi": 0.5835, "ln_sigma": 0.5835, "ln_sigma_rock": 0.6986, "ln_sigma_soil": 0.6957, "ln_bias": 0.0, "ln_bias_sigma": 0.3842}, {"name": "sa(3.0)", "value": 0.0838, "value_rock": 0.0838, "value_soil": 0.2677, "units": "%g", "ln_tau": 0.0, "ln_phi": 0.65, "ln_sigma": 0.65, "ln_sigma_rock": 0.7783, "ln_sigma_soil": 0.7778, "ln_bias": 0.0, "ln_bias_sigma": 0.4281}, {"name": "mmi", "value": 2.4365, "value_rock": 2.4365, "value_soil": 2.7979, "units": "intensity", "tau": 0.0, "phi": 0.7627, "sigma": 0.7627, "sigma_rock": 0.9132, "sigma_soil": 0.8093, "bias": 0.0, "bias_sigma": 0.5022}], "mmi_from_pgm": [{"name": "sa(1.0)", "value": 1.0, "sigma": 0.75, "flag": "Outlier"}, {"name": "sa(0.3)", "value": 1.0, "sigma": 0.82, "flag": "Outlier"}, {"name": "pgv", "value": 1.16, "sigma": 0.63, "flag": "0"}, {"name": "pga", "value": 1.0, "sigma": 0.66, "flag": "Outlier"}, {"name": "sa(3.0)", "value": 1.82, "sigma": 0.89, "flag": "0"}], "distance_stddev": 0.0, "distances": {"repi": 492.014, "rhypo": 492.137, "rjb": 462.282, "rjb_var": 0.0, "rrup": 461.981, "rrup_var": 0.0, "rx": 16.991, "ry0": 462.503, "rvolc": 0.0}}, "geometry": {"type": "Point", "coordinates": [23.235, 42.618]}}, {"type": "Feature", "id": "MN.TIR", "properties": {"code": "TIR", "name": "Tirana, Albania", "instrumentType": "UNK", "source": "MN", "network": "MN", "commType": "UNK", "location": "", "intensity": 2.3, "intensity_flag": "", "intensity_stddev": 0.63, "pga": 0.0607, "pgv": 0.1581, "distance": 277.105, "elev": null, "vs30": 760.0, "channels": [{"name": "BHE", "amplitudes": [{"name": "sa(0.3)", "value": 0.083, "units": "%g", "flag": "0", "ln_sigma": 0.0}, {"name": "pgv", "value": 0.1305, "units": "cm/s", "flag": "0", "ln_sigma": 0.0}, {"name": "pga", "value": 0.053, "units": "%g", "flag": "0", "ln_sigma": 0.0}, {"name": "sa(3.0)", "value": 0.0815, "units": "%g", "flag": "0", "ln_sigma": 0.0}, {"name": "sa(1.0)", "value": 0.1538, "units": "%g", "flag": "0", "ln_sigma": 0.0}]}, {"name": "BHN", "amplitudes": [{"name": "sa(0.3)", "value": 0.108, "units": "%g", "flag": "0", "ln_sigma": 0.0}, {"name": "pgv", "value": 0.1581, "units": "cm/s", "flag": "0", "ln_sigma": 0.0}, {"name": "pga", "value": 0.0607, "units": "%g", "flag": "0", "ln_sigma": 0.0}, {"name": "sa(3.0)", "value": 0.1076, "units": "%g", "flag": "0", "ln_sigma": 0.0}, {"name": "sa(1.0)", "value": 0.1698, "units": "%g", "flag": "0", "ln_sigma": 0.0}]}, {"name": "BHZ", "amplitudes": [{"name": "sa(0.3)", "value": 0.0913, "units": "%g", "flag": "0", "ln_sigma": 0.0}, {"name": "pgv", "value": 0.1254, "units": "cm/s", "flag": "0", "ln_sigma": 0.0}, {"name": "pga", "value": 0.0407, "units": "%g", "flag": "0", "ln_sigma": 0.0}, {"name": "sa(3.0)", "value": 0.0834, "units": "%g", "flag": "0", "ln_sigma": 0.0}, {"name": "sa(1.0)", "value": 0.099, "units": "%g", "flag": "0", "ln_sigma": 0.0}]}], "station_type": "seismic", "nresp": "null", "predictions": [{"name": "sa(1.0)", "value": 0.4694, "value_rock": 0.4694, "value_soil": 1.8577, "units": "%g", "ln_tau": 0.0, "ln_phi": 0.6568, "ln_sigma": 0.6568, "ln_sigma_rock": 0.7864, "ln_sigma_soil": 0.7849, "ln_bias": 0.0, "ln_bias_sigma": 0.4325}, {"name": "sa(0.3)", "value": 0.7438, "value_rock": 0.7438, "value_soil": 2.06, "units": "%g", "ln_tau": 0.0, "ln_phi": 0.6281, "ln_sigma": 0.6281, "ln_sigma_rock": 0.7521, "ln_sigma_soil": 0.7493, "ln_bias": 0.0, "ln_bias_sigma": 0.4136}, {"name": "pgv", "value": 0.4752, "value_rock": 0.4752, "value_soil": 1.3039, "units": "cm/s", "ln_tau": 0.0, "ln_phi": 0.5912, "ln_sigma": 0.5912, "ln_sigma_rock": 0.7079, "ln_sigma_soil": 0.7041, "ln_bias": 0.0, "ln_bias_sigma": 0.3894}, {"name": "pga", "value": 0.3799, "value_rock": 0.3799, "value_soil": 0.6306, "units": "%g", "ln_tau": 0.0, "ln_phi": 0.5835, "ln_sigma": 0.5835, "ln_sigma_rock": 0.6986, "ln_sigma_soil": 0.6953, "ln_bias": 0.0, "ln_bias_sigma": 0.3842}, {"name": "sa(3.0)", "value": 0.1452, "value_rock": 0.1452, "value_soil": 0.4623, "units": "%g", "ln_tau": 0.0, "ln_phi": 0.65, "ln_sigma": 0.65, "ln_sigma_rock": 0.7783, "ln_sigma_soil": 0.7778, "ln_bias": 0.0, "ln_bias_sigma": 0.4281}, {"name": "mmi", "value": 3.1421, "value_rock": 3.1421, "value_soil": 3.4832, "units": "intensity", "tau": 0.0, "phi": 0.6768, "sigma": 0.6768, "sigma_rock": 0.8104, "sigma_soil": 0.8091, "bias": 0.0, "bias_sigma": 0.4457}], "mmi_from_pgm": [{"name": "sa(1.0)", "value": 2.02, "sigma": 0.75, "flag": "0"}, {"name": "sa(0.3)", "value": 1.61, "sigma": 0.82, "flag": "0"}, {"name": "pgv", "value": 2.33, "sigma": 0.63, "flag": "0"}, {"name": "pga", "value": 1.72, "sigma": 0.66, "flag": "0"}, {"name": "sa(3.0)", "value": 2.99, "sigma": 0.89, "flag": "0"}], "distance_stddev": 0.0, "distances": {"repi": 304.231, "rhypo": 304.43, "rjb": 277.169, "rjb_var": 0.0, "rrup": 277.105, "rrup_var": 0.0, "rx": -174.479, "ry0": 215.855, "rvolc": 0.0}}, "geometry": {"type": "Point", "coordinates": [19.8631, 41.3472]}}, {"type": "Feature", "id": "IV.SCTE", "properties": {"code": "SCTE", "name": "Santa Cesarea Terme", "instrumentType": "UNK", "source": "IV", "network": "IV", "commType": "UNK", "location": "", "intensity": 2.5, "intensity_flag": "", "intensity_stddev": 0.63, "pga": 0.1582, "pgv": 0.2091, "distance": 228.646, "elev": null, "vs30": 438.01, "channels": [{"name": "HHE", "amplitudes": [{"name": "sa(0.3)", "value": 0.323, "units": "%g", "flag": "0", "ln_sigma": 0.0}, {"name": "pgv", "value": 0.2091, "units": "cm/s", "flag": "0", "ln_sigma": 0.0}, {"name": "pga", "value": 0.1582, "units": "%g", "flag": "0", "ln_sigma": 0.0}, {"name": "sa(3.0)", "value": 0.0517, "units": "%g", "flag": "0", "ln_sigma": 0.0}, {"name": "sa(1.0)", "value": 0.1861, "units": "%g", "flag": "0", "ln_sigma": 0.0}]}, {"name": "HHN", "amplitudes": [{"name": "sa(0.3)", "value": 0.2843, "units": "%g", "flag": "0", "ln_sigma": 0.0}, {"name": "pgv", "value": 0.1397, "units": "cm/s", "flag": "0", "ln_sigma": 0.0}, {"name": "pga", "value": 0.1382, "units": "%g", "flag": "0", "ln_sigma": 0.0}, {"name": "sa(3.0)", "value": 0.0563, "units": "%g", "flag": "0", "ln_sigma": 0.0}, {"name": "sa(1.0)", "value": 0.2426, "units": "%g", "flag": "0", "ln_sigma": 0.0}]}, {"name": "HHZ", "amplitudes": [{"name": "sa(0.3)", "value": 0.2129, "units": "%g", "flag": "0", "ln_sigma": 0.0}, {"name": "pgv", "value": 0.098, "units": "cm/s", "flag": "0", "ln_sigma": 0.0}, {"name": "pga", "value": 0.0976, "units": "%g", "flag": "0", "ln_sigma": 0.0}, {"name": "sa(3.0)", "value": 0.0441, "units": "%g", "flag": "0", "ln_sigma": 0.0}, {"name": "sa(1.0)", "value": 0.093, "units": "%g", "flag": "0", "ln_sigma": 0.0}]}], "station_type": "seismic", "nresp": "null", "predictions": [{"name": "sa(1.0)", "value": 0.9878, "value_rock": 0.5871, "value_soil": 2.3134, "units": "%g", "ln_tau": 0.0, "ln_phi": 0.6561, "ln_sigma": 0.6561, "ln_sigma_rock": 0.7856, "ln_sigma_soil": 0.7839, "ln_bias": 0.0, "ln_bias_sigma": 0.4321}, {"name": "sa(0.3)", "value": 1.5814, "value_rock": 1.0292, "value_soil": 2.8312, "units": "%g", "ln_tau": 0.0, "ln_phi": 0.6272, "ln_sigma": 0.6272, "ln_sigma_rock": 0.751, "ln_sigma_soil": 0.7479, "ln_bias": 0.0, "ln_bias_sigma": 0.413}, {"name": "pgv", "value": 0.8758, "value_rock": 0.6006, "value_soil": 1.6428, "units": "cm/s", "ln_tau": 0.0, "ln_phi": 0.5907, "ln_sigma": 0.5907, "ln_sigma_rock": 0.7073, "ln_sigma_soil": 0.7033, "ln_bias": 0.0, "ln_bias_sigma": 0.389}, {"name": "pga", "value": 0.673, "value_rock": 0.5403, "value_soil": 0.8927, "units": "%g", "ln_tau": 0.0, "ln_phi": 0.5828, "ln_sigma": 0.5828, "ln_sigma_rock": 0.6979, "ln_sigma_soil": 0.6944, "ln_bias": 0.0, "ln_bias_sigma": 0.3838}, {"name": "sa(3.0)", "value": 0.2726, "value_rock": 0.1776, "value_soil": 0.5643, "units": "%g", "ln_tau": 0.0, "ln_phi": 0.65, "ln_sigma": 0.65, "ln_sigma_rock": 0.7783, "ln_sigma_soil": 0.7778, "ln_bias": 0.0, "ln_bias_sigma": 0.428}, {"name": "mmi", "value": 3.4419, "value_rock": 3.294, "value_soil": 3.6321, "units": "intensity", "tau": 0.0, "phi": 0.6766, "sigma": 0.6766, "sigma_rock": 0.8101, "sigma_soil": 0.8087, "bias": 0.0, "bias_sigma": 0.4455}], "mmi_from_pgm": [{"name": "sa(1.0)", "value": 2.3, "sigma": 0.75, "flag": "0"}, {"name": "sa(0.3)", "value": 2.47, "sigma": 0.82, "flag": "0"}, {"name": "pgv", "value": 2.51, "sigma": 0.63, "flag": "0"}, {"name": "pga", "value": 2.47, "sigma": 0.66, "flag": "0"}, {"name": "sa(3.0)", "value": 2.71, "sigma": 0.89, "flag": "0"}], "distance_stddev": 0.0, "distances": {"repi": 240.65, "rhypo": 240.902, "rjb": 228.68, "rjb_var": 0.0, "rrup": 228.646, "rrup_var": 0.0, "rx": -225.092, "ry0": 38.754, "rvolc": 0.0}}, "geometry": {"type": "Point", "coordinates": [18.4675, 40.0724]}}, {"type": "Feature", "id": "MN.CEL", "properties": {"code": "CEL", "name": "Celeste, Calabria, Italy", "instrumentType": "UNK", "source": "MN", "network": "MN", "commType": "UNK", "location": "", "intensity": 1.0, "intensity_flag": "", "intensity_stddev": 0.63, "pga": 0.0237, "pgv": "null", "distance": 392.919, "elev": null, "vs30": 760.0, "channels": [{"name": "BHE", "amplitudes": [{"name": "sa(0.3)", "value": 0.0651, "units": "%g", "flag": "0", "ln_sigma": 0.0}, {"name": "pgv", "value": 0.026, "units": "cm/s", "flag": "Outlier", "ln_sigma": 0.0}, {"name": "pga", "value": 0.0237, "units": "%g", "flag": "0", "ln_sigma": 0.0}, {"name": "sa(3.0)", "value": 0.0083, "units": "%g", "flag": "0", "ln_sigma": 0.0}, {"name": "sa(1.0)", "value": 0.0542, "units": "%g", "flag": "0", "ln_sigma": 0.0}]}, {"name": "BHN", "amplitudes": [{"name": "sa(0.3)", "value": 0.0536, "units": "%g", "flag": "0", "ln_sigma": 0.0}, {"name": "pgv", "value": 0.0249, "units": "cm/s", "flag": "Outlier", "ln_sigma": 0.0}, {"name": "pga", "value": 0.0229, "units": "%g", "flag": "0", "ln_sigma": 0.0}, {"name": "sa(3.0)", "value": 0.0128, "units": "%g", "flag": "0", "ln_sigma": 0.0}, {"name": "s