{"type": "FeatureCollection", "features": [{"type": "Feature", "id": "NOA.YERA", "properties": {"code": "YERA", "name": "DAM", "instrumentType": "UNK", "source": "NOA", "network": "NOA", "commType": "UNK", "location": "", "intensity": 4.7, "intensity_flag": "", "intensity_stddev": 0.63, "pga": 4.0, "pgv": 4.69, "distance": 84.335, "elev": null, "vs30": 411.22, "channels": [{"name": "H2", "amplitudes": [{"name": "pgv", "value": 4.69, "units": "cm/s", "flag": "0", "ln_sigma": 0.0}, {"name": "pga", "value": 4.0, "units": "%g", "flag": "0", "ln_sigma": 0.0}]}, {"name": "H1", "amplitudes": [{"name": "pgv", "value": 4.34, "units": "cm/s", "flag": "0", "ln_sigma": 0.0}, {"name": "pga", "value": 3.0, "units": "%g", "flag": "0", "ln_sigma": 0.0}]}], "station_type": "seismic", "nresp": "null", "predictions": [{"name": "pgv", "value": 4.5736, "value_rock": 3.2006, "value_soil": 7.777, "units": "cm/s", "ln_tau": 0.3388, "ln_phi": 0.692, "ln_sigma": 0.7705, "ln_sigma_rock": 0.7745, "ln_sigma_soil": 0.765, "ln_bias": 0.0049, "ln_bias_sigma": 0.3043}, {"name": "sa(0.3)", "value": 12.9592, "value_rock": 8.7214, "value_soil": 19.2426, "units": "%g", "ln_tau": 0.3263, "ln_phi": 0.6551, "ln_sigma": 0.7319, "ln_sigma_rock": 0.7396, "ln_sigma_soil": 0.7104, "ln_bias": 0.0, "ln_bias_sigma": 0.3263}, {"name": "sa(3.0)", "value": 1.1044, "value_rock": 0.7281, "value_soil": 2.1178, "units": "%g", "ln_tau": 0.3545, "ln_phi": 0.642, "ln_sigma": 0.7334, "ln_sigma_rock": 0.7384, "ln_sigma_soil": 0.7382, "ln_bias": 0.0, "ln_bias_sigma": 0.3545}, {"name": "sa(1.0)", "value": 4.785, "value_rock": 3.0558, "value_soil": 9.0848, "units": "%g", "ln_tau": 0.3568, "ln_phi": 0.6591, "ln_sigma": 0.7495, "ln_sigma_rock": 0.7526, "ln_sigma_soil": 0.7423, "ln_bias": 0.0, "ln_bias_sigma": 0.3568}, {"name": "pga", "value": 5.5749, "value_rock": 4.5526, "value_soil": 6.6558, "units": "%g", "ln_tau": 0.3442, "ln_phi": 0.6037, "ln_sigma": 0.6949, "ln_sigma_rock": 0.702, "ln_sigma_soil": 0.6798, "ln_bias": -0.0815, "ln_bias_sigma": 0.299}, {"name": "mmi", "value": 4.7288, "value_rock": 4.4033, "value_soil": 5.0135, "units": "intensity", "tau": 0.5531, "phi": 1.1733, "sigma": 1.2972, "sigma_rock": 1.307, "sigma_soil": 1.2763, "bias": -0.0062, "bias_sigma": 0.5108}], "mmi_from_pgm": [{"name": "pgv", "value": 4.69, "sigma": 0.63, "flag": "0"}, {"name": "sa(0.3)", "value": null, "sigma": null, "flag": "0"}, {"name": "sa(3.0)", "value": null, "sigma": null, "flag": "0"}, {"name": "sa(1.0)", "value": null, "sigma": null, "flag": "0"}, {"name": "pga", "value": 4.2, "sigma": 0.66, "flag": "0"}], "distance_stddev": 17.79, "distances": {"repi": 89.392, "rhypo": 95.288, "rjb": 76.0, "rjb_var": 159.346, "rrup": 84.335, "rrup_var": 316.491, "rx": 0.0, "ry0": 0.0, "rvolc": 0.0}}, "geometry": {"type": "Point", "coordinates": [33.08, 34.73]}}, {"type": "Feature", "id": "G.LAV", "properties": {"code": "LAV", "name": "Lahav", "instrumentType": "UNK", "source": "G", "network": "G", "commType": "UNK", "location": "", "intensity": 2.9, "intensity_flag": "", "intensity_stddev": 0.63, "pga": 0.6122, "pgv": 0.45, "distance": 422.083, "elev": null, "vs30": 760.0, "channels": [{"name": "N", "amplitudes": [{"name": "sa(0.3)", "value": 1.2551, "units": "%g", "flag": "0", "ln_sigma": 0.0}, {"name": "pgv", "value": 0.45, "units": "cm/s", "flag": "0", "ln_sigma": 0.0}, {"name": "sa(3.0)", "value": 0.0668, "units": "%g", "flag": "0", "ln_sigma": 0.0}, {"name": "sa(1.0)", "value": 1.0408, "units": "%g", "flag": "0", "ln_sigma": 0.0}, {"name": "pga", "value": 0.6122, "units": "%g", "flag": "0", "ln_sigma": 0.0}]}, {"name": "Z", "amplitudes": [{"name": "sa(0.3)", "value": 0.8765, "units": "%g", "flag": "0", "ln_sigma": 0.0}, {"name": "pgv", "value": 0.19, "units": "cm/s", "flag": "0", "ln_sigma": 0.0}, {"name": "sa(3.0)", "value": 0.0502, "units": "%g", "flag": "0", "ln_sigma": 0.0}, {"name": "sa(1.0)", "value": 0.2592, "units": "%g", "flag": "0", "ln_sigma": 0.0}, {"name": "pga", "value": 0.3031, "units": "%g", "flag": "0", "ln_sigma": 0.0}]}, {"name": "E", "amplitudes": [{"name": "sa(0.3)", "value": 1.2143, "units": "%g", "flag": "0", "ln_sigma": 0.0}, {"name": "pgv", "value": 0.313, "units": "cm/s", "flag": "0", "ln_sigma": 0.0}, {"name": "sa(3.0)", "value": 0.1337, "units": "%g", "flag": "0", "ln_sigma": 0.0}, {"name": "sa(1.0)", "value": 0.6959, "units": "%g", "flag": "0", "ln_sigma": 0.0}, {"name": "pga", "value": 0.402, "units": "%g", "flag": "0", "ln_sigma": 0.0}]}], "station_type": "seismic", "nresp": "null", "predictions": [{"name": "pgv", "value": 0.2352, "value_rock": 0.2352, "value_soil": 0.593, "units": "cm/s", "ln_tau": 0.3393, "ln_phi": 0.6514, "ln_sigma": 0.7345, "ln_sigma_rock": 0.7375, "ln_sigma_soil": 0.7364, "ln_bias": 0.0049, "ln_bias_sigma": 0.3046}, {"name": "sa(0.3)", "value": 0.2541, "value_rock": 0.2541, "value_soil": 0.6166, "units": "%g", "ln_tau": 0.3289, "ln_phi": 0.6041, "ln_sigma": 0.6879, "ln_sigma_rock": 0.6905, "ln_sigma_soil": 0.6897, "ln_bias": 0.0, "ln_bias_sigma": 0.3289}, {"name": "sa(3.0)", "value": 0.0819, "value_rock": 0.0819, "value_soil": 0.2382, "units": "%g", "ln_tau": 0.3546, "ln_phi": 0.6066, "ln_sigma": 0.7026, "ln_sigma_rock": 0.7071, "ln_sigma_soil": 0.707, "ln_bias": 0.0, "ln_bias_sigma": 0.3546}, {"name": "sa(1.0)", "value": 0.2104, "value_rock": 0.2104, "value_soil": 0.6493, "units": "%g", "ln_tau": 0.3572, "ln_phi": 0.6171, "ln_sigma": 0.713, "ln_sigma_rock": 0.7148, "ln_sigma_soil": 0.7139, "ln_bias": 0.0, "ln_bias_sigma": 0.3572}, {"name": "pga", "value": 0.1326, "value_rock": 0.1326, "value_soil": 0.2087, "units": "%g", "ln_tau": 0.3476, "ln_phi": 0.5434, "ln_sigma": 0.6451, "ln_sigma_rock": 0.6469, "ln_sigma_soil": 0.6463, "ln_bias": -0.0827, "ln_bias_sigma": 0.3012}, {"name": "mmi", "value": 2.408, "value_rock": 2.408, "value_soil": 2.723, "units": "intensity", "tau": 0.314, "phi": 0.8225, "sigma": 0.8804, "sigma_rock": 0.8815, "sigma_soil": 0.7905, "bias": -0.0022, "bias_sigma": 0.3056}], "mmi_from_pgm": [{"name": "pgv", "value": 2.95, "sigma": 0.63, "flag": "0"}, {"name": "sa(0.3)", "value": 3.54, "sigma": 0.82, "flag": "0"}, {"name": "sa(3.0)", "value": 3.02, "sigma": 0.89, "flag": "0"}, {"name": "sa(1.0)", "value": 3.11, "sigma": 0.75, "flag": "0"}, {"name": "pga", "value": 3.45, "sigma": 0.66, "flag": "0"}], "distance_stddev": 15.387, "distances": {"repi": 436.089, "rhypo": 437.336, "rjb": 421.22, "rjb_var": 180.421, "rrup": 422.083, "rrup_var": 236.752, "rx": 0.0, "ry0": 0.0, "rvolc": 0.0}}, "geometry": {"type": "Point", "coordinates": [34.866, 31.378]}}], "metadata": {"eventid": "usp0007r4u"}}