{"type": "FeatureCollection", "features": [{"type": "Feature", "id": "ITACA.PNN", "properties": {"code": "PNN", "name": "PNN", "instrumentType": "UNK", "source": "ITACA", "network": "ITACA", "commType": "UNK", "location": "", "intensity": 3.7, "intensity_flag": "", "intensity_stddev": 0.63, "pga": "null", "pgv": 1.085, "distance": 88.447, "elev": null, "vs30": 640.63, "channels": [{"name": "NS", "amplitudes": [{"name": "sa(0.3)", "value": 6.895, "units": "%g", "flag": "UnknownOrientation,0", "ln_sigma": 0.0}, {"name": "sa(1.0)", "value": 1.674, "units": "%g", "flag": "UnknownOrientation,0", "ln_sigma": 0.0}, {"name": "pga", "value": "null", "units": "%g", "flag": "G,UnknownOrientation,0,Outlier", "ln_sigma": "null"}, {"name": "sa(3.0)", "value": 0.125, "units": "%g", "flag": "UnknownOrientation,0", "ln_sigma": 0.0}, {"name": "pgv", "value": "null", "units": "cm/s", "flag": "G,UnknownOrientation,0", "ln_sigma": "null"}]}, {"name": "UP", "amplitudes": [{"name": "sa(0.3)", "value": 1.905, "units": "%g", "flag": "UnknownOrientation,0", "ln_sigma": 0.0}, {"name": "sa(1.0)", "value": 1.596, "units": "%g", "flag": "UnknownOrientation,0", "ln_sigma": 0.0}, {"name": "pga", "value": "null", "units": "%g", "flag": "G,UnknownOrientation,0,Outlier", "ln_sigma": "null"}, {"name": "sa(3.0)", "value": 0.166, "units": "%g", "flag": "UnknownOrientation,0", "ln_sigma": 0.0}, {"name": "pgv", "value": 0.5383, "units": "cm/s", "flag": "UnknownOrientation,0", "ln_sigma": 0.0}]}, {"name": "WE", "amplitudes": [{"name": "sa(0.3)", "value": 6.299, "units": "%g", "flag": "0", "ln_sigma": 0.0}, {"name": "sa(1.0)", "value": 1.777, "units": "%g", "flag": "0", "ln_sigma": 0.0}, {"name": "pga", "value": "null", "units": "%g", "flag": "Glitch,0,Outlier", "ln_sigma": "null"}, {"name": "sa(3.0)", "value": 0.117, "units": "%g", "flag": "0", "ln_sigma": 0.0}, {"name": "pgv", "value": 1.085, "units": "cm/s", "flag": "0", "ln_sigma": 0.0}]}], "station_type": "seismic", "nresp": "null", "predictions": [{"name": "sa(3.0)", "value": 0.1955, "value_rock": 0.1717, "value_soil": 0.5472, "units": "%g", "ln_tau": 0.4396, "ln_phi": 0.6615, "ln_sigma": 0.7943, "ln_sigma_rock": 0.8004, "ln_sigma_soil": 0.8002, "ln_bias": 0.8959, "ln_bias_sigma": 0.1275}, {"name": "sa(1.0)", "value": 0.8792, "value_rock": 0.753, "value_soil": 2.9589, "units": "%g", "ln_tau": 0.4323, "ln_phi": 0.6786, "ln_sigma": 0.8046, "ln_sigma_rock": 0.8087, "ln_sigma_soil": 0.8059, "ln_bias": 0.9855, "ln_bias_sigma": 0.1173}, {"name": "sa(0.3)", "value": 2.4369, "value_rock": 2.168, "value_soil": 5.8814, "units": "%g", "ln_tau": 0.3898, "ln_phi": 0.6655, "ln_sigma": 0.7712, "ln_sigma_rock": 0.7732, "ln_sigma_soil": 0.7677, "ln_bias": 0.7619, "ln_bias_sigma": 0.105}, {"name": "pgv", "value": 0.8087, "value_rock": 0.7247, "value_soil": 1.969, "units": "cm/s", "ln_tau": 0.3935, "ln_phi": 0.6032, "ln_sigma": 0.7202, "ln_sigma_rock": 0.7251, "ln_sigma_soil": 0.7207, "ln_bias": 1.0721, "ln_bias_sigma": 0.1033}, {"name": "pga", "value": 1.3733, "value_rock": 1.294, "value_soil": 2.1158, "units": "%g", "ln_tau": 0.4047, "ln_phi": 0.5939, "ln_sigma": 0.7187, "ln_sigma_rock": 0.7219, "ln_sigma_soil": 0.7171, "ln_bias": 0.8364, "ln_bias_sigma": 0.0947}, {"name": "mmi", "value": 3.4645, "value_rock": 3.3945, "value_soil": 4.0325, "units": "intensity", "tau": 0.2512, "phi": 0.7384, "sigma": 0.7799, "sigma_rock": 0.7818, "sigma_soil": 0.7801, "bias": 0.6015, "bias_sigma": 0.105}], "mmi_from_pgm": [{"name": "sa(3.0)", "value": 3.42, "sigma": 0.89, "flag": "0"}, {"name": "sa(1.0)", "value": 3.95, "sigma": 0.75, "flag": "0"}, {"name": "sa(0.3)", "value": 4.4, "sigma": 0.82, "flag": "0"}, {"name": "pgv", "value": 3.65, "sigma": 0.63, "flag": "0"}, {"name": "pga", "value": null, "sigma": null, "flag": "0"}], "distance_stddev": 0.0, "distances": {"repi": 92.856, "rhypo": 93.393, "rjb": 88.449, "rjb_var": 0.0, "rrup": 88.447, "rrup_var": 0.0, "rx": -8.543, "ry0": 88.023, "rvolc": 0.0}}, "geometry": {"type": "Point", "coordinates": [12.2614, 43.8172]}}, {"type": "Feature", "id": "ITACA.GBB", "properties": {"code": "GBB", "name": "GBB", "instrumentType": "UNK", "source": "ITACA", "network": "ITACA", "commType": "UNK", "location": "", "intensity": "null", "intensity_flag": "", "intensity_stddev": "null", "pga": 8.323, "pgv": "null", "distance": 30.545, "elev": null, "vs30": 588.0, "channels": [{"name": "NS", "amplitudes": [{"name": "sa(0.3)", "value": 10.009, "units": "%g", "flag": "UnknownOrientation,0", "ln_sigma": 0.0}, {"name": "sa(1.0)", "value": 1.906, "units": "%g", "flag": "UnknownOrientation,0", "ln_sigma": 0.0}, {"name": "pga", "value": "null", "units": "%g", "flag": "G,UnknownOrientation,0", "ln_sigma": "null"}, {"name": "sa(3.0)", "value": 0.645, "units": "%g", "flag": "UnknownOrientation,0", "ln_sigma": 0.0}, {"name": "pgv", "value": 2.8753, "units": "cm/s", "flag": "UnknownOrientation,0,Outlier", "ln_sigma": 0.0}]}, {"name": "UP", "amplitudes": [{"name": "sa(0.3)", "value": 4.694, "units": "%g", "flag": "UnknownOrientation,0", "ln_sigma": 0.0}, {"name": "sa(1.0)", "value": 1.857, "units": "%g", "flag": "UnknownOrientation,0", "ln_sigma": 0.0}, {"name": "pga", "value": "null", "units": "%g", "flag": "G,UnknownOrientation,0", "ln_sigma": "null"}, {"name": "sa(3.0)", "value": 0.205, "units": "%g", "flag": "UnknownOrientation,0", "ln_sigma": 0.0}, {"name": "pgv", "value": "null", "units": "cm/s", "flag": "G,UnknownOrientation,0,Outlier", "ln_sigma": "null"}]}, {"name": "WE", "amplitudes": [{"name": "sa(0.3)", "value": 13.042, "units": "%g", "flag": "0", "ln_sigma": 0.0}, {"name": "sa(1.0)", "value": 1.967, "units": "%g", "flag": "0", "ln_sigma": 0.0}, {"name": "pga", "value": 8.323, "units": "%g", "flag": "0", "ln_sigma": 0.0}, {"name": "sa(3.0)", "value": 0.448, "units": "%g", "flag": "0", "ln_sigma": 0.0}, {"name": "pgv", "value": "null", "units": "cm/s", "flag": "Glitch,0,Outlier", "ln_sigma": "null"}]}], "station_type": "seismic", "nresp": "null", "predictions": [{"name": "sa(3.0)", "value": 0.6618, "value_rock": 0.5359, "value_soil": 1.6618, "units": "%g", "ln_tau": 0.4396, "ln_phi": 0.6615, "ln_sigma": 0.7943, "ln_sigma_rock": 0.8004, "ln_sigma_soil": 0.8002, "ln_bias": 0.8959, "ln_bias_sigma": 0.1275}, {"name": "sa(1.0)", "value": 3.196, "value_rock": 2.4692, "value_soil": 9.0372, "units": "%g", "ln_tau": 0.4323, "ln_phi": 0.6786, "ln_sigma": 0.8046, "ln_sigma_rock": 0.8087, "ln_sigma_soil": 0.8039, "ln_bias": 0.9855, "ln_bias_sigma": 0.1173}, {"name": "sa(0.3)", "value": 10.743, "value_rock": 8.5539, "value_soil": 20.5461, "units": "%g", "ln_tau": 0.3897, "ln_phi": 0.6654, "ln_sigma": 0.7711, "ln_sigma_rock": 0.7732, "ln_sigma_soil": 0.7607, "ln_bias": 0.7618, "ln_bias_sigma": 0.1049}, {"name": "pgv", "value": 3.1454, "value_rock": 2.6005, "value_soil": 6.7023, "units": "cm/s", "ln_tau": 0.3934, "ln_phi": 0.6031, "ln_sigma": 0.7201, "ln_sigma_rock": 0.7251, "ln_sigma_soil": 0.7188, "ln_bias": 1.0721, "ln_bias_sigma": 0.1033}, {"name": "pga", "value": 6.2203, "value_rock": 5.5424, "value_soil": 8.3598, "units": "%g", "ln_tau": 0.4043, "ln_phi": 0.5936, "ln_sigma": 0.7182, "ln_sigma_rock": 0.7218, "ln_sigma_soil": 0.7117, "ln_bias": 0.8363, "ln_bias_sigma": 0.0947}, {"name": "mmi", "value": 4.3316, "value_rock": 4.2101, "value_soil": 5.3209, "units": "intensity", "tau": 0.2512, "phi": 0.7384, "sigma": 0.7799, "sigma_rock": 0.7818, "sigma_soil": 1.1705, "bias": 0.6015, "bias_sigma": 0.1049}], "mmi_from_pgm": [{"name": "sa(3.0)", "value": 4.37, "sigma": 0.89, "flag": "0"}, {"name": "sa(1.0)", "value": 4.24, "sigma": 0.75, "flag": "0"}, {"name": "sa(0.3)", "value": 4.66, "sigma": 0.82, "flag": "0"}, {"name": "pgv", "value": null, "sigma": null, "flag": "0"}, {"name": "pga", "value": 5.06, "sigma": 0.66, "flag": "0"}], "distance_stddev": 0.0, "distances": {"repi": 34.8, "rhypo": 36.208, "rjb": 30.538, "rjb_var": 0.0, "rrup": 30.545, "rrup_var": 0.0, "rx": -0.522, "ry0": 30.524, "rvolc": 0.0}}, "geometry": {"type": "Point", "coordinates": [12.602, 43.357]}}, {"type": "Feature", "id": "ITACA.ASS", "properties": {"code": "ASS", "name": "ASS", "instrumentType": "UNK", "source": "ITACA", "network": "ITACA", "commType": "UNK", "location": "", "intensity": "null", "intensity_flag": "", "intensity_stddev": "null", "pga": 18.792, "pgv": "null", "distance": 14.488, "elev": null, "vs30": 537.45, "channels": [{"name": "NS", "amplitudes": [{"name": "sa(0.3)", "value": 46.63, "units": "%g", "flag": "UnknownOrientation,0", "ln_sigma": 0.0}, {"name": "sa(1.0)", "value": 2.413, "units": "%g", "flag": "UnknownOrientation,0", "ln_sigma": 0.0}, {"name": "pga", "value": 16.732, "units": "%g", "flag": "UnknownOrientation,0", "ln_sigma": 0.0}, {"name": "sa(3.0)", "value": 0.479, "units": "%g", "flag": "UnknownOrientation,0", "ln_sigma": 0.0}, {"name": "pgv", "value": 7.8396, "units": "cm/s", "flag": "UnknownOrientation,0,Outlier", "ln_sigma": 0.0}]}, {"name": "UP", "amplitudes": [{"name": "sa(0.3)", "value": 13.944, "units": "%g", "flag": "UnknownOrientation,0", "ln_sigma": 0.0}, {"name": "sa(1.0)", "value": 1.465, "units": "%g", "flag": "UnknownOrientation,0", "ln_sigma": 0.0}, {"name": "pga", "value": 7.65, "units": "%g", "flag": "UnknownOrientation,0", "ln_sigma": 0.0}, {"name": "sa(3.0)", "value": 0.221, "units": "%g", "flag": "UnknownOrientation,0", "ln_sigma": 0.0}, {"name": "pgv", "value": "null", "units": "cm/s", "flag": "G,UnknownOrientation,0,Outlier", "ln_sigma": "null"}]}, {"name": "WE", "amplitudes": [{"name": "sa(0.3)", "value": 59.716, "units": "%g", "flag": "0", "ln_sigma": 0.0}, {"name": "sa(1.0)", "value": 4.967, "units": "%g", "flag": "0", "ln_sigma": 0.0}, {"name": "pga", "value": 18.792, "units": "%g", "flag": "0", "ln_sigma": 0.0}, {"name": "sa(3.0)", "value": 0.519, "units": "%g", "flag": "0", "ln_sigma": 0.0}, {"name": "pgv", "value": "null", "units": "cm/s", "flag": "Glitch,0,Outlier", "ln_sigma": "null"}]}], "station_type": "seismic", "nresp": "null", "predictions": [{"name": "sa(3.0)", "value": 1.4503, "value_rock": 1.0996, "value_soil": 3.3011, "units": "%g", "ln_tau": 0.4396, "ln_phi": 0.6615, "ln_sigma": 0.7942, "ln_sigma_rock": 0.8003, "ln_sigma_soil": 0.8001, "ln_bias": 0.8959, "ln_bias_sigma": 0.1275}, {"name": "sa(1.0)", "value": 7.8039, "value_rock": 5.5894, "value_soil": 18.7237, "units": "%g", "ln_tau": 0.4322, "ln_phi": 0.6785, "ln_sigma": 0.8045, "ln_sigma_rock": 0.8087, "ln_sigma_soil": 0.8009, "ln_bias": 0.9855, "ln_bias_sigma": 0.1173}, {"name": "sa(0.3)", "value": 28.0491, "value_rock": 21.2768, "value_soil": 43.6382, "units": "%g", "ln_tau": 0.3891, "ln_phi": 0.6648, "ln_sigma": 0.7703, "ln_sigma_rock": 0.7731, "ln_sigma_soil": 0.7516, "ln_bias": 0.7617, "ln_bias_sigma": 0.1049}, {"name": "pgv", "value": 7.9188, "value_rock": 6.2065, "value_soil": 14.9682, "units": "cm/s", "ln_tau": 0.3934, "ln_phi": 0.6031, "ln_sigma": 0.72, "ln_sigma_rock": 0.7251, "ln_sigma_soil": 0.7164, "ln_bias": 1.072, "ln_bias_sigma": 0.1033}, {"name": "pga", "value": 15.8274, "value_rock": 13.8029, "value_soil": 18.7656, "units": "%g", "ln_tau": 0.4034, "ln_phi": 0.5929, "ln_sigma": 0.7171, "ln_sigma_rock": 0.7216, "ln_sigma_soil": 0.7049, "ln_bias": 0.8361, "ln_bias_sigma": 0.0947}, {"name": "mmi", "value": 5.5498, "value_rock": 5.2154, "value_soil": 6.4235, "units": "intensity", "tau": 0.5398, "phi": 1.0401, "sigma": 1.1719, "sigma_rock": 1.1778, "sigma_soil": 1.1676, "bias": 0.6968, "bias_sigma": 0.113}], "mmi_from_pgm": [{"name": "sa(3.0)", "value": 4.63, "sigma": 0.89, "flag": "0"}, {"name": "sa(1.0)", "value": 5.06, "sigma": 0.75, "flag": "0"}, {"name": "sa(0.3)", "value": 6.96, "sigma": 0.82, "flag": "0"}, {"name": "pgv", "value": null, "sigma": null, "flag": "0"}, {"name": "pga", "value": 6.04, "sigma": 0.66, "flag": "0"}], "distance_stddev": 0.0, "distances": {"repi": 16.915, "rhypo": 19.65, "rjb": 13.318, "rjb_var": 0.0, "rrup": 14.488, "rrup_var": 0.0, "rx": 17.779, "ry0": 5.062, "rvolc": 0.0}}, "geometry": {"type": "Point", "coordinates": [12.6041, 43.075]}}, {"type": "Feature", "id": "G.BTT2", "properties": {"code": "BTT2", "name": "Borgo-Ottomila 2", "instrumentType": "UNK", "source": "G", "network": "G", "commType": "UNK", "location": "", "intensity": 4.0, "intensity_flag": "", "intensity_stddev": 0.63, "pga": 0.8337, "pgv": 1.9, "distance": 126.18, "elev": null, "vs30": 202.88, "channels": [{"name": "UP", "amplitudes": [{"name": "sa(0.3)", "value": 0.42, "units": "%g", "flag": "UnknownOrientation,0", "ln_sigma": 0.0}, {"name": "sa(1.0)", "value": 1.435, "units": "%g", "flag": "UnknownOrientation,0", "ln_sigma": 0.0}, {"name": "pga", "value": "null", "units": "%g", "flag": "G,UnknownOrientation,0", "ln_sigma": "null"}, {"name": "sa(3.0)", "value": 0.306, "units": "%g", "flag": "UnknownOrientation,0", "ln_sigma": 0.0}, {"name": "pgv", "value": "null", "units": "cm/s", "flag": "G,UnknownOrientation,0", "ln_sigma": "null"}]}, {"name": "E", "amplitudes": [{"name": "sa(0.3)", "value": 1.1429, "units": "%g", "flag": "0", "ln_sigma": 0.0}, {"name": "sa(1.0)", "value": 1.9592, "units": "%g", "flag": "0", "ln_sigma": 0.0}, {"name": "pga", "value": 0.8337, "units": "%g", "flag": "0", "ln_sigma": 0.0}, {"name": "sa(3.0)", "value": 1.3061, "units": "%g", "flag": "0", "ln_sigma": 0.0}, {"name": "pgv", "value": 1.9, "units": "cm/s", "flag": "0", "ln_sigma": 0.0}]}, {"name": "N", "amplitudes": [{"name": "sa(0.3)", "value": 0.9306, "units": "%g", "flag": "0", "ln_sigma": 0.0}, {"name": "sa(1.0)", "value": 2.398, "units": "%g", "flag": "0", "ln_sigma": 0.0}, {"name": "pga", "value": 0.7153, "units": "%g", "flag": "0", "ln_sigma": 0.0}, {"name": "sa(3.0)", "value": 0.7255, "units": "%g", "flag": "0", "ln_sigma": 0.0}, {"name": "pgv", "value": 1.78, "units": "cm/s", "flag": "0", "ln_sigma": 0.0}]}, {"name": "NS", "amplitudes": [{"name": "sa(0.3)", "value": 0.844, "units": "%g", "flag": "UnknownOrientation,0", "ln_sigma": 0.0}, {"name": "sa(1.0)", "value": 1.954, "units": "%g", "flag": "UnknownOrientation,0", "ln_sigma": 0.0}, {"name": "pga", "value": "null", "units": "%g", "flag": "G,UnknownOrientation,0", "ln_sigma": "null"}, {"name": "sa(3.0)", "value": 1.429, "units": "%g", "flag": "UnknownOrientation,0", "ln_sigma": 0.0}, {"name": "pgv", "value": 1.8478, "units": "cm/s", "flag": "UnknownOrientation,0", "ln_sigma": 0.0}]}, {"name": "Z", "amplitudes": [{"name": "sa(0.3)", "value": 0.401, "units": "%g", "flag": "0", "ln_sigma": 0.0}, {"name": "sa(1.0)", "value": 1.4082, "units": "%g", "flag": "0", "ln_sigma": 0.0}, {"name": "pga", "value": 0.4102, "units": "%g", "flag": "0", "ln_sigma": 0.0}, {"name": "sa(3.0)", "value": 0.2133, "units": "%g", "flag": "0", "ln_sigma": 0.0}, {"name": "pgv", "value": 1.06, "units": "cm/s", "flag": "0", "ln_sigma": 0.0}]}, {"name": "WE", "amplitudes": [{"name": "sa(0.3)", "value": 0.925, "units": "%g", "flag": "0", "ln_sigma": 0.0}, {"name": "sa(1.0)", "value": 2.47, "units": "%g", "flag": "0", "ln_sigma": 0.0}, {"name": "pga", "value": 0.705, "units": "%g", "flag": "0", "ln_sigma": 0.0}, {"name": "sa(3.0)", "value": 1.216, "units": "%g", "flag": "0", "ln_sigma": 0.0}, {"name": "pgv", "value": 1.7637, "units": "cm/s", "flag": "0", "ln_sigma": 0.0}]}], "station_type": "seismic", "nresp": "null", "predictions": [{"name": "sa(3.0)", "value": 0.3259, "value_rock": 0.1159, "value_soil": 0.3709, "units": "%g", "ln_tau": 0.4396, "ln_phi": 0.6615, "ln_sigma": 0.7943, "ln_sigma_rock": 0.8004, "ln_sigma_soil": 0.8002, "ln_bias": 0.8959, "ln_bias_sigma": 0.1275}, {"name": "sa(1.0)", "value": 1.727, "value_rock": 0.4984, "value_soil": 1.9818, "units": "%g", "ln_tau": 0.432, "ln_phi": 0.6778, "ln_sigma": 0.8037, "ln_sigma_rock": 0.8091, "ln_sigma_soil": 0.8067, "ln_bias": 0.9854, "ln_bias_sigma": 0.1173}, {"name": "sa(0.3)", "value": 3.3067, "value_rock": 1.2961, "value_soil": 3.5881, "units": "%g", "ln_tau": 0.3889, "ln_phi": 0.6637, "ln_sigma": 0.7692, "ln_sigma_rock": 0.7745, "ln_sigma_soil": 0.7702, "ln_bias": 0.7616, "ln_bias_sigma": 0.1049}, {"name": "pgv", "value": 1.1462, "value_rock": 0.4658, "value_soil": 1.2767, "units": "cm/s", "ln_tau": 0.3931, "ln_phi": 0.5997, "ln_sigma": 0.717, "ln_sigma_rock": 0.7258, "ln_sigma_soil": 0.7217, "ln_bias": 1.0719, "ln_bias_sigma": 0.1033}, {"name": "pga", "value": 1.1753, "value_rock": 0.7421, "value_soil": 1.2299, "units": "%g", "ln_tau": 0.404, "ln_phi": 0.5907, "ln_sigma": 0.7157, "ln_sigma_rock": 0.7226, "ln_sigma_soil": 0.7187, "ln_bias": 0.8362, "ln_bias_sigma": 0.0947}, {"name": "mmi", "value": 3.6871, "value_rock": 3.1122, "value_soil": 3.756, "units": "intensity", "tau": 0.251, "phi": 0.7372, "sigma": 0.7788, "sigma_rock": 0.782, "sigma_soil": 0.7805, "bias": 0.6013, "bias_sigma": 0.1049}], "mmi_from_pgm": [{"name": "sa(3.0)", "value": 4.78, "sigma": 0.89, "flag": "0"}, {"name": "sa(1.0)", "value": 4.09, "sigma": 0.75, "flag": "0"}, {"name": "sa(0.3)", "value": 3.24, "sigma": 0.82, "flag": "0"}, {"name": "pgv", "value": 4.01, "sigma": 0.63, "flag": "0"}, {"name": "pga", "value": 3.41, "sigma": 0.66, "flag": "0"}], "distance_stddev": 0.0, "distances": {"repi": 134.791, "rhypo": 135.162, "rjb": 126.107, "rjb_var": 0.0, "rrup": 126.18, "rrup_var": 0.0, "rx": 25.185, "ry0": 124.588, "rvolc": 0.0}}, "geometry": {"type": "Point", "coordinates": [13.543, 41.998]}}, {"type": "Feature", "id": "ITACA.MNF", "properties": {"code": "MNF", "name": "MNF", "instrumentType": "UNK", "source": "ITACA", "network": "ITACA", "commType": "UNK", "location": "", "intensity": 3.7, "intensity_flag": "", "intensity_stddev": 0.63, "pga": 3.178, "pgv": 1.1047, "distance": 22.683, "elev": null, "vs30": 900.0, "channels": [{"name": "NS", "amplitudes": [{"name": "sa(0.3)", "value": 5.357, "units": "%g", "flag": "UnknownOrientation,0", "ln_sigma": 0.0}, {"name": "sa(1.0)", "value": 1.577, "units": "%g", "flag": "UnknownOrientation,0", "ln_sigma": 0.0}, {"name": "pga", "value": "null", "units": "%g", "flag": "G,UnknownOrientation,0", "ln_sigma": "null"}, {"name": "sa(3.0)", "value": 0.143, "units": "%g", "flag": "UnknownOrientation,0", "ln_sigma": 0.0}, {"name": "pgv", "value": 1.5112, "units": "cm/s", "flag": "UnknownOrientation,0", "ln_sigma": 0.0}]}, {"name": "UP", "amplitudes": [{"name": "sa(0.3)", "value": 4.45, "units": "%g", "flag": "UnknownOrientation,0", "ln_sigma": 0.0}, {"name": "sa(1.0)", "value": 0.991, "units": "%g", "flag": "UnknownOrientation,0", "ln_sigma": 0.0}, {"name": "pga", "value": 2.059, "units": "%g", "flag": "UnknownOrientation,0", "ln_sigma": 0.0}, {"name": "sa(3.0)", "value": 0.102, "units": "%g", "flag": "UnknownOrientation,0", "ln_sigma": 0.0}, {"name": "pgv", "value": 0.9343, "units": "cm/s", "flag": "UnknownOrientation,0", "ln_sigma": 0.0}]}, {"name": "WE", "amplitudes": [{"name": "sa(0.3)", "value": 3.728, "units": "%g", "flag": "0", "ln_sigma": 0.0}, {"name": "sa(1.0)", "value": 0.742, "units": "%g", "flag": "0", "ln_sigma": 0.0}, {"name": "pga", "value": 3.178, "units": "%g", "flag": "0", "ln_sigma": 0.0}, {"name": "sa(3.0)", "value": 0.121, "units": "%g", "flag": "0", "ln_sigma": 0.0}, {"name": "pgv", "value": 1.1047, "units": "cm/s", "flag": "0", "ln_sigma": 0.0}]}], "station_type": "seismic", "nresp": "null", "predictions": [{"name": "sa(3.0)", "value": 0.6351, "value_rock": 0.7177, "value_soil": 2.2006, "units": "%g", "ln_tau": 0.4396, "ln_phi": 0.6615, "ln_sigma": 0.7943, "ln_sigma_rock": 0.8004, "ln_sigma_soil": 0.8001, "ln_bias": 0.8959, "ln_bias_sigma": 0.1275}, {"name": "sa(1.0)", "value": 2.9371, "value_rock": 3.4236, "value_soil": 12.1587, "units": "%g", "ln_tau": 0.4323, "ln_phi": 0.6786, "ln_sigma": 0.8046, "ln_sigma_rock": 0.8087, "ln_sigma_soil": 0.8029, "ln_bias": 0.9855, "ln_bias_sigma": 0.1173}, {"name": "sa(0.3)", "value": 10.9878, "value_rock": 12.3372, "value_soil": 28.1067, "units": "%g", "ln_tau": 0.3898, "ln_phi": 0.6655, "ln_sigma": 0.7713, "ln_sigma_rock": 0.7731, "ln_sigma_soil": 0.7575, "ln_bias": 0.7619, "ln_bias_sigma": 0.105}, {"name": "pgv", "value": 3.3073, "value_rock": 3.6865, "value_soil": 9.2896, "unit