{
   "type":"FeatureCollection",
   "features":[
      {
         "type":"Feature",
         "id":"GI.HUEH",
         "properties":{
            "code":"HUEH",
            "name":"Huehuetenango, Huehuetenango",
            "instrumentType":"UNK",
            "source":"GI",
            "network":"GI",
            "commType":"UNK",
            "location":"",
            "intensity":4.1,
            "intensity_flag":"",
            "intensity_stddev":0.66,
            "pga":1.7359,
            "pgv":"null",
            "distance":465.661,
            "elev":null,
            "vs30":760.0,
            "channels":[
               {
                  "name":"--.HNE",
                  "amplitudes":[
                     {
                        "name":"pga",
                        "value":1.1928,
                        "units":"%g",
                        "flag":"0",
                        "ln_sigma":0.0
                     },
                     {
                        "name":"pgv",
                        "value":2.0426,
                        "units":"cm/s",
                        "flag":"Outlier,0,Outlier",
                        "ln_sigma":0.0
                     },
                     {
                        "name":"sa(0.3)",
                        "value":1.4915,
                        "units":"%g",
                        "flag":"0",
                        "ln_sigma":0.0
                     },
                     {
                        "name":"sa(1.0)",
                        "value":2.8527,
                        "units":"%g",
                        "flag":"Outlier,0,Outlier",
                        "ln_sigma":0.0
                     },
                     {
                        "name":"sa(3.0)",
                        "value":0.5256,
                        "units":"%g",
                        "flag":"0",
                        "ln_sigma":0.0
                     }
                  ]
               },
               {
                  "name":"--.HNN",
                  "amplitudes":[
                     {
                        "name":"pga",
                        "value":1.7359,
                        "units":"%g",
                        "flag":"0",
                        "ln_sigma":0.0
                     },
                     {
                        "name":"pgv",
                        "value":3.421,
                        "units":"cm/s",
                        "flag":"Outlier,0,Outlier",
                        "ln_sigma":0.0
                     },
                     {
                        "name":"sa(0.3)",
                        "value":2.5171,
                        "units":"%g",
                        "flag":"0",
                        "ln_sigma":0.0
                     },
                     {
                        "name":"sa(1.0)",
                        "value":7.3231,
                        "units":"%g",
                        "flag":"Outlier,0,Outlier",
                        "ln_sigma":0.0
                     },
                     {
                        "name":"sa(3.0)",
                        "value":1.0362,
                        "units":"%g",
                        "flag":"0",
                        "ln_sigma":0.0
                     }
                  ]
               },
               {
                  "name":"--.HNZ",
                  "amplitudes":[
                     {
                        "name":"pga",
                        "value":0.8299,
                        "units":"%g",
                        "flag":"0",
                        "ln_sigma":0.0
                     },
                     {
                        "name":"pgv",
                        "value":1.1123,
                        "units":"cm/s",
                        "flag":"Outlier,0,Outlier",
                        "ln_sigma":0.0
                     },
                     {
                        "name":"sa(0.3)",
                        "value":1.4922,
                        "units":"%g",
                        "flag":"0",
                        "ln_sigma":0.0
                     },
                     {
                        "name":"sa(1.0)",
                        "value":1.9494,
                        "units":"%g",
                        "flag":"Outlier,0,Outlier",
                        "ln_sigma":0.0
                     },
                     {
                        "name":"sa(3.0)",
                        "value":0.5405,
                        "units":"%g",
                        "flag":"0",
                        "ln_sigma":0.0
                     }
                  ]
               }
            ],
            "station_type":"seismic",
            "nresp":"null",
            "predictions":[
               {
                  "name":"sa(0.3)",
                  "value":0.374,
                  "value_rock":0.374,
                  "value_soil":0.8262,
                  "units":"%g",
                  "ln_tau":0.3495,
                  "ln_phi":0.6077,
                  "ln_sigma":0.701,
                  "ln_sigma_rock":0.703,
                  "ln_sigma_soil":0.6996,
                  "ln_bias":0.0508,
                  "ln_bias_sigma":0.3228
               },
               {
                  "name":"sa(3.0)",
                  "value":0.1349,
                  "value_rock":0.1349,
                  "value_soil":0.3537,
                  "units":"%g",
                  "ln_tau":0.3884,
                  "ln_phi":0.6215,
                  "ln_sigma":0.7329,
                  "ln_sigma_rock":0.7347,
                  "ln_sigma_soil":0.7347,
                  "ln_bias":0.0984,
                  "ln_bias_sigma":0.3674
               },
               {
                  "name":"pga",
                  "value":0.2658,
                  "value_rock":0.2658,
                  "value_soil":0.4082,
                  "units":"%g",
                  "ln_tau":0.3525,
                  "ln_phi":0.5444,
                  "ln_sigma":0.6486,
                  "ln_sigma_rock":0.6504,
                  "ln_sigma_soil":0.6465,
                  "ln_bias":0.0679,
                  "ln_bias_sigma":0.3141
               },
               {
                  "name":"sa(1.0)",
                  "value":0.282,
                  "value_rock":0.282,
                  "value_soil":0.8107,
                  "units":"%g",
                  "ln_tau":0.3904,
                  "ln_phi":0.6252,
                  "ln_sigma":0.7371,
                  "ln_sigma_rock":0.7393,
                  "ln_sigma_soil":0.7372,
                  "ln_bias":0.1737,
                  "ln_bias_sigma":0.3571
               },
               {
                  "name":"pgv",
                  "value":0.2802,
                  "value_rock":0.2802,
                  "value_soil":0.731,
                  "units":"cm/s",
                  "ln_tau":0.387,
                  "ln_phi":0.7328,
                  "ln_sigma":0.8287,
                  "ln_sigma_rock":0.8302,
                  "ln_sigma_soil":0.825,
                  "ln_bias":0.1323,
                  "ln_bias_sigma":0.3493
               },
               {
                  "name":"mmi",
                  "value":2.8008,
                  "value_rock":2.8008,
                  "value_soil":3.0896,
                  "units":"intensity",
                  "tau":0.2373,
                  "phi":0.7549,
                  "sigma":0.7913,
                  "sigma_rock":0.792,
                  "sigma_soil":0.7906,
                  "bias":0.0418,
                  "bias_sigma":0.2277
               }
            ],
            "mmi_from_pgm":[
               {
                  "name":"sa(0.3)",
                  "value":4.05,
                  "sigma":0.82,
                  "flag":"0"
               },
               {
                  "name":"sa(3.0)",
                  "value":3.99,
                  "sigma":0.89,
                  "flag":"0"
               },
               {
                  "name":"pga",
                  "value":4.06,
                  "sigma":0.66,
                  "flag":"0"
               },
               {
                  "name":"sa(1.0)",
                  "value":null,
                  "sigma":null,
                  "flag":"0"
               },
               {
                  "name":"pgv",
                  "value":null,
                  "sigma":null,
                  "flag":"0"
               }
            ],
            "distance_stddev":0.0,
            "distances":{
               "repi":486.6,
               "rhypo":487.011,
               "rjb":465.967,
               "rjb_var":0.0,
               "rrup":465.661,
               "rrup_var":0.0,
               "rx":-115.257,
               "ry0":450.9,
               "rvolc":0.0
            }
         },
         "geometry":{
            "type":"Point",
            "coordinates":[
               -91.5025,
               15.3182
            ]
         }
      },
      {
         "type":"Feature",
         "id":"GI.RETA",
         "properties":{
            "code":"RETA",
            "name":"Retalhuleu, Retalhuleu",
            "instrumentType":"UNK",
            "source":"GI",
            "network":"GI",
            "commType":"UNK",
            "location":"",
            "intensity":3.7,
            "intensity_flag":"",
            "intensity_stddev":0.63,
            "pga":0.6134,
            "pgv":1.5784,
            "distance":467.934,
            "elev":null,
            "vs30":760.0,
            "channels":[
               {
                  "name":"--.HNE",
                  "amplitudes":[
                     {
                        "name":"pga",
                        "value":0.6134,
                        "units":"%g",
                        "flag":"0",
                        "ln_sigma":0.0
                     },
                     {
                        "name":"pgv",
                        "value":1.5784,
                        "units":"cm/s",
                        "flag":"0",
                        "ln_sigma":0.0
                     },
                     {
                        "name":"sa(0.3)",
                        "value":0.6624,
                        "units":"%g",
                        "flag":"0",
                        "ln_sigma":0.0
                     },
                     {
                        "name":"sa(1.0)",
                        "value":1.2016,
                        "units":"%g",
                        "flag":"0",
                        "ln_sigma":0.0
                     },
                     {
                        "name":"sa(3.0)",
                        "value":0.7934,
                        "units":"%g",
                        "flag":"0",
                        "ln_sigma":0.0
                     }
                  ]
               },
               {
                  "name":"--.HNN",
                  "amplitudes":[
                     {
                        "name":"pga",
                        "value":0.3927,
                        "units":"%g",
                        "flag":"0",
                        "ln_sigma":0.0
                     },
                     {
                        "name":"pgv",
                        "value":1.142,
                        "units":"cm/s",
                        "flag":"0",
                        "ln_sigma":0.0
                     },
                     {
                        "name":"sa(0.3)",
                        "value":0.6084,
                        "units":"%g",
                        "flag":"0",
                        "ln_sigma":0.0
                     },
                     {
                        "name":"sa(1.0)",
                        "value":1.1925,
                        "units":"%g",
                        "flag":"0",
                        "ln_sigma":0.0
                     },
                     {
                        "name":"sa(3.0)",
                        "value":0.7412,
                        "units":"%g",
                        "flag":"0",
                        "ln_sigma":0.0
                     }
                  ]
               },
               {
                  "name":"--.HNZ",
                  "amplitudes":[
                     {
                        "name":"pga",
                        "value":0.2611,
                        "units":"%g",
                        "flag":"0",
                        "ln_sigma":0.0
                     },
                     {
                        "name":"pgv",
                        "value":1.3022,
                        "units":"cm/s",
                        "flag":"0",
                        "ln_sigma":0.0
                     },
                     {
                        "name":"sa(0.3)",
                        "value":0.3812,
                        "units":"%g",
                        "flag":"0",
                        "ln_sigma":0.0
                     },
                     {
                        "name":"sa(1.0)",
                        "value":0.6544,
                        "units":"%g",
                        "flag":"0",
                        "ln_sigma":0.0
                     },
                     {
                        "name":"sa(3.0)",
                        "value":0.8543,
                        "units":"%g",
                        "flag":"0",
                        "ln_sigma":0.0
                     }
                  ]
               }
            ],
            "station_type":"seismic",
            "nresp":"null",
            "predictions":[
               {
                  "name":"sa(0.3)",
                  "value":0.3674,
                  "value_rock":0.3674,
                  "value_soil":0.8116,
                  "units":"%g",
                  "ln_tau":0.3495,
                  "ln_phi":0.6077,
                  "ln_sigma":0.701,
                  "ln_sigma_rock":0.703,
                  "ln_sigma_soil":0.6996,
                  "ln_bias":0.0508,
                  "ln_bias_sigma":0.3228
               },
               {
                  "name":"sa(3.0)",
                  "value":0.1335,
                  "value_rock":0.1335,
                  "value_soil":0.3502,
                  "units":"%g",
                  "ln_tau":0.3884,
                  "ln_phi":0.6215,
                  "ln_sigma":0.7329,
                  "ln_sigma_rock":0.7347,
                  "ln_sigma_soil":0.7347,
                  "ln_bias":0.0984,
                  "ln_bias_sigma":0.3674
               },
               {
                  "name":"pga",
                  "value":0.2617,
                  "value_rock":0.2617,
                  "value_soil":0.4019,
                  "units":"%g",
                  "ln_tau":0.3525,
                  "ln_phi":0.5444,
                  "ln_sigma":0.6486,
                  "ln_sigma_rock":0.6504,
                  "ln_sigma_soil":0.6465,
                  "ln_bias":0.0679,
                  "ln_bias_sigma":0.3141
               },
               {
                  "name":"sa(1.0)",
                  "value":0.2781,
                  "value_rock":0.2781,
                  "value_soil":0.7994,
                  "units":"%g",
                  "ln_tau":0.3904,
                  "ln_phi":0.6252,
                  "ln_sigma":0.7371,
                  "ln_sigma_rock":0.7393,
                  "ln_sigma_soil":0.7372,
                  "ln_bias":0.1737,
                  "ln_bias_sigma":0.3571
               },
               {
                  "name":"pgv",
                  "value":0.2763,
                  "value_rock":0.2763,
                  "value_soil":0.7209,
                  "units":"cm/s",
                  "ln_tau":0.387,
                  "ln_phi":0.7328,
                  "ln_sigma":0.8287,
                  "ln_sigma_rock":0.8302,
                  "ln_sigma_soil":0.825,
                  "ln_bias":0.1323,
                  "ln_bias_sigma":0.3493
               },
               {
                  "name":"mmi",
                  "value":2.7902,
                  "value_rock":2.7902,
                  "value_soil":3.0791,
                  "units":"intensity",
                  "tau":0.2373,
                  "phi":0.7549,
                  "sigma":0.7913,
                  "sigma_rock":0.792,
                  "sigma_soil":0.7906,
                  "bias":0.0418,
                  "bias_sigma":0.2277
               }
            ],
            "mmi_from_pgm":[
               {
                  "name":"sa(0.3)",
                  "value":3.07,
                  "sigma":0.82,
                  "flag":"0"
               },
               {
                  "name":"sa(3.0)",
                  "value":3.82,
                  "sigma":0.89,
                  "flag":"0"
               },
               {
                  "name":"pga",
                  "value":3.36,
                  "sigma":0.66,
                  "flag":"0"
               },
               {
                  "name":"sa(1.0)",
                  "value":3.06,
                  "sigma":0.75,
                  "flag":"0"
               },
               {
                  "name":"pgv",
                  "value":3.66,
                  "sigma":0.63,
                  "flag":"0"
               }
            ],
            "distance_stddev":0.0,
            "distances":{
               "repi":486.887,
               "rhypo":487.298,
               "rjb":468.245,
               "rjb_var":0.0,
               "rrup":467.934,
               "rrup_var":0.0,
               "rx":-201.303,
               "ry0":422.435,
               "rvolc":0.0
            }
         },
         "geometry":{
            "type":"Point",
            "coordinates":[
               -91.6949,
               14.5246
            ]
         }
      },
      {
         "type":"Feature",
         "id":"DYFI.UTM:(14P 070 175 10000)",
         "properties":{
            "code":"UTM:(14P 070 175 10000)",
            "name":null,
            "instrumentType":"OBSERVED",
            "source":"DYFI",
            "network":"DYFI",
            "commType":"UNK",
            "location":"",
            "intensity":5.8,
            "intensity_flag":"0",
            "intensity_stddev":0.3,
            "pga":10.4134,
            "pgv":11.2693,
            "distance":118.911,
            "elev":null,
            "vs30":504.59,
            "channels":[
               
            ],
            "nresp":6,
            "station_type":"macroseismic",
            "predictions":[
               {
                  "name":"mmi",
                  "value":5.0778,
                  "value_rock":4.7814,
                  "value_soil":5.3551,
                  "units":"intensity",
                  "tau":0.5766,
                  "phi":1.1031,
                  "sigma":1.2447,
                  "sigma_rock":1.2505,
                  "sigma_soil":1.2312,
                  "bias":0.178,
                  "bias_sigma":0.4698
               },
               {
                  "name":"pga",
                  "value":6.6437,
                  "value_rock":5.5246,
                  "value_soil":7.8949,
                  "units":"%g",
                  "ln_tau":0.3588,
                  "ln_phi":0.55,
                  "ln_sigma":0.6567,
                  "ln_sigma_rock":0.661,
                  "ln_sigma_soil":0.6468,
                  "ln_bias":0.0699,
                  "ln_bias_sigma":0.3185
               },
               {
                  "name":"sa(0.3)",
                  "value":14.312,
                  "value_rock":10.2079,
                  "value_soil":20.5217,
                  "units":"%g",
                  "ln_tau":0.3568,
                  "ln_phi":0.6145,
                  "ln_sigma":0.7106,
                  "ln_sigma_rock":0.7137,
