{"type": "FeatureCollection", "features": [{"type": "Feature", "id": "GE.KTHA", "properties": {"code": "KTHA", "name": "KTHA", "instrumentType": "UNK", "source": "GE", "network": "GE", "commType": "UNK", "location": "", "intensity": 3.7, "intensity_flag": "", "intensity_stddev": 0.63, "pga": 0.1441, "pgv": 1.4543, "distance": 360.13, "elev": null, "vs30": 494.38, "channels": [{"name": "--.HNE", "amplitudes": [{"name": "pga", "value": 0.1441, "units": "%g", "flag": "0", "ln_sigma": 0.0}, {"name": "pgv", "value": 1.4543, "units": "cm/s", "flag": "0", "ln_sigma": 0.0}, {"name": "sa(0.3)", "value": 0.1931, "units": "%g", "flag": "0", "ln_sigma": 0.0}, {"name": "sa(1.0)", "value": 0.3008, "units": "%g", "flag": "0", "ln_sigma": 0.0}, {"name": "sa(3.0)", "value": 0.1526, "units": "%g", "flag": "0", "ln_sigma": 0.0}]}, {"name": "--.HNN", "amplitudes": [{"name": "pga", "value": 0.0851, "units": "%g", "flag": "0", "ln_sigma": 0.0}, {"name": "pgv", "value": 0.9494, "units": "cm/s", "flag": "0", "ln_sigma": 0.0}, {"name": "sa(0.3)", "value": 0.1816, "units": "%g", "flag": "0", "ln_sigma": 0.0}, {"name": "sa(1.0)", "value": 0.2332, "units": "%g", "flag": "0", "ln_sigma": 0.0}, {"name": "sa(3.0)", "value": 0.0987, "units": "%g", "flag": "0", "ln_sigma": 0.0}]}, {"name": "--.HNZ", "amplitudes": [{"name": "pga", "value": 0.0775, "units": "%g", "flag": "0", "ln_sigma": 0.0}, {"name": "pgv", "value": 0.9466, "units": "cm/s", "flag": "0", "ln_sigma": 0.0}, {"name": "sa(0.3)", "value": 0.0963, "units": "%g", "flag": "0", "ln_sigma": 0.0}, {"name": "sa(1.0)", "value": 0.1365, "units": "%g", "flag": "0", "ln_sigma": 0.0}, {"name": "sa(3.0)", "value": 0.1241, "units": "%g", "flag": "0", "ln_sigma": 0.0}]}], "station_type": "seismic", "nresp": "null", "predictions": [{"name": "sa(1.0)", "value": 1.2386, "value_rock": 0.8194, "value_soil": 3.2286, "units": "%g", "ln_tau": 0.0, "ln_phi": 0.6693, "ln_sigma": 0.6693, "ln_sigma_rock": 0.809, "ln_sigma_soil": 0.8072, "ln_bias": 0.4865, "ln_bias_sigma": 0.1864}, {"name": "sa(3.0)", "value": 0.3739, "value_rock": 0.2662, "value_soil": 0.8462, "units": "%g", "ln_tau": 0.0, "ln_phi": 0.6593, "ln_sigma": 0.6593, "ln_sigma_rock": 0.8016, "ln_sigma_soil": 0.8012, "ln_bias": -0.0258, "ln_bias_sigma": 0.196}, {"name": "sa(0.3)", "value": 1.3926, "value_rock": 0.9823, "value_soil": 2.7049, "units": "%g", "ln_tau": 0.0, "ln_phi": 0.6415, "ln_sigma": 0.6415, "ln_sigma_rock": 0.7713, "ln_sigma_soil": 0.7684, "ln_bias": 0.2775, "ln_bias_sigma": 0.1754}, {"name": "pga", "value": 0.5409, "value_rock": 0.4525, "value_soil": 0.7481, "units": "%g", "ln_tau": 0.0, "ln_phi": 0.5973, "ln_sigma": 0.5973, "ln_sigma_rock": 0.7161, "ln_sigma_soil": 0.7127, "ln_bias": 0.3304, "ln_bias_sigma": 0.1622}, {"name": "pgv", "value": 0.929, "value_rock": 0.6875, "value_soil": 1.8808, "units": "cm/s", "ln_tau": 0.0, "ln_phi": 0.6074, "ln_sigma": 0.6074, "ln_sigma_rock": 0.7301, "ln_sigma_soil": 0.7257, "ln_bias": 0.3932, "ln_bias_sigma": 0.1668}, {"name": "mmi", "value": 3.3301, "value_rock": 3.2099, "value_soil": 3.5484, "units": "intensity", "tau": 0.0, "phi": 0.6823, "sigma": 0.6823, "sigma_rock": 0.8173, "sigma_soil": 0.816, "bias": 0.4375, "bias_sigma": 0.2086}], "mmi_from_pgm": [{"name": "sa(1.0)", "value": 2.24, "sigma": 0.75, "flag": "0"}, {"name": "sa(3.0)", "value": 3.04, "sigma": 0.89, "flag": "0"}, {"name": "sa(0.3)", "value": 2.12, "sigma": 0.82, "flag": "0"}, {"name": "pga", "value": 2.44, "sigma": 0.66, "flag": "0"}, {"name": "pgv", "value": 3.66, "sigma": 0.63, "flag": "0"}], "distance_stddev": 0.0, "distances": {"repi": 377.174, "rhypo": 377.758, "rjb": 359.867, "rjb_var": 0.0, "rrup": 360.13, "rrup_var": 0.0, "rx": 196.472, "ry0": 305.832, "rvolc": 0.0}}, "geometry": {"type": "Point", "coordinates": [23.0621, 36.2566]}}, {"type": "Feature", "id": "HA.LTRS", "properties": {"code": "LTRS", "name": "LTRS", "instrumentType": "UNK", "source": "HA", "network": "HA", "commType": "UNK", "location": "", "intensity": 4.0, "intensity_flag": "", "intensity_stddev": 0.63, "pga": 0.9631, "pgv": 2.4104, "distance": 316.636, "elev": null, "vs30": 900.0, "channels": [{"name": "--.HNE", "amplitudes": [{"name": "pga", "value": 0.9631, "units": "%g", "flag": "0", "ln_sigma": 0.0}, {"name": "pgv", "value": 2.4104, "units": "cm/s", "flag": "0", "ln_sigma": 0.0}, {"name": "sa(0.3)", "value": 1.2476, "units": "%g", "flag": "0", "ln_sigma": 0.0}, {"name": "sa(1.0)", "value": 3.4704, "units": "%g", "flag": "0", "ln_sigma": 0.0}, {"name": "sa(3.0)", "value": 0.4274, "units": "%g", "flag": "0", "ln_sigma": 0.0}]}, {"name": "--.HNN", "amplitudes": [{"name": "pga", "value": 0.5067, "units": "%g", "flag": "0", "ln_sigma": 0.0}, {"name": "pgv", "value": 1.4363, "units": "cm/s", "flag": "0", "ln_sigma": 0.0}, {"name": "sa(0.3)", "value": 0.8339, "units": "%g", "flag": "0", "ln_sigma": 0.0}, {"name": "sa(1.0)", "value": 1.7132, "units": "%g", "flag": "0", "ln_sigma": 0.0}, {"name": "sa(3.0)", "value": 0.5126, "units": "%g", "flag": "0", "ln_sigma": 0.0}]}, {"name": "--.HNZ", "amplitudes": [{"name": "pga", "value": 0.4187, "units": "%g", "flag": "0", "ln_sigma": 0.0}, {"name": "pgv", "value": 1.465, "units": "cm/s", "flag": "0", "ln_sigma": 0.0}, {"name": "sa(0.3)", "value": 0.6883, "units": "%g", "flag": "0", "ln_sigma": 0.0}, {"name": "sa(1.0)", "value": 1.0122, "units": "%g", "flag": "0", "ln_sigma": 0.0}, {"name": "sa(3.0)", "value": 0.2358, "units": "%g", "flag": "0", "ln_sigma": 0.0}]}], "station_type": "seismic", "nresp": "null", "predictions": [{"name": "sa(1.0)", "value": 0.8135, "value_rock": 0.9467, "value_soil": 3.7191, "units": "%g", "ln_tau": 0.0, "ln_phi": 0.6693, "ln_sigma": 0.6693, "ln_sigma_rock": 0.809, "ln_sigma_soil": 0.8071, "ln_bias": 0.4865, "ln_bias_sigma": 0.1864}, {"name": "sa(3.0)", "value": 0.267, "value_rock": 0.3014, "value_soil": 0.9567, "units": "%g", "ln_tau": 0.0, "ln_phi": 0.6593, "ln_sigma": 0.6593, "ln_sigma_rock": 0.8016, "ln_sigma_soil": 0.8012, "ln_bias": -0.0258, "ln_bias_sigma": 0.196}, {"name": "sa(0.3)", "value": 1.1001, "value_rock": 1.2345, "value_soil": 3.3837, "units": "%g", "ln_tau": 0.0, "ln_phi": 0.6416, "ln_sigma": 0.6416, "ln_sigma_rock": 0.7713, "ln_sigma_soil": 0.7681, "ln_bias": 0.2775, "ln_bias_sigma": 0.1754}, {"name": "pga", "value": 0.5451, "value_rock": 0.5789, "value_soil": 0.9541, "units": "%g", "ln_tau": 0.0, "ln_phi": 0.5973, "ln_sigma": 0.5973, "ln_sigma_rock": 0.7161, "ln_sigma_soil": 0.7125, "ln_bias": 0.3304, "ln_bias_sigma": 0.1622}, {"name": "pgv", "value": 0.716, "value_rock": 0.7976, "value_soil": 2.1768, "units": "cm/s", "ln_tau": 0.0, "ln_phi": 0.6075, "ln_sigma": 0.6075, "ln_sigma_rock": 0.7301, "ln_sigma_soil": 0.7256, "ln_bias": 0.3932, "ln_bias_sigma": 0.1668}, {"name": "mmi", "value": 3.3353, "value_rock": 3.3757, "value_soil": 3.7121, "units": "intensity", "tau": 0.0, "phi": 0.6823, "sigma": 0.6823, "sigma_rock": 0.8173, "sigma_soil": 0.8159, "bias": 0.4375, "bias_sigma": 0.2086}], "mmi_from_pgm": [{"name": "sa(1.0)", "value": 3.84, "sigma": 0.75, "flag": "0"}, {"name": "sa(3.0)", "value": 3.66, "sigma": 0.89, "flag": "0"}, {"name": "sa(0.3)", "value": 3.53, "sigma": 0.82, "flag": "0"}, {"name": "pga", "value": 3.72, "sigma": 0.66, "flag": "0"}, {"name": "pgv", "value": 3.98, "sigma": 0.63, "flag": "0"}], "distance_stddev": 0.0, "distances": {"repi": 333.985, "rhypo": 334.645, "rjb": 316.658, "rjb_var": 0.0, "rrup": 316.636, "rrup_var": 0.0, "rx": 5.506, "ry0": 315.696, "rvolc": 0.0}}, "geometry": {"type": "Point", "coordinates": [22.9765, 37.97528]}}, {"type": "Feature", "id": "HA.XLKS", "properties": {"code": "XLKS", "name": "XLKS", "instrumentType": "UNK", "source": "HA", "network": "HA", "commType": "UNK", "location": "", "intensity": 3.8, "intensity_flag": "", "intensity_stddev": 0.63, "pga": 0.5964, "pgv": 1.6877, "distance": 346.541, "elev": null, "vs30": 600.0, "channels": [{"name": "--.HNE", "amplitudes": [{"name": "pga", "value": 0.5964, "units": "%g", "flag": "0", "ln_sigma": 0.0}, {"name": "pgv", "value": 1.5523, "units": "cm/s", "flag": "0", "ln_sigma": 0.0}, {"name": "sa(0.3)", "value": 0.7129, "units": "%g", "flag": "0", "ln_sigma": 0.0}, {"name": "sa(1.0)", "value": 1.4671, "units": "%g", "flag": "0", "ln_sigma": 0.0}, {"name": "sa(3.0)", "value": 0.619, "units": "%g", "flag": "0", "ln_sigma": 0.0}]}, {"name": "--.HNN", "amplitudes": [{"name": "pga", "value": 0.5461, "units": "%g", "flag": "0", "ln_sigma": 0.0}, {"name": "pgv", "value": 1.6877, "units": "cm/s", "flag": "0", "ln_sigma": 0.0}, {"name": "sa(0.3)", "value": 0.6881, "units": "%g", "flag": "0", "ln_sigma": 0.0}, {"name": "sa(1.0)", "value": 1.7456, "units": "%g", "flag": "0", "ln_sigma": 0.0}, {"name": "sa(3.0)", "value": 1.0071, "units": "%g", "flag": "0", "ln_sigma": 0.0}]}, {"name": "--.HNZ", "amplitudes": [{"name": "pga", "value": 0.1909, "units": "%g", "flag": "0", "ln_sigma": 0.0}, {"name": "pgv", "value": 1.2414, "units": "cm/s", "flag": "0", "ln_sigma": 0.0}, {"name": "sa(0.3)", "value": 0.3635, "units": "%g", "flag": "0", "ln_sigma": 0.0}, {"name": "sa(1.0)", "value": 0.5445, "units": "%g", "flag": "0", "ln_sigma": 0.0}, {"name": "sa(3.0)", "value": 0.2627, "units": "%g", "flag": "0", "ln_sigma": 0.0}]}], "station_type": "seismic", "nresp": "null", "predictions": [{"name": "sa(1.0)", "value": 1.0879, "value_rock": 0.8557, "value_soil": 3.3688, "units": "%g", "ln_tau": 0.0, "ln_phi": 0.6693, "ln_sigma": 0.6693, "ln_sigma_rock": 0.809, "ln_sigma_soil": 0.8072, "ln_bias": 0.4865, "ln_bias_sigma": 0.1864}, {"name": "sa(3.0)", "value": 0.3356, "value_rock": 0.2763, "value_soil": 0.8778, "units": "%g", "ln_tau": 0.0, "ln_phi": 0.6593, "ln_sigma": 0.6593, "ln_sigma_rock": 0.8016, "ln_sigma_soil": 0.8012, "ln_bias": -0.0258, "ln_bias_sigma": 0.196}, {"name": "sa(0.3)", "value": 1.3099, "value_rock": 1.0527, "value_soil": 2.895, "units": "%g", "ln_tau": 0.0, "ln_phi": 0.6415, "ln_sigma": 0.6415, "ln_sigma_rock": 0.7713, "ln_sigma_soil": 0.7684, "ln_bias": 0.2775, "ln_bias_sigma": 0.1754}, {"name": "pga", "value": 0.5454, "value_rock": 0.4875, "value_soil": 0.8053, "units": "%g", "ln_tau": 0.0, "ln_phi": 0.5973, "ln_sigma": 0.5973, "ln_sigma_rock": 0.7161, "ln_sigma_soil": 0.7127, "ln_bias": 0.3304, "ln_bias_sigma": 0.1622}, {"name": "pgv", "value": 0.8593, "value_rock": 0.7187, "value_soil": 1.9649, "units": "cm/s", "ln_tau": 0.0, "ln_phi": 0.6075, "ln_sigma": 0.6075, "ln_sigma_rock": 0.7301, "ln_sigma_soil": 0.7257, "ln_bias": 0.3932, "ln_bias_sigma": 0.1668}, {"name": "mmi", "value": 3.3356, "value_rock": 3.2601, "value_soil": 3.598, "units": "intensity", "tau": 0.0, "phi": 0.6823, "sigma": 0.6823, "sigma_rock": 0.8173, "sigma_soil": 0.8159, "bias": 0.4375, "bias_sigma": 0.2086}], "mmi_from_pgm": [{"name": "sa(1.0)", "value": 3.39, "sigma": 0.75, "flag": "0"}, {"name": "sa(3.0)", "value": 4.01, "sigma": 0.89, "flag": "0"}, {"name": "sa(0.3)", "value": 3.12, "sigma": 0.82, "flag": "0"}, {"name": "pga", "value": 3.4, "sigma": 0.66, "flag": "0"}, {"name": "pgv", "value": 3.75, "sigma": 0.63, "flag": "0"}], "distance_stddev": 0.0, "distances": {"repi": 364.016, "rhypo": 364.621, "rjb": 346.628, "rjb_var": 0.0, "rrup": 346.541, "rrup_var": 0.0, "rx": -5.573, "ry0": 345.559, "rvolc": 0.0}}, "geometry": {"type": "Point", "coordinates": [22.6361, 38.0772]}}, {"type": "Feature", "id": "HC.ABEA", "properties": {"code": "ABEA", "name": "ABEA", "instrumentType": "UNK", "source": "HC", "network": "HC", "commType": "UNK", "location": "", "intensity": 3.8, "intensity_flag": "", "intensity_stddev": 0.63, "pga": 0.7695, "pgv": 1.9402, "distance": 347.166, "elev": null, "vs30": 290.57, "channels": [{"name": "--.HNE", "amplitudes": [{"name": "pga", "value": 0.7695, "units": "%g", "flag": "0", "ln_sigma": 0.0}, {"name": "pgv", "value": 1.9402, "units": "cm/s", "flag": "0", "ln_sigma": 0.0}, {"name": "sa(0.3)", "value": 1.2446, "units": "%g", "flag": "0", "ln_sigma": 0.0}, {"name": "sa(1.0)", "value": 1.8297, "units": "%g", "flag": "0", "ln_sigma": 0.0}, {"name": "sa(3.0)", "value": 1.1094, "units": "%g", "flag": "0", "ln_sigma": 0.0}]}, {"name": "--.HNN", "amplitudes": [{"name": "pga", "value": 0.7677, "units": "%g", "flag": "0", "ln_sigma": 0.0}, {"name": "pgv", "value": 1.615, "units": "cm/s", "flag": "0", "ln_sigma": 0.0}, {"name": "sa(0.3)", "value": 1.449, "units": "%g", "flag": "0", "ln_sigma": 0.0}, {"name": "sa(1.0)", "value": 2.2633, "units": "%g", "flag": "0", "ln_sigma": 0.0}, {"name": "sa(3.0)", "value": 0.6628, "units": "%g", "flag": "0", "ln_sigma": 0.0}]}, {"name": "--.HNZ", "amplitudes": [{"name": "pga", "value": 0.3937, "units": "%g", "flag": "0", "ln_sigma": 0.0}, {"name": "pgv", "value": 1.7862, "units": "cm/s", "flag": "0", "ln_sigma": 0.0}, {"name": "sa(0.3)", "value": 0.6586, "units": "%g", "flag": "0", "ln_sigma": 0.0}, {"name": "sa(1.0)", "value": 1.6099, "units": "%g", "flag": "0", "ln_sigma": 0.0}, {"name": "sa(3.0)", "value": 0.2293, "units": "%g", "flag": "0", "ln_sigma": 0.0}]}], "station_type": "seismic", "nresp": "null", "predictions": [{"name": "sa(1.0)", "value": 2.1546, "value_rock": 0.8544, "value_soil": 3.3637, "units": "%g", "ln_tau": 0.0, "ln_phi": 0.6688, "ln_sigma": 0.6688, "ln_sigma_rock": 0.809, "ln_sigma_soil": 0.8072, "ln_bias": 0.4863, "ln_bias_sigma": 0.1864}, {"name": "sa(3.0)", "value": 0.5937, "value_rock": 0.2759, "value_soil": 0.8766, "units": "%g", "ln_tau": 0.0, "ln_phi": 0.6588, "ln_sigma": 0.6588, "ln_sigma_rock": 0.8016, "ln_sigma_soil": 0.8012, "ln_bias": -0.0258, "ln_bias_sigma": 0.196}, {"name": "sa(0.3)", "value": 2.1232, "value_rock": 1.0501, "value_soil": 2.888, "units": "%g", "ln_tau": 0.0, "ln_phi": 0.6411, "ln_sigma": 0.6411, "ln_sigma_rock": 0.7713, "ln_sigma_soil": 0.7684, "ln_bias": 0.2774, "ln_bias_sigma": 0.1754}, {"name": "pga", "value": 0.6831, "value_rock": 0.4862, "value_soil": 0.8032, "units": "%g", "ln_tau": 0.0, "ln_phi": 0.5967, "ln_sigma": 0.5967, "ln_sigma_rock": 0.7161, "ln_sigma_soil": 0.7127, "ln_bias": 0.3303, "ln_bias_sigma": 0.1622}, {"name": "pgv", "value": 1.4143, "value_rock": 0.7176, "value_soil": 1.9619, "units": "cm/s", "ln_tau": 0.0, "ln_phi": 0.6067, "ln_sigma": 0.6067, "ln_sigma_rock": 0.7301, "ln_sigma_soil": 0.7257, "ln_bias": 0.393, "ln_bias_sigma": 0.1668}, {"name": "mmi", "value": 3.4872, "value_rock": 3.2584, "value_soil": 3.5962, "units": "intensity", "tau": 0.0, "phi": 0.682, "sigma": 0.682, "sigma_rock": 0.8173, "sigma_soil": 0.8159, "bias": 0.4374, "bias_sigma": 0.2086}], "mmi_from_pgm": [{"name": "sa(1.0)", "value": 3.56, "sigma": 0.75, "flag": "0"}, {"name": "sa(3.0)", "value": 4.14, "sigma": 0.89, "flag": "0"}, {"name": "sa(0.3)", "value": 3.64, "sigma": 0.82, "flag": "0"}, {"name": "pga", "value": 3.57, "sigma": 0.66, "flag": "0"}, {"name": "pgv", "value": 3.84, "sigma": 0.63, "flag": "0"}], "distance_stddev": 0.0, "distances": {"repi": 362.151, "rhypo": 362.76, "rjb": 346.837, "rjb_var": 0.0, "rrup": 347.166, "rrup_var": 0.0, "rx": 277.299, "ry0": 218.918, "rvolc": 0.0}}, "geometry": {"type": "Point", "coordinates": [24.0113, 35.5163]}}, {"type": "Feature", "id": "HC.ATEI", "properties": {"code": "ATEI", "name": "ATEI", "instrumentType": "UNK", "source": "HC", "network": "HC", "commType": "UNK", "location": "", "intensity": 3.8, "intensity_flag": "", "intensity_stddev": 0.63, "pga": 0.7828, "pgv": 1.7991, "distance": 345.045, "elev": null, "vs30": 618.5, "channels": [{"name": "--.HNE", "amplitudes": [{"name": "pga", "value": 0.7828, "units": "%g", "flag": "0", "ln_sigma": 0.0}, {"name": "pgv", "value": 1.7991, "units": "cm/s", "flag": "0", "ln_sigma": 0.0}, {"name": "sa(0.3)", "value": 1.7069, "units": "%g", "flag": "0", "ln_sigma": 0.0}, {"name": "sa(1.0)", "value": 1.3416, "units": "%g", "flag": "0", "ln_sigma": 0.0}, {"name": "sa(3.0)", "value": 0.7723, "units": "%g", "flag": "0", "ln_sigma": 0.0}]}, {"name": "--.HNN", "amplitudes": [{"name": "pga", "value": 0.6785, "units": "%g", "flag": "0", "ln_sigma": 0.0}, {"name": "pgv", "value": 1.511, "units": "cm/s", "flag": "0", "ln_sigma": 0.0}, {"name": "sa(0.3)", "value": 1.3494, "units": "%g", "flag": "0", "ln_sigma": 0.0}, {"name": "sa(1.0)", "value": 1.5058, "units": "%g", "flag": "0", "ln_sigma": 0.0}, {"name": "sa(3.0)", "value": 0.5845, "units": "%g", "flag": "0", "ln_sigma": 0.0}]}, {"name": "--.HNZ", "amplitudes": [{"name": "pga", "value": 0.4053, "units": "%g", "flag": "0", "ln_sigma": 0.0}, {"name": "pgv", "value": 1.3825, "units": "cm/s", "flag": "0", "ln_sigma": 0.0}, {"name": "sa(0.3)", "value": 0.6404, "units": "%g", "flag": "0", "ln_sigma": 0.0}, {"name": "sa(1.0)", "value": 0.6742, "units": "%g", "flag": "0", "ln_sigma": 0.0}, {"name": "sa(3.0)", "value": 0.2163, "units": "%g", "flag": "0", "ln_sigma": 0.0}]}], "station_type": "seismic", "nresp": "null", "predictions": [{"name": "sa(1.0)", "value": 1.0339, "value_rock": 0.8604, "value_soil": 3.3867, "units": "%g", "ln_tau": 0.0, "ln_phi": 0.6693, "ln_sigma": 0.6693, "ln_sigma_rock": 0.809, "ln_sigma_soil": 0.8072, "ln_bias": 0.4865, "ln_bias_sigma": 0.1864}, {"name": "sa(3.0)", "value": 0.3236, "value_rock": 0.2776, "value_soil": 0.8818, "units": "%g", "ln_tau": 0.0, "ln_phi": 0.6593, "ln_sigma": 0.6593, "ln_sigma_rock": 0.8016, "ln_sigma_soil": 0.8012, "ln_bias": -0.0258, "ln_bias_sigma": 0.196}, {"name": "sa(0.3)", "value": 1.2198, "value_rock": 1.0618, "value_soil": 2.9195, "units": "%g", "ln_tau": 0.0, "ln_phi": 0.6415, "ln_sigma": 0.6415, "ln_sigma_rock": 0.7713, "ln_sigma_soil": 0.7683, "ln_bias": 0.2775, "ln_bias_sigma": 0.1754}, {"name": "pga", "value": 0.5282, "value_rock": 0.4921, "value_soil": 0.8127, "units": "%g", "ln_tau": 0.0, "ln_phi": 0.5973, "ln_sigma": 0.5973, "ln_sigma_rock": 0.7161, "ln_sigma_soil": 0.7127, "ln_bias": 0.3304, "ln_bias_sigma": 0.1622}, {"name": "pgv", "value": 0.8233, "value_rock": 0.7228, "value_soil": 1.9758, "units": "cm/s", "ln_tau": 0.0, "ln_phi": 0.6075, "ln_sigma": 0.6075, "ln_sigma_rock": 0.7301, "ln_sigma_soil": 0.7257, "ln_bias": 0.3932, "ln_bias_sigma": 0.1668}, {"name": "mmi", "value": 3.314, "value_rock": 3.2664, "value_soil": 3.6042, "units": "intensity", "tau": 0.0, "phi": 0.6823, "sigma": 0.6823, "sigma_rock": 0.8173, "sigma_soil": 0.8159, "bias": 0.4375, "bias_sigma": 0.2086}], "mmi_from_pgm": [{"name": "sa(1.0)", "value": 3.29, "sigma": 0.75, "flag": "0"}, {"name": "sa(3.0)", "value": 3.87, "sigma": 0.89, "flag": "0"}, {"name": "sa(0.3)", "value": 3.76, "sigma": 0.82, "flag": "0"}, {"name": "pga", "value": 3.58, "sigma": 0.66, "flag": "0"}, {"name": "pgv", "value": 3.79, "sigma": 0.63, "flag": "0"}], "distance_stddev": 0.0, "distances": {"repi": 359.969, "rhypo": 360.581, "rjb": 344.705, "rjb_var": 0.0, "rrup": 345.045, "rrup_var": 0.0, "rx": 276.903, "ry0": 216.042, "rvolc": 0.0}}, "geometry": {"type": "Point", "coordinates": [24.0432, 35.5193]}}, {"type": "Feature", "id": "HC.DEYA", "properties": {"code": "DEYA", "name": "DEYA", "instrumentType": "UNK", "source": "HC", "network": "HC", "commType": "UNK", "location": "", "intensity": 4.0, "intensity_flag": "", "intensity_stddev": 0.63, "pga": 0.7881, "pgv": 2.3134, "distance": 349.845, "elev": null, "vs30": 514.28, "channels": [{"name": "--.HNE", "amplitudes": [{"name": "pga", "value": 0.7881, "units": "%g", "flag": "0", "ln_sigma": 0.0}, {"name": "pgv", "value": 2.3134, "units": "cm/s", "flag": "0", "ln_sigma": 0.0}, {"name": "sa(0.3)", "value": 1.1331, "units": "%g", "flag": "0", "ln_sigma": 0.0}, {"name": "sa(1.0)", "value": 3.7484, "units": "%g", "flag": "0", "ln_sigma": 0.0}, {"name": "sa(3.0)", "value": 0.719, "units": "%g", "flag": "0", "ln_sigma": 0.0}]}, {"name": "--.HNN", "amplitudes": [{"name": "pga", "value": 0.7644, "units": "%g", "flag": "0", "ln_sigma": 0.0}, {"name": "pgv", "value": 1.4341, "units": "cm/s", "flag": "0", "ln_sigma": 0.0}, {"name": "sa(0.3)", "value": 1.021, "units": "%g", "flag": "0", "ln_sigma": 0.0}, {"name": "sa(1.0)", "value": 1.5147, "units": "%g", "flag": "0", "ln_sigma": 0.0}, {"name": "sa(3.0)", "value": 0.2541, "units": "%g", "flag": "0