{
   "type":"FeatureCollection",
   "features":[
      {
         "type":"Feature",
         "id":"SGC.CROSA",
         "properties":{
            "code":"CROSA",
            "name":"El Rosal",
            "instrumentType":"UNK",
            "source":"SGC",
            "network":"SGC",
            "commType":"UNK",
            "location":"",
            "intensity":"null",
            "intensity_flag":"",
            "intensity_stddev":"null",
            "pga":"null",
            "pgv":"null",
            "distance":280.16,
            "elev":null,
            "vs30":719.52,
            "channels":[
               {
                  "name":"NS",
                  "amplitudes":[
                     {
                        "name":"pgv",
                        "value":1.722,
                        "units":"cm/s",
                        "flag":"UnknownOrientation,0,Outlier",
                        "ln_sigma":0.0
                     },
                     {
                        "name":"sa(1.0)",
                        "value":0.017,
                        "units":"%g",
                        "flag":"UnknownOrientation,0,Outlier",
                        "ln_sigma":0.0
                     },
                     {
                        "name":"sa(3.0)",
                        "value":0.014,
                        "units":"%g",
                        "flag":"UnknownOrientation,0,Outlier",
                        "ln_sigma":0.0
                     },
                     {
                        "name":"pga",
                        "value":0.723,
                        "units":"%g",
                        "flag":"UnknownOrientation,0,Outlier",
                        "ln_sigma":0.0
                     },
                     {
                        "name":"sa(0.3)",
                        "value":0.015,
                        "units":"%g",
                        "flag":"UnknownOrientation,0,Outlier",
                        "ln_sigma":0.0
                     }
                  ]
               },
               {
                  "name":"EW",
                  "amplitudes":[
                     {
                        "name":"pgv",
                        "value":1.632,
                        "units":"cm/s",
                        "flag":"UnknownOrientation,0,Outlier",
                        "ln_sigma":0.0
                     },
                     {
                        "name":"sa(1.0)",
                        "value":0.014,
                        "units":"%g",
                        "flag":"UnknownOrientation,0,Outlier",
                        "ln_sigma":0.0
                     },
                     {
                        "name":"sa(3.0)",
                        "value":0.01,
                        "units":"%g",
                        "flag":"UnknownOrientation,0,Outlier",
                        "ln_sigma":0.0
                     },
                     {
                        "name":"pga",
                        "value":0.5716,
                        "units":"%g",
                        "flag":"UnknownOrientation,0,Outlier",
                        "ln_sigma":0.0
                     },
                     {
                        "name":"sa(0.3)",
                        "value":0.012,
                        "units":"%g",
                        "flag":"UnknownOrientation,0,Outlier",
                        "ln_sigma":0.0
                     }
                  ]
               },
               {
                  "name":"UP",
                  "amplitudes":[
                     {
                        "name":"pgv",
                        "value":0.993,
                        "units":"cm/s",
                        "flag":"UnknownOrientation,0,Outlier",
                        "ln_sigma":0.0
                     },
                     {
                        "name":"sa(1.0)",
                        "value":0.006,
                        "units":"%g",
                        "flag":"UnknownOrientation,0,Outlier",
                        "ln_sigma":0.0
                     },
                     {
                        "name":"sa(3.0)",
                        "value":0.006,
                        "units":"%g",
                        "flag":"UnknownOrientation,0,Outlier",
                        "ln_sigma":0.0
                     },
                     {
                        "name":"pga",
                        "value":0.3574,
                        "units":"%g",
                        "flag":"UnknownOrientation,0,Outlier",
                        "ln_sigma":0.0
                     },
                     {
                        "name":"sa(0.3)",
                        "value":0.005,
                        "units":"%g",
                        "flag":"UnknownOrientation,0,Outlier",
                        "ln_sigma":0.0
                     }
                  ]
               }
            ],
            "station_type":"seismic",
            "nresp":"null",
            "predictions":[
               {
                  "name":"sa(3.0)",
                  "value":0.2295,
                  "value_rock":0.2172,
                  "value_soil":0.8964,
                  "units":"%g",
                  "ln_tau":0.3627,
                  "ln_phi":0.6258,
                  "ln_sigma":0.7233,
                  "ln_sigma_rock":0.7248,
                  "ln_sigma_soil":0.7247,
                  "ln_bias":0.4009,
                  "ln_bias_sigma":0.2412
               },
               {
                  "name":"pga",
                  "value":0.3502,
                  "value_rock":0.3415,
                  "value_soil":0.6615,
                  "units":"%g",
                  "ln_tau":0.3201,
                  "ln_phi":0.5268,
                  "ln_sigma":0.6164,
                  "ln_sigma_rock":0.6173,
                  "ln_sigma_soil":0.6005,
                  "ln_bias":0.5353,
                  "ln_bias_sigma":0.1701
               },
               {
                  "name":"sa(0.3)",
                  "value":0.7782,
                  "value_rock":0.7442,
                  "value_soil":2.3631,
                  "units":"%g",
                  "ln_tau":0.299,
                  "ln_phi":0.6036,
                  "ln_sigma":0.6736,
                  "ln_sigma_rock":0.6764,
                  "ln_sigma_soil":0.6615,
                  "ln_bias":0.3458,
                  "ln_bias_sigma":0.1871
               },
               {
                  "name":"sa(1.0)",
                  "value":0.6606,
                  "value_rock":0.6253,
                  "value_soil":2.5877,
                  "units":"%g",
                  "ln_tau":0.3347,
                  "ln_phi":0.6408,
                  "ln_sigma":0.7229,
                  "ln_sigma_rock":0.7242,
                  "ln_sigma_soil":0.7171,
                  "ln_bias":0.6042,
                  "ln_bias_sigma":0.2081
               },
               {
                  "name":"pgv",
                  "value":0.7435,
                  "value_rock":0.7147,
                  "value_soil":2.0144,
                  "units":"cm/s",
                  "ln_tau":0.3181,
                  "ln_phi":0.5375,
                  "ln_sigma":0.6245,
                  "ln_sigma_rock":0.6256,
                  "ln_sigma_soil":0.6066,
                  "ln_bias":0.4445,
                  "ln_bias_sigma":0.1801
               },
               {
                  "name":"mmi",
                  "value":3.0411,
                  "value_rock":3.0242,
                  "value_soil":3.4692,
                  "units":"intensity",
                  "tau":0.2155,
                  "phi":0.7492,
                  "sigma":0.7796,
                  "sigma_rock":0.7799,
                  "sigma_soil":0.774,
                  "bias":0.3555,
                  "bias_sigma":0.1733
               }
            ],
            "mmi_from_pgm":[
               {
                  "name":"sa(3.0)",
                  "value":null,
                  "sigma":null,
                  "flag":"0"
               },
               {
                  "name":"pga",
                  "value":null,
                  "sigma":null,
                  "flag":"0"
               },
               {
                  "name":"sa(0.3)",
                  "value":null,
                  "sigma":null,
                  "flag":"0"
               },
               {
                  "name":"sa(1.0)",
                  "value":null,
                  "sigma":null,
                  "flag":"0"
               },
               {
                  "name":"pgv",
                  "value":null,
                  "sigma":null,
                  "flag":"0"
               }
            ],
            "distance_stddev":0.0,
            "distances":{
               "repi":287.929,
               "rhypo":288.184,
               "rjb":280.228,
               "rjb_var":0.0,
               "rrup":280.16,
               "rrup_var":0.0,
               "rx":109.214,
               "ry0":267.675,
               "rvolc":0.0
            }
         },
         "geometry":{
            "type":"Point",
            "coordinates":[
               -74.33,
               4.85
            ]
         }
      },
      {
         "type":"Feature",
         "id":"SGC.CBOG1",
         "properties":{
            "code":"CBOG1",
            "name":"Bogota",
            "instrumentType":"UNK",
            "source":"SGC",
            "network":"SGC",
            "commType":"UNK",
            "location":"",
            "intensity":"null",
            "intensity_flag":"",
            "intensity_stddev":"null",
            "pga":"null",
            "pgv":"null",
            "distance":283.461,
            "elev":null,
            "vs30":287.68,
            "channels":[
               {
                  "name":"NS",
                  "amplitudes":[
                     {
                        "name":"pgv",
                        "value":5.198,
                        "units":"cm/s",
                        "flag":"UnknownOrientation,0,Outlier",
                        "ln_sigma":0.0
                     },
                     {
                        "name":"sa(1.0)",
                        "value":0.048,
                        "units":"%g",
                        "flag":"UnknownOrientation,0,Outlier",
                        "ln_sigma":0.0
                     },
                     {
                        "name":"sa(3.0)",
                        "value":0.029,
                        "units":"%g",
                        "flag":"UnknownOrientation,0,Outlier",
                        "ln_sigma":0.0
                     },
                     {
                        "name":"pga",
                        "value":1.9786,
                        "units":"%g",
                        "flag":"UnknownOrientation,0,Outlier",
                        "ln_sigma":0.0
                     },
                     {
                        "name":"sa(0.3)",
                        "value":0.024,
                        "units":"%g",
                        "flag":"UnknownOrientation,0,Outlier",
                        "ln_sigma":0.0
                     }
                  ]
               },
               {
                  "name":"EW",
                  "amplitudes":[
                     {
                        "name":"pgv",
                        "value":5.929,
                        "units":"cm/s",
                        "flag":"UnknownOrientation,0,Outlier",
                        "ln_sigma":0.0
                     },
                     {
                        "name":"sa(1.0)",
                        "value":0.057,
                        "units":"%g",
                        "flag":"UnknownOrientation,0,Outlier",
                        "ln_sigma":0.0
                     },
                     {
                        "name":"sa(3.0)",
                        "value":0.028,
                        "units":"%g",
                        "flag":"UnknownOrientation,0,Outlier",
                        "ln_sigma":0.0
                     },
                     {
                        "name":"pga",
                        "value":2.2681,
                        "units":"%g",
                        "flag":"UnknownOrientation,0,Outlier",
                        "ln_sigma":0.0
                     },
                     {
                        "name":"sa(0.3)",
                        "value":0.024,
                        "units":"%g",
                        "flag":"UnknownOrientation,0,Outlier",
                        "ln_sigma":0.0
                     }
                  ]
               },
               {
                  "name":"UP",
                  "amplitudes":[
                     {
                        "name":"pgv",
                        "value":1.351,
                        "units":"cm/s",
                        "flag":"UnknownOrientation,0,Outlier",
                        "ln_sigma":0.0
                     },
                     {
                        "name":"sa(1.0)",
                        "value":0.03,
                        "units":"%g",
                        "flag":"UnknownOrientation,0,Outlier",
                        "ln_sigma":0.0
                     },
                     {
                        "name":"sa(3.0)",
                        "value":0.004,
                        "units":"%g",
                        "flag":"UnknownOrientation,0,Outlier",
                        "ln_sigma":0.0
                     },
                     {
                        "name":"pga",
                        "value":0.656,
                        "units":"%g",
                        "flag":"UnknownOrientation,0,Outlier",
                        "ln_sigma":0.0
                     },
                     {
                        "name":"sa(0.3)",
                        "value":0.007,
                        "units":"%g",
                        "flag":"UnknownOrientation,0,Outlier",
                        "ln_sigma":0.0
                     }
                  ]
               }
            ],
            "station_type":"seismic",
            "nresp":"null",
            "predictions":[
               {
                  "name":"sa(3.0)",
                  "value":0.5616,
                  "value_rock":0.2145,
                  "value_soil":0.8854,
                  "units":"%g",
                  "ln_tau":0.3626,
                  "ln_phi":0.6257,
                  "ln_sigma":0.7232,
                  "ln_sigma_rock":0.7248,
                  "ln_sigma_soil":0.7247,
                  "ln_bias":0.4008,
                  "ln_bias_sigma":0.2411
               },
               {
                  "name":"pga",
                  "value":0.5157,
                  "value_rock":0.3306,
                  "value_soil":0.6405,
                  "units":"%g",
                  "ln_tau":0.3191,
                  "ln_phi":0.5235,
                  "ln_sigma":0.6131,
                  "ln_sigma_rock":0.6173,
                  "ln_sigma_soil":0.6006,
                  "ln_bias":0.5343,
                  "ln_bias_sigma":0.17
               },
               {
                  "name":"sa(0.3)",
                  "value":1.5885,
                  "value_rock":0.722,
                  "value_soil":2.2937,
                  "units":"%g",
                  "ln_tau":0.2979,
                  "ln_phi":0.6008,
                  "ln_sigma":0.6706,
                  "ln_sigma_rock":0.6764,
                  "ln_sigma_soil":0.6617,
                  "ln_bias":0.3448,
                  "ln_bias_sigma":0.1868
               },
               {
                  "name":"sa(1.0)",
                  "value":1.6182,
                  "value_rock":0.6149,
                  "value_soil":2.5453,
                  "units":"%g",
                  "ln_tau":0.3341,
                  "ln_phi":0.6395,
                  "ln_sigma":0.7215,
                  "ln_sigma_rock":0.7242,
                  "ln_sigma_soil":0.7171,
                  "ln_bias":0.6034,
                  "ln_bias_sigma":0.208
               },
               {
                  "name":"pgv",
                  "value":1.4217,
                  "value_rock":0.7025,
                  "value_soil":1.9805,
                  "units":"cm/s",
                  "ln_tau":0.3173,
                  "ln_phi":0.5339,
                  "ln_sigma":0.6211,
                  "ln_sigma_rock":0.6256,
                  "ln_sigma_soil":0.6066,
                  "ln_bias":0.4438,
                  "ln_bias_sigma":0.18
               },
               {
                  "name":"mmi",
                  "value":3.3069,
                  "value_rock":3.0075,
                  "value_soil":3.4528,
                  "units":"intensity",
                  "tau":0.2148,
                  "phi":0.7482,
                  "sigma":0.7784,
                  "sigma_rock":0.7799,
                  "sigma_soil":0.774,
                  "bias":0.3541,
                  "bias_sigma":0.173
               }
            ],
            "mmi_from_pgm":[
               {
                  "name":"sa(3.0)",
                  "value":null,
                  "sigma":null,
                  "flag":"0"
               },
               {
                  "name":"pga",
                  "value":null,
                  "sigma":null,
                  "flag":"0"
               },
               {
                  "name":"sa(0.3)",
                  "value":null,
                  "sigma":null,
                  "flag":"0"
               },
               {
                  "name":"sa(1.0)",
                  "value":null,
                  "sigma":null,
                  "flag":"0"
               },
               {
                  "name":"pgv",
                  "value":null,
                  "sigma":null,
                  "flag":"0"
               }
            ],
            "distance_stddev":0.0,
            "distances":{
               "repi":291.237,
               "rhypo":291.488,
               "rjb":283.532,
               "rjb_var":0.0,
               "rrup":283.461,
               "rrup_var":0.0,
               "rx":142.565,
               "ry0":254.658,
               "rvolc":0.0
            }
         },
         "geometry":{
            "type":"Point",
            "coordinates":[
               -74.08,
               4.64
            ]
         }
      },
      {
         "type":"Feature",
         "id":"INTENSITY.obs_13",
         "properties":{
            "code":"obs_13",
            "name":"Silvia (Intensity VIII)",
            "instrumentType":"OBSERVED",
            "source":"INTENSITY",
            "network":"INTENSITY",
            "commType":"UNK",
            "location":"",
            "intensity":8.0,
            "intensity_flag":"0",
            "intensity_stddev":0.3,
            "pga":57.54,
            "pgv":52.4349,
            "distance":28.564,
            "elev":null,
            "vs30":764.94,
            "channels":[
               
            ],
            "nresp":-1,
            "station_type":"macroseismic",
            "predictions":[
               {
                  "name":"mmi",
                  "value":5.4344,
                  "value_rock":5.4476,
                  "value_soil":6.0529,
                  "units":"intensity",
                  "tau":0.5231,
                  "phi":1.0555,
                  "sigma":1.178,
                  "sigma_rock":1.1798,
                  "sigma_soil":1.0817,
                  "bias":0.7684,
                  "bias_sigma":0.2549
               },
               {
                  "name":"pgv",
                  "value":9.1326,
                  "value_rock":9.2015,
                  "value_soil":22.0561,
                  "units":"cm/s",
