{"type": "FeatureCollection", "features": [{"type": "Feature", "id": "HL.ITM", "properties": {"code": "ITM", "name": "Stasrv: unknown station", "instrumentType": "UNK", "source": "HL", "network": "HL", "commType": "UNK", "location": "", "intensity": 1.6, "intensity_flag": "", "intensity_stddev": 0.63, "pga": "null", "pgv": 0.0517, "distance": 421.675, "elev": null, "vs30": 760.0, "channels": [{"name": "HHZ", "amplitudes": [{"name": "pga", "value": 0.0078, "units": "%g", "flag": "Outlier", "ln_sigma": 0.0}, {"name": "sa(1.0)", "value": 0.0173, "units": "%g", "flag": "Outlier", "ln_sigma": 0.0}, {"name": "sa(3.0)", "value": 0.0199, "units": "%g", "flag": "0", "ln_sigma": 0.0}, {"name": "sa(0.3)", "value": 0.0151, "units": "%g", "flag": "Outlier", "ln_sigma": 0.0}, {"name": "pgv", "value": 0.0405, "units": "cm/s", "flag": "0", "ln_sigma": 0.0}]}, {"name": "HHN", "amplitudes": [{"name": "pga", "value": 0.0099, "units": "%g", "flag": "Outlier", "ln_sigma": 0.0}, {"name": "sa(1.0)", "value": 0.0165, "units": "%g", "flag": "Outlier", "ln_sigma": 0.0}, {"name": "sa(3.0)", "value": 0.0185, "units": "%g", "flag": "0", "ln_sigma": 0.0}, {"name": "sa(0.3)", "value": 0.0146, "units": "%g", "flag": "Outlier", "ln_sigma": 0.0}, {"name": "pgv", "value": 0.0517, "units": "cm/s", "flag": "0", "ln_sigma": 0.0}]}, {"name": "HHE", "amplitudes": [{"name": "pga", "value": 0.0074, "units": "%g", "flag": "Outlier", "ln_sigma": 0.0}, {"name": "sa(1.0)", "value": 0.0161, "units": "%g", "flag": "Outlier", "ln_sigma": 0.0}, {"name": "sa(3.0)", "value": 0.0269, "units": "%g", "flag": "0", "ln_sigma": 0.0}, {"name": "sa(0.3)", "value": 0.0108, "units": "%g", "flag": "Outlier", "ln_sigma": 0.0}, {"name": "pgv", "value": 0.0502, "units": "cm/s", "flag": "0", "ln_sigma": 0.0}]}], "station_type": "seismic", "nresp": "null", "predictions": [{"name": "sa(3.0)", "value": 0.0586, "value_rock": 0.0586, "value_soil": 0.1887, "units": "%g", "ln_tau": 0.4271, "ln_phi": 0.6496, "ln_sigma": 0.7774, "ln_sigma_rock": 0.7798, "ln_sigma_soil": 0.7798, "ln_bias": 0.1141, "ln_bias_sigma": 0.3473}, {"name": "sa(0.3)", "value": 0.2483, "value_rock": 0.2483, "value_soil": 0.7039, "units": "%g", "ln_tau": 0.3772, "ln_phi": 0.6524, "ln_sigma": 0.7536, "ln_sigma_rock": 0.7551, "ln_sigma_soil": 0.7528, "ln_bias": 0.108, "ln_bias_sigma": 0.2895}, {"name": "pgv", "value": 0.1681, "value_rock": 0.1681, "value_soil": 0.4655, "units": "cm/s", "ln_tau": 0.3813, "ln_phi": 0.5886, "ln_sigma": 0.7013, "ln_sigma_rock": 0.7059, "ln_sigma_soil": 0.7025, "ln_bias": 0.2197, "ln_bias_sigma": 0.2766}, {"name": "pga", "value": 0.1147, "value_rock": 0.1147, "value_soil": 0.1931, "units": "%g", "ln_tau": 0.3912, "ln_phi": 0.5803, "ln_sigma": 0.6999, "ln_sigma_rock": 0.7022, "ln_sigma_soil": 0.6993, "ln_bias": 0.1911, "ln_bias_sigma": 0.2712}, {"name": "sa(1.0)", "value": 0.1989, "value_rock": 0.1989, "value_soil": 0.8022, "units": "%g", "ln_tau": 0.4194, "ln_phi": 0.6652, "ln_sigma": 0.7864, "ln_sigma_rock": 0.7886, "ln_sigma_soil": 0.7876, "ln_bias": 0.1753, "ln_bias_sigma": 0.3158}, {"name": "mmi", "value": 2.4074, "value_rock": 2.4074, "value_soil": 3.0578, "units": "intensity", "tau": 0.2434, "phi": 0.7336, "sigma": 0.7729, "sigma_rock": 0.7746, "sigma_soil": 0.7733, "bias": 0.132, "bias_sigma": 0.1965}], "mmi_from_pgm": [{"name": "sa(3.0)", "value": 2.31, "sigma": 0.89, "flag": "0"}, {"name": "sa(0.3)", "value": 1.0, "sigma": 0.82, "flag": "Outlier"}, {"name": "pgv", "value": 1.59, "sigma": 0.63, "flag": "0"}, {"name": "pga", "value": 1.0, "sigma": 0.66, "flag": "Outlier"}, {"name": "sa(1.0)", "value": 1.0, "sigma": 0.75, "flag": "Outlier"}], "distance_stddev": 0.0, "distances": {"repi": 434.694, "rhypo": 434.86, "rjb": 421.904, "rjb_var": 0.0, "rrup": 421.675, "rrup_var": 0.0, "rx": 299.68, "ry0": 312.088, "rvolc": 0.0}}, "geometry": {"type": "Point", "coordinates": [21.92522, 37.17872]}}, {"type": "Feature", "id": "GE.ISP", "properties": {"code": "ISP", "name": "Isparta, Turkey", "instrumentType": "UNK", "source": "GE", "network": "GE", "commType": "UNK", "location": "", "intensity": 1.8, "intensity_flag": "", "intensity_stddev": 0.63, "pga": 0.0191, "pgv": 0.0687, "distance": 368.901, "elev": null, "vs30": 760.0, "channels": [{"name": "BHZ", "amplitudes": [{"name": "pga", "value": 0.0179, "units": "%g", "flag": "0", "ln_sigma": 0.0}, {"name": "sa(1.0)", "value": 0.0243, "units": "%g", "flag": "0", "ln_sigma": 0.0}, {"name": "sa(3.0)", "value": 0.0438, "units": "%g", "flag": "0", "ln_sigma": 0.0}, {"name": "sa(0.3)", "value": 0.0205, "units": "%g", "flag": "Outlier", "ln_sigma": 0.0}, {"name": "pgv", "value": 0.0791, "units": "cm/s", "flag": "0", "ln_sigma": 0.0}]}, {"name": "BHE", "amplitudes": [{"name": "pga", "value": 0.0191, "units": "%g", "flag": "0", "ln_sigma": 0.0}, {"name": "sa(1.0)", "value": 0.0236, "units": "%g", "flag": "0", "ln_sigma": 0.0}, {"name": "sa(3.0)", "value": 0.0377, "units": "%g", "flag": "0", "ln_sigma": 0.0}, {"name": "sa(0.3)", "value": 0.0215, "units": "%g", "flag": "Outlier", "ln_sigma": 0.0}, {"name": "pgv", "value": 0.0687, "units": "cm/s", "flag": "0", "ln_sigma": 0.0}]}, {"name": "BHN", "amplitudes": [{"name": "pga", "value": 0.0165, "units": "%g", "flag": "0", "ln_sigma": 0.0}, {"name": "sa(1.0)", "value": 0.0334, "units": "%g", "flag": "0", "ln_sigma": 0.0}, {"name": "sa(3.0)", "value": 0.0451, "units": "%g", "flag": "0", "ln_sigma": 0.0}, {"name": "sa(0.3)", "value": 0.0172, "units": "%g", "flag": "Outlier", "ln_sigma": 0.0}, {"name": "pgv", "value": 0.0575, "units": "cm/s", "flag": "0", "ln_sigma": 0.0}]}], "station_type": "seismic", "nresp": "null", "predictions": [{"name": "sa(3.0)", "value": 0.068, "value_rock": 0.068, "value_soil": 0.2189, "units": "%g", "ln_tau": 0.4271, "ln_phi": 0.6496, "ln_sigma": 0.7774, "ln_sigma_rock": 0.7798, "ln_sigma_soil": 0.7798, "ln_bias": 0.1141, "ln_bias_sigma": 0.3473}, {"name": "sa(0.3)", "value": 0.3264, "value_rock": 0.3264, "value_soil": 0.9236, "units": "%g", "ln_tau": 0.3772, "ln_phi": 0.6524, "ln_sigma": 0.7536, "ln_sigma_rock": 0.7551, "ln_sigma_soil": 0.7527, "ln_bias": 0.108, "ln_bias_sigma": 0.2895}, {"name": "pgv", "value": 0.2006, "value_rock": 0.2006, "value_soil": 0.5552, "units": "cm/s", "ln_tau": 0.3813, "ln_phi": 0.5886, "ln_sigma": 0.7013, "ln_sigma_rock": 0.7059, "ln_sigma_soil": 0.7025, "ln_bias": 0.2197, "ln_bias_sigma": 0.2766}, {"name": "pga", "value": 0.1547, "value_rock": 0.1547, "value_soil": 0.2601, "units": "%g", "ln_tau": 0.3912, "ln_phi": 0.5803, "ln_sigma": 0.6999, "ln_sigma_rock": 0.7022, "ln_sigma_soil": 0.6993, "ln_bias": 0.1911, "ln_bias_sigma": 0.2712}, {"name": "sa(1.0)", "value": 0.2363, "value_rock": 0.2363, "value_soil": 0.9521, "units": "%g", "ln_tau": 0.4194, "ln_phi": 0.6652, "ln_sigma": 0.7864, "ln_sigma_rock": 0.7886, "ln_sigma_soil": 0.7876, "ln_bias": 0.1753, "ln_bias_sigma": 0.3158}, {"name": "mmi", "value": 2.5205, "value_rock": 2.5205, "value_soil": 3.1704, "units": "intensity", "tau": 0.2434, "phi": 0.7336, "sigma": 0.7729, "sigma_rock": 0.7746, "sigma_soil": 0.7733, "bias": 0.132, "bias_sigma": 0.1965}], "mmi_from_pgm": [{"name": "sa(3.0)", "value": 2.57, "sigma": 0.89, "flag": "0"}, {"name": "sa(0.3)", "value": 1.0, "sigma": 0.82, "flag": "Outlier"}, {"name": "pgv", "value": 1.84, "sigma": 0.63, "flag": "0"}, {"name": "pga", "value": 1.0, "sigma": 0.66, "flag": "0"}, {"name": "sa(1.0)", "value": 1.0, "sigma": 0.75, "flag": "0"}], "distance_stddev": 0.0, "distances": {"repi": 380.831, "rhypo": 381.02, "rjb": 369.03, "rjb_var": 0.0, "rrup": 368.901, "rrup_var": 0.0, "rx": -0.758, "ry0": 373.639, "rvolc": 0.0}}, "geometry": {"type": "Point", "coordinates": [30.5093, 37.8433]}}, {"type": "Feature", "id": "MN.VTS", "properties": {"code": "VTS", "name": "Stasrv: unknown station", "instrumentType": "UNK", "source": "MN", "network": "MN", "commType": "UNK", "location": "", "intensity": 1.8, "intensity_flag": "", "intensity_stddev": 0.63, "pga": 0.0137, "pgv": 0.0663, "distance": 480.814, "elev": null, "vs30": 760.0, "channels": [{"name": "BHZ", "amplitudes": [{"name": "pga", "value": 0.0155, "units": "%g", "flag": "0", "ln_sigma": 0.0}, {"name": "sa(1.0)", "value": 0.0365, "units": "%g", "flag": "0", "ln_sigma": 0.0}, {"name": "sa(3.0)", "value": 0.0561, "units": "%g", "flag": "0", "ln_sigma": 0.0}, {"name": "sa(0.3)", "value": 0.0223, "units": "%g", "flag": "0", "ln_sigma": 0.0}, {"name": "pgv", "value": 0.0705, "units": "cm/s", "flag": "0", "ln_sigma": 0.0}]}, {"name": "BHE", "amplitudes": [{"name": "pga", "value": 0.0137, "units": "%g", "flag": "0", "ln_sigma": 0.0}, {"name": "sa(1.0)", "value": 0.0339, "units": "%g", "flag": "0", "ln_sigma": 0.0}, {"name": "sa(3.0)", "value": 0.0557, "units": "%g", "flag": "0", "ln_sigma": 0.0}, {"name": "sa(0.3)", "value": 0.0225, "units": "%g", "flag": "0", "ln_sigma": 0.0}, {"name": "pgv", "value": 0.0663, "units": "cm/s", "flag": "0", "ln_sigma": 0.0}]}, {"name": "BHN", "amplitudes": [{"name": "pga", "value": 0.0087, "units": "%g", "flag": "0", "ln_sigma": 0.0}, {"name": "sa(1.0)", "value": 0.0207, "units": "%g", "flag": "0", "ln_sigma": 0.0}, {"name": "sa(3.0)", "value": 0.0273, "units": "%g", "flag": "0", "ln_sigma": 0.0}, {"name": "sa(0.3)", "value": 0.015, "units": "%g", "flag": "0", "ln_sigma": 0.0}, {"name": "pgv", "value": 0.0506, "units": "cm/s", "flag": "0", "ln_sigma": 0.0}]}], "station_type": "seismic", "nresp": "null", "predictions": [{"name": "sa(3.0)", "value": 0.0506, "value_rock": 0.0506, "value_soil": 0.163, "units": "%g", "ln_tau": 0.4271, "ln_phi": 0.6496, "ln_sigma": 0.7774, "ln_sigma_rock": 0.7798, "ln_sigma_soil": 0.7798, "ln_bias": 0.1141, "ln_bias_sigma": 0.3473}, {"name": "sa(0.3)", "value": 0.1869, "value_rock": 0.1869, "value_soil": 0.5306, "units": "%g", "ln_tau": 0.3772, "ln_phi": 0.6524, "ln_sigma": 0.7536, "ln_sigma_rock": 0.7551, "ln_sigma_soil": 0.7528, "ln_bias": 0.108, "ln_bias_sigma": 0.2895}, {"name": "pgv", "value": 0.1408, "value_rock": 0.1408, "value_soil": 0.3903, "units": "cm/s", "ln_tau": 0.3813, "ln_phi": 0.5886, "ln_sigma": 0.7013, "ln_sigma_rock": 0.7059, "ln_sigma_soil": 0.7025, "ln_bias": 0.2197, "ln_bias_sigma": 0.2766}, {"name": "pga", "value": 0.0841, "value_rock": 0.0841, "value_soil": 0.1416, "units": "%g", "ln_tau": 0.3912, "ln_phi": 0.5803, "ln_sigma": 0.6999, "ln_sigma_rock": 0.7022, "ln_sigma_soil": 0.6994, "ln_bias": 0.1911, "ln_bias_sigma": 0.2712}, {"name": "sa(1.0)", "value": 0.1672, "value_rock": 0.1672, "value_soil": 0.675, "units": "%g", "ln_tau": 0.4194, "ln_phi": 0.6652, "ln_sigma": 0.7864, "ln_sigma_rock": 0.7886, "ln_sigma_soil": 0.7876, "ln_bias": 0.1753, "ln_bias_sigma": 0.3158}, {"name": "mmi", "value": 2.2945, "value_rock": 2.2945, "value_soil": 2.9453, "units": "intensity", "tau": 0.2434, "phi": 0.7336, "sigma": 0.7729, "sigma_rock": 0.7746, "sigma_soil": 0.7733, "bias": 0.132, "bias_sigma": 0.1965}], "mmi_from_pgm": [{"name": "sa(3.0)", "value": 2.68, "sigma": 0.89, "flag": "0"}, {"name": "sa(0.3)", "value": 1.0, "sigma": 0.82, "flag": "0"}, {"name": "pgv", "value": 1.81, "sigma": 0.63, "flag": "0"}, {"name": "pga", "value": 1.0, "sigma": 0.66, "flag": "0"}, {"name": "sa(1.0)", "value": 1.0, "sigma": 0.75, "flag": "0"}], "distance_stddev": 0.0, "distances": {"repi": 487.433, "rhypo": 487.581, "rjb": 480.851, "rjb_var": 0.0, "rrup": 480.814, "rrup_var": 0.0, "rx": -312.827, "ry0": 364.996, "rvolc": 0.0}}, "geometry": {"type": "Point", "coordinates": [23.235, 42.618]}}, {"type": "Feature", "id": "HL.ARG", "properties": {"code": "ARG", "name": "Stasrv: unknown station", "instrumentType": "UNK", "source": "HL", "network": "HL", "commType": "UNK", "location": "", "intensity": 2.6, "intensity_flag": "", "intensity_stddev": 0.63, "pga": 0.0499, "pgv": 0.2133, "distance": 322.089, "elev": null, "vs30": 760.0, "channels": [{"name": "HHZ", "amplitudes": [{"name": "pga", "value": 0.04, "units": "%g", "flag": "0", "ln_sigma": 0.0}, {"name": "sa(1.0)", "value": 0.1169, "units": "%g", "flag": "0", "ln_sigma": 0.0}, {"name": "sa(3.0)", "value": 0.0727, "units": "%g", "flag": "0", "ln_sigma": 0.0}, {"name": "sa(0.3)", "value": 0.0451, "units": "%g", "flag": "0", "ln_sigma": 0.0}, {"name": "pgv", "value": 0.1882, "units": "cm/s", "flag": "0", "ln_sigma": 0.0}]}, {"name": "HHN", "amplitudes": [{"name": "pga", "value": 0.0463, "units": "%g", "flag": "0", "ln_sigma": 0.0}, {"name": "sa(1.0)", "value": 0.1048, "units": "%g", "flag": "0", "ln_sigma": 0.0}, {"name": "sa(3.0)", "value": 0.0616, "units": "%g", "flag": "0", "ln_sigma": 0.0}, {"name": "sa(0.3)", "value": 0.0544, "units": "%g", "flag": "0", "ln_sigma": 0.0}, {"name": "pgv", "value": 0.1313, "units": "cm/s", "flag": "0", "ln_sigma": 0.0}]}, {"name": "HHE", "amplitudes": [{"name": "pga", "value": 0.0499, "units": "%g", "flag": "0", "ln_sigma": 0.0}, {"name": "sa(1.0)", "value": 0.1356, "units": "%g", "flag": "0", "ln_sigma": 0.0}, {"name": "sa(3.0)", "value": 0.1141, "units": "%g", "flag": "0", "ln_sigma": 0.0}, {"name": "sa(0.3)", "value": 0.073, "units": "%g", "flag": "0", "ln_sigma": 0.0}, {"name": "pgv", "value": 0.2133, "units": "cm/s", "flag": "0", "ln_sigma": 0.0}]}], "station_type": "seismic", "nresp": "null", "predictions": [{"name": "sa(3.0)", "value": 0.079, "value_rock": 0.079, "value_soil": 0.2541, "units": "%g", "ln_tau": 0.4271, "ln_phi": 0.6496, "ln_sigma": 0.7774, "ln_sigma_rock": 0.7798, "ln_sigma_soil": 0.7798, "ln_bias": 0.1141, "ln_bias_sigma": 0.3473}, {"name": "sa(0.3)", "value": 0.4246, "value_rock": 0.4246, "value_soil": 1.1985, "units": "%g", "ln_tau": 0.3772, "ln_phi": 0.6524, "ln_sigma": 0.7536, "ln_sigma_rock": 0.7551, "ln_sigma_soil": 0.7527, "ln_bias": 0.108, "ln_bias_sigma": 0.2895}, {"name": "pgv", "value": 0.2394, "value_rock": 0.2394, "value_soil": 0.6618, "units": "cm/s", "ln_tau": 0.3813, "ln_phi": 0.5886, "ln_sigma": 0.7013, "ln_sigma_rock": 0.7059, "ln_sigma_soil": 0.7024, "ln_bias": 0.2197, "ln_bias_sigma": 0.2766}, {"name": "pga", "value": 0.2061, "value_rock": 0.2061, "value_soil": 0.3461, "units": "%g", "ln_tau": 0.3912, "ln_phi": 0.5803, "ln_sigma": 0.6998, "ln_sigma_rock": 0.7022, "ln_sigma_soil": 0.6993, "ln_bias": 0.1911, "ln_bias_sigma": 0.2712}, {"name": "sa(1.0)", "value": 0.2803, "value_rock": 0.2803, "value_soil": 1.1277, "units": "%g", "ln_tau": 0.4194, "ln_phi": 0.6652, "ln_sigma": 0.7864, "ln_sigma_rock": 0.7886, "ln_sigma_soil": 0.7875, "ln_bias": 0.1753, "ln_bias_sigma": 0.3158}, {"name": "mmi", "value": 2.6333, "value_rock": 2.6333, "value_soil": 3.2825, "units": "intensity", "tau": 0.2434, "phi": 0.7336, "sigma": 0.7729, "sigma_rock": 0.7746, "sigma_soil": 0.7733, "bias": 0.132, "bias_sigma": 0.1965}], "mmi_from_pgm": [{"name": "sa(3.0)", "value": 3.04, "sigma": 0.89, "flag": "0"}, {"name": "sa(0.3)", "value": 1.31, "sigma": 0.82, "flag": "0"}, {"name": "pgv", "value": 2.56, "sigma": 0.63, "flag": "0"}, {"name": "pga", "value": 1.61, "sigma": 0.66, "flag": "0"}, {"name": "sa(1.0)", "value": 1.92, "sigma": 0.75, "flag": "0"}], "distance_stddev": 0.0, "distances": {"repi": 339.343, "rhypo": 339.555, "rjb": 322.119, "rjb_var": 0.0, "rrup": 322.089, "rrup_var": 0.0, "rx": 241.137, "ry0": 234.914, "rvolc": 0.0}}, "geometry": {"type": "Point", "coordinates": [28.12122, 36.21356]}}, {"type": "Feature", "id": "GE.SANT", "properties": {"code": "SANT", "name": "NOA/GEOFON Station Santorini, Greece", "instrumentType": "UNK", "source": "GE", "network": "GE", "commType": "UNK", "location": "", "intensity": 2.2, "intensity_flag": "", "intensity_stddev": 0.63, "pga": 0.0546, "pgv": 0.1174, "distance": 283.932, "elev": null, "vs30": 760.0, "channels": [{"name": "BHZ", "amplitudes": [{"name": "pga", "value": 0.0372, "units": "%g", "flag": "0", "ln_sigma": 0.0}, {"name": "sa(1.0)", "value": 0.0583, "units": "%g", "flag": "0", "ln_sigma": 0.0}, {"name": "sa(3.0)", "value": 0.0784, "units": "%g", "flag": "0", "ln_sigma": 0.0}, {"name": "sa(0.3)", "value": 0.0868, "units": "%g", "flag": "0", "ln_sigma": 0.0}, {"name": "pgv", "value": 0.1262, "units": "cm/s", "flag": "0", "ln_sigma": 0.0}]}, {"name": "BHE", "amplitudes": [{"name": "pga", "value": 0.0546, "units": "%g", "flag": "0", "ln_sigma": 0.0}, {"name": "sa(1.0)", "value": 0.1244, "units": "%g", "flag": "0", "ln_sigma": 0.0}, {"name": "sa(3.0)", "value": 0.0823, "units": "%g", "flag": "0", "ln_sigma": 0.0}, {"name": "sa(0.3)", "value": 0.1184, "units": "%g", "flag": "0", "ln_sigma": 0.0}, {"name": "pgv", "value": 0.1174, "units": "cm/s", "flag": "0", "ln_sigma": 0.0}]}, {"name": "BHN", "amplitudes": [{"name": "pga", "value": 0.0262, "units": "%g", "flag": "0", "ln_sigma": 0.0}, {"name": "sa(1.0)", "value": 0.0519, "units": "%g", "flag": "0", "ln_sigma": 0.0}, {"name": "sa(3.0)", "value": 0.0376, "units": "%g", "flag": "0", "ln_sigma": 0.0}, {"name": "sa(0.3)", "value": 0.0409, "units": "%g", "flag": "0", "ln_sigma": 0.0}, {"name": "pgv", "value": 0.0681, "units": "cm/s", "flag": "0", "ln_sigma": 0.0}]}], "station_type": "seismic", "nresp": "null", "predictions": [{"name": "sa(3.0)", "value": 0.0907, "value_rock": 0.0907, "value_soil": 0.2915, "units": "%g", "ln_tau": 0.4271, "ln_phi": 0.6496, "ln_sigma": 0.7774, "ln_sigma_rock": 0.7798, "ln_sigma_soil": 0.7798, "ln_bias": 0.1141, "ln_bias_sigma": 0.3473}, {"name": "sa(0.3)", "value": 0.5352, "value_rock": 0.5352, "value_soil": 1.5072, "units": "%g", "ln_tau": 0.3772, "ln_phi": 0.6524, "ln_sigma": 0.7536, "ln_sigma_rock": 0.7551, "ln_sigma_soil": 0.7526, "ln_bias": 0.108, "ln_bias_sigma": 0.2895}, {"name": "pgv", "value": 0.2812, "value_rock": 0.2812, "value_soil": 0.7766, "units": "cm/s", "ln_tau": 0.3813, "ln_phi": 0.5886, "ln_sigma": 0.7013, "ln_sigma_rock": 0.7059, "ln_sigma_soil": 0.7024, "ln_bias": 0.2197, "ln_bias_sigma": 0.2766}, {"name": "pga", "value": 0.2655, "value_rock": 0.2655, "value_soil": 0.445, "units": "%g", "ln_tau": 0.3912, "ln_phi": 0.5803, "ln_sigma": 0.6998, "ln_sigma_rock": 0.7022, "ln_sigma_soil": 0.6992, "ln_bias": 0.1911, "ln_bias_sigma": 0.2712}, {"name": "sa(1.0)", "value": 0.3272, "value_rock": 0.3272, "value_soil": 1.3142, "units": "%g", "ln_tau": 0.4194, "ln_phi": 0.6652, "ln_sigma": 0.7864, "ln_sigma_rock": 0.7886, "ln_sigma_soil": 0.7875, "ln_bias": 0.1753, "ln_bias_sigma": 0.3158}, {"name": "mmi", "value": 2.7361, "value_rock": 2.7361, "value_soil": 3.3846, "units": "intensity", "tau": 0.2434, "phi": 0.7336, "sigma": 0.7729, "sigma_rock": 0.7746, "sigma_soil": 0.7733, "bias": 0.132, "bias_sigma": 0.1965}], "mmi_from_pgm": [{"name": "sa(3.0)", "value": 2.89, "sigma": 0.89, "flag": "0"}, {"name": "sa(0.3)", "value": 1.7, "sigma": 0.82, "flag": "0"}, {"name": "pgv", "value": 2.18, "sigma": 0.63, "flag": "0"}, {"name": "pga", "value": 1.67, "sigma": 0.66, "flag": "0"}, {"name": "sa(1.0)", "value": 1.87, "sigma": 0.75, "flag": "0"}], "distance_stddev": 0.0, "distances": {"repi": 295.513, "rhypo": 295.757, "rjb": 283.87, "rjb_var": 0.0, "rrup": 283.932, "rrup_var": 0.0, "rx": 298.602, "ry0": 2.738, "rvolc": 0.0}}, "geometry": {"type": "Point", "coordinates": [25.45926, 36.37052]}}, {"type": "Feature", "id": "HL.RDO", "properties": {"code": "RDO", "name": "Stasrv: unknown station", "instrumentType": "UNK", "source": "HL", "network": "HL", "commType": "UNK", "location": "", "intensity": 2.2, "intensity_flag": "", "intensity_stddev": 0.63, "pga": 0.0554, "pgv": 0.1139, "distance": 250.076, "elev": null, "vs30": 760.0, "channels": [{"name": "HHZ", "amplitudes": [{"name": "pga", "value": 0.0349, "units": "%g", "flag": "0", "ln_sigma": 0.0}, {"name": "sa(1.0)", "value": 0.0622, "units": "%g", "flag": "0", "ln_sigma": 0.0}, {"name": "sa(3.0)", "value": 0.03, "units": "%g", "flag": "0", "ln_sigma": 0.0}, {"name": "sa(0.3)", "value": 0.0621, "units": "%g", "flag": "0", "ln_sigma": 0.0}, {"name": "pgv", "value": 0.0927, "units": "cm/s", "flag": "0", "ln_sigma": 0.0}]}, {"name": "HHN", "amplitudes": [{"name": "pga", "value": 0.05, "units": "%g", "flag": "0", "ln_sigma": 0.0}, {"name": "sa(1.0)", "value": 0.0848, "units": "%g", "flag": "0", "ln_sigma": 