{"type": "FeatureCollection", "features": [{"type": "Feature", "id": "G.304", "properties": {"code": "304", "name": "Sigoldustifla", "instrumentType": "UNK", "source": "G", "network": "G", "commType": "UNK", "location": "", "intensity": 4.1, "intensity_flag": "", "intensity_stddev": 0.63, "pga": 4.1122, "pgv": 2.69, "distance": 64.574, "elev": null, "vs30": 455.83, "channels": [{"name": "N", "amplitudes": [{"name": "pgv", "value": 2.69, "units": "cm/s", "flag": "0", "ln_sigma": 0.0}, {"name": "sa(0.3)", "value": 6.7551, "units": "%g", "flag": "0", "ln_sigma": 0.0}, {"name": "pga", "value": 3.4184, "units": "%g", "flag": "0", "ln_sigma": 0.0}, {"name": "sa(1.0)", "value": 2.1837, "units": "%g", "flag": "0", "ln_sigma": 0.0}, {"name": "sa(3.0)", "value": 0.7439, "units": "%g", "flag": "0", "ln_sigma": 0.0}]}, {"name": "E", "amplitudes": [{"name": "pgv", "value": 1.87, "units": "cm/s", "flag": "0", "ln_sigma": 0.0}, {"name": "sa(0.3)", "value": 5.7857, "units": "%g", "flag": "0", "ln_sigma": 0.0}, {"name": "pga", "value": 4.1122, "units": "%g", "flag": "0", "ln_sigma": 0.0}, {"name": "sa(1.0)", "value": 2.9592, "units": "%g", "flag": "0", "ln_sigma": 0.0}, {"name": "sa(3.0)", "value": 1.1531, "units": "%g", "flag": "0", "ln_sigma": 0.0}]}, {"name": "Z", "amplitudes": [{"name": "pgv", "value": 1.32, "units": "cm/s", "flag": "0", "ln_sigma": 0.0}, {"name": "sa(0.3)", "value": 3.3571, "units": "%g", "flag": "0", "ln_sigma": 0.0}, {"name": "pga", "value": 2.5204, "units": "%g", "flag": "0", "ln_sigma": 0.0}, {"name": "sa(1.0)", "value": 1.1939, "units": "%g", "flag": "0", "ln_sigma": 0.0}, {"name": "sa(3.0)", "value": 1.0408, "units": "%g", "flag": "0", "ln_sigma": 0.0}]}], "station_type": "seismic", "nresp": "null", "predictions": [{"name": "pga", "value": 6.8012, "value_rock": 5.4598, "value_soil": 12.3344, "units": "%g", "ln_tau": 0.0, "ln_phi": 0.5217, "ln_sigma": 0.5217, "ln_sigma_rock": 0.6252, "ln_sigma_soil": 0.6208, "ln_bias": -0.4178, "ln_bias_sigma": 0.1581}, {"name": "pgv", "value": 4.0721, "value_rock": 2.951, "value_soil": 8.8283, "units": "cm/s", "ln_tau": 0.0, "ln_phi": 0.5208, "ln_sigma": 0.5208, "ln_sigma_rock": 0.6238, "ln_sigma_soil": 0.6207, "ln_bias": -0.3478, "ln_bias_sigma": 0.1683}, {"name": "sa(1.0)", "value": 4.6393, "value_rock": 3.2437, "value_soil": 10.9002, "units": "%g", "ln_tau": 0.0, "ln_phi": 0.5235, "ln_sigma": 0.5235, "ln_sigma_rock": 0.6269, "ln_sigma_soil": 0.6242, "ln_bias": -0.3696, "ln_bias_sigma": 0.1696}, {"name": "sa(0.3)", "value": 11.426, "value_rock": 8.8048, "value_soil": 21.1138, "units": "%g", "ln_tau": 0.0, "ln_phi": 0.5239, "ln_sigma": 0.5239, "ln_sigma_rock": 0.6278, "ln_sigma_soil": 0.6244, "ln_bias": -0.3468, "ln_bias_sigma": 0.1593}, {"name": "sa(3.0)", "value": 1.2384, "value_rock": 0.8483, "value_soil": 2.8832, "units": "%g", "ln_tau": 0.0, "ln_phi": 0.5234, "ln_sigma": 0.5234, "ln_sigma_rock": 0.6268, "ln_sigma_soil": 0.6246, "ln_bias": -0.2373, "ln_bias_sigma": 0.1769}, {"name": "mmi", "value": 4.547, "value_rock": 4.2009, "value_soil": 5.609, "units": "intensity", "tau": 0.0, "phi": 0.8875, "sigma": 0.8875, "sigma_rock": 0.7453, "sigma_soil": 1.0595, "bias": -0.3587, "bias_sigma": 0.2966}], "mmi_from_pgm": [{"name": "pga", "value": 4.17, "sigma": 0.66, "flag": "0"}, {"name": "pgv", "value": 4.14, "sigma": 0.63, "flag": "0"}, {"name": "sa(1.0)", "value": 4.21, "sigma": 0.75, "flag": "0"}, {"name": "sa(0.3)", "value": 4.37, "sigma": 0.82, "flag": "0"}, {"name": "sa(3.0)", "value": 4.67, "sigma": 0.89, "flag": "0"}], "distance_stddev": 9.584, "distances": {"repi": 70.82, "rhypo": 71.522, "rjb": 61.987, "rjb_var": 56.558, "rrup": 64.574, "rrup_var": 91.857}}, "geometry": {"type": "Point", "coordinates": [-19.1, 64.16]}}, {"type": "Feature", "id": "G.113", "properties": {"code": "113", "name": "Hveragerdi-Retirement House", "instrumentType": "UNK", "source": "G", "network": "G", "commType": "UNK", "location": "", "intensity": 5.3, "intensity_flag": "", "intensity_stddev": 0.63, "pga": 10.9184, "pgv": 7.0, "distance": 30.679, "elev": null, "vs30": 696.25, "channels": [{"name": "N", "amplitudes": [{"name": "pgv", "value": 3.75, "units": "cm/s", "flag": "0", "ln_sigma": 0.0}, {"name": "sa(0.3)", "value": 13.3673, "units": "%g", "flag": "0", "ln_sigma": 0.0}, {"name": "pga", "value": 10.9184, "units": "%g", "flag": "0", "ln_sigma": 0.0}, {"name": "sa(1.0)", "value": 3.2857, "units": "%g", "flag": "0", "ln_sigma": 0.0}, {"name": "sa(3.0)", "value": 0.9745, "units": "%g", "flag": "0", "ln_sigma": 0.0}]}, {"name": "E", "amplitudes": [{"name": "pgv", "value": 7.0, "units": "cm/s", "flag": "0", "ln_sigma": 0.0}, {"name": "sa(0.3)", "value": 8.5204, "units": "%g", "flag": "0", "ln_sigma": 0.0}, {"name": "pga", "value": 9.4898, "units": "%g", "flag": "0", "ln_sigma": 0.0}, {"name": "sa(1.0)", "value": 8.7653, "units": "%g", "flag": "0", "ln_sigma": 0.0}, {"name": "sa(3.0)", "value": 3.9286, "units": "%g", "flag": "0", "ln_sigma": 0.0}]}, {"name": "Z", "amplitudes": [{"name": "pgv", "value": 1.93, "units": "cm/s", "flag": "0", "ln_sigma": 0.0}, {"name": "sa(0.3)", "value": 4.0102, "units": "%g", "flag": "0", "ln_sigma": 0.0}, {"name": "pga", "value": 8.1735, "units": "%g", "flag": "0", "ln_sigma": 0.0}, {"name": "sa(1.0)", "value": 2.7143, "units": "%g", "flag": "0", "ln_sigma": 0.0}, {"name": "sa(3.0)", "value": 1.2041, "units": "%g", "flag": "0", "ln_sigma": 0.0}]}], "station_type": "seismic", "nresp": "null", "predictions": [{"name": "pga", "value": 12.2972, "value_rock": 11.9234, "value_soil": 19.3842, "units": "%g", "ln_tau": 0.0, "ln_phi": 0.5326, "ln_sigma": 0.5326, "ln_sigma_rock": 0.6385, "ln_sigma_soil": 0.6137, "ln_bias": -0.4215, "ln_bias_sigma": 0.1588}, {"name": "pgv", "value": 7.0183, "value_rock": 6.6608, "value_soil": 15.4098, "units": "cm/s", "ln_tau": 0.0, "ln_phi": 0.5457, "ln_sigma": 0.5457, "ln_sigma_rock": 0.6538, "ln_sigma_soil": 0.6267, "ln_bias": -0.3554, "ln_bias_sigma": 0.1701}, {"name": "sa(1.0)", "value": 7.7228, "value_rock": 7.2634, "value_soil": 19.4668, "units": "%g", "ln_tau": 0.0, "ln_phi": 0.548, "ln_sigma": 0.548, "ln_sigma_rock": 0.6562, "ln_sigma_soil": 0.632, "ln_bias": -0.3776, "ln_bias_sigma": 0.1714}, {"name": "sa(0.3)", "value": 20.3118, "value_rock": 19.5568, "value_soil": 35.8957, "units": "%g", "ln_tau": 0.0, "ln_phi": 0.5412, "ln_sigma": 0.5412, "ln_sigma_rock": 0.6488, "ln_sigma_soil": 0.6242, "ln_bias": -0.3516, "ln_bias_sigma": 0.1604}, {"name": "sa(3.0)", "value": 2.1099, "value_rock": 1.9774, "value_soil": 5.6427, "units": "%g", "ln_tau": 0.0, "ln_phi": 0.5529, "ln_sigma": 0.5529, "ln_sigma_rock": 0.662, "ln_sigma_soil": 0.6409, "ln_bias": -0.2439, "ln_bias_sigma": 0.1793}, {"name": "mmi", "value": 5.2941, "value_rock": 5.2223, "value_soil": 6.3734, "units": "intensity", "tau": 0.0, "phi": 0.9152, "sigma": 0.9152, "sigma_rock": 1.0963, "sigma_soil": 1.0661, "bias": -0.3643, "bias_sigma": 0.2989}], "mmi_from_pgm": [{"name": "pga", "value": 5.41, "sigma": 0.66, "flag": "0"}, {"name": "pgv", "value": 5.29, "sigma": 0.63, "flag": "0"}, {"name": "sa(1.0)", "value": 5.47, "sigma": 0.75, "flag": "0"}, {"name": "sa(0.3)", "value": 4.68, "sigma": 0.82, "flag": "0"}, {"name": "sa(3.0)", "value": 6.46, "sigma": 0.89, "flag": "0"}], "distance_stddev": 9.652, "distances": {"repi": 34.374, "rhypo": 35.8, "rjb": 26.331, "rjb_var": 47.36, "rrup": 30.679, "rrup_var": 93.154}}, "geometry": {"type": "Point", "coordinates": [-21.187, 64.002]}}, {"type": "Feature", "id": "G.302", "properties": {"code": "302", "name": "Hrauneyjafoss-Hydroelectric Power Station", "instrumentType": "UNK", "source": "G", "network": "G", "commType": "UNK", "location": "", "intensity": 3.9, "intensity_flag": "", "intensity_stddev": 0.63, "pga": 1.5816, "pgv": 1.83, "distance": 59.999, "elev": null, "vs30": 465.12, "channels": [{"name": "N", "amplitudes": [{"name": "pgv", "value": 1.83, "units": "cm/s", "flag": "0", "ln_sigma": 0.0}, {"name": "sa(0.3)", "value": 3.4694, "units": "%g", "flag": "0", "ln_sigma": 0.0}, {"name": "pga", "value": 1.5816, "units": "%g", "flag": "0", "ln_sigma": 0.0}, {"name": "sa(1.0)", "value": 3.0102, "units": "%g", "flag": "0", "ln_sigma": 0.0}, {"name": "sa(3.0)", "value": 0.5714, "units": "%g", "flag": "0", "ln_sigma": 0.0}]}, {"name": "E", "amplitudes": [{"name": "pgv", "value": 1.69, "units": "cm/s", "flag": "0", "ln_sigma": 0.0}, {"name": "sa(0.3)", "value": 4.0612, "units": "%g", "flag": "0", "ln_sigma": 0.0}, {"name": "pga", "value": 1.5204, "units": "%g", "flag": "0", "ln_sigma": 0.0}, {"name": "sa(1.0)", "value": 2.0816, "units": "%g", "flag": "0", "ln_sigma": 0.0}, {"name": "sa(3.0)", "value": 0.798, "units": "%g", "flag": "0", "ln_sigma": 0.0}]}, {"name": "Z", "amplitudes": [{"name": "pgv", "value": 1.39, "units": "cm/s", "flag": "0", "ln_sigma": 0.0}, {"name": "sa(0.3)", "value": 3.0, "units": "%g", "flag": "0", "ln_sigma": 0.0}, {"name": "pga", "value": 1.0408, "units": "%g", "flag": "0", "ln_sigma": 0.0}, {"name": "sa(1.0)", "value": 1.3776, "units": "%g", "flag": "0", "ln_sigma": 0.0}, {"name": "sa(3.0)", "value": 0.7133, "units": "%g", "flag": "0", "ln_sigma": 0.0}]}], "station_type": "seismic", "nresp": "null", "predictions": [{"name": "pga", "value": 7.3558, "value_rock": 5.9675, "value_soil": 13.2668, "units": "%g", "ln_tau": 0.0, "ln_phi": 0.5222, "ln_sigma": 0.5222, "ln_sigma_rock": 0.626, "ln_sigma_soil": 0.6201, "ln_bias": -0.418, "ln_bias_sigma": 0.1582}, {"name": "pgv", "value": 4.354, "value_rock": 3.1982, "value_soil": 9.4488, "units": "cm/s", "ln_tau": 0.0, "ln_phi": 0.522, "ln_sigma": 0.522, "ln_sigma_rock": 0.6253, "ln_sigma_soil": 0.621, "ln_bias": -0.3482, "ln_bias_sigma": 0.1684}, {"name": "sa(1.0)", "value": 4.9537, "value_rock": 3.5128, "value_soil": 11.675, "units": "%g", "ln_tau": 0.0, "ln_phi": 0.5248, "ln_sigma": 0.5248, "ln_sigma_rock": 0.6283, "ln_sigma_soil": 0.6245, "ln_bias": -0.37, "ln_bias_sigma": 0.1697}, {"name": "sa(0.3)", "value": 12.2876, "value_rock": 9.5844, "value_soil": 22.6857, "units": "%g", "ln_tau": 0.0, "ln_phi": 0.5247, "ln_sigma": 0.5247, "ln_sigma_rock": 0.629, "ln_sigma_soil": 0.6243, "ln_bias": -0.3471, "ln_bias_sigma": 0.1593}, {"name": "sa(3.0)", "value": 1.3235, "value_rock": 0.9203, "value_soil": 3.1012, "units": "%g", "ln_tau": 0.0, "ln_phi": 0.5249, "ln_sigma": 0.5249, "ln_sigma_rock": 0.6285, "ln_sigma_soil": 0.6254, "ln_bias": -0.2376, "ln_bias_sigma": 0.177}, {"name": "mmi", "value": 4.6389, "value_rock": 4.2522, "value_soil": 5.7022, "units": "intensity", "tau": 0.0, "phi": 0.8888, "sigma": 0.8888, "sigma_rock": 0.7458, "sigma_soil": 1.0598, "bias": -0.3589, "bias_sigma": 0.2968}], "mmi_from_pgm": [{"name": "pga", "value": 3.42, "sigma": 0.66, "flag": "0"}, {"name": "pgv", "value": 3.9, "sigma": 0.63, "flag": "0"}, {"name": "sa(1.0)", "value": 4.23, "sigma": 0.75, "flag": "0"}, {"name": "sa(0.3)", "value": 3.98, "sigma": 0.82, "flag": "0"}, {"name": "sa(3.0)", "value": 4.39, "sigma": 0.89, "flag": "0"}], "distance_stddev": 9.625, "distances": {"repi": 66.04, "rhypo": 66.792, "rjb": 57.256, "rjb_var": 56.121, "rrup": 59.999, "rrup_var": 92.649}}, "geometry": {"type": "Point", "coordinates": [-19.239, 64.201]}}, {"type": "Feature", "id": "G.403", "properties": {"code": "403", "name": "Reykjavik-Heidmork (Jadar)", "instrumentType": "UNK", "source": "G", "network": "G", "commType": "UNK", "location": "", "intensity": 4.6, "intensity_flag": "", "intensity_stddev": 0.63, "pga": 4.4286, "pgv": 4.37, "distance": 57.445, "elev": null, "vs30": 325.86, "channels": [{"name": "N", "amplitudes": [{"name": "pgv", "value": 4.37, "units": "cm/s", "flag": "0", "ln_sigma": 0.0}, {"name": "sa(0.3)", "value": 7.6327, "units": "%g", "flag": "0", "ln_sigma": 0.0}, {"name": "pga", "value": 4.4286, "units": "%g", "flag": "0", "ln_sigma": 0.0}, {"name": "sa(1.0)", "value": 5.5612, "units": "%g", "flag": "0", "ln_sigma": 0.0}, {"name": "sa(3.0)", "value": 1.5408, "units": "%g", "flag": "0", "ln_sigma": 0.0}]}, {"name": "E", "amplitudes": [{"name": "pgv", "value": 4.07, "units": "cm/s", "flag": "0", "ln_sigma": 0.0}, {"name": "sa(0.3)", "value": 5.4694, "units": "%g", "flag": "0", "ln_sigma": 0.0}, {"name": "pga", "value": 3.1837, "units": "%g", "flag": "0", "ln_sigma": 0.0}, {"name": "sa(1.0)", "value": 6.9898, "units": "%g", "flag": "0", "ln_sigma": 0.0}, {"name": "sa(3.0)", "value": 1.9388, "units": "%g", "flag": "0", "ln_sigma": 0.0}]}, {"name": "Z", "amplitudes": [{"name": "pgv", "value": 1.88, "units": "cm/s", "flag": "0", "ln_sigma": 0.0}, {"name": "sa(0.3)", "value": 3.2245, "units": "%g", "flag": "0", "ln_sigma": 0.0}, {"name": "pga", "value": 3.3571, "units": "%g", "flag": "0", "ln_sigma": 0.0}, {"name": "sa(1.0)", "value": 1.6429, "units": "%g", "flag": "0", "ln_sigma": 0.0}, {"name": "sa(3.0)", "value": 0.5949, "units": "%g", "flag": "0", "ln_sigma": 0.0}]}], "station_type": "seismic", "nresp": "null", "predictions": [{"name": "pga", "value": 8.9867, "value_rock": 6.2792, "value_soil": 13.8038, "units": "%g", "ln_tau": 0.0, "ln_phi": 0.522, "ln_sigma": 0.522, "ln_sigma_rock": 0.6266, "ln_sigma_soil": 0.6196, "ln_bias": -0.4179, "ln_bias_sigma": 0.1581}, {"name": "pgv", "value": 5.7029, "value_rock": 3.3531, "value_soil": 9.8198, "units": "cm/s", "ln_tau": 0.0, "ln_phi": 0.5226, "ln_sigma": 0.5226, "ln_sigma_rock": 0.6263, "ln_sigma_soil": 0.6211, "ln_bias": -0.3484, "ln_bias_sigma": 0.1684}, {"name": "sa(1.0)", "value": 6.6595, "value_rock": 3.6813, "value_soil": 12.1407, "units": "%g", "ln_tau": 0.0, "ln_phi": 0.5256, "ln_sigma": 0.5256, "ln_sigma_rock": 0.6293, "ln_sigma_soil": 0.6248, "ln_bias": -0.3703, "ln_bias_sigma": 0.1697}, {"name": "sa(0.3)", "value": 15.4186, "value_rock": 10.0676, "value_soil": 23.6127, "units": "%g", "ln_tau": 0.0, "ln_phi": 0.5247, "ln_sigma": 0.5247, "ln_sigma_rock": 0.6298, "ln_sigma_soil": 0.6242, "ln_bias": -0.3471, "ln_bias_sigma": 0.1593}, {"name": "sa(3.0)", "value": 1.8071, "value_rock": 0.9657, "value_soil": 3.2347, "units": "%g", "ln_tau": 0.0, "ln_phi": 0.5258, "ln_sigma": 0.5258, "ln_sigma_rock": 0.6296, "ln_sigma_soil": 0.6259, "ln_bias": -0.2378, "ln_bias_sigma": 0.1771}, {"name": "mmi", "value": 5.0093, "value_rock": 4.2824, "value_soil": 5.755, "units": "intensity", "tau": 0.0, "phi": 0.8895, "sigma": 0.8895, "sigma_rock": 0.7462, "sigma_soil": 1.0599, "bias": -0.3591, "bias_sigma": 0.2968}], "mmi_from_pgm": [{"name": "pga", "value": 4.24, "sigma": 0.66, "flag": "0"}, {"name": "pgv", "value": 4.64, "sigma": 0.63, "flag": "0"}, {"name": "sa(1.0)", "value": 5.05, "sigma": 0.75, "flag": "0"}, {"name": "sa(0.3)", "value": 4.43, "sigma": 0.82, "flag": "0"}, {"name": "sa(3.0)", "value": 5.38, "sigma": 0.89, "flag": "0"}], "distance_stddev": 9.648, "distances": {"repi": 63.37, "rhypo": 64.154, "rjb": 54.614, "rjb_var": 55.876, "rrup": 57.445, "rrup_var": 93.092}}, "geometry": {"type": "Point", "coordinates": [-21.764, 64.075]}}, {"type": "Feature", "id": "G.100", "properties": {"code": "100", "name": "Reykjavik-University (VR-II)", "instrumentType": "UNK", "source": "G", "network": "G", "commType": "UNK", "location": "", "intensity": 3.9, "intensity_flag": "", "intensity_stddev": 0.63, "pga": 3.8367, "pgv": 1.77, "distance": 67.836, "elev": null, "vs30": 600.0, "channels": [{"name": "N", "amplitudes": [{"name": "pgv", "value": 1.72, "units": "cm/s", "flag": "0", "ln_sigma": 0.0}, {"name": "sa(0.3)", "value": 6.2041, "units": "%g", "flag": "0", "ln_sigma": 0.0}, {"name": "pga", "value": 3.8367, "units": "%g", "flag": "0", "ln_sigma": 0.0}, {"name": "sa(1.0)", "value": 1.7755, "units": "%g", "flag": "0", "ln_sigma": 0.0}, {"name": "sa(3.0)", "value": 1.0816, "units": "%g", "flag": "0", "ln_sigma": 0.0}]}, {"name": "E", "amplitudes": [{"name": "pgv", "value": 1.77, "units": "cm/s", "flag": "0", "ln_sigma": 0.0}, {"name": "sa(0.3)", "value": 4.7959, "units": "%g", "flag": "0", "ln_sigma": 0.0}, {"name": "pga", "value": 2.7245, "units": "%g", "flag": "0", "ln_sigma": 0.0}, {"name": "sa(1.0)", "value": 1.4898, "units": "%g", "flag": "0", "ln_sigma": 0.0}, {"name": "sa(3.0)", "value": 0.8898, "units": "%g", "flag": "0", "ln_sigma": 0.0}]}, {"name": "Z", "amplitudes": [{"name": "pgv", "value": 0.897, "units": "cm/s", "flag": "0", "ln_sigma": 0.0}, {"name": "sa(0.3)", "value": 1.898, "units": "%g", "flag": "0", "ln_sigma": 0.0}, {"name": "pga", "value": 2.8673, "units": "%g", "flag": "0", "ln_sigma": 0.0}, {"name": "sa(1.0)", "value": 1.0306, "units": "%g", "flag": "0", "ln_sigma": 0.0}, {"name": "sa(3.0)", "value": 0.2163, "units": "%g", "flag": "0", "ln_sigma": 0.0}]}], "station_type": "seismic", "nresp": "null", "predictions": [{"name": "pga", "value": 5.6839, "value_rock": 5.1324, "value_soil": 11.6964, "units": "%g", "ln_tau": 0.0, "ln_phi": 0.5216, "ln_sigma": 0.5216, "ln_sigma_rock": 0.6247, "ln_sigma_soil": 0.6212, "ln_bias": -0.4178, "ln_bias_sigma": 0.1581}, {"name": "pgv", "value": 3.244, "value_rock": 2.7946, "value_soil": 8.4178, "units": "cm/s", "ln_tau": 0.0, "ln_phi": 0.5202, "ln_sigma": 0.5202, "ln_sigma_rock": 0.6229, "ln_sigma_soil": 0.6205, "ln_bias": -0.3476, "ln_bias_sigma": 0.1682}, {"name": "sa(1.0)", "value": 3.6264, "value_rock": 3.0734, "value_soil": 10.39, "units": "%g", "ln_tau": 0.0, "ln_phi": 0.5228, "ln_sigma": 0.5228, "ln_sigma_rock": 0.626, "ln_sigma_soil": 0.6239, "ln_bias": -0.3694, "ln_bias_sigma": 0.1695}, {"name": "sa(0.3)", "value": 9.3748, "value_rock": 8.3065, "value_soil": 20.0605, "units": "%g", "ln_tau": 0.0, "ln_phi": 0.5236, "ln_sigma": 0.5236, "ln_sigma_rock": 0.6271, "ln_sigma_soil": 0.6244, "ln_bias": -0.3468, "ln_bias_sigma": 0.1593}, {"name": "sa(3.0)", "value": 0.9567, "value_rock": 0.8031, "value_soil": 2.7422, "units": "%g", "ln_tau": 0.0, "ln_phi": 0.5226, "ln_sigma": 0.5226, "ln_sigma_rock": 0.6257, "ln_sigma_soil": 0.6241, "ln_bias": -0.2371, "ln_bias_sigma": 0.1768}, {"name": "mmi", "value": 4.2613, "value_rock": 4.1661, "value_soil": 5.5436, "units": "intensity", "tau": 0.0, "phi": 0.6222, "sigma": 0.6222, "sigma_rock": 0.745, "sigma_soil": 1.0593, "bias": -0.2832, "bias_sigma": 0.2636}], "mmi_from_pgm": [{"name": "pga", "value": 4.08, "sigma": 0.66, "flag": "0"}, {"name": "pgv", "value": 3.87, "sigma": 0.63, "flag": "0"}, {"name": "sa(1.0)", "value": 3.86, "sigma": 0.75, "flag": "0"}, {"name": "sa(0.3)", "value": 4.32, "sigma": 0.82, "flag": "0"}, {"name": "sa(3.0)", "value": 4.58, "sigma": 0.89, "flag": "0"}], "distance_stddev": 9.555, "distances": {"repi": 74.229, "rhypo": 74.899, "rjb": 65.36, "rjb_var": 56.87, "rrup": 67.836, "rrup_var": 91.292}}, "geometry": {"type": "Point", "coordinates": [-21.96, 64.14]}}, {"type": "Feature", "id": "G.106", "properties": {"code": "106", "name": "Flagbjarnarholt", "instrumentType": "UNK", "source": "G", "network": "G", "commType": "UNK", "location": "", "intensity": 8.3, "intensity_flag": "", "intensity_stddev": 0.63, "pga": 33.7755, "pgv": 61.2, "distance": 14.444, "elev": null, "vs30": 317.45, "channels": [{"name": "N", "amplitudes": [{"name": "pgv", "value": 23.8, "units": "cm/s", "flag": "0", "ln_sigma": 0.0}, {"name": "sa(0.3)", "value": 69.0816, "units": "%g", "flag": "0", "ln_sigma": 0.0}, {"name": "pga", "value": 33.7755, "units": "%g", "flag": "0", "ln_sigma": 0.0}, {"name": "sa(1.0)", "value": 16.5306, "units": "%g", "flag": "0", "ln_sigma": 0.0}, {"name": "sa(3.0)", "value": 6.9796, "units": "%g", "flag": "0", "ln_sigma": 0.0}]}, {"name": "E", "amplitudes": [{"name": "pgv", "value": 61.2, "units": "cm/s", "flag": "0", "ln_sigma": 0.0}, {"name": "sa(0.3)", "value": 104.0816, "units": "%g", "flag": "0", "ln_sigma": 0.0}, {"name": "pga", "value": 31.8367, "units": "%g", "flag": "0", "ln_sigma": 0.0}, {"name": "sa(1.0)", "value": 43.3673, "units": "%g", "flag": "0", "ln_sigma": 0.0}, {"name": "sa(3.0)", "value": 11.6327, "units": "%g", "flag": "0", "ln_sigma": 0.0}]}, {"name": "Z", "amplitudes": [{"name": "pgv", "value": 14.3, "units": "cm/s", "flag": "0", "ln_sigma": 0.0}, {"name": "sa(0.3)", "value": 41.1224, "units": "%g", "flag": "0", "ln_