{"type": "FeatureCollection", "features": [{"type": "Feature", "id": "IV.GIUL", "properties": {"code": "GIUL", "name": "GIUL", "instrumentType": "UNK", "source": "IV", "network": "IV", "commType": "UNK", "location": "", "intensity": 2.6, "intensity_flag": "", "intensity_stddev": 0.63, "pga": 0.1174, "pgv": 0.214, "distance": 144.78, "elev": null, "vs30": 760.0, "channels": [{"name": "--.HHN", "amplitudes": [{"name": "sa(1.0)", "value": 0.2156, "units": "%g", "flag": "0", "ln_sigma": 0.0}, {"name": "pga", "value": 0.0749, "units": "%g", "flag": "0", "ln_sigma": 0.0}, {"name": "pgv", "value": 0.214, "units": "cm/s", "flag": "0", "ln_sigma": 0.0}, {"name": "sa(0.3)", "value": 0.1709, "units": "%g", "flag": "0", "ln_sigma": 0.0}, {"name": "sa(3.0)", "value": 0.1497, "units": "%g", "flag": "0", "ln_sigma": 0.0}]}, {"name": "--.HHE", "amplitudes": [{"name": "sa(1.0)", "value": 0.1721, "units": "%g", "flag": "0", "ln_sigma": 0.0}, {"name": "pga", "value": 0.1174, "units": "%g", "flag": "0", "ln_sigma": 0.0}, {"name": "pgv", "value": 0.1919, "units": "cm/s", "flag": "0", "ln_sigma": 0.0}, {"name": "sa(0.3)", "value": 0.1519, "units": "%g", "flag": "0", "ln_sigma": 0.0}, {"name": "sa(3.0)", "value": 0.1345, "units": "%g", "flag": "0", "ln_sigma": 0.0}]}, {"name": "--.HHZ", "amplitudes": [{"name": "sa(1.0)", "value": 0.1245, "units": "%g", "flag": "0", "ln_sigma": 0.0}, {"name": "pga", "value": 0.0665, "units": "%g", "flag": "0", "ln_sigma": 0.0}, {"name": "pgv", "value": 0.2486, "units": "cm/s", "flag": "0", "ln_sigma": 0.0}, {"name": "sa(0.3)", "value": 0.1131, "units": "%g", "flag": "0", "ln_sigma": 0.0}, {"name": "sa(3.0)", "value": 0.1631, "units": "%g", "flag": "0", "ln_sigma": 0.0}]}], "station_type": "seismic", "nresp": "null", "predictions": [{"name": "sa(1.0)", "value": 0.5167, "value_rock": 0.5167, "value_soil": 2.0569, "units": "%g", "ln_tau": 0.4326, "ln_phi": 0.6812, "ln_sigma": 0.807, "ln_sigma_rock": 0.8097, "ln_sigma_soil": 0.808, "ln_bias": -0.2584, "ln_bias_sigma": 0.1404}, {"name": "sa(3.0)", "value": 0.1233, "value_rock": 0.1233, "value_soil": 0.3947, "units": "%g", "ln_tau": 0.4403, "ln_phi": 0.6647, "ln_sigma": 0.7973, "ln_sigma_rock": 0.8013, "ln_sigma_soil": 0.8013, "ln_bias": 0.2444, "ln_bias_sigma": 0.1429}, {"name": "pga", "value": 0.6886, "value_rock": 0.6886, "value_soil": 1.1425, "units": "%g", "ln_tau": 0.4032, "ln_phi": 0.5937, "ln_sigma": 0.7176, "ln_sigma_rock": 0.7199, "ln_sigma_soil": 0.7161, "ln_bias": -0.5487, "ln_bias_sigma": 0.1198}, {"name": "sa(0.3)", "value": 1.2427, "value_rock": 1.2427, "value_soil": 3.4461, "units": "%g", "ln_tau": 0.3888, "ln_phi": 0.6669, "ln_sigma": 0.772, "ln_sigma_rock": 0.7732, "ln_sigma_soil": 0.7695, "ln_bias": -0.5107, "ln_bias_sigma": 0.1302}, {"name": "pgv", "value": 0.4713, "value_rock": 0.4713, "value_soil": 1.2927, "units": "cm/s", "ln_tau": 0.3933, "ln_phi": 0.6046, "ln_sigma": 0.7212, "ln_sigma_rock": 0.7261, "ln_sigma_soil": 0.722, "ln_bias": -0.2794, "ln_bias_sigma": 0.1247}, {"name": "mmi", "value": 3.1017, "value_rock": 3.1017, "value_soil": 3.7459, "units": "intensity", "tau": 0.2511, "phi": 0.7388, "sigma": 0.7803, "sigma_rock": 0.7822, "sigma_soil": 0.7806, "bias": -0.0499, "bias_sigma": 0.1424}], "mmi_from_pgm": [{"name": "sa(1.0)", "value": 2.43, "sigma": 0.75, "flag": "0"}, {"name": "sa(3.0)", "value": 3.4, "sigma": 0.89, "flag": "0"}, {"name": "pga", "value": 2.09, "sigma": 0.66, "flag": "0"}, {"name": "sa(0.3)", "value": 1.83, "sigma": 0.82, "flag": "0"}, {"name": "pgv", "value": 2.6, "sigma": 0.63, "flag": "0"}], "distance_stddev": 0.0, "distances": {"repi": 156.23, "rhypo": 156.549, "rjb": 144.426, "rjb_var": 0.0, "rrup": 144.78, "rrup_var": 0.0, "rx": 50.291, "ry0": 137.529, "rvolc": 0.0}}, "geometry": {"type": "Point", "coordinates": [13.2546, 41.5583]}}, {"type": "Feature", "id": "IV.GUAR", "properties": {"code": "GUAR", "name": "GUAR", "instrumentType": "UNK", "source": "IV", "network": "IV", "commType": "UNK", "location": "", "intensity": 2.9, "intensity_flag": "", "intensity_stddev": 0.63, "pga": 0.2482, "pgv": 0.3528, "distance": 119.275, "elev": null, "vs30": 816.58, "channels": [{"name": "--.HHN", "amplitudes": [{"name": "sa(1.0)", "value": 0.4348, "units": "%g", "flag": "0", "ln_sigma": 0.0}, {"name": "pga", "value": 0.2144, "units": "%g", "flag": "0", "ln_sigma": 0.0}, {"name": "pgv", "value": 0.3528, "units": "cm/s", "flag": "0", "ln_sigma": 0.0}, {"name": "sa(0.3)", "value": 0.7846, "units": "%g", "flag": "0", "ln_sigma": 0.0}, {"name": "sa(3.0)", "value": 0.131, "units": "%g", "flag": "0", "ln_sigma": 0.0}]}, {"name": "--.HHE", "amplitudes": [{"name": "sa(1.0)", "value": 0.531, "units": "%g", "flag": "0", "ln_sigma": 0.0}, {"name": "pga", "value": 0.2482, "units": "%g", "flag": "0", "ln_sigma": 0.0}, {"name": "pgv", "value": 0.3277, "units": "cm/s", "flag": "0", "ln_sigma": 0.0}, {"name": "sa(0.3)", "value": 0.4884, "units": "%g", "flag": "0", "ln_sigma": 0.0}, {"name": "sa(3.0)", "value": 0.1605, "units": "%g", "flag": "0", "ln_sigma": 0.0}]}, {"name": "--.HHZ", "amplitudes": [{"name": "sa(1.0)", "value": 0.3506, "units": "%g", "flag": "0", "ln_sigma": 0.0}, {"name": "pga", "value": 0.1533, "units": "%g", "flag": "0", "ln_sigma": 0.0}, {"name": "pgv", "value": 0.304, "units": "cm/s", "flag": "0", "ln_sigma": 0.0}, {"name": "sa(0.3)", "value": 0.3127, "units": "%g", "flag": "0", "ln_sigma": 0.0}, {"name": "sa(3.0)", "value": 0.1787, "units": "%g", "flag": "0", "ln_sigma": 0.0}]}], "station_type": "seismic", "nresp": "null", "predictions": [{"name": "sa(1.0)", "value": 0.606, "value_rock": 0.6468, "value_soil": 2.5605, "units": "%g", "ln_tau": 0.4326, "ln_phi": 0.6801, "ln_sigma": 0.806, "ln_sigma_rock": 0.8087, "ln_sigma_soil": 0.8068, "ln_bias": -0.2584, "ln_bias_sigma": 0.1404}, {"name": "sa(3.0)", "value": 0.1445, "value_rock": 0.1525, "value_soil": 0.4872, "units": "%g", "ln_tau": 0.4403, "ln_phi": 0.6636, "ln_sigma": 0.7964, "ln_sigma_rock": 0.8003, "ln_sigma_soil": 0.8003, "ln_bias": 0.2444, "ln_bias_sigma": 0.1429}, {"name": "pga", "value": 0.9187, "value_rock": 0.942, "value_soil": 1.5531, "units": "%g", "ln_tau": 0.4032, "ln_phi": 0.5926, "ln_sigma": 0.7168, "ln_sigma_rock": 0.719, "ln_sigma_soil": 0.7148, "ln_bias": -0.5488, "ln_bias_sigma": 0.1198}, {"name": "sa(0.3)", "value": 1.5793, "value_rock": 1.659, "value_soil": 4.5571, "units": "%g", "ln_tau": 0.3888, "ln_phi": 0.6655, "ln_sigma": 0.7708, "ln_sigma_rock": 0.7719, "ln_sigma_soil": 0.7677, "ln_bias": -0.5107, "ln_bias_sigma": 0.1302}, {"name": "pgv", "value": 0.5721, "value_rock": 0.5991, "value_soil": 1.6365, "units": "cm/s", "ln_tau": 0.3933, "ln_phi": 0.6037, "ln_sigma": 0.7205, "ln_sigma_rock": 0.7254, "ln_sigma_soil": 0.7212, "ln_bias": -0.2794, "ln_bias_sigma": 0.1247}, {"name": "mmi", "value": 3.2255, "value_rock": 3.2549, "value_soil": 3.8965, "units": "intensity", "tau": 0.2511, "phi": 0.7386, "sigma": 0.7801, "sigma_rock": 0.7819, "sigma_soil": 0.7803, "bias": -0.0499, "bias_sigma": 0.1424}], "mmi_from_pgm": [{"name": "sa(1.0)", "value": 3.07, "sigma": 0.75, "flag": "0"}, {"name": "sa(3.0)", "value": 3.49, "sigma": 0.89, "flag": "0"}, {"name": "pga", "value": 2.55, "sigma": 0.66, "flag": "0"}, {"name": "sa(0.3)", "value": 2.95, "sigma": 0.82, "flag": "0"}, {"name": "pgv", "value": 2.92, "sigma": 0.63, "flag": "0"}], "distance_stddev": 0.0, "distances": {"repi": 130.764, "rhypo": 131.146, "rjb": 118.792, "rjb_var": 0.0, "rrup": 119.275, "rrup_var": 0.0, "rx": 36.009, "ry0": 114.995, "rvolc": 0.0}}, "geometry": {"type": "Point", "coordinates": [13.3123, 41.7945]}}, {"type": "Feature", "id": "IV.RMP", "properties": {"code": "RMP", "name": "RMP", "instrumentType": "UNK", "source": "IV", "network": "IV", "commType": "UNK", "location": "", "intensity": 3.2, "intensity_flag": "", "intensity_stddev": 0.63, "pga": 0.3802, "pgv": 0.5831, "distance": 121.613, "elev": null, "vs30": 644.15, "channels": [{"name": "--.HHN", "amplitudes": [{"name": "sa(1.0)", "value": 0.497, "units": "%g", "flag": "0", "ln_sigma": 0.0}, {"name": "pga", "value": 0.3802, "units": "%g", "flag": "0", "ln_sigma": 0.0}, {"name": "pgv", "value": 0.5831, "units": "cm/s", "flag": "0", "ln_sigma": 0.0}, {"name": "sa(0.3)", "value": 1.0722, "units": "%g", "flag": "0", "ln_sigma": 0.0}, {"name": "sa(3.0)", "value": 0.284, "units": "%g", "flag": "0", "ln_sigma": 0.0}]}, {"name": "--.HHE", "amplitudes": [{"name": "sa(1.0)", "value": 0.339, "units": "%g", "flag": "0", "ln_sigma": 0.0}, {"name": "pga", "value": 0.2128, "units": "%g", "flag": "0", "ln_sigma": 0.0}, {"name": "pgv", "value": 0.361, "units": "cm/s", "flag": "0", "ln_sigma": 0.0}, {"name": "sa(0.3)", "value": 0.7008, "units": "%g", "flag": "0", "ln_sigma": 0.0}, {"name": "sa(3.0)", "value": 0.2682, "units": "%g", "flag": "0", "ln_sigma": 0.0}]}, {"name": "--.HHZ", "amplitudes": [{"name": "sa(1.0)", "value": 0.2228, "units": "%g", "flag": "0", "ln_sigma": 0.0}, {"name": "pga", "value": 0.1691, "units": "%g", "flag": "0", "ln_sigma": 0.0}, {"name": "pgv", "value": 0.2287, "units": "cm/s", "flag": "0", "ln_sigma": 0.0}, {"name": "sa(0.3)", "value": 0.5843, "units": "%g", "flag": "0", "ln_sigma": 0.0}, {"name": "sa(3.0)", "value": 0.1264, "units": "%g", "flag": "0", "ln_sigma": 0.0}]}], "station_type": "seismic", "nresp": "null", "predictions": [{"name": "sa(1.0)", "value": 0.7349, "value_rock": 0.6325, "value_soil": 2.5053, "units": "%g", "ln_tau": 0.4326, "ln_phi": 0.6802, "ln_sigma": 0.8061, "ln_sigma_rock": 0.8088, "ln_sigma_soil": 0.807, "ln_bias": -0.2584, "ln_bias_sigma": 0.1404}, {"name": "sa(3.0)", "value": 0.1692, "value_rock": 0.1493, "value_soil": 0.477, "units": "%g", "ln_tau": 0.4403, "ln_phi": 0.6636, "ln_sigma": 0.7964, "ln_sigma_rock": 0.8003, "ln_sigma_soil": 0.8003, "ln_bias": 0.2444, "ln_bias_sigma": 0.1429}, {"name": "pga", "value": 0.9677, "value_rock": 0.9135, "value_soil": 1.507, "units": "%g", "ln_tau": 0.4031, "ln_phi": 0.5927, "ln_sigma": 0.7168, "ln_sigma_rock": 0.7191, "ln_sigma_soil": 0.7149, "ln_bias": -0.5487, "ln_bias_sigma": 0.1198}, {"name": "sa(0.3)", "value": 1.8059, "value_rock": 1.6124, "value_soil": 4.4338, "units": "%g", "ln_tau": 0.3888, "ln_phi": 0.6656, "ln_sigma": 0.7709, "ln_sigma_rock": 0.772, "ln_sigma_soil": 0.7679, "ln_bias": -0.5107, "ln_bias_sigma": 0.1302}, {"name": "pgv", "value": 0.6505, "value_rock": 0.5849, "value_soil": 1.5985, "units": "cm/s", "ln_tau": 0.3933, "ln_phi": 0.6038, "ln_sigma": 0.7206, "ln_sigma_rock": 0.7255, "ln_sigma_soil": 0.7213, "ln_bias": -0.2794, "ln_bias_sigma": 0.1247}, {"name": "mmi", "value": 3.3074, "value_rock": 3.2396, "value_soil": 3.8815, "units": "intensity", "tau": 0.2511, "phi": 0.7386, "sigma": 0.7801, "sigma_rock": 0.7819, "sigma_soil": 0.7803, "bias": -0.0499, "bias_sigma": 0.1424}], "mmi_from_pgm": [{"name": "sa(1.0)", "value": 3.02, "sigma": 0.75, "flag": "0"}, {"name": "sa(3.0)", "value": 3.77, "sigma": 0.89, "flag": "0"}, {"name": "pga", "value": 2.85, "sigma": 0.66, "flag": "0"}, {"name": "sa(0.3)", "value": 3.19, "sigma": 0.82, "flag": "0"}, {"name": "pgv", "value": 3.24, "sigma": 0.63, "flag": "0"}], "distance_stddev": 0.0, "distances": {"repi": 130.821, "rhypo": 131.202, "rjb": 121.144, "rjb_var": 0.0, "rrup": 121.613, "rrup_var": 0.0, "rx": 82.135, "ry0": 94.183, "rvolc": 0.0}}, "geometry": {"type": "Point", "coordinates": [12.7022, 41.8111]}}, {"type": "Feature", "id": "IV.T0110", "properties": {"code": "T0110", "name": "T0110", "instrumentType": "UNK", "source": "IV", "network": "IV", "commType": "UNK", "location": "", "intensity": "null", "intensity_flag": "", "intensity_stddev": "null", "pga": "null", "pgv": "null", "distance": 86.321, "elev": null, "vs30": 555.33, "channels": [{"name": "--.HHN", "amplitudes": [{"name": "sa(1.0)", "value": 0.0193, "units": "%g", "flag": "Outlier,0,Outlier", "ln_sigma": 0.0}, {"name": "pga", "value": 0.0503, "units": "%g", "flag": "Outlier,0,Outlier", "ln_sigma": 0.0}, {"name": "pgv", "value": 0.0161, "units": "cm/s", "flag": "Outlier,0,Outlier", "ln_sigma": 0.0}, {"name": "sa(0.3)", "value": 0.0981, "units": "%g", "flag": "Outlier,0,Outlier", "ln_sigma": 0.0}, {"name": "sa(3.0)", "value": 0.007, "units": "%g", "flag": "Outlier,0,Outlier", "ln_sigma": 0.0}]}, {"name": "--.HHE", "amplitudes": [{"name": "sa(1.0)", "value": 0.0151, "units": "%g", "flag": "Outlier,0,Outlier", "ln_sigma": 0.0}, {"name": "pga", "value": 0.0582, "units": "%g", "flag": "Outlier,0,Outlier", "ln_sigma": 0.0}, {"name": "pgv", "value": 0.0219, "units": "cm/s", "flag": "Outlier,0,Outlier", "ln_sigma": 0.0}, {"name": "sa(0.3)", "value": 0.1003, "units": "%g", "flag": "Outlier,0,Outlier", "ln_sigma": 0.0}, {"name": "sa(3.0)", "value": 0.0066, "units": "%g", "flag": "Outlier,0,Outlier", "ln_sigma": 0.0}]}, {"name": "--.HHZ", "amplitudes": [{"name": "sa(1.0)", "value": 0.0092, "units": "%g", "flag": "Outlier,0,Outlier", "ln_sigma": 0.0}, {"name": "pga", "value": 0.0338, "units": "%g", "flag": "Outlier,0,Outlier", "ln_sigma": 0.0}, {"name": "pgv", "value": 0.0111, "units": "cm/s", "flag": "Outlier,0,Outlier", "ln_sigma": 0.0}, {"name": "sa(0.3)", "value": 0.0562, "units": "%g", "flag": "Outlier,0,Outlier", "ln_sigma": 0.0}, {"name": "sa(3.0)", "value": 0.0041, "units": "%g", "flag": "Outlier,0,Outlier", "ln_sigma": 0.0}]}], "station_type": "seismic", "nresp": "null", "predictions": [{"name": "sa(1.0)", "value": 1.2743, "value_rock": 0.9335, "value_soil": 3.6498, "units": "%g", "ln_tau": 0.4326, "ln_phi": 0.68, "ln_sigma": 0.8059, "ln_sigma_rock": 0.8086, "ln_sigma_soil": 0.8063, "ln_bias": -0.2584, "ln_bias_sigma": 0.1404}, {"name": "sa(3.0)", "value": 0.2792, "value_rock": 0.2164, "value_soil": 0.6881, "units": "%g", "ln_tau": 0.4403, "ln_phi": 0.6636, "ln_sigma": 0.7964, "ln_sigma_rock": 0.8003, "ln_sigma_soil": 0.8003, "ln_bias": 0.2444, "ln_bias_sigma": 0.1429}, {"name": "pga", "value": 1.7683, "value_rock": 1.5411, "value_soil": 2.505, "units": "%g", "ln_tau": 0.403, "ln_phi": 0.592, "ln_sigma": 0.7162, "ln_sigma_rock": 0.7186, "ln_sigma_soil": 0.7134, "ln_bias": -0.5487, "ln_bias_sigma": 0.1198}, {"name": "sa(0.3)", "value": 3.4286, "value_rock": 2.6185, "value_soil": 7.0412, "units": "%g", "ln_tau": 0.3888, "ln_phi": 0.6644, "ln_sigma": 0.7698, "ln_sigma_rock": 0.771, "ln_sigma_soil": 0.7654, "ln_bias": -0.5107, "ln_bias_sigma": 0.1302}, {"name": "pgv", "value": 1.1151, "value_rock": 0.8878, "value_soil": 2.4029, "units": "cm/s", "ln_tau": 0.3933, "ln_phi": 0.6032, "ln_sigma": 0.7201, "ln_sigma_rock": 0.725, "ln_sigma_soil": 0.7204, "ln_bias": -0.2793, "ln_bias_sigma": 0.1247}, {"name": "mmi", "value": 3.6515, "value_rock": 3.506, "value_soil": 4.1417, "units": "intensity", "tau": 0.2511, "phi": 0.7384, "sigma": 0.7799, "sigma_rock": 0.7817, "sigma_soil": 0.78, "bias": -0.0499, "bias_sigma": 0.1424}], "mmi_from_pgm": [{"name": "sa(1.0)", "value": null, "sigma": null, "flag": "0"}, {"name": "sa(3.0)", "value": null, "sigma": null, "flag": "0"}, {"name": "pga", "value": null, "sigma": null, "flag": "0"}, {"name": "sa(0.3)", "value": null, "sigma": null, "flag": "0"}, {"name": "pgv", "value": null, "sigma": null, "flag": "0"}], "distance_stddev": 0.0, "distances": {"repi": 99.548, "rhypo": 100.049, "rjb": 86.214, "rjb_var": 0.0, "rrup": 86.321, "rrup_var": 0.0, "rx": -17.558, "ry0": 84.382, "rvolc": 0.0}}, "geometry": {"type": "Point", "coordinates": [13.7763, 42.2294]}}, {"type": "Feature", "id": "IV.CTI", "properties": {"code": "CTI", "name": "CASTELLO TESINO", "instrumentType": "UNK", "source": "IV", "network": "IV", "commType": "UNK", "location": "", "intensity": 2.1, "intensity_flag": "", "intensity_stddev": 0.63, "pga": 0.0836, "pgv": 0.0998, "distance": 360.069, "elev": null, "vs30": 760.0, "channels": [{"name": "HHZ", "amplitudes": [{"name": "sa(1.0)", "value": 0.0533, "units": "%g", "flag": "0", "ln_sigma": 0.0}, {"name": "pga", "value": 0.0261, "units": "%g", "flag": "0", "ln_sigma": 0.0}, {"name": "pgv", "value": 0.0553, "units": "cm/s", "flag": "0", "ln_sigma": 0.0}, {"name": "sa(0.3)", "value": 0.0574, "units": "%g", "flag": "0", "ln_sigma": 0.0}, {"name": "sa(3.0)", "value": 0.0311, "units": "%g", "flag": "0", "ln_sigma": 0.0}]}, {"name": "HHE", "amplitudes": [{"name": "sa(1.0)", "value": 0.0843, "units": "%g", "flag": "0", "ln_sigma": 0.0}, {"name": "pga", "value": 0.0836, "units": "%g", "flag": "0", "ln_sigma": 0.0}, {"name": "pgv", "value": 0.0998, "units": "cm/s", "flag": "0", "ln_sigma": 0.0}, {"name": "sa(0.3)", "value": 0.1794, "units": "%g", "flag": "0", "ln_sigma": 0.0}, {"name": "sa(3.0)", "value": 0.0638, "units": "%g", "flag": "0", "ln_sigma": 0.0}]}, {"name": "HHN", "amplitudes": [{"name": "sa(1.0)", "value": 0.0619, "units": "%g", "flag": "0", "ln_sigma": 0.0}, {"name": "pga", "value": 0.0704, "units": "%g", "flag": "0", "ln_sigma": 0.0}, {"name": "pgv", "value": 0.083, "units": "cm/s", "flag": "0", "ln_sigma": 0.0}, {"name": "sa(0.3)", "value": 0.1775, "units": "%g", "flag": "0", "ln_sigma": 0.0}, {"name": "sa(3.0)", "value": 0.0434, "units": "%g", "flag": "0", "ln_sigma": 0.0}]}], "station_type": "seismic", "nresp": "null", "predictions": [{"name": "sa(1.0)", "value": 0.1694, "value_rock": 0.1694, "value_soil": 0.6835, "units": "%g", "ln_tau": 0.4326, "ln_phi": 0.6848, "ln_sigma": 0.81, "ln_sigma_rock": 0.813, "ln_sigma_soil": 0.8118, "ln_bias": -0.2584, "ln_bias_sigma": 0.1404}, {"name": "sa(3.0)", "value": 0.0444, "value_rock": 0.0444, "value_soil": 0.143, "units": "%g", "ln_tau": 0.4403, "ln_phi": 0.668, "ln_sigma": 0.8, "ln_sigma_rock": 0.8042, "ln_sigma_soil": 0.8042, "ln_bias": 0.2444, "ln_bias_sigma": 0.1429}, {"name": "pga", "value": 0.1231, "value_rock": 0.1231, "value_soil": 0.2073, "units": "%g", "ln_tau": 0.4032, "ln_phi": 0.5971, "ln_sigma": 0.7204, "ln_sigma_rock": 0.7228, "ln_sigma_soil": 0.7198, "ln_bias": -0.5488, "ln_bias_sigma": 0.1198}, {"name": "sa(0.3)", "value": 0.257, "value_rock": 0.257, "value_soil": 0.7289, "units": "%g", "ln_tau": 0.3889, "ln_phi": 0.6712, "ln_sigma": 0.7757, "ln_sigma_rock": 0.7773, "ln_sigma_soil": 0.7749, "ln_bias": -0.5107, "ln_bias_sigma": 0.1302}, {"name": "pgv", "value": 0.1455, "value_rock": 0.1455, "value_soil": 0.4032, "units": "cm/s", "ln_tau": 0.3933, "ln_phi": 0.6072, "ln_sigma": 0.7235, "ln_sigma_rock": 0.7285, "ln_sigma_soil": 0.7247, "ln_bias": -0.2794, "ln_bias_sigma": 0.1247}, {"name": "mmi", "value": 2.3515, "value_rock": 2.3515, "value_soil": 3.0021, "units": "intensity", "tau": 0.2511, "phi": 0.7397, "sigma": 0.7812, "sigma_rock": 0.7831, "sigma_soil": 0.7817, "bias": -0.0499, "bias_sigma": 0.1424}], "mmi_from_pgm": [{"name": "sa(1.0)", "value": 1.66, "sigma": 0.75, "flag": "0"}, {"name": "sa(3.0)", "value": 2.79, "sigma": 0.89, "flag": "0"}, {"name": "pga", "value": 2.11, "sigma": 0.66, "flag": "0"}, {"name": "sa(0.3)", "value": 2.06, "sigma": 0.82, "flag": "0"}, {"name": "pgv", "value": 2.11, "sigma": 0.63, "flag": "0"}], "distance_stddev": 0.0, "distances": {"repi": 361.672, "rhypo": 361.81, "rjb": 360.175, "rjb_var": 0.0, "rrup": 360.069, "rrup_var": 0.0, "rx": -22.522, "ry0": 359.551, "rvolc": 0.0}}, "geometry": {"type": "Point", "coordinates": [11.6497, 46.04818]}}, {"type": "Feature", "id": "IV.OSSC", "properties": {"code": "OSSC", "name": "OSSC", "instrumentType": "UNK", "source": "IV", "network": "IV", "commType": "UNK", "location": "", "intensity": 2.5, "intensity_flag": "", "intensity_stddev": 0.63, "pga": 0.067, "pgv": 0.1831, "distance": 160.635, "elev": null, "vs30": 760.0, "channels": [{"name": "--.HHN", "amplitudes": [{"name": "sa(1.0)", "value": 0.1892, "units": "%g", "flag": "0", "ln_sigma": 0.0}, {"name": "pga", "value": 0.067, "units": "%g", "flag": "0", "ln_sigma": 0.0}, {"name": "pgv", "value": 0.1831, "units": "cm/s", "flag": "0", "ln_sigma": 0.0}, {"name": "sa(0.3)", "value": 0.0972, "units": "%g", "flag": "Outlier", "ln_sigma": 0.0}, {"name": "sa(3.0)", "value": 0.0699, "units": "%g", "flag": "0", "ln_sigma": 0.0}]}, {"name": "--.HHE", "amplitudes": [{"name": "sa(1.0)", "value": 0.1812, "units": "%g", "