{"type": "FeatureCollection", "features": [{"type": "Feature", "id": "HL.KEK", "properties": {"code": "KEK", "name": "Corfu,Greece", "instrumentType": "UNK", "source": "HL", "network": "HL", "commType": "UNK", "location": "", "intensity": 2.6, "intensity_flag": "", "intensity_stddev": 0.63, "pga": 0.2281, "pgv": 0.2268, "distance": 193.322, "elev": null, "vs30": 560.23, "channels": [{"name": "--.HHE", "amplitudes": [{"name": "pga", "value": 0.2281, "units": "%g", "flag": "0", "ln_sigma": 0.0}, {"name": "pgv", "value": 0.1946, "units": "cm/s", "flag": "0", "ln_sigma": 0.0}, {"name": "sa(0.3)", "value": 0.4788, "units": "%g", "flag": "0", "ln_sigma": 0.0}, {"name": "sa(1.0)", "value": 0.3961, "units": "%g", "flag": "0", "ln_sigma": 0.0}, {"name": "sa(3.0)", "value": 0.0691, "units": "%g", "flag": "0", "ln_sigma": 0.0}]}, {"name": "--.HHN", "amplitudes": [{"name": "pga", "value": 0.1968, "units": "%g", "flag": "0", "ln_sigma": 0.0}, {"name": "pgv", "value": 0.2268, "units": "cm/s", "flag": "0", "ln_sigma": 0.0}, {"name": "sa(0.3)", "value": 0.4672, "units": "%g", "flag": "0", "ln_sigma": 0.0}, {"name": "sa(1.0)", "value": 0.415, "units": "%g", "flag": "0", "ln_sigma": 0.0}, {"name": "sa(3.0)", "value": 0.0569, "units": "%g", "flag": "0", "ln_sigma": 0.0}]}, {"name": "--.HHZ", "amplitudes": [{"name": "pga", "value": 0.1521, "units": "%g", "flag": "0", "ln_sigma": 0.0}, {"name": "pgv", "value": 0.1901, "units": "cm/s", "flag": "0", "ln_sigma": 0.0}, {"name": "sa(0.3)", "value": 0.2588, "units": "%g", "flag": "0", "ln_sigma": 0.0}, {"name": "sa(1.0)", "value": 0.3524, "units": "%g", "flag": "0", "ln_sigma": 0.0}, {"name": "sa(3.0)", "value": 0.031, "units": "%g", "flag": "0", "ln_sigma": 0.0}]}], "station_type": "seismic", "nresp": "null", "predictions": [{"name": "pgv", "value": 0.8144, "value_rock": 0.6519, "value_soil": 1.7832, "units": "cm/s", "ln_tau": 0.3856, "ln_phi": 0.5973, "ln_sigma": 0.711, "ln_sigma_rock": 0.7155, "ln_sigma_soil": 0.7116, "ln_bias": 0.5155, "ln_bias_sigma": 0.2131}, {"name": "sa(1.0)", "value": 0.8221, "value_rock": 0.6069, "value_soil": 2.4062, "units": "%g", "ln_tau": 0.424, "ln_phi": 0.674, "ln_sigma": 0.7963, "ln_sigma_rock": 0.7984, "ln_sigma_soil": 0.7968, "ln_bias": 0.614, "ln_bias_sigma": 0.2443}, {"name": "pga", "value": 0.8318, "value_rock": 0.7267, "value_soil": 1.2013, "units": "%g", "ln_tau": 0.3953, "ln_phi": 0.5923, "ln_sigma": 0.7121, "ln_sigma_rock": 0.7145, "ln_sigma_soil": 0.7107, "ln_bias": 0.503, "ln_bias_sigma": 0.2044}, {"name": "sa(3.0)", "value": 0.2226, "value_rock": 0.1736, "value_soil": 0.5549, "units": "%g", "ln_tau": 0.4318, "ln_phi": 0.6599, "ln_sigma": 0.7886, "ln_sigma_rock": 0.791, "ln_sigma_soil": 0.7909, "ln_bias": 0.4617, "ln_bias_sigma": 0.2761}, {"name": "sa(0.3)", "value": 1.6788, "value_rock": 1.289, "value_soil": 3.5538, "units": "%g", "ln_tau": 0.3813, "ln_phi": 0.663, "ln_sigma": 0.7648, "ln_sigma_rock": 0.7662, "ln_sigma_soil": 0.7626, "ln_bias": 0.4014, "ln_bias_sigma": 0.2248}, {"name": "mmi", "value": 3.3969, "value_rock": 3.2548, "value_soil": 3.8973, "units": "intensity", "tau": 0.2462, "phi": 0.7364, "sigma": 0.7765, "sigma_rock": 0.7782, "sigma_soil": 0.7767, "bias": 0.3895, "bias_sigma": 0.1715}], "mmi_from_pgm": [{"name": "pgv", "value": 2.58, "sigma": 0.63, "flag": "0"}, {"name": "sa(1.0)", "value": 2.71, "sigma": 0.75, "flag": "0"}, {"name": "pga", "value": 2.66, "sigma": 0.66, "flag": "0"}, {"name": "sa(3.0)", "value": 2.88, "sigma": 0.89, "flag": "0"}, {"name": "sa(0.3)", "value": 2.72, "sigma": 0.82, "flag": "0"}], "distance_stddev": 10.517, "distances": {"repi": 201.571, "rhypo": 202.768, "rjb": 191.891, "rjb_var": 77.618, "rrup": 193.322, "rrup_var": 110.602, "rx": 0.0, "ry0": 0.0, "rvolc": 0.0}}, "geometry": {"type": "Point", "coordinates": [19.7962, 39.7127]}}, {"type": "Feature", "id": "HT.LIT", "properties": {"code": "LIT", "name": "Litokhoron, Greece", "instrumentType": "UNK", "source": "HT", "network": "HT", "commType": "UNK", "location": "", "intensity": 2.0, "intensity_flag": "", "intensity_stddev": 0.63, "pga": 0.046, "pgv": 0.095, "distance": 285.345, "elev": null, "vs30": 760.0, "channels": [{"name": "--.HHE", "amplitudes": [{"name": "pga", "value": 0.0398, "units": "%g", "flag": "0", "ln_sigma": 0.0}, {"name": "pgv", "value": 0.0943, "units": "cm/s", "flag": "0", "ln_sigma": 0.0}, {"name": "sa(0.3)", "value": 0.0988, "units": "%g", "flag": "0", "ln_sigma": 0.0}, {"name": "sa(1.0)", "value": 0.0974, "units": "%g", "flag": "0", "ln_sigma": 0.0}, {"name": "sa(3.0)", "value": 0.0287, "units": "%g", "flag": "0", "ln_sigma": 0.0}]}, {"name": "--.HHN", "amplitudes": [{"name": "pga", "value": 0.046, "units": "%g", "flag": "0", "ln_sigma": 0.0}, {"name": "pgv", "value": 0.095, "units": "cm/s", "flag": "0", "ln_sigma": 0.0}, {"name": "sa(0.3)", "value": 0.1134, "units": "%g", "flag": "0", "ln_sigma": 0.0}, {"name": "sa(1.0)", "value": 0.1327, "units": "%g", "flag": "0", "ln_sigma": 0.0}, {"name": "sa(3.0)", "value": 0.0681, "units": "%g", "flag": "0", "ln_sigma": 0.0}]}, {"name": "--.HHZ", "amplitudes": [{"name": "pga", "value": 0.0296, "units": "%g", "flag": "0", "ln_sigma": 0.0}, {"name": "pgv", "value": 0.0562, "units": "cm/s", "flag": "0", "ln_sigma": 0.0}, {"name": "sa(0.3)", "value": 0.0673, "units": "%g", "flag": "0", "ln_sigma": 0.0}, {"name": "sa(1.0)", "value": 0.1064, "units": "%g", "flag": "0", "ln_sigma": 0.0}, {"name": "sa(3.0)", "value": 0.0337, "units": "%g", "flag": "0", "ln_sigma": 0.0}]}], "station_type": "seismic", "nresp": "null", "predictions": [{"name": "pgv", "value": 0.4048, "value_rock": 0.4048, "value_soil": 1.1149, "units": "cm/s", "ln_tau": 0.3856, "ln_phi": 0.5971, "ln_sigma": 0.7108, "ln_sigma_rock": 0.7154, "ln_sigma_soil": 0.7118, "ln_bias": 0.5156, "ln_bias_sigma": 0.2132}, {"name": "sa(1.0)", "value": 0.386, "value_rock": 0.386, "value_soil": 1.5444, "units": "%g", "ln_tau": 0.424, "ln_phi": 0.6747, "ln_sigma": 0.7969, "ln_sigma_rock": 0.7991, "ln_sigma_soil": 0.7978, "ln_bias": 0.614, "ln_bias_sigma": 0.2443}, {"name": "pga", "value": 0.3584, "value_rock": 0.3584, "value_soil": 0.5983, "units": "%g", "ln_tau": 0.3954, "ln_phi": 0.5915, "ln_sigma": 0.7115, "ln_sigma_rock": 0.7139, "ln_sigma_soil": 0.7108, "ln_bias": 0.503, "ln_bias_sigma": 0.2044}, {"name": "sa(3.0)", "value": 0.1149, "value_rock": 0.1149, "value_soil": 0.3687, "units": "%g", "ln_tau": 0.4318, "ln_phi": 0.6588, "ln_sigma": 0.7877, "ln_sigma_rock": 0.7901, "ln_sigma_soil": 0.7901, "ln_bias": 0.4617, "ln_bias_sigma": 0.2761}, {"name": "sa(0.3)", "value": 0.6735, "value_rock": 0.6735, "value_soil": 1.8853, "units": "%g", "ln_tau": 0.3813, "ln_phi": 0.6634, "ln_sigma": 0.7652, "ln_sigma_rock": 0.7667, "ln_sigma_soil": 0.764, "ln_bias": 0.4014, "ln_bias_sigma": 0.2248}, {"name": "mmi", "value": 2.9507, "value_rock": 2.9507, "value_soil": 3.5974, "units": "intensity", "tau": 0.2462, "phi": 0.7364, "sigma": 0.7764, "sigma_rock": 0.7781, "sigma_soil": 0.7768, "bias": 0.3895, "bias_sigma": 0.1715}], "mmi_from_pgm": [{"name": "pgv", "value": 2.03, "sigma": 0.63, "flag": "0"}, {"name": "sa(1.0)", "value": 1.88, "sigma": 0.75, "flag": "0"}, {"name": "pga", "value": 1.5, "sigma": 0.66, "flag": "0"}, {"name": "sa(3.0)", "value": 2.77, "sigma": 0.89, "flag": "0"}, {"name": "sa(0.3)", "value": 1.66, "sigma": 0.82, "flag": "0"}], "distance_stddev": 10.125, "distances": {"repi": 294.612, "rhypo": 295.432, "rjb": 284.813, "rjb_var": 78.326, "rrup": 285.345, "rrup_var": 102.517, "rx": 0.0, "ry0": 0.0, "rvolc": 0.0}}, "geometry": {"type": "Point", "coordinates": [22.4892, 40.1033]}}, {"type": "Feature", "id": "SJ.DJES", "properties": {"code": "DJES", "name": "Station Derdap-Kladovo, Serbia", "instrumentType": "UNK", "source": "SJ", "network": "SJ", "commType": "UNK", "location": "", "intensity": 3.3, "intensity_flag": "", "intensity_stddev": 0.63, "pga": 0.3016, "pgv": 0.6857, "distance": 416.623, "elev": null, "vs30": 760.0, "channels": [{"name": "--.BHE", "amplitudes": [{"name": "pga", "value": 0.3016, "units": "%g", "flag": "0", "ln_sigma": 0.0}, {"name": "pgv", "value": 0.6857, "units": "cm/s", "flag": "0", "ln_sigma": 0.0}, {"name": "sa(0.3)", "value": 0.5724, "units": "%g", "flag": "0", "ln_sigma": 0.0}, {"name": "sa(1.0)", "value": 0.5294, "units": "%g", "flag": "0", "ln_sigma": 0.0}, {"name": "sa(3.0)", "value": 0.3117, "units": "%g", "flag": "0", "ln_sigma": 0.0}]}, {"name": "--.BHN", "amplitudes": [{"name": "pga", "value": 0.2081, "units": "%g", "flag": "0", "ln_sigma": 0.0}, {"name": "pgv", "value": 0.3507, "units": "cm/s", "flag": "0", "ln_sigma": 0.0}, {"name": "sa(0.3)", "value": 0.4932, "units": "%g", "flag": "0", "ln_sigma": 0.0}, {"name": "sa(1.0)", "value": 0.5123, "units": "%g", "flag": "0", "ln_sigma": 0.0}, {"name": "sa(3.0)", "value": 0.143, "units": "%g", "flag": "0", "ln_sigma": 0.0}]}, {"name": "--.BHZ", "amplitudes": [{"name": "pga", "value": 0.2839, "units": "%g", "flag": "0", "ln_sigma": 0.0}, {"name": "pgv", "value": 0.9042, "units": "cm/s", "flag": "0", "ln_sigma": 0.0}, {"name": "sa(0.3)", "value": 0.4482, "units": "%g", "flag": "0", "ln_sigma": 0.0}, {"name": "sa(1.0)", "value": 1.017, "units": "%g", "flag": "0", "ln_sigma": 0.0}, {"name": "sa(3.0)", "value": 0.3397, "units": "%g", "flag": "0", "ln_sigma": 0.0}]}], "station_type": "seismic", "nresp": "null", "predictions": [{"name": "pgv", "value": 0.2495, "value_rock": 0.2495, "value_soil": 0.6898, "units": "cm/s", "ln_tau": 0.3856, "ln_phi": 0.5964, "ln_sigma": 0.7102, "ln_sigma_rock": 0.7148, "ln_sigma_soil": 0.7114, "ln_bias": 0.5156, "ln_bias_sigma": 0.2132}, {"name": "sa(1.0)", "value": 0.2416, "value_rock": 0.2416, "value_soil": 0.9721, "units": "%g", "ln_tau": 0.424, "ln_phi": 0.6741, "ln_sigma": 0.7964, "ln_sigma_rock": 0.7986, "ln_sigma_soil": 0.7976, "ln_bias": 0.614, "ln_bias_sigma": 0.2443}, {"name": "pga", "value": 0.1623, "value_rock": 0.1623, "value_soil": 0.2725, "units": "%g", "ln_tau": 0.3954, "ln_phi": 0.5903, "ln_sigma": 0.7105, "ln_sigma_rock": 0.7129, "ln_sigma_soil": 0.71, "ln_bias": 0.503, "ln_bias_sigma": 0.2044}, {"name": "sa(3.0)", "value": 0.0763, "value_rock": 0.0763, "value_soil": 0.2452, "units": "%g", "ln_tau": 0.4318, "ln_phi": 0.6583, "ln_sigma": 0.7873, "ln_sigma_rock": 0.7897, "ln_sigma_soil": 0.7897, "ln_bias": 0.4617, "ln_bias_sigma": 0.2761}, {"name": "sa(0.3)", "value": 0.326, "value_rock": 0.326, "value_soil": 0.9203, "units": "%g", "ln_tau": 0.3813, "ln_phi": 0.6625, "ln_sigma": 0.7644, "ln_sigma_rock": 0.7659, "ln_sigma_soil": 0.7635, "ln_bias": 0.4014, "ln_bias_sigma": 0.2248}, {"name": "mmi", "value": 2.6417, "value_rock": 2.6417, "value_soil": 3.291, "units": "intensity", "tau": 0.2462, "phi": 0.7361, "sigma": 0.7762, "sigma_rock": 0.7779, "sigma_soil": 0.7766, "bias": 0.3895, "bias_sigma": 0.1715}], "mmi_from_pgm": [{"name": "pgv", "value": 3.29, "sigma": 0.63, "flag": "0"}, {"name": "sa(1.0)", "value": 2.78, "sigma": 0.75, "flag": "0"}, {"name": "pga", "value": 3.04, "sigma": 0.66, "flag": "0"}, {"name": "sa(3.0)", "value": 3.53, "sigma": 0.89, "flag": "0"}, {"name": "sa(0.3)", "value": 2.96, "sigma": 0.82, "flag": "0"}], "distance_stddev": 9.877, "distances": {"repi": 426.616, "rhypo": 427.183, "rjb": 416.741, "rjb_var": 78.801, "rrup": 416.623, "rrup_var": 97.555, "rx": 0.0, "ry0": 0.0, "rvolc": 0.0}}, "geometry": {"type": "Point", "coordinates": [22.5197, 44.6672]}}, {"type": "Feature", "id": "DYFI.UTM:(33T 0597 4637 1000)", "properties": {"code": "UTM:(33T 0597 4637 1000)", "name": null, "instrumentType": "OBSERVED", "source": "DYFI", "network": "DYFI", "commType": "UNK", "location": "", "intensity": 3.4, "intensity_flag": "0", "intensity_stddev": 0.3, "pga": "null", "pgv": "null", "distance": 272.035, "elev": null, "vs30": 760.0, "channels": [], "nresp": 3, "station_type": "macroseismic", "predictions": [{"name": "mmi", "value": 2.9887, "value_rock": 2.9887, "value_soil": 3.635, "units": "intensity", "tau": 0.2499, "phi": 0.7394, "sigma": 0.7805, "sigma_rock": 0.7822, "sigma_soil": 0.7807, "bias": 0.3951, "bias_sigma": 0.1727}, {"name": "sa(0.3)", "value": 0.7327, "value_rock": 0.7327, "value_soil": 2.0479, "units": "%g", "ln_tau": 0.3832, "ln_phi": 0.6664, "ln_sigma": 0.7688, "ln_sigma_rock": 0.7676, "ln_sigma_soil": 0.7653, "ln_bias": 0.4028, "ln_bias_sigma": 0.2252}, {"name": "sa(1.0)", "value": 0.4086, "value_rock": 0.4086, "value_soil": 1.6333, "units": "%g", "ln_tau": 0.4297, "ln_phi": 0.684, "ln_sigma": 0.8078, "ln_sigma_rock": 0.8094, "ln_sigma_soil": 0.8084, "ln_bias": 0.6194, "ln_bias_sigma": 0.2454}, {"name": "sa(3.0)", "value": 0.121, "value_rock": 0.121, "value_soil": 0.3878, "units": "%g", "ln_tau": 0.4381, "ln_phi": 0.6687, "ln_sigma": 0.7995, "ln_sigma_rock": 0.8029, "ln_sigma_soil": 0.8034, "ln_bias": 0.4671, "ln_bias_sigma": 0.2777}, {"name": "pgv", "value": 0.4296, "value_rock": 0.4296, "value_soil": 1.1824, "units": "cm/s", "ln_tau": 0.3914, "ln_phi": 0.6064, "ln_sigma": 0.7217, "ln_sigma_rock": 0.7262, "ln_sigma_soil": 0.7223, "ln_bias": 0.5202, "ln_bias_sigma": 0.2141}, {"name": "pga", "value": 0.3928, "value_rock": 0.3928, "value_soil": 0.6553, "units": "%g", "ln_tau": 0.3965, "ln_phi": 0.5931, "ln_sigma": 0.7134, "ln_sigma_rock": 0.7145, "ln_sigma_soil": 0.7115, "ln_bias": 0.5038, "ln_bias_sigma": 0.2046}], "pgm_from_mmi": [{"name": "pgv", "value": null, "units": "cm/s", "ln_sigma": null, "flag": "0"}, {"name": "sa(1.0)", "value": null, "units": "%g", "ln_sigma": null, "flag": "0"}, {"name": "pga", "value": null, "units": "%g", "ln_sigma": null, "flag": "0"}, {"name": "sa(3.0)", "value": null, "units": "%g", "ln_sigma": null, "flag": "0"}, {"name": "sa(0.3)", "value": null, "units": "%g", "ln_sigma": null, "flag": "0"}], "distance_stddev": 10.174, "distances": {"repi": 281.173, "rhypo": 282.032, "rjb": 271.389, "rjb_var": 78.239, "rrup": 272.035, "rrup_var": 103.508, "rx": 0.0, "ry0": 0.0, "rvolc": 0.0}}, "geometry": {"type": "Point", "coordinates": [16.1751, 41.8834]}}, {"type": "Feature", "id": "DYFI.UTM:(33T 0616 4818 1000)", "properties": {"code": "UTM:(33T 0616 4818 1000)", "name": null, "instrumentType": "OBSERVED", "source": "DYFI", "network": "DYFI", "commType": "UNK", "location": "", "intensity": 3.3, "intensity_flag": "0", "intensity_stddev": 0.3, "pga": "null", "pgv": "null", "distance": 326.912, "elev": null, "vs30": 760.0, "channels": [], "nresp": 10, "station_type": "macroseismic", "predictions": [{"name": "mmi", "value": 2.8416, "value_rock": 2.8416, "value_soil": 3.4894, "units": "intensity", "tau": 0.2499, "phi": 0.7393, "sigma": 0.7804, "sigma_rock": 0.782, "sigma_soil": 0.7806, "bias": 0.3951, "bias_sigma": 0.1727}, {"name": "sa(0.3)", "value": 0.5256, "value_rock": 0.5256, "value_soil": 1.4766, "units": "%g", "ln_tau": 0.3832, "ln_phi": 0.6659, "ln_sigma": 0.7683, "ln_sigma_rock": 0.7671, "ln_sigma_soil": 0.765, "ln_bias": 0.4028, "ln_bias_sigma": 0.2252}, {"name": "sa(1.0)", "value": 0.3275, "value_rock": 0.3275, "value_soil": 1.3134, "units": "%g", "ln_tau": 0.4297, "ln_phi": 0.6837, "ln_sigma": 0.8075, "ln_sigma_rock": 0.8091, "ln_sigma_soil": 0.8082, "ln_bias": 0.6194, "ln_bias_sigma": 0.2454}, {"name": "sa(3.0)", "value": 0.0993, "value_rock": 0.0993, "value_soil": 0.3189, "units": "%g", "ln_tau": 0.4381, "ln_phi": 0.6684, "ln_sigma": 0.7992, "ln_sigma_rock": 0.8027, "ln_sigma_soil": 0.8031, "ln_bias": 0.4671, "ln_bias_sigma": 0.2777}, {"name": "pgv", "value": 0.3412, "value_rock": 0.3412, "value_soil": 0.9413, "units": "cm/s", "ln_tau": 0.3914, "ln_phi": 0.6059, "ln_sigma": 0.7213, "ln_sigma_rock": 0.7258, "ln_sigma_soil": 0.722, "ln_bias": 0.5202, "ln_bias_sigma": 0.2141}, {"name": "pga", "value": 0.2734, "value_rock": 0.2734, "value_soil": 0.4576, "units": "%g", "ln_tau": 0.3965, "ln_phi": 0.5923, "ln_sigma": 0.7128, "ln_sigma_rock": 0.7139, "ln_sigma_soil": 0.711, "ln_bias": 0.5038, "ln_bias_sigma": 0.2046}], "pgm_from_mmi": [{"name": "pgv", "value": null, "units": "cm/s", "ln_sigma": null, "flag": "0"}, {"name": "sa(1.0)", "value": null, "units": "%g", "ln_sigma": null, "flag": "0"}, {"name": "pga", "value": null, "units": "%g", "ln_sigma": null, "flag": "0"}, {"name": "sa(3.0)", "value": null, "units": "%g", "ln_sigma": null, "flag": "0"}, {"name": "sa(0.3)", "value": null, "units": "%g", "ln_sigma": null, "flag": "0"}], "distance_stddev": 10.051, "distances": {"repi": 336.401, "rhypo": 337.12, "rjb": 326.579, "rjb_var": 78.47, "rrup": 326.912, "rrup_var": 101.025, "rx": 0.0, "ry0": 0.0, "rvolc": 0.0}}, "geometry": {"type": "Point", "coordinates": [16.4413, 43.5103]}}, {"type": "Feature", "id": "DYFI.UTM:(33T 0656 4554 1000)", "properties": {"code": "UTM:(33T 0656 4554 1000)", "name": null, "instrumentType": "OBSERVED", "source": "DYFI", "network": "DYFI", "commType": "UNK", "location": "", "intensity": 4.5, "intensity_flag": "0", "intensity_stddev": 0.3, "pga": 3.2624, "pgv": 3.8837, "distance": 217.851, "elev": null, "vs30": 294.13, "channels": [], "nresp": 5, "station_type": "macroseismic", "predictions": [{"name": "mmi", "value": 3.5906, "value_rock": 3.1627, "value_soil": 3.8067, "units": "intensity", "tau": 0.2498, "phi": 0.7393, "sigma": 0.7803, "sigma_rock": 0.7821, "sigma_soil": 0.7806, "bias": 0.395, "bias_sigma": 0.1727}, {"name": "sa(0.3)", "value": 2.1444, "value_rock": 1.0652, "value_soil": 2.953, "units": "%g", "ln_tau": 0.383, "ln_phi": 0.6656, "ln_sigma": 0.7679, "ln_sigma_rock": 0.7671, "ln_sigma_soil": 0.7643, "ln_bias": 0.4026, "ln_bias_sigma": 0.2251}, {"name": "sa(1.0)", "value": 1.327, "value_rock": 0.5295, "value_soil": 2.1063, "units": "%g", "ln_tau": 0.4296, "ln_phi": 0.6832, "ln_sigma": 0.8071, "ln_sigma_rock": 0.8087, "ln_sigma_soil": 0.8076, "ln_bias": 0.6193, "ln_bias_sigma": 0.2454}, {"name": "sa(3.0)", "value": 0.3277, "value_rock": 0.1531, "value_soil": 0.4899, "units": "%g", "ln_tau": 0.4381, "ln_phi": 0.6694, "ln_sigma": 0.8, "ln_sigma_rock": 0.8035, "ln_sigma_soil": 0.8039, "ln_bias": 0.4671, "ln_bias_sigma": 0.2777}, {"name": "pgv", "value": 1.103, "value_rock": 0.5643, "value_soil": 1.5473, "units": "cm/s", "ln_tau": 0.3912, "ln_phi": 0.6059, "ln_sigma": 0.7212, "ln_sigma_rock": 0.726, "ln_sigma_soil": 0.722, "ln_bias": 0.5201, "ln_bias_sigma": 0.2141}, {"name": "pga", "value": 0.8298, "value_rock": 0.5906, "value_soil": 0.9798, "units": "%g", "ln_tau": 0.3963, "ln_phi": 0.5929, "ln_sigma": 0.7131, "ln_sigma_rock": 0.7147, "ln_sigma_soil": 0.7113, "ln_bias": 0.5036, "ln_bias_sigma": 0.2045}], "pgm_from_mmi": [{"name": "pgv", "value": 3.8837, "units": "cm/s", "ln_sigma": 0.875, "flag": "0"}, {"name": "sa(1.0)", "value": 5.5386, "units": "%g", "ln_sigma": 1.0822, "flag": "0"}, {"name": "pga", "value": 3.2624, "units": "%g", "ln_sigma": 0.8059, "flag": "0"}, {"name": "sa(3.0)", "value": 1.2501, "units": "%g", "ln_sigma": 1.4737, "flag": "0"}, {"name": "sa(0.3)", "value": 5.2081, "units": "%g", "ln_sigma": 1.0131, "flag": "0"}], "distance_stddev": 10.42, "distances": {"repi": 226.359, "rhypo": 227.426, "rjb": 216.649, "rjb_var": 77.793, "rrup": 217.851, "rrup_var": 108.572, "rx": 0.0, "ry0": 0.0, "rvolc": 0.0}}, "geometry": {"type": "Point", "coordinates": [16.8644, 41.1267]}}, {"type": "Feature", "id": "DYFI.UTM:(33T 0662 4518 1000)", "properties": {"code": "UTM:(33T 0662 4518 1000)", "name": null, "instrumentType": "OBSERVED", "source": "DYFI", "network": "DYFI", "commType": "UNK", "location": "", "intensity": 2.6, "intensity_flag": "0", "intensity_stddev": 0.3, "pga": "null", "pgv": "null", "distance": 222.987, "elev": null, "vs30": 269.7, "channels": [], "nresp": 3, "station_type": "macroseismic", "predictions": [{"name": "mmi", "value": 3.6073, "value_rock": 3.1446, "value_soil": 3.7889, "units": "intensity", "tau": 0.2498, "phi": 0.7389, "sigma": 0.7799, "sigma_rock": 0.7821, "sigma_soil": 0.7806, "bias": 0.395, "bias_sigma": 0.1727}, {"name": "sa(0.3)", "value": 2.1859, "value_rock": 1.0255, "value_soil": 2.8456, "units": "%g", "ln_tau": 0.3829, "ln_phi": 0.6648, "ln_sigma": 0.7672, "ln_sigma_rock": 0.7671, "ln_sigma_so