{"type": "FeatureCollection", "features": [{"type": "Feature", "id": "INII_UCR.ACLS", "properties": {"code": "ACLS", "name": "ACLS", "instrumentType": "UNK", "source": "INII_UCR", "network": "INII_UCR", "commType": "UNK", "location": "", "intensity": 5.1, "intensity_flag": "", "intensity_stddev": 0.63, "pga": 6.128, "pgv": 6.767, "distance": 124.024, "elev": null, "vs30": 235.83, "channels": [{"name": "HNN", "amplitudes": [{"name": "pgv", "value": 6.767, "units": "cm/s", "flag": "0", "ln_sigma": 0.0}, {"name": "pga", "value": 6.128, "units": "%g", "flag": "0", "ln_sigma": 0.0}]}], "station_type": "seismic", "nresp": "null", "predictions": [{"name": "pgv", "value": 9.1012, "value_rock": 4.3826, "value_soil": 10.8454, "units": "cm/s", "ln_tau": 0.4133, "ln_phi": 0.8015, "ln_sigma": 0.9018, "ln_sigma_rock": 0.9119, "ln_sigma_soil": 0.9105, "ln_bias": 0.1718, "ln_bias_sigma": 0.1903}, {"name": "pga", "value": 7.6862, "value_rock": 6.413, "value_soil": 8.6537, "units": "%g", "ln_tau": 0.3677, "ln_phi": 0.5576, "ln_sigma": 0.6679, "ln_sigma_rock": 0.6767, "ln_sigma_soil": 0.6757, "ln_bias": -0.0268, "ln_bias_sigma": 0.1357}, {"name": "mmi", "value": 5.3307, "value_rock": 5.0397, "value_soil": 5.5212, "units": "intensity", "tau": 0.5909, "phi": 1.1128, "sigma": 1.2599, "sigma_rock": 1.272, "sigma_soil": 1.2706, "bias": -0.0678, "bias_sigma": 0.2646}], "mmi_from_pgm": [{"name": "pgv", "value": 5.1, "sigma": 0.63, "flag": "0"}, {"name": "pga", "value": 4.97, "sigma": 0.66, "flag": "0"}], "distance_stddev": 0.0, "distances": {"repi": 123.821, "rhypo": 128.673, "rjb": 117.076, "rjb_var": 0.0, "rrup": 124.024, "rrup_var": 0.0, "rx": 141.323, "ry0": 0.0, "rvolc": 0.0}}, "geometry": {"type": "Point", "coordinates": [-84.7176, 11.0311]}}, {"type": "Feature", "id": "INII_UCR.PSVT", "properties": {"code": "PSVT", "name": "PSVT", "instrumentType": "UNK", "source": "INII_UCR", "network": "INII_UCR", "commType": "UNK", "location": "", "intensity": 4.7, "intensity_flag": "", "intensity_stddev": 0.63, "pga": 1.798, "pgv": 5.029, "distance": 274.651, "elev": null, "vs30": 581.74, "channels": [{"name": "HNN", "amplitudes": [{"name": "pgv", "value": 5.029, "units": "cm/s", "flag": "0", "ln_sigma": 0.0}, {"name": "pga", "value": 1.798, "units": "%g", "flag": "0", "ln_sigma": 0.0}]}], "station_type": "seismic", "nresp": "null", "predictions": [{"name": "pgv", "value": 1.7613, "value_rock": 1.397, "value_soil": 3.5302, "units": "cm/s", "ln_tau": 0.4135, "ln_phi": 0.8017, "ln_sigma": 0.902, "ln_sigma_rock": 0.9119, "ln_sigma_soil": 0.9107, "ln_bias": 0.1718, "ln_bias_sigma": 0.1903}, {"name": "pga", "value": 2.2786, "value_rock": 1.927, "value_soil": 2.7085, "units": "%g", "ln_tau": 0.3683, "ln_phi": 0.558, "ln_sigma": 0.6686, "ln_sigma_rock": 0.6767, "ln_sigma_soil": 0.6764, "ln_bias": -0.0268, "ln_bias_sigma": 0.1358}, {"name": "mmi", "value": 4.208, "value_rock": 4.0952, "value_soil": 4.3244, "units": "intensity", "tau": 0.2479, "phi": 0.7594, "sigma": 0.7989, "sigma_rock": 0.8019, "sigma_soil": 0.8018, "bias": -0.035, "bias_sigma": 0.1901}], "mmi_from_pgm": [{"name": "pgv", "value": 4.69, "sigma": 0.63, "flag": "0"}, {"name": "pga", "value": 4.05, "sigma": 0.66, "flag": "0"}], "distance_stddev": 0.0, "distances": {"repi": 293.362, "rhypo": 295.442, "rjb": 273.464, "rjb_var": 0.0, "rrup": 274.651, "rrup_var": 0.0, "rx": 14.253, "ry0": 273.434, "rvolc": 0.0}}, "geometry": {"type": "Point", "coordinates": [-82.967, 8.82155]}}, {"type": "Feature", "id": "INII_UCR.ASCS", "properties": {"code": "ASCS", "name": "ASCS", "instrumentType": "UNK", "source": "INII_UCR", "network": "INII_UCR", "commType": "UNK", "location": "", "intensity": 5.7, "intensity_flag": "", "intensity_stddev": 0.63, "pga": 7.84, "pgv": 10.628, "distance": 92.181, "elev": null, "vs30": 603.12, "channels": [{"name": "HNN", "amplitudes": [{"name": "pgv", "value": 10.628, "units": "cm/s", "flag": "0", "ln_sigma": 0.0}, {"name": "pga", "value": 7.84, "units": "%g", "flag": "0", "ln_sigma": 0.0}]}], "station_type": "seismic", "nresp": "null", "predictions": [{"name": "pgv", "value": 6.6988, "value_rock": 6.1922, "value_soil": 15.1188, "units": "cm/s", "ln_tau": 0.4135, "ln_phi": 0.8017, "ln_sigma": 0.902, "ln_sigma_rock": 0.9119, "ln_sigma_soil": 0.9104, "ln_bias": 0.1718, "ln_bias_sigma": 0.1903}, {"name": "pga", "value": 9.7747, "value_rock": 9.4531, "value_soil": 12.4388, "units": "%g", "ln_tau": 0.3682, "ln_phi": 0.558, "ln_sigma": 0.6685, "ln_sigma_rock": 0.6767, "ln_sigma_soil": 0.6754, "ln_bias": -0.0268, "ln_bias_sigma": 0.1358}, {"name": "mmi", "value": 5.5855, "value_rock": 5.5317, "value_soil": 5.9728, "units": "intensity", "tau": 0.5917, "phi": 1.1134, "sigma": 1.2608, "sigma_rock": 1.272, "sigma_soil": 1.2702, "bias": -0.0679, "bias_sigma": 0.2647}], "mmi_from_pgm": [{"name": "pgv", "value": 5.72, "sigma": 0.63, "flag": "0"}, {"name": "pga", "value": 5.23, "sigma": 0.66, "flag": "0"}], "distance_stddev": 0.0, "distances": {"repi": 100.278, "rhypo": 106.211, "rjb": 82.328, "rjb_var": 0.0, "rrup": 92.181, "rrup_var": 0.0, "rx": 86.428, "ry0": 53.248, "rvolc": 0.0}}, "geometry": {"type": "Point", "coordinates": [-84.4315, 10.3242]}}, {"type": "Feature", "id": "INII_UCR.SFRA", "properties": {"code": "SFRA", "name": "SFRA", "instrumentType": "UNK", "source": "INII_UCR", "network": "INII_UCR", "commType": "UNK", "location": "", "intensity": 4.6, "intensity_flag": "", "intensity_stddev": 0.63, "pga": 6.123, "pgv": 4.75, "distance": 128.959, "elev": null, "vs30": 542.42, "channels": [{"name": "HNN", "amplitudes": [{"name": "pgv", "value": 4.75, "units": "cm/s", "flag": "0", "ln_sigma": 0.0}, {"name": "pga", "value": 6.123, "units": "%g", "flag": "0", "ln_sigma": 0.0}]}], "station_type": "seismic", "nresp": "null", "predictions": [{"name": "pgv", "value": 5.3914, "value_rock": 4.176, "value_soil": 10.3496, "units": "cm/s", "ln_tau": 0.4135, "ln_phi": 0.8017, "ln_sigma": 0.902, "ln_sigma_rock": 0.9119, "ln_sigma_soil": 0.9105, "ln_bias": 0.1718, "ln_bias_sigma": 0.1903}, {"name": "pga", "value": 7.2392, "value_rock": 6.0794, "value_soil": 8.2271, "units": "%g", "ln_tau": 0.3682, "ln_phi": 0.558, "ln_sigma": 0.6685, "ln_sigma_rock": 0.6767, "ln_sigma_soil": 0.6757, "ln_bias": -0.0268, "ln_bias_sigma": 0.1358}, {"name": "mmi", "value": 5.2517, "value_rock": 4.9711, "value_soil": 5.4573, "units": "intensity", "tau": 0.5917, "phi": 1.1133, "sigma": 1.2608, "sigma_rock": 1.272, "sigma_soil": 1.2706, "bias": -0.0678, "bias_sigma": 0.2647}], "mmi_from_pgm": [{"name": "pgv", "value": 4.61, "sigma": 0.63, "flag": "0"}, {"name": "pga", "value": 4.98, "sigma": 0.66, "flag": "0"}], "distance_stddev": 0.0, "distances": {"repi": 142.806, "rhypo": 147.033, "rjb": 122.332, "rjb_var": 0.0, "rrup": 128.959, "rrup_var": 0.0, "rx": 49.331, "ry0": 119.401, "rvolc": 0.0}}, "geometry": {"type": "Point", "coordinates": [-84.0561, 9.75095]}}, {"type": "Feature", "id": "INII_UCR.AALA", "properties": {"code": "AALA", "name": "AALA", "instrumentType": "UNK", "source": "INII_UCR", "network": "INII_UCR", "commType": "UNK", "location": "", "intensity": 5.8, "intensity_flag": "", "intensity_stddev": 0.63, "pga": 14.036, "pgv": 11.062, "distance": 108.72, "elev": null, "vs30": 426.74, "channels": [{"name": "HNN", "amplitudes": [{"name": "pgv", "value": 11.062, "units": "cm/s", "flag": "0", "ln_sigma": 0.0}, {"name": "pga", "value": 14.036, "units": "%g", "flag": "0", "ln_sigma": 0.0}]}], "station_type": "seismic", "nresp": "null", "predictions": [{"name": "pgv", "value": 7.1891, "value_rock": 5.1328, "value_soil": 12.6322, "units": "cm/s", "ln_tau": 0.4135, "ln_phi": 0.8017, "ln_sigma": 0.902, "ln_sigma_rock": 0.9119, "ln_sigma_soil": 0.9105, "ln_bias": 0.1718, "ln_bias_sigma": 0.1903}, {"name": "pga", "value": 9.3993, "value_rock": 7.6484, "value_soil": 10.2138, "units": "%g", "ln_tau": 0.3681, "ln_phi": 0.5579, "ln_sigma": 0.6684, "ln_sigma_rock": 0.6767, "ln_sigma_soil": 0.6755, "ln_bias": -0.0268, "ln_bias_sigma": 0.1358}, {"name": "mmi", "value": 5.5957, "value_rock": 5.2644, "value_soil": 5.7292, "units": "intensity", "tau": 0.5915, "phi": 1.1132, "sigma": 1.2606, "sigma_rock": 1.272, "sigma_soil": 1.2704, "bias": -0.0678, "bias_sigma": 0.2647}], "mmi_from_pgm": [{"name": "pgv", "value": 5.77, "sigma": 0.63, "flag": "0"}, {"name": "pga", "value": 6.24, "sigma": 0.66, "flag": "0"}], "distance_stddev": 0.0, "distances": {"repi": 120.922, "rhypo": 125.886, "rjb": 100.612, "rjb_var": 0.0, "rrup": 108.72, "rrup_var": 0.0, "rx": 67.03, "ry0": 90.57, "rvolc": 0.0}}, "geometry": {"type": "Point", "coordinates": [-84.213, 10.013]}}, {"type": "Feature", "id": "INII_UCR.LBTN", "properties": {"code": "LBTN", "name": "LBTN", "instrumentType": "UNK", "source": "INII_UCR", "network": "INII_UCR", "commType": "UNK", "location": "", "intensity": 5.9, "intensity_flag": "", "intensity_stddev": 0.63, "pga": 4.212, "pgv": 12.418, "distance": 199.447, "elev": null, "vs30": 239.48, "channels": [{"name": "HNN", "amplitudes": [{"name": "pgv", "value": 12.418, "units": "cm/s", "flag": "0", "ln_sigma": 0.0}, {"name": "pga", "value": 4.212, "units": "%g", "flag": "0", "ln_sigma": 0.0}]}], "station_type": "seismic", "nresp": "null", "predictions": [{"name": "pgv", "value": 4.8212, "value_rock": 2.3141, "value_soil": 5.811, "units": "cm/s", "ln_tau": 0.4133, "ln_phi": 0.8016, "ln_sigma": 0.9019, "ln_sigma_rock": 0.9119, "ln_sigma_soil": 0.9106, "ln_bias": 0.1718, "ln_bias_sigma": 0.1903}, {"name": "pga", "value": 3.9287, "value_rock": 3.222, "value_soil": 4.473, "units": "%g", "ln_tau": 0.368, "ln_phi": 0.5578, "ln_sigma": 0.6682, "ln_sigma_rock": 0.6767, "ln_sigma_soil": 0.6761, "ln_bias": -0.0268, "ln_bias_sigma": 0.1358}, {"name": "mmi", "value": 4.4627, "value_rock": 4.2995, "value_soil": 4.6712, "units": "intensity", "tau": 0.5913, "phi": 1.1131, "sigma": 1.2604, "sigma_rock": 0.8019, "sigma_soil": 1.2712, "bias": -0.0678, "bias_sigma": 0.2647}], "mmi_from_pgm": [{"name": "pgv", "value": 5.93, "sigma": 0.63, "flag": "0"}, {"name": "pga", "value": 4.57, "sigma": 0.66, "flag": "0"}], "distance_stddev": 0.0, "distances": {"repi": 215.592, "rhypo": 218.415, "rjb": 195.619, "rjb_var": 0.0, "rrup": 199.447, "rrup_var": 0.0, "rx": 118.64, "ry0": 170.675, "rvolc": 0.0}}, "geometry": {"type": "Point", "coordinates": [-83.3457, 10.0849]}}, {"type": "Feature", "id": "INII_UCR.PCNH", "properties": {"code": "PCNH", "name": "PCNH", "instrumentType": "UNK", "source": "INII_UCR", "network": "INII_UCR", "commType": "UNK", "location": "", "intensity": 4.9, "intensity_flag": "", "intensity_stddev": 0.63, "pga": 1.598, "pgv": 6.044, "distance": 286.877, "elev": null, "vs30": 577.82, "channels": [{"name": "HNN", "amplitudes": [{"name": "pgv", "value": 6.044, "units": "cm/s", "flag": "0", "ln_sigma": 0.0}, {"name": "pga", "value": 1.598, "units": "%g", "flag": "0", "ln_sigma": 0.0}]}], "station_type": "seismic", "nresp": "null", "predictions": [{"name": "pgv", "value": 1.6386, "value_rock": 1.2968, "value_soil": 3.279, "units": "cm/s", "ln_tau": 0.4135, "ln_phi": 0.8017, "ln_sigma": 0.902, "ln_sigma_rock": 0.9119, "ln_sigma_soil": 0.9107, "ln_bias": 0.1718, "ln_bias_sigma": 0.1903}, {"name": "pga", "value": 2.1196, "value_rock": 1.7904, "value_soil": 2.5198, "units": "%g", "ln_tau": 0.3683, "ln_phi": 0.558, "ln_sigma": 0.6686, "ln_sigma_rock": 0.6767, "ln_sigma_soil": 0.6764, "ln_bias": -0.0268, "ln_bias_sigma": 0.1358}, {"name": "mmi", "value": 4.1786, "value_rock": 4.065, "value_soil": 4.295, "units": "intensity", "tau": 0.2479, "phi": 0.7594, "sigma": 0.7989, "sigma_rock": 0.8019, "sigma_soil": 0.8018, "bias": -0.035, "bias_sigma": 0.1901}], "mmi_from_pgm": [{"name": "pgv", "value": 4.94, "sigma": 0.63, "flag": "0"}, {"name": "pga", "value": 3.99, "sigma": 0.66, "flag": "0"}], "distance_stddev": 0.0, "distances": {"repi": 306.8, "rhypo": 308.79, "rjb": 286.137, "rjb_var": 0.0, "rrup": 286.877, "rrup_var": 0.0, "rx": -2.791, "ry0": 286.196, "rvolc": 0.0}}, "geometry": {"type": "Point", "coordinates": [-82.9376, 8.63224]}}, {"type": "Feature", "id": "INII_UCR.PPTG", "properties": {"code": "PPTG", "name": "PPTG", "instrumentType": "UNK", "source": "INII_UCR", "network": "INII_UCR", "commType": "UNK", "location": "", "intensity": 5.1, "intensity_flag": "", "intensity_stddev": 0.63, "pga": 2.643, "pgv": 6.603, "distance": 245.254, "elev": null, "vs30": 436.46, "channels": [{"name": "HNN", "amplitudes": [{"name": "pgv", "value": 6.603, "units": "cm/s", "flag": "0", "ln_sigma": 0.0}, {"name": "pga", "value": 2.643, "units": "%g", "flag": "0", "ln_sigma": 0.0}]}], "station_type": "seismic", "nresp": "null", "predictions": [{"name": "pgv", "value": 2.3406, "value_rock": 1.6838, "value_soil": 4.2466, "units": "cm/s", "ln_tau": 0.4135, "ln_phi": 0.8017, "ln_sigma": 0.902, "ln_sigma_rock": 0.9119, "ln_sigma_soil": 0.9107, "ln_bias": 0.1718, "ln_bias_sigma": 0.1903}, {"name": "pga", "value": 2.8765, "value_rock": 2.3232, "value_soil": 3.2528, "units": "%g", "ln_tau": 0.3682, "ln_phi": 0.558, "ln_sigma": 0.6686, "ln_sigma_rock": 0.6767, "ln_sigma_soil": 0.6763, "ln_bias": -0.0268, "ln_bias_sigma": 0.1358}, {"name": "mmi", "value": 4.3147, "value_rock": 4.1709, "value_soil": 4.3975, "units": "intensity", "tau": 0.2479, "phi": 0.7594, "sigma": 0.7988, "sigma_rock": 0.8019, "sigma_soil": 0.8018, "bias": -0.035, "bias_sigma": 0.19}], "mmi_from_pgm": [{"name": "pgv", "value": 5.07, "sigma": 0.63, "flag": "0"}, {"name": "pga", "value": 4.26, "sigma": 0.66, "flag": "0"}], "distance_stddev": 0.0, "distances": {"repi": 263.116, "rhypo": 265.434, "rjb": 243.258, "rjb_var": 0.0, "rrup": 245.254, "rrup_var": 0.0, "rx": 22.791, "ry0": 243.173, "rvolc": 0.0}}, "geometry": {"type": "Point", "coordinates": [-83.1735, 9.01749]}}, {"type": "Feature", "id": "INII_UCR.PLRL", "properties": {"code": "PLRL", "name": "PLRL", "instrumentType": "UNK", "source": "INII_UCR", "network": "INII_UCR", "commType": "UNK", "location": "", "intensity": 5.2, "intensity_flag": "", "intensity_stddev": 0.63, "pga": 2.127, "pgv": 7.163, "distance": 296.153, "elev": null, "vs30": 235.74, "channels": [{"name": "HNN", "amplitudes": [{"name": "pgv", "value": 7.163, "units": "cm/s", "flag": "0", "ln_sigma": 0.0}, {"name": "pga", "value": 2.127, "units": "%g", "flag": "0", "ln_sigma": 0.0}]}], "station_type": "seismic", "nresp": "null", "predictions": [{"name": "pgv", "value": 2.5794, "value_rock": 1.2269, "value_soil": 3.1037, "units": "cm/s", "ln_tau": 0.4134, "ln_phi": 0.8016, "ln_sigma": 0.9019, "ln_sigma_rock": 0.9119, "ln_sigma_soil": 0.9107, "ln_bias": 0.1718, "ln_bias_sigma": 0.1903}, {"name": "pga", "value": 2.0927, "value_rock": 1.6957, "value_soil": 2.3888, "units": "%g", "ln_tau": 0.3682, "ln_phi": 0.5579, "ln_sigma": 0.6684, "ln_sigma_rock": 0.6767, "ln_sigma_soil": 0.6764, "ln_bias": -0.0268, "ln_bias_sigma": 0.1358}, {"name": "mmi", "value": 4.1841, "value_rock": 4.0425, "value_soil": 4.2732, "units": "intensity", "tau": 0.2478, "phi": 0.7594, "sigma": 0.7988, "sigma_rock": 0.8019, "sigma_soil": 0.8018, "bias": -0.035, "bias_sigma": 0.19}], "mmi_from_pgm": [{"name": "pgv", "value": 5.18, "sigma": 0.63, "flag": "0"}, {"name": "pga", "value": 4.2, "sigma": 0.66, "flag": "0"}], "distance_stddev": 0.0, "distances": {"repi": 317.344, "rhypo": 319.268, "rjb": 295.477, "rjb_var": 0.0, "rrup": 296.153, "rrup_var": 0.0, "rx": -23.395, "ry0": 294.739, "rvolc": 0.0}}, "geometry": {"type": "Point", "coordinates": [-82.9573, 8.43256]}}, {"type": "Feature", "id": "INII_UCR.LSQR", "properties": {"code": "LSQR", "name": "LSQR", "instrumentType": "UNK", "source": "INII_UCR", "network": "INII_UCR", "commType": "UNK", "location": "", "intensity": 4.9, "intensity_flag": "", "intensity_stddev": 0.63, "pga": 1.855, "pgv": 5.86, "distance": 182.502, "elev": null, "vs30": 393.33, "channels": [{"name": "HNN", "amplitudes": [{"name": "pgv", "value": 5.86, "units": "cm/s", "flag": "0", "ln_sigma": 0.0}, {"name": "pga", "value": 1.855, "units": "%g", "flag": "0", "ln_sigma": 0.0}]}], "station_type": "seismic", "nresp": "null", "predictions": [{"name": "pgv", "value": 3.7877, "value_rock": 2.631, "value_soil": 6.5926, "units": "cm/s", "ln_tau": 0.4135, "ln_phi": 0.8017, "ln_sigma": 0.902, "ln_sigma_rock": 0.9119, "ln_sigma_soil": 0.9106, "ln_bias": 0.1718, "ln_bias_sigma": 0.1903}, {"name": "pga", "value": 4.6264, "value_rock": 3.6881, "value_soil": 5.0981, "units": "%g", "ln_tau": 0.3682, "ln_phi": 0.5579, "ln_sigma": 0.6685, "ln_sigma_rock": 0.6767, "ln_sigma_soil": 0.676, "ln_bias": -0.0268, "ln_bias_sigma": 0.1358}, {"name": "mmi", "value": 4.6861, "value_rock": 4.3511, "value_soil": 4.8421, "units": "intensity", "tau": 0.5916, "phi": 1.1133, "sigma": 1.2607, "sigma_rock": 0.8019, "sigma_soil": 1.2711, "bias": -0.0678, "bias_sigma": 0.2647}], "mmi_from_pgm": [{"name": "pgv", "value": 4.9, "sigma": 0.63, "flag": "0"}, {"name": "pga", "value": 3.89, "sigma": 0.66, "flag": "0"}], "distance_stddev": 0.0, "distances": {"repi": 198.153, "rhypo": 201.221, "rjb": 178.191, "rjb_var": 0.0, "rrup": 182.502, "rrup_var": 0.0, "rx": 111.532, "ry0": 154.704, "rvolc": 0.0}}, "geometry": {"type": "Point", "coordinates": [-83.505, 10.096]}}, {"type": "Feature", "id": "INII_UCR.RALT", "properties": {"code": "RALT", "name": "RALT", "instrumentType": "UNK", "source": "INII_UCR", "network": "INII_UCR", "commType": "UNK", "location": "", "intensity": 5.0, "intensity_flag": "", "intensity_stddev": 0.63, "pga": 5.511, "pgv": 6.27, "distance": 137.52, "elev": null, "vs30": 411.61, "channels": [{"name": "HNN", "amplitudes": [{"name": "pgv", "value": 6.27, "units": "cm/s", "flag": "0", "ln_sigma": 0.0}, {"name": "pga", "value": 5.511, "units": "%g", "flag": "0", "ln_sigma": 0.0}]}], "station_type": "seismic", "nresp": "null", "predictions": [{"name": "pgv", "value": 5.4601, "value_rock": 3.8509, "value_soil": 9.5663, "units": "cm/s", "ln_tau": 0.4135, "ln_phi": 0.8017, "ln_sigma": 0.902, "ln_sigma_rock": 0.9119, "ln_sigma_soil": 0.9105, "ln_bias": 0.1718, "ln_bias_sigma": 0.1903}, {"name": "pga", "value": 6.8987, "value_rock": 5.5608, "value_soil": 7.5592, "units": "%g", "ln_tau": 0.3681, "ln_phi": 0.5579, "ln_sigma": 0.6684, "ln_sigma_rock": 0.6767, "ln_sigma_soil": 0.6758, "ln_bias": -0.0268, "ln_bias_sigma": 0.1358}, {"name": "mmi", "value": 5.2027, "value_rock": 4.8563, "value_soil": 5.3497, "units": "intensity", "tau": 0.5916, "phi": 1.1132, "sigma": 1.2607, "sigma_rock": 1.272, "sigma_soil": 1.2707, "bias": -0.0678, "bias_sigma": 0.2647}], "mmi_from_pgm": [{"name": "pgv", "value": 5.0, "sigma": 0.63, "flag": "0"}, {"name": "pga", "value": 4.84, "sigma": 0.66, "flag": "0"}], "distance_stddev": 0.0, "distances": {"repi": 151.83, "rhypo": 155.811, "rjb": 131.383, "rjb_var": 0.0, "rrup": 137.52, "rrup_var": 0.0, "rx": 69.579, "ry0": 122.848, "rvolc": 0.0}}, "geometry": {"type": "Point", "coordinates": [-83.9417, 9.89729]}}, {"type": "Feature", "id": "INII_UCR.AUPA", "properties": {"code": "AUPA", "name": "AUPA", "instrumentType": "UNK", "source": "INII_UCR", "network": "INII_UCR", "commType": "UNK", "location": "", "intensity": 6.1, "intensity_flag": "", "intensity_stddev": 0.63, "pga": 8.407, "pgv": 14.413, "distance": 98.345, "elev": null, "vs30": 262.3, "channels": [{"name": "HNN", "amplitudes": [{"name": "pgv", "value": 14.413, "units": "cm/s", "flag": "0", "ln_sigma": 0.0}, {"name": "pga", "value": 8.407, "units": "%g", "flag": "0", "ln_sigma": 0.0}]}], "station_type": "seismic", "nresp": "null", "predictions": [{"name": "pgv", "value": 11.5391, "value_rock": 5.7606, "value_soil": 14.1109, "units": "cm/s", "ln_tau": 0.4133, "ln_phi": 0.8015, "ln_sigma": 0.9018, "ln_sigma_rock": 0.9119, "ln_sigma_soil": 0.9105, "ln_bias": 0.1718, "ln_bias_sigma": 0.1903}, {"name": "pga", "value": 10.1984, "value_rock": 8.7097, "value_soil": 11.5299, "units": "%g", "ln_tau": 0.3677, "ln_phi": 0.5575, "ln_sigma": 0.6679, "ln_sigma_rock": 0.6767, "ln_sigma_soil": 0.6754, "ln_bias": -0.0268, "ln_bias_sigma": 0.1357}, {"name": "mmi", "value": 5.6823, "value_ro