{
   "type":"FeatureCollection",
   "features":[
      {
         "type":"Feature",
         "id":"G.OCLL",
         "properties":{
            "code":"OCLL",
            "name":"Ocotillo, Mexico",
            "instrumentType":"UNK",
            "source":"G",
            "network":"G",
            "commType":"UNK",
            "location":"",
            "intensity":3.6,
            "intensity_flag":"",
            "intensity_stddev":0.66,
            "pga":0.9388,
            "pgv":"null",
            "distance":259.378,
            "elev":null,
            "vs30":541.17,
            "channels":[
               {
                  "name":"N",
                  "amplitudes":[
                     {
                        "name":"pga",
                        "value":0.6837,
                        "units":"%g",
                        "flag":"0",
                        "ln_sigma":0.0
                     }
                  ]
               },
               {
                  "name":"E",
                  "amplitudes":[
                     {
                        "name":"pga",
                        "value":0.9388,
                        "units":"%g",
                        "flag":"0",
                        "ln_sigma":0.0
                     }
                  ]
               },
               {
                  "name":"Z",
                  "amplitudes":[
                     {
                        "name":"pga",
                        "value":1.1837,
                        "units":"%g",
                        "flag":"0",
                        "ln_sigma":0.0
                     }
                  ]
               }
            ],
            "station_type":"seismic",
            "nresp":"null",
            "predictions":[
               {
                  "name":"pga",
                  "value":2.448,
                  "value_rock":2.1591,
                  "value_soil":2.9596,
                  "units":"%g",
                  "ln_tau":0.3878,
                  "ln_phi":0.571,
                  "ln_sigma":0.6902,
                  "ln_sigma_rock":0.6948,
                  "ln_sigma_soil":0.6919,
                  "ln_bias":0.0,
                  "ln_bias_sigma":0.3878
               },
               {
                  "name":"mmi",
                  "value":4.231,
                  "value_rock":4.1464,
                  "value_soil":4.3587,
                  "units":"intensity",
                  "tau":0.261,
                  "phi":0.7638,
                  "sigma":0.8071,
                  "sigma_rock":0.8089,
                  "sigma_soil":0.8078,
                  "bias":0.0,
                  "bias_sigma":0.261
               }
            ],
            "mmi_from_pgm":[
               {
                  "name":"pga",
                  "value":3.59,
                  "sigma":0.66,
                  "flag":"0"
               }
            ],
            "distance_stddev":0.0,
            "distances":{
               "repi":332.57,
               "rhypo":338.046,
               "rjb":258.599,
               "rjb_var":0.0,
               "rrup":259.378,
               "rrup_var":0.0,
               "rx":-9.93,
               "ry0":258.564,
               "rvolc":0.0
            }
         },
         "geometry":{
            "type":"Point",
            "coordinates":[
               -99.88,
               17.036
            ]
         }
      },
      {
         "type":"Feature",
         "id":"G.TEAC",
         "properties":{
            "code":"TEAC",
            "name":"Teacalco, Mexico",
            "instrumentType":"UNK",
            "source":"G",
            "network":"G",
            "commType":"UNK",
            "location":"",
            "intensity":3.5,
            "intensity_flag":"",
            "intensity_stddev":0.66,
            "pga":0.7959,
            "pgv":"null",
            "distance":323.812,
            "elev":null,
            "vs30":442.72,
            "channels":[
               {
                  "name":"N",
                  "amplitudes":[
                     {
                        "name":"pga",
                        "value":0.602,
                        "units":"%g",
                        "flag":"0",
                        "ln_sigma":0.0
                     }
                  ]
               },
               {
                  "name":"E",
                  "amplitudes":[
                     {
                        "name":"pga",
                        "value":0.7959,
                        "units":"%g",
                        "flag":"0",
                        "ln_sigma":0.0
                     }
                  ]
               },
               {
                  "name":"Z",
                  "amplitudes":[
                     {
                        "name":"pga",
                        "value":0.8469,
                        "units":"%g",
                        "flag":"0",
                        "ln_sigma":0.0
                     }
                  ]
               }
            ],
            "station_type":"seismic",
            "nresp":"null",
            "predictions":[
               {
                  "name":"pga",
                  "value":1.5272,
                  "value_rock":1.2988,
                  "value_soil":1.795,
                  "units":"%g",
                  "ln_tau":0.3878,
                  "ln_phi":0.571,
                  "ln_sigma":0.6902,
                  "ln_sigma_rock":0.6948,
                  "ln_sigma_soil":0.6931,
                  "ln_bias":0.0,
                  "ln_bias_sigma":0.3878
               },
               {
                  "name":"mmi",
                  "value":3.9778,
                  "value_rock":3.8688,
                  "value_soil":4.0865,
                  "units":"intensity",
                  "tau":0.261,
                  "phi":0.7638,
                  "sigma":0.8071,
                  "sigma_rock":0.8089,
                  "sigma_soil":0.8082,
                  "bias":0.0,
                  "bias_sigma":0.261
               }
            ],
            "mmi_from_pgm":[
               {
                  "name":"pga",
                  "value":3.54,
                  "sigma":0.66,
                  "flag":"0"
               }
            ],
            "distance_stddev":0.0,
            "distances":{
               "repi":390.331,
               "rhypo":395.007,
               "rjb":321.061,
               "rjb_var":0.0,
               "rrup":323.812,
               "rrup_var":0.0,
               "rx":168.474,
               "ry0":290.171,
               "rvolc":0.0
            }
         },
         "geometry":{
            "type":"Point",
            "coordinates":[
               -99.453,
               18.614
            ]
         }
      },
      {
         "type":"Feature",
         "id":"G.POZU",
         "properties":{
            "code":"POZU",
            "name":"Pozuelo, Mexico",
            "instrumentType":"UNK",
            "source":"G",
            "network":"G",
            "commType":"UNK",
            "location":"",
            "intensity":4.2,
            "intensity_flag":"",
            "intensity_stddev":0.66,
            "pga":2.551,
            "pgv":"null",
            "distance":237.2,
            "elev":null,
            "vs30":432.91,
            "channels":[
               {
                  "name":"N",
                  "amplitudes":[
                     {
                        "name":"pga",
                        "value":1.2551,
                        "units":"%g",
                        "flag":"0",
                        "ln_sigma":0.0
                     }
                  ]
               },
               {
                  "name":"E",
                  "amplitudes":[
                     {
                        "name":"pga",
                        "value":2.551,
                        "units":"%g",
                        "flag":"0",
                        "ln_sigma":0.0
                     }
                  ]
               },
               {
                  "name":"Z",
                  "amplitudes":[
                     {
                        "name":"pga",
                        "value":2.3061,
                        "units":"%g",
                        "flag":"0",
                        "ln_sigma":0.0
                     }
                  ]
               }
            ],
            "station_type":"seismic",
            "nresp":"null",
            "predictions":[
               {
                  "name":"pga",
                  "value":3.0936,
                  "value_rock":2.6272,
                  "value_soil":3.5857,
                  "units":"%g",
                  "ln_tau":0.3875,
                  "ln_phi":0.5708,
                  "ln_sigma":0.6899,
                  "ln_sigma_rock":0.6948,
                  "ln_sigma_soil":0.6913,
                  "ln_bias":0.0,
                  "ln_bias_sigma":0.3875
               },
               {
                  "name":"mmi",
                  "value":4.3489,
                  "value_rock":4.2389,
                  "value_soil":4.4483,
                  "units":"intensity",
                  "tau":0.2608,
                  "phi":0.7637,
                  "sigma":0.807,
                  "sigma_rock":0.8089,
                  "sigma_soil":0.8076,
                  "bias":0.0,
                  "bias_sigma":0.2608
               }
            ],
            "mmi_from_pgm":[
               {
                  "name":"pga",
                  "value":4.22,
                  "sigma":0.66,
                  "flag":"0"
               }
            ],
            "distance_stddev":0.0,
            "distances":{
               "repi":309.061,
               "rhypo":314.946,
               "rjb":236.215,
               "rjb_var":0.0,
               "rrup":237.2,
               "rrup_var":0.0,
               "rx":7.995,
               "ry0":236.36,
               "rvolc":0.0
            }
         },
         "geometry":{
            "type":"Point",
            "coordinates":[
               -99.62,
               17.1
            ]
         }
      },
      {
         "type":"Feature",
         "id":"G.COPL",
         "properties":{
            "code":"COPL",
            "name":"Copala, Mexico",
            "instrumentType":"UNK",
            "source":"G",
            "network":"G",
            "commType":"UNK",
            "location":"",
            "intensity":4.2,
            "intensity_flag":"",
            "intensity_stddev":0.66,
            "pga":3.0714,
            "pgv":"null",
            "distance":154.054,
            "elev":null,
            "vs30":283.49,
            "channels":[
               {
                  "name":"N",
                  "amplitudes":[
                     {
                        "name":"pga",
                        "value":1.5918,
                        "units":"%g",
                        "flag":"0",
                        "ln_sigma":0.0
                     }
                  ]
               },
               {
                  "name":"E",
                  "amplitudes":[
                     {
                        "name":"pga",
                        "value":3.0714,
                        "units":"%g",
                        "flag":"0",
                        "ln_sigma":0.0
                     }
                  ]
               },
               {
                  "name":"Z",
                  "amplitudes":[
                     {
                        "name":"pga",
                        "value":2.4082,
                        "units":"%g",
                        "flag":"0",
                        "ln_sigma":0.0
                     }
                  ]
               }
            ],
            "station_type":"seismic",
            "nresp":"null",
            "predictions":[
               {
                  "name":"pga",
                  "value":7.5735,
                  "value_rock":6.0303,
                  "value_soil":8.02,
                  "units":"%g",
                  "ln_tau":0.3852,
                  "ln_phi":0.569,
                  "ln_sigma":0.6871,
                  "ln_sigma_rock":0.6947,
                  "ln_sigma_soil":0.6879,
                  "ln_bias":0.0,
                  "ln_bias_sigma":0.3852
               },
               {
                  "name":"mmi",
                  "value":5.403,
                  "value_rock":5.0369,
                  "value_soil":5.495,
                  "units":"intensity",
                  "tau":0.619,
                  "phi":1.1276,
                  "sigma":1.2863,
                  "sigma_rock":1.2968,
                  "sigma_soil":1.2874,
                  "bias":0.0,
                  "bias_sigma":0.619
               }
            ],
            "mmi_from_pgm":[
               {
                  "name":"pga",
                  "value":4.15,
                  "sigma":0.66,
                  "flag":"0"
               }
            ],
            "distance_stddev":0.0,
            "distances":{
               "repi":227.062,
               "rhypo":235.01,
               "rjb":152.155,
               "rjb_var":0.0,
               "rrup":154.054,
               "rrup_var":0.0,
               "rx":-13.183,
               "ry0":151.751,
               "rvolc":0.0
            }
         },
         "geometry":{
            "type":"Point",
            "coordinates":[
               -98.98,
               16.61
            ]
         }
      },
      {
         "type":"Feature",
         "id":"G.VIGA",
         "properties":{
            "code":"VIGA",
            "name":"Las Vigas, Mexico",
            "instrumentType":"UNK",
            "source":"G",
            "network":"G",
            "commType":"UNK",
            "location":"",
            "intensity":4.9,
            "intensity_flag":"",
            "intensity_stddev":0.66,
            "pga":5.2959,
            "pgv":"null",
            "distance":184.35,
            "elev":null,
            "vs30":279.86,
            "channels":[
               {
                  "name":"N",
                  "amplitudes":[
                     {
                        "name":"pga",
                        "value":2.4592,
                        "units":"%g",
                        "flag":"0",
                        "ln_sigma":0.0
                     }
                  ]
               },
               {
                  "name":"E",
                  "amplitudes":[
                     {
                        "name":"pga",
                        "value":5.2959,
                        "units":"%g",
                        "flag":"0",
                        "ln_sigma":0.0
                     }
                  ]
               },
               {
                  "name":"Z",
                  "amplitudes":[
                     {
                        "name":"pga",
                        "value":6.9694,
                        "units":"%g",
                        "flag":"0",
                        "ln_sigma":0.0
                     }
                  ]
               }
            ],
            "station_type":"seismic",
            "nresp":"null",
            "predictions":[
               {
                  "name":"pga",
                  "value":5.5034,
                  "value_rock":4.3477,
                  "value_soil":5.8517,
                  "units":"%g",
                  "ln_tau":0.3858,
                  "ln_phi":0.5694,
                  "ln_sigma":0.6878,
                  "ln_sigma_rock":0.6947,
                  "ln_sigma_soil":0.6894,
                  "ln_bias":0.0,
                  "ln_bias_sigma":0.3858
               },
               {
                  "name":"mmi",
                  "value":4.9695,
                  "value_rock":4.5907,
                  "value_soil":5.0681,
                  "units":"intensity",
                  "tau":0.62,
                  "phi":1.1282,
                  "sigma":1.2873,
                  "sigma_rock":1.2969,
                  "sigma_soil":1.2896,
                  "bias":0.0,
                  "bias_sigma":0.62
               }
            ],
            "mmi_from_pgm":[
               {
                  "name":"pga",
                  "value":4.91,
                  "sigma":0.66,
                  "flag":"0"
               }
            ],
            "distance_stddev":0.0,
            "distances":{
               "repi":257.245,
               "rhypo":264.287,
               "rjb":182.881,
               "rjb_var":0.0,
               "rrup":184.35,
               "rrup_var":0.0,
               "rx":-9.34,
               "ry0":182.818,
               "rvolc":0.0
            }
         },
         "geometry":{
            "type":"Point",
            "coordinates":[
               -99.23,
               16.758
            ]
         }
      },
      {
         "type":"Feature",
         "id":"G.SLUI",
         "properties":{
            "code":"SLUI",
            "name":"San Luis, Mexico",
            "instrumentType":"UNK",
            "source":"G",
            "network":"G",
            "commType":"UNK",
            "location":"",
            "intensity":2.9,
            "intensity_flag":"",
            "intensity_stddev":0.66,
            "pga":0.3163,
            "pgv":"null",
            "distance":368.509,
            "elev":null,
            "vs30":374.88,
            "channels":[
               {
                  "name":"N",
                  "amplitudes":[
                     {
                        "name":"pga",
                        "value":0.3163,
                        "units":"%g",
                        "flag":"0",
                        "ln_sigma":0.0
                     }
                  ]
               },
               {
                  "name":"E",
                  "amplitudes":[
                     {
                        "name":"pga",
                        "value":0.2857,
                        "units":"%g",
                        "flag":"0",
                        "ln_sigma":0.0
                     }
                  ]
               },
               {
                  "name":"Z",
                  "amplitudes":[
                     {
                        "name":"pga",
                        "value":0.3265,
                        "units":"%g",
                        "flag":"0",
                        "ln_sigma":0.0
                     }
                  ]
               }
            ],
            "station_type":"seismic",
            "nresp":"null",
            "predictions":[
               {
                  "name":"pga",
                  "value":1.118,
                  "value_rock":0.9224,
                  "value_soil":1.2804,
                  "units":"%g",
                  "ln_tau":0.3877,
                  "ln_phi":0.571,
                  "ln_sigma":0.6902,
                  "ln_sigma_rock":0.6948,
                  "ln_sigma_soil":0.6936,
                  "ln_bias":0.0,
                  "ln_bias_sigma":0.3877
               },
               {
                  "name":"mmi",
                  "value":3.7679,
                  "value_rock":3.6384,
                  "value_soil":3.8591,
                  "units":"intensity",
                  "tau":0.261,
                  "phi":0.7638,
                  "sigma":0.8071,
                  "sigma_rock":0.8089,
                  "sigma_soil":0.8084,
                  "bias":0.0,
                  "bias_sigma":0.261
               }
            ],
            "mmi_from_pgm":[
               {
                  "name":"pga",
                  "value":2.92,
                  "sigma":0.66,
                  "flag":"0"
               }
            ],
            "distance_stddev":0.0,
            "distances":{
               "repi":442.757,
               "rhypo":446.885,
