{
   "type":"FeatureCollection",
   "features":[
      {
         "type":"Feature",
         "id":"BMDSF.INMD",
         "properties":{
            "code":"INMD",
            "name":"Presa Infiernillo, margen derecha",
            "instrumentType":"UNK",
            "source":"BMDSF",
            "network":"BMDSF",
            "commType":"UNK",
            "location":"",
            "intensity":5.7,
            "intensity_flag":"",
            "intensity_stddev":0.63,
            "pga":14.4898,
            "pgv":10.7,
            "distance":26.778,
            "elev":null,
            "vs30":536.64,
            "channels":[
               {
                  "name":"Z",
                  "amplitudes":[
                     {
                        "name":"pgv",
                        "value":10.8,
                        "units":"cm/s",
                        "flag":"0",
                        "ln_sigma":0.0
                     },
                     {
                        "name":"sa(3.0)",
                        "value":1.9944,
                        "units":"%g",
                        "flag":"0",
                        "ln_sigma":0.0
                     },
                     {
                        "name":"sa(1.0)",
                        "value":6.8614,
                        "units":"%g",
                        "flag":"0",
                        "ln_sigma":0.0
                     },
                     {
                        "name":"pga",
                        "value":8.4694,
                        "units":"%g",
                        "flag":"0",
                        "ln_sigma":0.0
                     },
                     {
                        "name":"sa(0.3)",
                        "value":19.998,
                        "units":"%g",
                        "flag":"0",
                        "ln_sigma":0.0
                     }
                  ]
               },
               {
                  "name":"N",
                  "amplitudes":[
                     {
                        "name":"pgv",
                        "value":7.53,
                        "units":"cm/s",
                        "flag":"0",
                        "ln_sigma":0.0
                     },
                     {
                        "name":"sa(3.0)",
                        "value":2.8957,
                        "units":"%g",
                        "flag":"0",
                        "ln_sigma":0.0
                     },
                     {
                        "name":"sa(1.0)",
                        "value":6.6315,
                        "units":"%g",
                        "flag":"0",
                        "ln_sigma":0.0
                     },
                     {
                        "name":"pga",
                        "value":14.4898,
                        "units":"%g",
                        "flag":"0",
                        "ln_sigma":0.0
                     },
                     {
                        "name":"sa(0.3)",
                        "value":18.0122,
                        "units":"%g",
                        "flag":"0",
                        "ln_sigma":0.0
                     }
                  ]
               },
               {
                  "name":"E",
                  "amplitudes":[
                     {
                        "name":"pgv",
                        "value":10.7,
                        "units":"cm/s",
                        "flag":"0",
                        "ln_sigma":0.0
                     },
                     {
                        "name":"sa(3.0)",
                        "value":2.304,
                        "units":"%g",
                        "flag":"0",
                        "ln_sigma":0.0
                     },
                     {
                        "name":"sa(1.0)",
                        "value":11.9724,
                        "units":"%g",
                        "flag":"0",
                        "ln_sigma":0.0
                     },
                     {
                        "name":"pga",
                        "value":10.1122,
                        "units":"%g",
                        "flag":"0",
                        "ln_sigma":0.0
                     },
                     {
                        "name":"sa(0.3)",
                        "value":23.8245,
                        "units":"%g",
                        "flag":"0",
                        "ln_sigma":0.0
                     }
                  ]
               }
            ],
            "station_type":"seismic",
            "nresp":"null",
            "predictions":[
               {
                  "name":"sa(3.0)",
                  "value":6.3442,
                  "value_rock":5.2988,
                  "value_soil":11.9291,
                  "units":"%g",
                  "ln_tau":0.4003,
                  "ln_phi":0.623,
                  "ln_sigma":0.7405,
                  "ln_sigma_rock":0.7577,
                  "ln_sigma_soil":0.7577,
                  "ln_bias":-0.5907,
                  "ln_bias_sigma":0.1995
               },
               {
                  "name":"sa(1.0)",
                  "value":35.4658,
                  "value_rock":27.3649,
                  "value_soil":56.8943,
                  "units":"%g",
                  "ln_tau":0.4151,
                  "ln_phi":0.6293,
                  "ln_sigma":0.7539,
                  "ln_sigma_rock":0.7643,
                  "ln_sigma_soil":0.7642,
                  "ln_bias":-0.7518,
                  "ln_bias_sigma":0.2011
               },
               {
                  "name":"pga",
                  "value":50.8322,
                  "value_rock":45.2859,
                  "value_soil":45.2052,
                  "units":"%g",
                  "ln_tau":0.371,
                  "ln_phi":0.5615,
                  "ln_sigma":0.673,
                  "ln_sigma_rock":0.6772,
                  "ln_sigma_soil":0.6781,
                  "ln_bias":-0.816,
                  "ln_bias_sigma":0.178
               },
               {
                  "name":"sa(0.3)",
                  "value":120.3629,
                  "value_rock":93.4696,
                  "value_soil":100.7487,
                  "units":"%g",
                  "ln_tau":0.373,
                  "ln_phi":0.6202,
                  "ln_sigma":0.7237,
                  "ln_sigma_rock":0.7295,
                  "ln_sigma_soil":0.7311,
                  "ln_bias":-0.9312,
                  "ln_bias_sigma":0.1917
               },
               {
                  "name":"pgv",
                  "value":33.7552,
                  "value_rock":26.0451,
                  "value_soil":54.1502,
                  "units":"cm/s",
                  "ln_tau":0.4151,
                  "ln_phi":0.8064,
                  "ln_sigma":0.907,
                  "ln_sigma_rock":0.9187,
                  "ln_sigma_soil":0.9186,
                  "ln_bias":-0.5275,
                  "ln_bias_sigma":0.2403
               },
               {
                  "name":"mmi",
                  "value":7.6872,
                  "value_rock":7.5016,
                  "value_soil":7.4987,
                  "units":"intensity",
                  "tau":0.5961,
                  "phi":1.1178,
                  "sigma":1.2669,
                  "sigma_rock":1.2726,
                  "sigma_soil":1.2739,
                  "bias":-0.7348,
                  "bias_sigma":0.3644
               }
            ],
            "mmi_from_pgm":[
               {
                  "name":"sa(3.0)",
                  "value":5.93,
                  "sigma":0.89,
                  "flag":"0"
               },
               {
                  "name":"sa(1.0)",
                  "value":5.66,
                  "sigma":0.75,
                  "flag":"0"
               },
               {
                  "name":"pga",
                  "value":5.67,
                  "sigma":0.66,
                  "flag":"0"
               },
               {
                  "name":"sa(0.3)",
                  "value":5.46,
                  "sigma":0.82,
                  "flag":"0"
               },
               {
                  "name":"pgv",
                  "value":5.73,
                  "sigma":0.63,
                  "flag":"0"
               }
            ],
            "distance_stddev":0.0,
            "distances":{
               "repi":67.646,
               "rhypo":73.174,
               "rjb":0.0,
               "rjb_var":0.0,
               "rrup":26.778,
               "rrup_var":0.0,
               "rvolc":0.0
            }
         },
         "geometry":{
            "type":"Point",
            "coordinates":[
               -101.9,
               18.283
            ]
         }
      },
      {
         "type":"Feature",
         "id":"BMDSF.TEAC",
         "properties":{
            "code":"TEAC",
            "name":"Teacalco",
            "instrumentType":"UNK",
            "source":"BMDSF",
            "network":"BMDSF",
            "commType":"UNK",
            "location":"",
            "intensity":5.3,
            "intensity_flag":"",
            "intensity_stddev":0.63,
            "pga":5.2245,
            "pgv":7.64,
            "distance":186.107,
            "elev":null,
            "vs30":442.72,
            "channels":[
               {
                  "name":"Z",
                  "amplitudes":[
                     {
                        "name":"pgv",
                        "value":4.37,
                        "units":"cm/s",
                        "flag":"0",
                        "ln_sigma":0.0
                     },
                     {
                        "name":"sa(3.0)",
                        "value":4.1176,
                        "units":"%g",
                        "flag":"0",
                        "ln_sigma":0.0
                     },
                     {
                        "name":"sa(1.0)",
                        "value":9.0759,
                        "units":"%g",
                        "flag":"0",
                        "ln_sigma":0.0
                     },
                     {
                        "name":"pga",
                        "value":2.7653,
                        "units":"%g",
                        "flag":"0",
                        "ln_sigma":0.0
                     },
                     {
                        "name":"sa(0.3)",
                        "value":7.2761,
                        "units":"%g",
                        "flag":"0",
                        "ln_sigma":0.0
                     }
                  ]
               },
               {
                  "name":"N",
                  "amplitudes":[
                     {
                        "name":"pgv",
                        "value":7.64,
                        "units":"cm/s",
                        "flag":"0",
                        "ln_sigma":0.0
                     },
                     {
                        "name":"sa(3.0)",
                        "value":1.8591,
                        "units":"%g",
                        "flag":"0",
                        "ln_sigma":0.0
                     },
                     {
                        "name":"sa(1.0)",
                        "value":5.6217,
                        "units":"%g",
                        "flag":"0",
                        "ln_sigma":0.0
                     },
                     {
                        "name":"pga",
                        "value":5.2245,
                        "units":"%g",
                        "flag":"0",
                        "ln_sigma":0.0
                     },
                     {
                        "name":"sa(0.3)",
                        "value":6.1804,
                        "units":"%g",
                        "flag":"0",
                        "ln_sigma":0.0
                     }
                  ]
               },
               {
                  "name":"E",
                  "amplitudes":[
                     {
                        "name":"pgv",
                        "value":4.18,
                        "units":"cm/s",
                        "flag":"0",
                        "ln_sigma":0.0
                     },
                     {
                        "name":"sa(3.0)",
                        "value":1.7445,
                        "units":"%g",
                        "flag":"0",
                        "ln_sigma":0.0
                     },
                     {
                        "name":"sa(1.0)",
                        "value":4.5926,
                        "units":"%g",
                        "flag":"0",
                        "ln_sigma":0.0
                     },
                     {
                        "name":"pga",
                        "value":2.5204,
                        "units":"%g",
                        "flag":"0",
                        "ln_sigma":0.0
                     },
                     {
                        "name":"sa(0.3)",
                        "value":5.9845,
                        "units":"%g",
                        "flag":"0",
                        "ln_sigma":0.0
                     }
                  ]
               }
            ],
            "station_type":"seismic",
            "nresp":"null",
            "predictions":[
               {
                  "name":"sa(3.0)",
                  "value":1.2818,
                  "value_rock":1.0165,
                  "value_soil":2.2885,
                  "units":"%g",
                  "ln_tau":0.4003,
                  "ln_phi":0.623,
                  "ln_sigma":0.7405,
                  "ln_sigma_rock":0.7577,
                  "ln_sigma_soil":0.7577,
                  "ln_bias":-0.5907,
                  "ln_bias_sigma":0.1995
               },
               {
                  "name":"sa(1.0)",
                  "value":4.8634,
                  "value_rock":3.5185,
                  "value_soil":8.71,
                  "units":"%g",
                  "ln_tau":0.4151,
                  "ln_phi":0.6293,
                  "ln_sigma":0.7539,
                  "ln_sigma_rock":0.7643,
                  "ln_sigma_soil":0.7642,
                  "ln_bias":-0.7518,
                  "ln_bias_sigma":0.2011
               },
               {
                  "name":"pga",
                  "value":5.332,
                  "value_rock":4.3492,
                  "value_soil":5.8618,
                  "units":"%g",
                  "ln_tau":0.371,
                  "ln_phi":0.5615,
                  "ln_sigma":0.673,
                  "ln_sigma_rock":0.6772,
                  "ln_sigma_soil":0.6781,
                  "ln_bias":-0.816,
                  "ln_bias_sigma":0.178
               },
               {
                  "name":"sa(0.3)",
                  "value":12.1084,
                  "value_rock":8.3924,
                  "value_soil":15.3544,
                  "units":"%g",
                  "ln_tau":0.373,
                  "ln_phi":0.6202,
                  "ln_sigma":0.7237,
                  "ln_sigma_rock":0.7295,
                  "ln_sigma_soil":0.7311,
                  "ln_bias":-0.9312,
                  "ln_bias_sigma":0.1917
               },
               {
                  "name":"pgv",
                  "value":4.6172,
                  "value_rock":3.3403,
                  "value_soil":8.269,
                  "units":"cm/s",
                  "ln_tau":0.4151,
                  "ln_phi":0.8064,
                  "ln_sigma":0.907,
                  "ln_sigma_rock":0.9187,
                  "ln_sigma_soil":0.9186,
                  "ln_bias":-0.5275,
                  "ln_bias_sigma":0.2403
               },
               {
                  "name":"mmi",
                  "value":4.9228,
                  "value_rock":4.5955,
                  "value_soil":5.075,
                  "units":"intensity",
                  "tau":0.5961,
                  "phi":1.1178,
                  "sigma":1.2669,
                  "sigma_rock":1.2726,
                  "sigma_soil":1.2739,
                  "bias":-0.7348,
                  "bias_sigma":0.3644
               }
            ],
            "mmi_from_pgm":[
               {
                  "name":"sa(3.0)",
                  "value":4.87,
                  "sigma":0.89,
                  "flag":"0"
               },
               {
                  "name":"sa(1.0)",
                  "value":4.29,
                  "sigma":0.75,
                  "flag":"0"
               },
               {
                  "name":"pga",
                  "value":4.89,
                  "sigma":0.66,
                  "flag":"0"
               },
               {
                  "name":"sa(0.3)",
                  "value":4.58,
                  "sigma":0.82,
                  "flag":"0"
               },
               {
                  "name":"pgv",
                  "value":5.27,
                  "sigma":0.63,
                  "flag":"0"
               }
            ],
            "distance_stddev":0.0,
            "distances":{
               "repi":328.298,
               "rhypo":329.482,
               "rjb":183.109,
               "rjb_var":0.0,
               "rrup":186.107,
               "rrup_var":0.0,
               "rvolc":0.0
            }
         },
         "geometry":{
            "type":"Point",
            "coordinates":[
               -99.45418,
               18.61773
            ]
         }
      },
      {
         "type":"Feature",
         "id":"BMDSF.CU01",
         "properties":{
            "code":"CU01",
            "name":"Ciudad Universitaria, Laboratorio de Instrumentacion Sismica",
            "instrumentType":"UNK",
            "source":"BMDSF",
            "network":"BMDSF",
            "commType":"UNK",
            "location":"",
            "intensity":5.5,
            "intensity_flag":"",
            "intensity_stddev":0.63,
            "pga":3.3265,
            "pgv":9.28,
            "distance":238.026,
            "elev":null,
            "vs30":367.31,
            "channels":[
               {
                  "name":"Z",
                  "amplitudes":[
                     {
                        "name":"pgv",
                        "value":7.63,
                        "units":"cm/s",
                        "flag":"0",
                        "ln_sigma":0.0
                     },
                     {
                        "name":"sa(3.0)",
                        "value":6.0156,
                        "units":"%g",
                        "flag":"0",
                        "ln_sigma":0.0
                     },
                     {
                        "name":"sa(1.0)",
                        "value":6.9461,
                        "units":"%g",
                        "flag":"0",
                        "ln_sigma":0.0
                     },
                     {
                        "name":"pga",
                        "value":2.1735,
                        "units":"%g",
                        "flag":"0",
                        "ln_sigma":0.0
                     },
                     {
                        "name":"sa(0.3)",
                        "value":4.2984,
                        "units":"%g",
                        "flag":"0",
                        "ln_sigma":0.0
                     }
                  ]
               },
               {
                  "name":"N",
                  "amplitudes":[
                     {
                        "name":"pgv",
                        "value":9.28,
                        "units":"cm/s",
                        "flag":"0",
                        "ln_sigma":0.0
                     },
                     {
