{"type": "FeatureCollection", "features": [{"type": "Feature", "id": "DAPHNE.3301", "properties": {"code": "3301", "name": "MERSIN MERKEZ METEOROLOJI ISTASYON MUDURLUGU", "instrumentType": "UNK", "source": "DAPHNE", "network": "DAPHNE", "commType": "UNK", "location": "", "intensity": 7.2, "intensity_flag": "", "intensity_stddev": 0.63, "pga": 13.4676, "pgv": "null", "distance": 82.999, "elev": null, "vs30": 301.66, "channels": [{"name": "N", "amplitudes": [{"name": "sa(3.0)", "value": 3.7354, "units": "%g", "flag": "0", "ln_sigma": 0.0}, {"name": "pgv", "value": 24.3086, "units": "cm/s", "flag": "Outlier", "ln_sigma": 0.0}, {"name": "sa(0.3)", "value": 15.5084, "units": "%g", "flag": "0", "ln_sigma": 0.0}, {"name": "sa(1.0)", "value": 26.5677, "units": "%g", "flag": "0", "ln_sigma": 0.0}, {"name": "pga", "value": 12.1599, "units": "%g", "flag": "0", "ln_sigma": 0.0}]}, {"name": "E", "amplitudes": [{"name": "sa(3.0)", "value": 3.2465, "units": "%g", "flag": "0", "ln_sigma": 0.0}, {"name": "pgv", "value": 28.0576, "units": "cm/s", "flag": "Outlier", "ln_sigma": 0.0}, {"name": "sa(0.3)", "value": 15.1597, "units": "%g", "flag": "0", "ln_sigma": 0.0}, {"name": "sa(1.0)", "value": 17.7704, "units": "%g", "flag": "0", "ln_sigma": 0.0}, {"name": "pga", "value": 13.4676, "units": "%g", "flag": "0", "ln_sigma": 0.0}]}], "station_type": "seismic", "nresp": "null", "predictions": [{"name": "sa(0.3)", "value": 7.583, "value_rock": 3.9763, "value_soil": 9.7884, "units": "%g", "ln_tau": 0.0, "ln_phi": 0.6205, "ln_sigma": 0.6205, "ln_sigma_rock": 0.7458, "ln_sigma_soil": 0.7371, "ln_bias": -0.0379, "ln_bias_sigma": 0.1963}, {"name": "pga", "value": 3.2355, "value_rock": 2.3395, "value_soil": 3.6071, "units": "%g", "ln_tau": 0.0, "ln_phi": 0.5743, "ln_sigma": 0.5743, "ln_sigma_rock": 0.6909, "ln_sigma_soil": 0.6826, "ln_bias": 0.2617, "ln_bias_sigma": 0.1858}, {"name": "sa(1.0)", "value": 3.1181, "value_rock": 1.402, "value_soil": 4.9739, "units": "%g", "ln_tau": 0.0, "ln_phi": 0.6531, "ln_sigma": 0.6531, "ln_sigma_rock": 0.7847, "ln_sigma_soil": 0.7798, "ln_bias": 0.5655, "ln_bias_sigma": 0.2115}, {"name": "sa(3.0)", "value": 0.6417, "value_rock": 0.3317, "value_soil": 0.9836, "units": "%g", "ln_tau": 0.0, "ln_phi": 0.6471, "ln_sigma": 0.6471, "ln_sigma_rock": 0.7784, "ln_sigma_soil": 0.7748, "ln_bias": 0.8497, "ln_bias_sigma": 0.2181}, {"name": "pgv", "value": 2.7547, "value_rock": 1.5195, "value_soil": 3.9564, "units": "cm/s", "ln_tau": 0.0, "ln_phi": 0.6126, "ln_sigma": 0.6126, "ln_sigma_rock": 0.7359, "ln_sigma_soil": 0.7296, "ln_bias": 0.6421, "ln_bias_sigma": 0.1967}, {"name": "mmi", "value": 4.084, "value_rock": 3.8657, "value_soil": 4.1571, "units": "intensity", "tau": 0.0, "phi": 0.6733, "sigma": 0.6733, "sigma_rock": 0.8074, "sigma_soil": 0.8042, "bias": 0.922, "bias_sigma": 0.2589}], "mmi_from_pgm": [{"name": "sa(0.3)", "value": 5.05, "sigma": 0.82, "flag": "0"}, {"name": "pga", "value": 6.22, "sigma": 0.66, "flag": "0"}, {"name": "sa(1.0)", "value": 6.71, "sigma": 0.75, "flag": "0"}, {"name": "sa(3.0)", "value": 6.19, "sigma": 0.89, "flag": "0"}, {"name": "pgv", "value": 7.23, "sigma": 0.63, "flag": "Outlier"}], "distance_stddev": 0.0, "distances": {"repi": 63.6, "rhypo": 71.652, "rjb": 81.728, "rjb_var": 0.0, "rrup": 82.999, "rrup_var": 0.0, "rx": -44.873, "ry0": 68.074, "rvolc": 0.0}}, "geometry": {"type": "Point", "coordinates": [34.60277, 36.78098]}}, {"type": "Feature", "id": "DAPHNE.4603", "properties": {"code": "4603", "name": "KAHRAMANMARAS MERKEZ BAYINDIRLIK VE ISKAN MUDURLUGU", "instrumentType": "UNK", "source": "DAPHNE", "network": "DAPHNE", "commType": "UNK", "location": "", "intensity": "null", "intensity_flag": "", "intensity_stddev": "null", "pga": 0.8665, "pgv": "null", "distance": 125.628, "elev": null, "vs30": 523.18, "channels": [{"name": "N", "amplitudes": [{"name": "sa(3.0)", "value": 1.3928, "units": "%g", "flag": "0", "ln_sigma": 0.0}, {"name": "pgv", "value": 43.2189, "units": "cm/s", "flag": "Outlier,0,Outlier", "ln_sigma": 0.0}, {"name": "sa(0.3)", "value": 1.252, "units": "%g", "flag": "0", "ln_sigma": 0.0}, {"name": "sa(1.0)", "value": 1.6305, "units": "%g", "flag": "0", "ln_sigma": 0.0}, {"name": "pga", "value": 0.8155, "units": "%g", "flag": "0", "ln_sigma": 0.0}]}, {"name": "E", "amplitudes": [{"name": "sa(3.0)", "value": 1.1008, "units": "%g", "flag": "0", "ln_sigma": 0.0}, {"name": "pgv", "value": 45.513, "units": "cm/s", "flag": "Outlier,0,Outlier", "ln_sigma": 0.0}, {"name": "sa(0.3)", "value": 1.1988, "units": "%g", "flag": "0", "ln_sigma": 0.0}, {"name": "sa(1.0)", "value": 2.2556, "units": "%g", "flag": "0", "ln_sigma": 0.0}, {"name": "pga", "value": 0.8665, "units": "%g", "flag": "0", "ln_sigma": 0.0}]}], "station_type": "seismic", "nresp": "null", "predictions": [{"name": "sa(0.3)", "value": 2.9381, "value_rock": 2.1615, "value_soil": 5.4939, "units": "%g", "ln_tau": 0.0, "ln_phi": 0.6236, "ln_sigma": 0.6236, "ln_sigma_rock": 0.7468, "ln_sigma_soil": 0.7411, "ln_bias": -0.038, "ln_bias_sigma": 0.1965}, {"name": "pga", "value": 1.4282, "value_rock": 1.2198, "value_soil": 1.9255, "units": "%g", "ln_tau": 0.0, "ln_phi": 0.5772, "ln_sigma": 0.5772, "ln_sigma_rock": 0.6914, "ln_sigma_soil": 0.6854, "ln_bias": 0.2623, "ln_bias_sigma": 0.186}, {"name": "sa(1.0)", "value": 1.2046, "value_rock": 0.856, "value_soil": 3.108, "units": "%g", "ln_tau": 0.0, "ln_phi": 0.6556, "ln_sigma": 0.6556, "ln_sigma_rock": 0.785, "ln_sigma_soil": 0.7809, "ln_bias": 0.5665, "ln_bias_sigma": 0.2117}, {"name": "sa(3.0)", "value": 0.2763, "value_rock": 0.2096, "value_soil": 0.6296, "units": "%g", "ln_tau": 0.0, "ln_phi": 0.6501, "ln_sigma": 0.6501, "ln_sigma_rock": 0.7784, "ln_sigma_soil": 0.7748, "ln_bias": 0.8517, "ln_bias_sigma": 0.2183}, {"name": "pgv", "value": 1.1658, "value_rock": 0.9015, "value_soil": 2.3911, "units": "cm/s", "ln_tau": 0.0, "ln_phi": 0.615, "ln_sigma": 0.615, "ln_sigma_rock": 0.7364, "ln_sigma_soil": 0.7308, "ln_bias": 0.6433, "ln_bias_sigma": 0.1969}, {"name": "mmi", "value": 3.7171, "value_rock": 3.6109, "value_soil": 3.9182, "units": "intensity", "tau": 0.0, "phi": 0.6744, "sigma": 0.6744, "sigma_rock": 0.8076, "sigma_soil": 0.8053, "bias": 0.923, "bias_sigma": 0.259}], "mmi_from_pgm": [{"name": "sa(0.3)", "value": 3.31, "sigma": 0.82, "flag": "0"}, {"name": "pga", "value": 3.38, "sigma": 0.66, "flag": "0"}, {"name": "sa(1.0)", "value": 3.95, "sigma": 0.75, "flag": "0"}, {"name": "sa(3.0)", "value": 4.8, "sigma": 0.89, "flag": "0"}, {"name": "pgv", "value": null, "sigma": null, "flag": "0"}], "distance_stddev": 0.0, "distances": {"repi": 163.57, "rhypo": 166.866, "rjb": 124.363, "rjb_var": 0.0, "rrup": 125.628, "rrup_var": 0.0, "rx": 19.676, "ry0": 123.2, "rvolc": 0.0}}, "geometry": {"type": "Point", "coordinates": [36.93061, 37.57998]}}, {"type": "Feature", "id": "DAPHNE.2701", "properties": {"code": "2701", "name": "GAZIANTEP ISLAHIYE METEOROLOJI ISTASYON MUDURLUGU", "instrumentType": "UNK", "source": "DAPHNE", "network": "DAPHNE", "commType": "UNK", "location": "", "intensity": 5.2, "intensity_flag": "", "intensity_stddev": 0.63, "pga": 2.1763, "pgv": 6.1756, "distance": 83.066, "elev": null, "vs30": 456.83, "channels": [{"name": "N", "amplitudes": [{"name": "sa(3.0)", "value": 2.0293, "units": "%g", "flag": "0", "ln_sigma": 0.0}, {"name": "pgv", "value": 3.0306, "units": "cm/s", "flag": "0", "ln_sigma": 0.0}, {"name": "sa(0.3)", "value": 3.6531, "units": "%g", "flag": "0", "ln_sigma": 0.0}, {"name": "sa(1.0)", "value": 3.902, "units": "%g", "flag": "0", "ln_sigma": 0.0}, {"name": "pga", "value": 2.1763, "units": "%g", "flag": "0", "ln_sigma": 0.0}]}, {"name": "E", "amplitudes": [{"name": "sa(3.0)", "value": 1.8308, "units": "%g", "flag": "0", "ln_sigma": 0.0}, {"name": "pgv", "value": 6.1756, "units": "cm/s", "flag": "0", "ln_sigma": 0.0}, {"name": "sa(0.3)", "value": 3.6901, "units": "%g", "flag": "0", "ln_sigma": 0.0}, {"name": "sa(1.0)", "value": 2.7934, "units": "%g", "flag": "0", "ln_sigma": 0.0}, {"name": "pga", "value": 1.8573, "units": "%g", "flag": "0", "ln_sigma": 0.0}]}], "station_type": "seismic", "nresp": "null", "predictions": [{"name": "sa(0.3)", "value": 5.7916, "value_rock": 3.9427, "value_soil": 9.6711, "units": "%g", "ln_tau": 0.0, "ln_phi": 0.6224, "ln_sigma": 0.6224, "ln_sigma_rock": 0.7458, "ln_sigma_soil": 0.7371, "ln_bias": -0.0379, "ln_bias_sigma": 0.1964}, {"name": "pga", "value": 2.8132, "value_rock": 2.3113, "value_soil": 3.5591, "units": "%g", "ln_tau": 0.0, "ln_phi": 0.5763, "ln_sigma": 0.5763, "ln_sigma_rock": 0.6909, "ln_sigma_soil": 0.6826, "ln_bias": 0.2621, "ln_bias_sigma": 0.1859}, {"name": "sa(1.0)", "value": 2.1719, "value_rock": 1.3881, "value_soil": 4.9314, "units": "%g", "ln_tau": 0.0, "ln_phi": 0.6553, "ln_sigma": 0.6553, "ln_sigma_rock": 0.7847, "ln_sigma_soil": 0.7798, "ln_bias": 0.5664, "ln_bias_sigma": 0.2116}, {"name": "sa(3.0)", "value": 0.473, "value_rock": 0.3283, "value_soil": 0.9768, "units": "%g", "ln_tau": 0.0, "ln_phi": 0.6501, "ln_sigma": 0.6501, "ln_sigma_rock": 0.7784, "ln_sigma_soil": 0.7748, "ln_bias": 0.8517, "ln_bias_sigma": 0.2183}, {"name": "pgv", "value": 2.1018, "value_rock": 1.5062, "value_soil": 3.9287, "units": "cm/s", "ln_tau": 0.0, "ln_phi": 0.6145, "ln_sigma": 0.6145, "ln_sigma_rock": 0.7359, "ln_sigma_soil": 0.7296, "ln_bias": 0.6431, "ln_bias_sigma": 0.1969}, {"name": "mmi", "value": 3.9901, "value_rock": 3.8579, "value_soil": 4.1485, "units": "intensity", "tau": 0.0, "phi": 0.6741, "sigma": 0.6741, "sigma_rock": 0.8074, "sigma_soil": 0.8042, "bias": 0.9227, "bias_sigma": 0.259}], "mmi_from_pgm": [{"name": "sa(0.3)", "value": 4.0, "sigma": 0.82, "flag": "0"}, {"name": "pga", "value": 3.82, "sigma": 0.66, "flag": "0"}, {"name": "sa(1.0)", "value": 4.39, "sigma": 0.75, "flag": "0"}, {"name": "sa(3.0)", "value": 5.39, "sigma": 0.89, "flag": "0"}, {"name": "pgv", "value": 5.15, "sigma": 0.63, "flag": "0"}], "distance_stddev": 0.0, "distances": {"repi": 119.221, "rhypo": 123.704, "rjb": 79.609, "rjb_var": 0.0, "rrup": 83.066, "rrup_var": 0.0, "rx": 50.78, "ry0": 63.924, "rvolc": 0.0}}, "geometry": {"type": "Point", "coordinates": [36.63593, 37.02546]}}, {"type": "Feature", "id": "DAPHNE.4605", "properties": {"code": "4605", "name": "KAHRAMANMARAS ELBISTAN METEOROLOJI ISTASYON MUDURLUGU", "instrumentType": "UNK", "source": "DAPHNE", "network": "DAPHNE", "commType": "UNK", "location": "", "intensity": 4.3, "intensity_flag": "", "intensity_stddev": 0.63, "pga": 0.4758, "pgv": 3.0565, "distance": 186.589, "elev": null, "vs30": 312.68, "channels": [{"name": "N", "amplitudes": [{"name": "sa(3.0)", "value": 0.347, "units": "%g", "flag": "0", "ln_sigma": 0.0}, {"name": "pgv", "value": 2.0743, "units": "cm/s", "flag": "0", "ln_sigma": 0.0}, {"name": "sa(0.3)", "value": 0.9881, "units": "%g", "flag": "0", "ln_sigma": 0.0}, {"name": "sa(1.0)", "value": 0.9825, "units": "%g", "flag": "0", "ln_sigma": 0.0}, {"name": "pga", "value": 0.4689, "units": "%g", "flag": "0", "ln_sigma": 0.0}]}, {"name": "E", "amplitudes": [{"name": "sa(3.0)", "value": 0.4225, "units": "%g", "flag": "0", "ln_sigma": 0.0}, {"name": "pgv", "value": 3.0565, "units": "cm/s", "flag": "0", "ln_sigma": 0.0}, {"name": "sa(0.3)", "value": 1.325, "units": "%g", "flag": "0", "ln_sigma": 0.0}, {"name": "sa(1.0)", "value": 0.8239, "units": "%g", "flag": "0", "ln_sigma": 0.0}, {"name": "pga", "value": 0.4758, "units": "%g", "flag": "0", "ln_sigma": 0.0}]}], "station_type": "seismic", "nresp": "null", "predictions": [{"name": "sa(0.3)", "value": 2.1968, "value_rock": 1.1618, "value_soil": 3.013, "units": "%g", "ln_tau": 0.0, "ln_phi": 0.6248, "ln_sigma": 0.6248, "ln_sigma_rock": 0.7491, "ln_sigma_soil": 0.7451, "ln_bias": -0.038, "ln_bias_sigma": 0.1966}, {"name": "pga", "value": 0.8722, "value_rock": 0.6301, "value_soil": 1.0091, "units": "%g", "ln_tau": 0.0, "ln_phi": 0.5774, "ln_sigma": 0.5774, "ln_sigma_rock": 0.6929, "ln_sigma_soil": 0.6883, "ln_bias": 0.2624, "ln_bias_sigma": 0.186}, {"name": "sa(1.0)", "value": 1.1651, "value_rock": 0.5315, "value_soil": 1.9557, "units": "%g", "ln_tau": 0.0, "ln_phi": 0.6551, "ln_sigma": 0.6551, "ln_sigma_rock": 0.7867, "ln_sigma_soil": 0.7831, "ln_bias": 0.5663, "ln_bias_sigma": 0.2116}, {"name": "sa(3.0)", "value": 0.2597, "value_rock": 0.1359, "value_soil": 0.4108, "units": "%g", "ln_tau": 0.0, "ln_phi": 0.6494, "ln_sigma": 0.6494, "ln_sigma_rock": 0.7812, "ln_sigma_soil": 0.7776, "ln_bias": 0.8513, "ln_bias_sigma": 0.2183}, {"name": "pgv", "value": 0.9811, "value_rock": 0.5456, "value_soil": 1.4625, "units": "cm/s", "ln_tau": 0.0, "ln_phi": 0.6144, "ln_sigma": 0.6144, "ln_sigma_rock": 0.7376, "ln_sigma_soil": 0.7324, "ln_bias": 0.643, "ln_bias_sigma": 0.1969}, {"name": "mmi", "value": 3.5604, "value_rock": 3.3415, "value_soil": 3.6585, "units": "intensity", "tau": 0.0, "phi": 0.6745, "sigma": 0.6745, "sigma_rock": 0.8082, "sigma_soil": 0.8064, "bias": 0.9231, "bias_sigma": 0.259}], "mmi_from_pgm": [{"name": "sa(0.3)", "value": 3.45, "sigma": 0.82, "flag": "0"}, {"name": "pga", "value": 3.15, "sigma": 0.66, "flag": "0"}, {"name": "sa(1.0)", "value": 3.32, "sigma": 0.75, "flag": "0"}, {"name": "sa(3.0)", "value": 3.83, "sigma": 0.89, "flag": "0"}, {"name": "pgv", "value": 4.26, "sigma": 0.63, "flag": "0"}], "distance_stddev": 0.0, "distances": {"repi": 222.518, "rhypo": 224.952, "rjb": 186.204, "rjb_var": 0.0, "rrup": 186.589, "rrup_var": 0.0, "rx": -19.226, "ry0": 185.203, "rvolc": 0.0}}, "geometry": {"type": "Point", "coordinates": [37.19771, 38.20368]}}, {"type": "Feature", "id": "DAPHNE.0110", "properties": {"code": "0110", "name": "ADANA KARATAS METEOROLOJI ISTASYON MUDURLUGU", "instrumentType": "UNK", "source": "DAPHNE", "network": "DAPHNE", "commType": "UNK", "location": "", "intensity": 6.9, "intensity_flag": "", "intensity_stddev": 0.63, "pga": "null", "pgv": 21.6073, "distance": 38.357, "elev": null, "vs30": 358.35, "channels": [{"name": "N", "amplitudes": [{"name": "sa(3.0)", "value": 2.3564, "units": "%g", "flag": "0", "ln_sigma": 0.0}, {"name": "pgv", "value": 21.6073, "units": "cm/s", "flag": "0", "ln_sigma": 0.0}, {"name": "sa(0.3)", "value": 8.3338, "units": "%g", "flag": "0", "ln_sigma": 0.0}, {"name": "sa(1.0)", "value": 6.1539, "units": "%g", "flag": "0", "ln_sigma": 0.0}, {"name": "pga", "value": 2.9053, "units": "%g", "flag": "Outlier,0,Outlier", "ln_sigma": 0.0}]}, {"name": "E", "amplitudes": [{"name": "sa(3.0)", "value": 2.7951, "units": "%g", "flag": "0", "ln_sigma": 0.0}, {"name": "pgv", "value": 18.6371, "units": "cm/s", "flag": "0", "ln_sigma": 0.0}, {"name": "sa(0.3)", "value": 8.1908, "units": "%g", "flag": "0", "ln_sigma": 0.0}, {"name": "sa(1.0)", "value": 5.9881, "units": "%g", "flag": "0", "ln_sigma": 0.0}, {"name": "pga", "value": 3.3742, "units": "%g", "flag": "Outlier,0,Outlier", "ln_sigma": 0.0}]}], "station_type": "seismic", "nresp": "null", "predictions": [{"name": "sa(0.3)", "value": 18.5574, "value_rock": 10.946, "value_soil": 23.9847, "units": "%g", "ln_tau": 0.0, "ln_phi": 0.6197, "ln_sigma": 0.6197, "ln_sigma_rock": 0.7458, "ln_sigma_soil": 0.7297, "ln_bias": -0.0378, "ln_bias_sigma": 0.1962}, {"name": "pga", "value": 8.8049, "value_rock": 6.7974, "value_soil": 9.6911, "units": "%g", "ln_tau": 0.0, "ln_phi": 0.5732, "ln_sigma": 0.5732, "ln_sigma_rock": 0.6907, "ln_sigma_soil": 0.677, "ln_bias": 0.2614, "ln_bias_sigma": 0.1857}, {"name": "sa(1.0)", "value": 6.3903, "value_rock": 3.3196, "value_soil": 11.0239, "units": "%g", "ln_tau": 0.0, "ln_phi": 0.6531, "ln_sigma": 0.6531, "ln_sigma_rock": 0.7847, "ln_sigma_soil": 0.7777, "ln_bias": 0.5655, "ln_bias_sigma": 0.2115}, {"name": "sa(3.0)", "value": 1.2854, "value_rock": 0.7475, "value_soil": 2.1608, "units": "%g", "ln_tau": 0.0, "ln_phi": 0.647, "ln_sigma": 0.647, "ln_sigma_rock": 0.7784, "ln_sigma_soil": 0.7747, "ln_bias": 0.8497, "ln_bias_sigma": 0.2181}, {"name": "pgv", "value": 6.2479, "value_rock": 3.8264, "value_soil": 9.478, "units": "cm/s", "ln_tau": 0.0, "ln_phi": 0.6126, "ln_sigma": 0.6126, "ln_sigma_rock": 0.7359, "ln_sigma_soil": 0.7279, "ln_bias": 0.6421, "ln_bias_sigma": 0.1967}, {"name": "mmi", "value": 5.1992, "value_rock": 4.7834, "value_soil": 5.3533, "units": "intensity", "tau": 0.0, "phi": 1.0734, "sigma": 1.0734, "sigma_rock": 1.2914, "sigma_soil": 1.2725, "bias": 1.1622, "bias_sigma": 0.2906}], "mmi_from_pgm": [{"name": "sa(0.3)", "value": 4.39, "sigma": 0.82, "flag": "0"}, {"name": "pga", "value": null, "sigma": null, "flag": "0"}, {"name": "sa(1.0)", "value": 5.03, "sigma": 0.75, "flag": "0"}, {"name": "sa(3.0)", "value": 6.0, "sigma": 0.89, "flag": "0"}, {"name": "pgv", "value": 6.87, "sigma": 0.63, "flag": "0"}], "distance_stddev": 0.0, "distances": {"repi": 35.256, "rhypo": 48.29, "rjb": 33.562, "rjb_var": 0.0, "rrup": 38.357, "rrup_var": 0.0, "rx": 18.717, "ry0": 30.044, "rvolc": 0.0}}, "geometry": {"type": "Point", "coordinates": [35.39008, 36.56801]}}, {"type": "Feature", "id": "DAPHNE.3106", "properties": {"code": "3106", "name": "HATAY ISKENDERUN METEOROLOJI MUDURLUGU", "instrumentType": "UNK", "source": "DAPHNE", "network": "DAPHNE", "commType": "UNK", "location": "", "intensity": 4.5, "intensity_flag": "", "intensity_stddev": 0.63, "pga": "null", "pgv": 3.9599, "distance": 62.494, "elev": null, "vs30": 240.57, "channels": [{"name": "N", "amplitudes": [{"name": "sa(3.0)", "value": 4.3344, "units": "%g", "flag": "0", "ln_sigma": 0.0}, {"name": "pgv", "value": 3.9599, "units": "cm/s", "flag": "0", "ln_sigma": 0.0}, {"name": "sa(0.3)", "value": 2.4743, "units": "%g", "flag": "0", "ln_sigma": 0.0}, {"name": "sa(1.0)", "value": 2.8555, "units": "%g", "flag": "0", "ln_sigma": 0.0}, {"name": "pga", "value": 1.5126, "units": "%g", "flag": "Outlier,0,Outlier", "ln_sigma": 0.0}]}, {"name": "E", "amplitudes": [{"name": "sa(3.0)", "value": 1.5052, "units": "%g", "flag": "0", "ln_sigma": 0.0}, {"name": "pgv", "value": 3.0163, "units": "cm/s", "flag": "0", "ln_sigma": 0.0}, {"name": "sa(0.3)", "value": 2.754, "units": "%g", "flag": "0", "ln_sigma": 0.0}, {"name": "sa(1.0)", "value": 3.3504, "units": "%g", "flag": "0", "ln_sigma": 0.0}, {"name": "pga", "value": 1.5781, "units": "%g", "flag": "Outlier,0,Outlier", "ln_sigma": 0.0}]}], "station_type": "seismic", "nresp": "null", "predictions": [{"name": "sa(0.3)", "value": 12.2513, "value_rock": 5.8632, "value_soil": 13.8838, "units": "%g", "ln_tau": 0.0, "ln_phi": 0.6168, "ln_sigma": 0.6168, "ln_sigma_rock": 0.7458, "ln_sigma_soil": 0.7347, "ln_bias": -0.0378, "ln_bias_sigma": 0.196}, {"name": "pga", "value": 4.92, "value_rock": 3.521, "value_soil": 5.2917, "units": "%g", "ln_tau": 0.0, "ln_phi": 0.571, "ln_sigma": 0.571, "ln_sigma_rock": 0.6908, "ln_sigma_soil": 0.6808, "ln_bias": 0.2609, "ln_bias_sigma": 0.1855}, {"name": "sa(1.0)", "value": 5.2982, "value_rock": 1.9351, "value_soil": 6.7267, "units": "%g", "ln_tau": 0.0, "ln_phi": 0.6519, "ln_sigma": 0.6519, "ln_sigma_rock": 0.7847, "ln_sigma_soil": 0.7792, "ln_bias": 0.565, "ln_bias_sigma": 0.2114}, {"name": "sa(3.0)", "value": 1.0428, "value_rock": 0.449, "value_soil": 1.3231, "units": "%g", "ln_tau": 0.0, "ln_phi": 0.647, "ln_sigma": 0.647, "ln_sigma_rock": 0.7784, "ln_sigma_soil": 0.7747, "ln_bias": 0.8497, "ln_bias_sigma": 0.2181}, {"name": "pgv", "value": 4.5874, "value_rock": 2.1491, "value_soil": 5.5128, "units": "cm/s", "ln_tau": 0.0, "ln_phi": 0.6102, "ln_sigma": 0.6102, "ln_sigma_rock": 0.7359, "ln_sigma_soil": 0.7291, "ln_bias": 0.6409, "ln_bias_sigma": 0.1966}, {"name": "mmi", "value": 4.4802, "value_rock": 4.0152, "value_soil": 4.5972, "units": "intensity", "tau": 0.0, "phi": 1.0703, "sigma": 1.0703, "sigma_rock": 0.8074, "sigma_soil": 1.2776, "bias": 1.1611, "bias_sigma": 0.2905}], "mmi_from_pgm": [{"name": "sa(0.3)", "value": 3.71, "sigma": 0.82, "flag": "0"}, {"name": "pga", "value": null, "sigma": null, "flag": "0"}, {"name": "sa(1.0)", "value": 4.35, "sigma": 0.75, "flag": "0"}, {"name": "sa(3.0)", "value": 6.46, "sigma": 0.89, "flag": "0"}, {"name": "pgv", "value": 4.54, "sigma": 0.63, "f