{"type": "FeatureCollection", "features": [{"type": "Feature", "id": "G.KORA", "properties": {"code": "KORA", "name": "Korinthos-OTE Building", "instrumentType": "UNK", "source": "G", "network": "G", "commType": "UNK", "location": "", "intensity": 6.3, "intensity_flag": "", "intensity_stddev": 0.63, "pga": 12.0408, "pgv": 14.9, "distance": 12.312, "elev": null, "vs30": 347.15, "channels": [{"name": "N", "amplitudes": [{"name": "sa(0.3)", "value": 27.7551, "units": "%g", "flag": "0", "ln_sigma": 0.0}, {"name": "sa(3.0)", "value": 4.6939, "units": "%g", "flag": "0", "ln_sigma": 0.0}, {"name": "pgv", "value": 14.9, "units": "cm/s", "flag": "0", "ln_sigma": 0.0}, {"name": "pga", "value": 12.0408, "units": "%g", "flag": "0", "ln_sigma": 0.0}, {"name": "sa(1.0)", "value": 14.898, "units": "%g", "flag": "0", "ln_sigma": 0.0}]}, {"name": "Z", "amplitudes": [{"name": "sa(0.3)", "value": 7.6429, "units": "%g", "flag": "0", "ln_sigma": 0.0}, {"name": "sa(3.0)", "value": 1.5714, "units": "%g", "flag": "0", "ln_sigma": 0.0}, {"name": "pgv", "value": 4.36, "units": "cm/s", "flag": "0", "ln_sigma": 0.0}, {"name": "pga", "value": 4.4796, "units": "%g", "flag": "0", "ln_sigma": 0.0}, {"name": "sa(1.0)", "value": 10.1531, "units": "%g", "flag": "0", "ln_sigma": 0.0}]}, {"name": "E", "amplitudes": [{"name": "sa(0.3)", "value": 35.2041, "units": "%g", "flag": "0", "ln_sigma": 0.0}, {"name": "sa(3.0)", "value": 5.2755, "units": "%g", "flag": "0", "ln_sigma": 0.0}, {"name": "pgv", "value": 10.9, "units": "cm/s", "flag": "0", "ln_sigma": 0.0}, {"name": "pga", "value": 11.6327, "units": "%g", "flag": "0", "ln_sigma": 0.0}, {"name": "sa(1.0)", "value": 8.7551, "units": "%g", "flag": "0", "ln_sigma": 0.0}]}], "station_type": "seismic", "nresp": "null", "predictions": [{"name": "pga", "value": 30.2221, "value_rock": 24.7033, "value_soil": 29.8856, "units": "%g", "ln_tau": 0.0, "ln_phi": 0.5606, "ln_sigma": 0.5606, "ln_sigma_rock": 0.6782, "ln_sigma_soil": 0.6646, "ln_bias": 0.6539, "ln_bias_sigma": 0.111}, {"name": "sa(3.0)", "value": 3.6214, "value_rock": 2.2507, "value_soil": 5.4918, "units": "%g", "ln_tau": 0.0, "ln_phi": 0.6197, "ln_sigma": 0.6197, "ln_sigma_rock": 0.7538, "ln_sigma_soil": 0.742, "ln_bias": 1.0471, "ln_bias_sigma": 0.1542}, {"name": "pgv", "value": 18.7486, "value_rock": 11.6527, "value_soil": 25.82, "units": "cm/s", "ln_tau": 0.0, "ln_phi": 0.6548, "ln_sigma": 0.6548, "ln_sigma_rock": 0.7905, "ln_sigma_soil": 0.7796, "ln_bias": 1.0416, "ln_bias_sigma": 0.1321}, {"name": "sa(0.3)", "value": 62.0307, "value_rock": 39.4757, "value_soil": 66.11, "units": "%g", "ln_tau": 0.0, "ln_phi": 0.6035, "ln_sigma": 0.6035, "ln_sigma_rock": 0.7279, "ln_sigma_soil": 0.7133, "ln_bias": 0.7549, "ln_bias_sigma": 0.1232}, {"name": "sa(1.0)", "value": 20.6319, "value_rock": 11.5965, "value_soil": 30.3359, "units": "%g", "ln_tau": 0.0, "ln_phi": 0.6296, "ln_sigma": 0.6296, "ln_sigma_rock": 0.7614, "ln_sigma_soil": 0.7498, "ln_bias": 1.0942, "ln_bias_sigma": 0.1355}, {"name": "mmi", "value": 6.6605, "value_rock": 6.3365, "value_soil": 6.6425, "units": "intensity", "tau": 0.0, "phi": 1.0561, "sigma": 1.0561, "sigma_rock": 1.2741, "sigma_soil": 1.2554, "bias": 1.056, "bias_sigma": 0.1346}], "mmi_from_pgm": [{"name": "pga", "value": 5.18, "sigma": 0.66, "flag": "0"}, {"name": "sa(3.0)", "value": 7.09, "sigma": 0.89, "flag": "0"}, {"name": "pgv", "value": 6.35, "sigma": 0.63, "flag": "0"}, {"name": "sa(0.3)", "value": 5.96, "sigma": 0.82, "flag": "0"}, {"name": "sa(1.0)", "value": 6.36, "sigma": 0.75, "flag": "0"}], "distance_stddev": 0.0, "distances": {"repi": 27.735, "rhypo": 43.107, "rjb": 12.312, "rjb_var": 0.0, "rrup": 12.312, "rrup_var": 0.0, "rx": -7.565, "ry0": 9.691, "rvolc": 0.0}}, "geometry": {"type": "Point", "coordinates": [22.93055, 37.93862]}}, {"type": "Feature", "id": "INTENSITY.OBS_30", "properties": {"code": "OBS_30", "name": "", "instrumentType": "OBSERVED", "source": "INTENSITY", "network": "INTENSITY", "commType": "UNK", "location": "", "intensity": 6.5, "intensity_flag": "0", "intensity_stddev": 0.3, "pga": 20.1891, "pgv": 16.6783, "distance": 37.028, "elev": null, "vs30": 576.56, "channels": [], "nresp": -1, "station_type": "macroseismic", "predictions": [{"name": "mmi", "value": 5.2025, "value_rock": 5.0135, "value_soil": 5.5103, "units": "intensity", "tau": 0.0, "phi": 1.0842, "sigma": 1.0842, "sigma_rock": 1.2996, "sigma_soil": 1.2875, "bias": 1.058, "bias_sigma": 0.1347}, {"name": "pga", "value": 9.0042, "value_rock": 8.0049, "value_soil": 10.9053, "units": "%g", "ln_tau": 0.0, "ln_phi": 0.581, "ln_sigma": 0.581, "ln_sigma_rock": 0.6967, "ln_sigma_soil": 0.6879, "ln_bias": 0.658, "ln_bias_sigma": 0.1114}, {"name": "sa(0.3)", "value": 16.5451, "value_rock": 13.0217, "value_soil": 26.3935, "units": "%g", "ln_tau": 0.0, "ln_phi": 0.621, "ln_sigma": 0.621, "ln_sigma_rock": 0.7469, "ln_sigma_soil": 0.7387, "ln_bias": 0.759, "ln_bias_sigma": 0.1236}, {"name": "sa(1.0)", "value": 4.9305, "value_rock": 3.9375, "value_soil": 11.1722, "units": "%g", "ln_tau": 0.0, "ln_phi": 0.6419, "ln_sigma": 0.6419, "ln_sigma_rock": 0.7788, "ln_sigma_soil": 0.7698, "ln_bias": 1.0987, "ln_bias_sigma": 0.1358}, {"name": "sa(3.0)", "value": 1.0076, "value_rock": 0.8449, "value_soil": 2.1225, "units": "%g", "ln_tau": 0.0, "ln_phi": 0.6356, "ln_sigma": 0.6356, "ln_sigma_rock": 0.7721, "ln_sigma_soil": 0.7604, "ln_bias": 1.0545, "ln_bias_sigma": 0.1548}, {"name": "pgv", "value": 4.5805, "value_rock": 3.7999, "value_soil": 8.9901, "units": "cm/s", "ln_tau": 0.0, "ln_phi": 0.669, "ln_sigma": 0.669, "ln_sigma_rock": 0.8078, "ln_sigma_soil": 0.7993, "ln_bias": 1.0457, "ln_bias_sigma": 0.1324}], "pgm_from_mmi": [{"name": "pga", "value": 20.1891, "units": "%g", "ln_sigma": 0.8059, "flag": "0"}, {"name": "sa(3.0)", "value": 4.1272, "units": "%g", "ln_sigma": 1.4737, "flag": "0"}, {"name": "pgv", "value": 16.6783, "units": "cm/s", "ln_sigma": 0.875, "flag": "0"}, {"name": "sa(0.3)", "value": 40.4665, "units": "%g", "ln_sigma": 1.0131, "flag": "0"}, {"name": "sa(1.0)", "value": 20.0915, "units": "%g", "ln_sigma": 1.0822, "flag": "0"}], "distance_stddev": 0.0, "distances": {"repi": 52.584, "rhypo": 62.081, "rjb": 37.028, "rjb_var": 0.0, "rrup": 37.028, "rrup_var": 0.0, "rx": -14.151, "ry0": 34.161, "rvolc": 0.0}}, "geometry": {"type": "Point", "coordinates": [22.688, 37.815]}}, {"type": "Feature", "id": "INTENSITY.OBS_98", "properties": {"code": "OBS_98", "name": "", "instrumentType": "OBSERVED", "source": "INTENSITY", "network": "INTENSITY", "commType": "UNK", "location": "", "intensity": 5.0, "intensity_flag": "0", "intensity_stddev": 0.3, "pga": 6.0988, "pgv": 5.5907, "distance": 96.329, "elev": null, "vs30": 755.77, "channels": [], "nresp": -1, "station_type": "macroseismic", "predictions": [{"name": "mmi", "value": 3.8542, "value_rock": 3.8533, "value_soil": 4.0982, "units": "intensity", "tau": 0.0, "phi": 0.676, "sigma": 0.676, "sigma_rock": 0.8097, "sigma_soil": 0.8074, "bias": 1.0019, "bias_sigma": 0.1311}, {"name": "pga", "value": 2.1384, "value_rock": 2.1358, "value_soil": 3.073, "units": "%g", "ln_tau": 0.0, "ln_phi": 0.5813, "ln_sigma": 0.5813, "ln_sigma_rock": 0.6968, "ln_sigma_soil": 0.6909, "ln_bias": 0.658, "ln_bias_sigma": 0.1114}, {"name": "sa(0.3)", "value": 3.751, "value_rock": 3.7423, "value_soil": 8.1794, "units": "%g", "ln_tau": 0.0, "ln_phi": 0.6211, "ln_sigma": 0.6211, "ln_sigma_rock": 0.747, "ln_sigma_soil": 0.7426, "ln_bias": 0.759, "ln_bias_sigma": 0.1236}, {"name": "sa(1.0)", "value": 1.2756, "value_rock": 1.2716, "value_soil": 3.8014, "units": "%g", "ln_tau": 0.0, "ln_phi": 0.6419, "ln_sigma": 0.6419, "ln_sigma_rock": 0.7788, "ln_sigma_soil": 0.771, "ln_bias": 1.0987, "ln_bias_sigma": 0.1358}, {"name": "sa(3.0)", "value": 0.2952, "value_rock": 0.2944, "value_soil": 0.7596, "units": "%g", "ln_tau": 0.0, "ln_phi": 0.6356, "ln_sigma": 0.6356, "ln_sigma_rock": 0.7722, "ln_sigma_soil": 0.7604, "ln_bias": 1.0545, "ln_bias_sigma": 0.1548}, {"name": "pgv", "value": 1.1784, "value_rock": 1.1757, "value_soil": 2.9028, "units": "cm/s", "ln_tau": 0.0, "ln_phi": 0.669, "ln_sigma": 0.669, "ln_sigma_rock": 0.8078, "ln_sigma_soil": 0.8003, "ln_bias": 1.0457, "ln_bias_sigma": 0.1324}], "pgm_from_mmi": [{"name": "pga", "value": 6.0988, "units": "%g", "ln_sigma": 0.8059, "flag": "0"}, {"name": "sa(3.0)", "value": 1.5702, "units": "%g", "ln_sigma": 1.4737, "flag": "0"}, {"name": "pgv", "value": 5.5907, "units": "cm/s", "ln_sigma": 0.875, "flag": "0"}, {"name": "sa(0.3)", "value": 13.7518, "units": "%g", "ln_sigma": 1.0131, "flag": "0"}, {"name": "sa(1.0)", "value": 7.1768, "units": "%g", "ln_sigma": 1.0822, "flag": "0"}], "distance_stddev": 0.0, "distances": {"repi": 108.722, "rhypo": 113.62, "rjb": 96.329, "rjb_var": 0.0, "rrup": 96.329, "rrup_var": 0.0, "rx": -88.31, "ry0": 38.879, "rvolc": 0.0}}, "geometry": {"type": "Point", "coordinates": [22.894, 37.167]}}, {"type": "Feature", "id": "INTENSITY.OBS_168", "properties": {"code": "OBS_168", "name": "", "instrumentType": "OBSERVED", "source": "INTENSITY", "network": "INTENSITY", "commType": "UNK", "location": "", "intensity": 5.0, "intensity_flag": "0", "intensity_stddev": 0.3, "pga": 5.3238, "pgv": 5.5907, "distance": 157.701, "elev": null, "vs30": 673.84, "channels": [], "nresp": -1, "station_type": "macroseismic", "predictions": [{"name": "mmi", "value": 3.5369, "value_rock": 3.5189, "value_soil": 3.7743, "units": "intensity", "tau": 0.0, "phi": 0.6763, "sigma": 0.6763, "sigma_rock": 0.81, "sigma_soil": 0.8081, "bias": 1.002, "bias_sigma": 0.1311}, {"name": "pga", "value": 0.965, "value_rock": 0.9396, "value_soil": 1.3731, "units": "%g", "ln_tau": 0.0, "ln_phi": 0.5821, "ln_sigma": 0.5821, "ln_sigma_rock": 0.6977, "ln_sigma_soil": 0.6927, "ln_bias": 0.6582, "ln_bias_sigma": 0.1114}, {"name": "sa(0.3)", "value": 1.825, "value_rock": 1.7355, "value_soil": 3.8626, "units": "%g", "ln_tau": 0.0, "ln_phi": 0.6224, "ln_sigma": 0.6224, "ln_sigma_rock": 0.7484, "ln_sigma_soil": 0.7452, "ln_bias": 0.7593, "ln_bias_sigma": 0.1236}, {"name": "sa(1.0)", "value": 0.7105, "value_rock": 0.6647, "value_soil": 2.0263, "units": "%g", "ln_tau": 0.0, "ln_phi": 0.6426, "ln_sigma": 0.6426, "ln_sigma_rock": 0.7796, "ln_sigma_soil": 0.7721, "ln_bias": 1.0989, "ln_bias_sigma": 0.1358}, {"name": "sa(3.0)", "value": 0.1718, "value_rock": 0.1625, "value_soil": 0.4254, "units": "%g", "ln_tau": 0.0, "ln_phi": 0.6364, "ln_sigma": 0.6364, "ln_sigma_rock": 0.7731, "ln_sigma_soil": 0.7614, "ln_bias": 1.0549, "ln_bias_sigma": 0.1548}, {"name": "pgv", "value": 0.6331, "value_rock": 0.6022, "value_soil": 1.5122, "units": "cm/s", "ln_tau": 0.0, "ln_phi": 0.6696, "ln_sigma": 0.6696, "ln_sigma_rock": 0.8086, "ln_sigma_soil": 0.8014, "ln_bias": 1.0459, "ln_bias_sigma": 0.1324}], "pgm_from_mmi": [{"name": "pga", "value": 5.3238, "units": "%g", "ln_sigma": 0.8059, "flag": "0"}, {"name": "sa(3.0)", "value": 1.7238, "units": "%g", "ln_sigma": 1.4737, "flag": "0"}, {"name": "pgv", "value": 5.5907, "units": "cm/s", "ln_sigma": 0.875, "flag": "0"}, {"name": "sa(0.3)", "value": 11.544, "units": "%g", "ln_sigma": 1.0131, "flag": "0"}, {"name": "sa(1.0)", "value": 7.8001, "units": "%g", "ln_sigma": 1.0822, "flag": "0"}], "distance_stddev": 0.0, "distances": {"repi": 173.135, "rhypo": 176.252, "rjb": 157.701, "rjb_var": 0.0, "rrup": 157.701, "rrup_var": 0.0, "rx": -55.048, "ry0": 147.623, "rvolc": 0.0}}, "geometry": {"type": "Point", "coordinates": [21.611, 37.147]}}, {"type": "Feature", "id": "INTENSITY.OBS_71", "properties": {"code": "OBS_71", "name": "", "instrumentType": "OBSERVED", "source": "INTENSITY", "network": "INTENSITY", "commType": "UNK", "location": "", "intensity": 5.5, "intensity_flag": "0", "intensity_stddev": 0.3, "pga": 8.9368, "pgv": 8.0482, "distance": 74.474, "elev": null, "vs30": 477.63, "channels": [], "nresp": -1, "station_type": "macroseismic", "predictions": [{"name": "mmi", "value": 4.1209, "value_rock": 4.0131, "value_soil": 4.4181, "units": "intensity", "tau": 0.0, "phi": 0.6759, "sigma": 0.6759, "sigma_rock": 0.8097, "sigma_soil": 1.2906, "bias": 1.0019, "bias_sigma": 0.1311}, {"name": "pga", "value": 3.7648, "value_rock": 3.2077, "value_soil": 4.558, "units": "%g", "ln_tau": 0.0, "ln_phi": 0.5811, "ln_sigma": 0.5811, "ln_sigma_rock": 0.6968, "ln_sigma_soil": 0.6902, "ln_bias": 0.658, "ln_bias_sigma": 0.1114}, {"name": "sa(0.3)", "value": 7.5263, "value_rock": 5.4777, "value_soil": 11.7863, "units": "%g", "ln_tau": 0.0, "ln_phi": 0.6209, "ln_sigma": 0.6209, "ln_sigma_rock": 0.7469, "ln_sigma_soil": 0.7417, "ln_bias": 0.7589, "ln_bias_sigma": 0.1236}, {"name": "sa(1.0)", "value": 2.4712, "value_rock": 1.7775, "value_soil": 5.2416, "units": "%g", "ln_tau": 0.0, "ln_phi": 0.6418, "ln_sigma": 0.6418, "ln_sigma_rock": 0.7788, "ln_sigma_soil": 0.7707, "ln_bias": 1.0987, "ln_bias_sigma": 0.1358}, {"name": "sa(3.0)", "value": 0.5221, "value_rock": 0.4013, "value_soil": 1.0265, "units": "%g", "ln_tau": 0.0, "ln_phi": 0.6356, "ln_sigma": 0.6356, "ln_sigma_rock": 0.7722, "ln_sigma_soil": 0.7604, "ln_bias": 1.0545, "ln_bias_sigma": 0.1548}, {"name": "pgv", "value": 2.1668, "value_rock": 1.6622, "value_soil": 4.0563, "units": "cm/s", "ln_tau": 0.0, "ln_phi": 0.669, "ln_sigma": 0.669, "ln_sigma_rock": 0.8078, "ln_sigma_soil": 0.8001, "ln_bias": 1.0457, "ln_bias_sigma": 0.1324}], "pgm_from_mmi": [{"name": "pga", "value": 8.9368, "units": "%g", "ln_sigma": 0.8059, "flag": "0"}, {"name": "sa(3.0)", "value": 2.1923, "units": "%g", "ln_sigma": 1.4737, "flag": "0"}, {"name": "pgv", "value": 8.0482, "units": "cm/s", "ln_sigma": 0.875, "flag": "0"}, {"name": "sa(0.3)", "value": 20.9685, "units": "%g", "ln_sigma": 1.0131, "flag": "0"}, {"name": "sa(1.0)", "value": 10.2203, "units": "%g", "ln_sigma": 1.0822, "flag": "0"}], "distance_stddev": 0.0, "distances": {"repi": 81.187, "rhypo": 87.638, "rjb": 74.474, "rjb_var": 0.0, "rrup": 74.474, "rrup_var": 0.0, "rx": -74.337, "ry0": 5.82, "rvolc": 0.0}}, "geometry": {"type": "Point", "coordinates": [23.487, 37.448]}}, {"type": "Feature", "id": "INTENSITY.OBS_24", "properties": {"code": "OBS_24", "name": "", "instrumentType": "OBSERVED", "source": "INTENSITY", "network": "INTENSITY", "commType": "UNK", "location": "", "intensity": 7.0, "intensity_flag": "0", "intensity_stddev": 0.3, "pga": 27.3055, "pgv": 24.0093, "distance": 38.286, "elev": null, "vs30": 416.33, "channels": [], "nresp": -1, "station_type": "macroseismic", "predictions": [{"name": "mmi", "value": 5.361, "value_rock": 5.0714, "value_soil": 5.5595, "units": "intensity", "tau": 0.0, "phi": 1.0834, "sigma": 1.0834, "sigma_rock": 1.2996, "sigma_soil": 1.2875, "bias": 1.0579, "bias_sigma": 0.1347}, {"name": "pga", "value": 9.8464, "value_rock": 8.2226, "value_soil": 11.1411, "units": "%g", "ln_tau": 0.0, "ln_phi": 0.5805, "ln_sigma": 0.5805, "ln_sigma_rock": 0.6967, "ln_sigma_soil": 0.688, "ln_bias": 0.6579, "ln_bias_sigma": 0.1114}, {"name": "sa(0.3)", "value": 19.1311, "value_rock": 13.3228, "value_soil": 26.842, "units": "%g", "ln_tau": 0.0, "ln_phi": 0.6204, "ln_sigma": 0.6204, "ln_sigma_rock": 0.7469, "ln_sigma_soil": 0.7388, "ln_bias": 0.7588, "ln_bias_sigma": 0.1235}, {"name": "sa(1.0)", "value": 5.9621, "value_rock": 3.9934, "value_soil": 11.2639, "units": "%g", "ln_tau": 0.0, "ln_phi": 0.6418, "ln_sigma": 0.6418, "ln_sigma_rock": 0.7788, "ln_sigma_soil": 0.7698, "ln_bias": 1.0986, "ln_bias_sigma": 0.1358}, {"name": "sa(3.0)", "value": 1.179, "value_rock": 0.8529, "value_soil": 2.1343, "units": "%g", "ln_tau": 0.0, "ln_phi": 0.6356, "ln_sigma": 0.6356, "ln_sigma_rock": 0.7721, "ln_sigma_soil": 0.7604, "ln_bias": 1.0545, "ln_bias_sigma": 0.1548}, {"name": "pgv", "value": 5.2977, "value_rock": 3.8513, "value_soil": 9.06, "units": "cm/s", "ln_tau": 0.0, "ln_phi": 0.6689, "ln_sigma": 0.6689, "ln_sigma_rock": 0.8078, "ln_sigma_soil": 0.7993, "ln_bias": 1.0457, "ln_bias_sigma": 0.1324}], "pgm_from_mmi": [{"name": "pga", "value": 27.3055, "units": "%g", "ln_sigma": 0.8059, "flag": "0"}, {"name": "sa(3.0)", "value": 6.0887, "units": "%g", "ln_sigma": 1.4737, "flag": "0"}, {"name": "pgv", "value": 24.0093, "units": "cm/s", "ln_sigma": 0.875, "flag": "0"}, {"name": "sa(0.3)", "value": 53.182, "units": "%g", "ln_sigma": 1.0131, "flag": "0"}, {"name": "sa(1.0)", "value": 30.0524, "units": "%g", "ln_sigma": 1.0822, "flag": "0"}], "distance_stddev": 0.0, "distances": {"repi": 39.718, "rhypo": 51.639, "rjb": 36.392, "rjb_var": 0.0, "rrup": 38.286, "rrup_var": 0.0, "rx": 23.08, "ry0": 35.561, "rvolc": 0.0}}, "geometry": {"type": "Point", "coordinates": [23.479, 38.364]}}, {"type": "Feature", "id": "INTENSITY.NOAINT_62", "properties": {"code": "NOAINT_62", "name": "PAPPADATES AITOLOAKARNANIA(1733) (Intensity IV)", "instrumentType": "OBSERVED", "source": "INTENSITY", "network": "INTENSITY", "commType": "UNK", "location": "", "intensity": 4.0, "intensity_flag": "0", "intensity_stddev": 0.3, "pga": 2.0587, "pgv": 2.0945, "distance": 141.838, "elev": null, "vs30": 677.58, "channels": [], "nresp": -1, "station_type": "macroseismic", "predictions": [{"name": "mmi", "value": 3.617, "value_rock": 3.5999, "value_soil": 3.8534, "units": "intensity", "tau": 0.0, "phi": 0.6762, "sigma": 0.6762, "sigma_rock": 0.8099, "sigma_soil": 0.8079, "bias": 1.002, "bias_sigma": 0.1311}, {"name": "pga", "value": 1.1655, "value_rock": 1.1363, "value_soil": 1.656, "units": "%g", "ln_tau": 0.0, "ln_phi": 0.5818, "ln_sigma": 0.5818, "ln_sigma_rock": 0.6974, "ln_sigma_soil": 0.6923, "ln_bias": 0.6581, "ln_bias_sigma": 0.1114}, {"name": "sa(0.3)", "value": 2.1753, "value_rock": 2.0735, "value_soil": 4.6018, "units": "%g", "ln_tau": 0.0, "ln_phi": 0.622, "ln_sigma": 0.622, "ln_sigma_rock": 0.748, "ln_sigma_soil": 0.7446, "ln_bias": 0.7592, "ln_bias_sigma": 0.1236}, {"name": "sa(1.0)", "value": 0.8209, "value_rock": 0.7703, "value_soil": 2.3388, "units": "%g", "ln_tau": 0.0, "ln_phi": 0.6423, "ln_sigma": 0.6423, "ln_sigma_rock": 0.7793, "ln_sigma_soil": 0.7718, "ln_bias": 1.0988, "ln_bias_sigma": 0.1358}, {"name": "sa(3.0)", "value": 0.1959, "value_rock": 0.1858, "value_soil": 0.4849, "units": "%g", "ln_tau": 0.0, "ln_phi": 0.636, "ln_sigma": 0.636, "ln_sigma_rock": 0.7726, "ln_sigma_soil": 0.7608, "ln_bias": 1.0547, "ln_bias_sigma": 0.1548}, {"name": "pgv", "value": 0.7351, "value_rock": 0.7009, "value_soil": 1.7537, "units": "cm/s", "ln_tau": 0.0, "ln_phi": 0.6695, "ln_sigma": 0.6695, "ln_sigma_rock": 0.8084, "ln_sigma_soil": 0.8011, "ln_bias": 1.0459, "ln_bias_sigma": 0.1324}], "pgm_from_mmi": [{"name": "pga", "value": 2.0587, "units": "%g", "ln_sigma": 0.8059, "flag": "0"}, {"name": "sa(3.0)", "value": 0.5436, "units": "%g", "ln_sigma": 1.4737, "flag": "0"}, {"name": "pgv", "value": 2.0945, "units": "cm/s", "ln_sigma": 0.875, "flag": "0"}, {"name": "sa(0.3)", "value": 3.0689, "units": "%g", "ln_sigma": 1.0131, "flag": "0"}, {"name": "sa(1.0)", "value": 2.6656, "units": "%g", "ln_sigma": 1.0822, "flag": "0"}], "distance_stddev": 0.0, "distances": {"repi": 154.266, "rhypo": 157.756, "rjb": 141.463, "rjb_var": 0.0, "rrup": 141.838, "rrup_var": 0.0, "rx": 94.86, "ry0": 112.356, "rvolc": 0.0}}, "geometry": {"type": "Point", "coordinates": [21.448, 38.526]}}, {"type": "Feature", "id": "INTENSITY.OBS_156", "properties": {"code": "OBS_156", "name": "", "instrumentType": "OBSERVED", "source": "INTENSITY", "network": "INTENSITY", "commType": "UNK", "location": "", "intensity": 5.0, "intensity_flag": "0", "intensity_stddev": 0.3, "pga": 6.156, "pgv": 5.5907, "distance": 93.121, "elev": null, "vs30": 378.64, "channels": [], "nresp": -1, "station_type": "macroseismic", "predictions": [{"name": "mmi", "value": 4.038, "value_rock": 3.8967, "value_soil": 4.1397, "units": "intensity", "tau": 0.0, "phi": 0.6759, "sigma": 0.6759, "sigma_rock": 0.8097, "sigma_soil": 0.8074, "bias": 1.0019, "bias_sigma": 0.1311}, {"name": "pga", "value": 2.8735, "value_rock": 2.3292, "value_soil": 3.3418, "units": "%g", "ln_tau": 0.0, "ln_phi": 0.581, "ln_sigma": 0.581, "ln_sigma_rock": 0.6968, "ln_sigma_soil"