{"type": "FeatureCollection", "features": [{"type": "Feature", "id": "G.MSK", "properties": {"code": "MSK", "name": "Istanbul-Maslak", "instrumentType": "UNK", "source": "G", "network": "G", "commType": "UNK", "location": "", "intensity": 4.5, "intensity_flag": "", "intensity_stddev": 0.63, "pga": 4.8673, "pgv": 4.34, "distance": 51.342, "elev": null, "vs30": 356.47, "channels": [{"name": "Z", "amplitudes": [{"name": "sa(1.0)", "value": 2.051, "units": "%g", "flag": "0", "ln_sigma": 0.0}, {"name": "sa(0.3)", "value": 4.2245, "units": "%g", "flag": "0", "ln_sigma": 0.0}, {"name": "sa(3.0)", "value": 2.5612, "units": "%g", "flag": "0", "ln_sigma": 0.0}, {"name": "pgv", "value": 2.88, "units": "cm/s", "flag": "0", "ln_sigma": 0.0}, {"name": "pga", "value": 2.7653, "units": "%g", "flag": "0", "ln_sigma": 0.0}]}, {"name": "N", "amplitudes": [{"name": "sa(1.0)", "value": 3.3878, "units": "%g", "flag": "0", "ln_sigma": 0.0}, {"name": "sa(0.3)", "value": 7.2347, "units": "%g", "flag": "0", "ln_sigma": 0.0}, {"name": "sa(3.0)", "value": 2.7347, "units": "%g", "flag": "0", "ln_sigma": 0.0}, {"name": "pgv", "value": 4.34, "units": "cm/s", "flag": "0", "ln_sigma": 0.0}, {"name": "pga", "value": 3.7959, "units": "%g", "flag": "0", "ln_sigma": 0.0}]}, {"name": "E", "amplitudes": [{"name": "sa(1.0)", "value": 2.6327, "units": "%g", "flag": "0", "ln_sigma": 0.0}, {"name": "sa(0.3)", "value": 6.1531, "units": "%g", "flag": "0", "ln_sigma": 0.0}, {"name": "sa(3.0)", "value": 1.2347, "units": "%g", "flag": "0", "ln_sigma": 0.0}, {"name": "pgv", "value": 2.94, "units": "cm/s", "flag": "0", "ln_sigma": 0.0}, {"name": "pga", "value": 4.8673, "units": "%g", "flag": "0", "ln_sigma": 0.0}]}], "station_type": "seismic", "nresp": "null", "predictions": [{"name": "sa(3.0)", "value": 5.2248, "value_rock": 2.9364, "value_soil": 8.9076, "units": "%g", "ln_tau": 0.4327, "ln_phi": 0.6579, "ln_sigma": 0.7875, "ln_sigma_rock": 0.7982, "ln_sigma_soil": 0.7982, "ln_bias": -0.1776, "ln_bias_sigma": 0.1696}, {"name": "sa(1.0)", "value": 15.9958, "value_rock": 8.0883, "value_soil": 27.7581, "units": "%g", "ln_tau": 0.4259, "ln_phi": 0.6749, "ln_sigma": 0.7981, "ln_sigma_rock": 0.8055, "ln_sigma_soil": 0.7968, "ln_bias": 0.1341, "ln_bias_sigma": 0.1602}, {"name": "pgv", "value": 15.9024, "value_rock": 9.7478, "value_soil": 23.9616, "units": "cm/s", "ln_tau": 0.3905, "ln_phi": 0.5998, "ln_sigma": 0.7157, "ln_sigma_rock": 0.7223, "ln_sigma_soil": 0.7138, "ln_bias": -0.1574, "ln_bias_sigma": 0.1406}, {"name": "pga", "value": 12.5429, "value_rock": 9.7414, "value_soil": 13.6616, "units": "%g", "ln_tau": 0.3942, "ln_phi": 0.5855, "ln_sigma": 0.7059, "ln_sigma_rock": 0.7133, "ln_sigma_soil": 0.6967, "ln_bias": 0.0179, "ln_bias_sigma": 0.1284}, {"name": "sa(0.3)", "value": 29.1127, "value_rock": 17.3886, "value_soil": 37.3626, "units": "%g", "ln_tau": 0.3802, "ln_phi": 0.6572, "ln_sigma": 0.7593, "ln_sigma_rock": 0.7665, "ln_sigma_soil": 0.7441, "ln_bias": -0.0371, "ln_bias_sigma": 0.1459}, {"name": "mmi", "value": 6.2726, "value_rock": 5.6009, "value_soil": 6.8353, "units": "intensity", "tau": 0.5359, "phi": 1.0365, "sigma": 1.1669, "sigma_rock": 1.1745, "sigma_soil": 1.1647, "bias": -0.0767, "bias_sigma": 0.2134}], "mmi_from_pgm": [{"name": "sa(3.0)", "value": 5.69, "sigma": 0.89, "flag": "0"}, {"name": "sa(1.0)", "value": 4.11, "sigma": 0.75, "flag": "0"}, {"name": "pgv", "value": 4.49, "sigma": 0.63, "flag": "0"}, {"name": "pga", "value": 4.21, "sigma": 0.66, "flag": "0"}, {"name": "sa(0.3)", "value": 4.36, "sigma": 0.82, "flag": "0"}], "distance_stddev": 0.0, "distances": {"repi": 81.282, "rhypo": 83.041, "rjb": 51.157, "rjb_var": 0.0, "rrup": 51.342, "rrup_var": 0.0, "rx": 52.6, "ry0": 154.749, "rvolc": 0.0}}, "geometry": {"type": "Point", "coordinates": [29.019, 41.104]}}, {"type": "Feature", "id": "G.DHM", "properties": {"code": "DHM", "name": "Yesilkoy-Havaalani", "instrumentType": "UNK", "source": "G", "network": "G", "commType": "UNK", "location": "", "intensity": 5.8, "intensity_flag": "", "intensity_stddev": 0.63, "pga": 8.8878, "pgv": 11.3, "distance": 53.088, "elev": null, "vs30": 300.46, "channels": [{"name": "Z", "amplitudes": [{"name": "sa(1.0)", "value": 6.2245, "units": "%g", "flag": "0", "ln_sigma": 0.0}, {"name": "sa(0.3)", "value": 14.898, "units": "%g", "flag": "0", "ln_sigma": 0.0}, {"name": "sa(3.0)", "value": 1.2959, "units": "%g", "flag": "0", "ln_sigma": 0.0}, {"name": "pgv", "value": 3.95, "units": "cm/s", "flag": "0", "ln_sigma": 0.0}, {"name": "pga", "value": 5.0612, "units": "%g", "flag": "0", "ln_sigma": 0.0}]}, {"name": "N", "amplitudes": [{"name": "sa(1.0)", "value": 19.898, "units": "%g", "flag": "0", "ln_sigma": 0.0}, {"name": "sa(0.3)", "value": 21.8367, "units": "%g", "flag": "0", "ln_sigma": 0.0}, {"name": "sa(3.0)", "value": 2.6122, "units": "%g", "flag": "0", "ln_sigma": 0.0}, {"name": "pgv", "value": 8.93, "units": "cm/s", "flag": "0", "ln_sigma": 0.0}, {"name": "pga", "value": 7.6327, "units": "%g", "flag": "0", "ln_sigma": 0.0}]}, {"name": "E", "amplitudes": [{"name": "sa(1.0)", "value": 15.102, "units": "%g", "flag": "0", "ln_sigma": 0.0}, {"name": "sa(0.3)", "value": 28.6735, "units": "%g", "flag": "0", "ln_sigma": 0.0}, {"name": "sa(3.0)", "value": 5.8367, "units": "%g", "flag": "0", "ln_sigma": 0.0}, {"name": "pgv", "value": 11.3, "units": "cm/s", "flag": "0", "ln_sigma": 0.0}, {"name": "pga", "value": 8.8878, "units": "%g", "flag": "0", "ln_sigma": 0.0}]}], "station_type": "seismic", "nresp": "null", "predictions": [{"name": "sa(3.0)", "value": 5.7485, "value_rock": 2.8642, "value_soil": 8.6988, "units": "%g", "ln_tau": 0.4327, "ln_phi": 0.6579, "ln_sigma": 0.7875, "ln_sigma_rock": 0.7982, "ln_sigma_soil": 0.7982, "ln_bias": -0.1776, "ln_bias_sigma": 0.1696}, {"name": "sa(1.0)", "value": 17.8222, "value_rock": 7.8822, "value_soil": 27.1428, "units": "%g", "ln_tau": 0.4253, "ln_phi": 0.6743, "ln_sigma": 0.7972, "ln_sigma_rock": 0.8055, "ln_sigma_soil": 0.797, "ln_bias": 0.134, "ln_bias_sigma": 0.1602}, {"name": "pgv", "value": 16.9809, "value_rock": 9.4712, "value_soil": 23.3402, "units": "cm/s", "ln_tau": 0.3899, "ln_phi": 0.5992, "ln_sigma": 0.7149, "ln_sigma_rock": 0.7223, "ln_sigma_soil": 0.7139, "ln_bias": -0.1573, "ln_bias_sigma": 0.1406}, {"name": "pga", "value": 12.6081, "value_rock": 9.4264, "value_soil": 13.272, "units": "%g", "ln_tau": 0.393, "ln_phi": 0.5845, "ln_sigma": 0.7043, "ln_sigma_rock": 0.7133, "ln_sigma_soil": 0.697, "ln_bias": 0.0179, "ln_bias_sigma": 0.1284}, {"name": "sa(0.3)", "value": 30.6341, "value_rock": 16.8464, "value_soil": 36.4157, "units": "%g", "ln_tau": 0.3783, "ln_phi": 0.6555, "ln_sigma": 0.7568, "ln_sigma_rock": 0.7665, "ln_sigma_soil": 0.7444, "ln_bias": -0.0371, "ln_bias_sigma": 0.1458}, {"name": "mmi", "value": 6.3627, "value_rock": 5.5614, "value_soil": 6.7992, "units": "intensity", "tau": 0.5352, "phi": 1.0359, "sigma": 1.166, "sigma_rock": 1.1745, "sigma_soil": 1.1648, "bias": -0.0767, "bias_sigma": 0.2134}], "mmi_from_pgm": [{"name": "sa(3.0)", "value": 6.67, "sigma": 0.89, "flag": "0"}, {"name": "sa(1.0)", "value": 6.15, "sigma": 0.75, "flag": "0"}, {"name": "pgv", "value": 5.8, "sigma": 0.63, "flag": "0"}, {"name": "pga", "value": 5.19, "sigma": 0.66, "flag": "0"}, {"name": "sa(0.3)", "value": 5.97, "sigma": 0.82, "flag": "0"}], "distance_stddev": 0.0, "distances": {"repi": 91.566, "rhypo": 93.13, "rjb": 52.964, "rjb_var": 0.0, "rrup": 53.088, "rrup_var": 0.0, "rx": 41.93, "ry0": 173.036, "rvolc": 0.0}}, "geometry": {"type": "Point", "coordinates": [28.82, 40.982]}}, {"type": "Feature", "id": "G.ERG", "properties": {"code": "ERG", "name": "Eregli-Kaymakamlik Binasi", "instrumentType": "UNK", "source": "G", "network": "G", "commType": "UNK", "location": "", "intensity": 6.0, "intensity_flag": "", "intensity_stddev": 0.63, "pga": 10.2041, "pgv": 13.0, "distance": 133.9, "elev": null, "vs30": 600.0, "channels": [{"name": "Z", "amplitudes": [{"name": "sa(1.0)", "value": 3.2857, "units": "%g", "flag": "0", "ln_sigma": 0.0}, {"name": "sa(0.3)", "value": 13.2653, "units": "%g", "flag": "0", "ln_sigma": 0.0}, {"name": "sa(3.0)", "value": 1.1633, "units": "%g", "flag": "0", "ln_sigma": 0.0}, {"name": "pgv", "value": 4.02, "units": "cm/s", "flag": "0", "ln_sigma": 0.0}, {"name": "pga", "value": 5.6429, "units": "%g", "flag": "0", "ln_sigma": 0.0}]}, {"name": "N", "amplitudes": [{"name": "sa(1.0)", "value": 22.449, "units": "%g", "flag": "0", "ln_sigma": 0.0}, {"name": "sa(0.3)", "value": 16.9388, "units": "%g", "flag": "0", "ln_sigma": 0.0}, {"name": "sa(3.0)", "value": 1.6735, "units": "%g", "flag": "0", "ln_sigma": 0.0}, {"name": "pgv", "value": 8.95, "units": "cm/s", "flag": "0", "ln_sigma": 0.0}, {"name": "pga", "value": 10.2041, "units": "%g", "flag": "0", "ln_sigma": 0.0}]}, {"name": "E", "amplitudes": [{"name": "sa(1.0)", "value": 25.102, "units": "%g", "flag": "0", "ln_sigma": 0.0}, {"name": "sa(0.3)", "value": 20.5102, "units": "%g", "flag": "0", "ln_sigma": 0.0}, {"name": "sa(3.0)", "value": 2.4388, "units": "%g", "flag": "0", "ln_sigma": 0.0}, {"name": "pgv", "value": 13.0, "units": "cm/s", "flag": "0", "ln_sigma": 0.0}, {"name": "pga", "value": 9.1735, "units": "%g", "flag": "0", "ln_sigma": 0.0}]}], "station_type": "seismic", "nresp": "null", "predictions": [{"name": "sa(3.0)", "value": 1.7254, "value_rock": 1.4187, "value_soil": 4.4263, "units": "%g", "ln_tau": 0.4328, "ln_phi": 0.6583, "ln_sigma": 0.7878, "ln_sigma_rock": 0.7985, "ln_sigma_soil": 0.7985, "ln_bias": -0.1776, "ln_bias_sigma": 0.1696}, {"name": "sa(1.0)", "value": 4.8082, "value_rock": 3.7814, "value_soil": 14.0917, "units": "%g", "ln_tau": 0.4265, "ln_phi": 0.6763, "ln_sigma": 0.7995, "ln_sigma_rock": 0.8063, "ln_sigma_soil": 0.801, "ln_bias": 0.1341, "ln_bias_sigma": 0.1602}, {"name": "pgv", "value": 5.0306, "value_rock": 4.2116, "value_soil": 11.0044, "units": "cm/s", "ln_tau": 0.3911, "ln_phi": 0.6014, "ln_sigma": 0.7174, "ln_sigma_rock": 0.7232, "ln_sigma_soil": 0.7169, "ln_bias": -0.1575, "ln_bias_sigma": 0.1407}, {"name": "pga", "value": 3.8429, "value_rock": 3.4437, "value_soil": 5.3216, "units": "%g", "ln_tau": 0.3974, "ln_phi": 0.5893, "ln_sigma": 0.7108, "ln_sigma_rock": 0.7143, "ln_sigma_soil": 0.7048, "ln_bias": 0.018, "ln_bias_sigma": 0.1286}, {"name": "sa(0.3)", "value": 8.0328, "value_rock": 6.4764, "value_soil": 16.1128, "units": "%g", "ln_tau": 0.3834, "ln_phi": 0.6621, "ln_sigma": 0.7651, "ln_sigma_rock": 0.7683, "ln_sigma_soil": 0.7557, "ln_bias": -0.0372, "ln_bias_sigma": 0.1461}, {"name": "mmi", "value": 4.6931, "value_rock": 4.4492, "value_soil": 5.7674, "units": "intensity", "tau": 0.5367, "phi": 1.0383, "sigma": 1.1688, "sigma_rock": 1.1756, "sigma_soil": 1.1683, "bias": -0.0768, "bias_sigma": 0.2135}], "mmi_from_pgm": [{"name": "sa(3.0)", "value": 5.31, "sigma": 0.89, "flag": "0"}, {"name": "sa(1.0)", "value": 6.25, "sigma": 0.75, "flag": "0"}, {"name": "pgv", "value": 6.0, "sigma": 0.63, "flag": "0"}, {"name": "pga", "value": 5.82, "sigma": 0.66, "flag": "0"}, {"name": "sa(0.3)", "value": 5.61, "sigma": 0.82, "flag": "0"}], "distance_stddev": 0.0, "distances": {"repi": 176.302, "rhypo": 177.119, "rjb": 133.86, "rjb_var": 0.0, "rrup": 133.9, "rrup_var": 0.0, "rx": 59.429, "ry0": 255.451, "rvolc": 0.0}}, "geometry": {"type": "Point", "coordinates": [27.79, 40.98]}}, {"type": "Feature", "id": "G.FAT", "properties": {"code": "FAT", "name": "Fatih-Tomb", "instrumentType": "UNK", "source": "G", "network": "G", "commType": "UNK", "location": "", "intensity": 6.0, "intensity_flag": "", "intensity_stddev": 0.63, "pga": 17.9592, "pgv": 12.9, "distance": 47.474, "elev": null, "vs30": 391.99, "channels": [{"name": "Z", "amplitudes": [{"name": "sa(1.0)", "value": 3.4796, "units": "%g", "flag": "0", "ln_sigma": 0.0}, {"name": "sa(0.3)", "value": 28.6735, "units": "%g", "flag": "0", "ln_sigma": 0.0}, {"name": "sa(3.0)", "value": 1.8265, "units": "%g", "flag": "0", "ln_sigma": 0.0}, {"name": "pgv", "value": 4.74, "units": "cm/s", "flag": "0", "ln_sigma": 0.0}, {"name": "pga", "value": 11.4286, "units": "%g", "flag": "0", "ln_sigma": 0.0}]}, {"name": "N", "amplitudes": [{"name": "sa(1.0)", "value": 5.5714, "units": "%g", "flag": "0", "ln_sigma": 0.0}, {"name": "sa(0.3)", "value": 47.6531, "units": "%g", "flag": "0", "ln_sigma": 0.0}, {"name": "sa(3.0)", "value": 2.2449, "units": "%g", "flag": "0", "ln_sigma": 0.0}, {"name": "pgv", "value": 9.91, "units": "cm/s", "flag": "0", "ln_sigma": 0.0}, {"name": "pga", "value": 15.9184, "units": "%g", "flag": "0", "ln_sigma": 0.0}]}, {"name": "E", "amplitudes": [{"name": "sa(1.0)", "value": 12.0408, "units": "%g", "flag": "0", "ln_sigma": 0.0}, {"name": "sa(0.3)", "value": 40.0, "units": "%g", "flag": "0", "ln_sigma": 0.0}, {"name": "sa(3.0)", "value": 2.5408, "units": "%g", "flag": "0", "ln_sigma": 0.0}, {"name": "pgv", "value": 12.9, "units": "cm/s", "flag": "0", "ln_sigma": 0.0}, {"name": "pga", "value": 17.9592, "units": "%g", "flag": "0", "ln_sigma": 0.0}]}], "station_type": "seismic", "nresp": "null", "predictions": [{"name": "sa(3.0)", "value": 5.1671, "value_rock": 3.1094, "value_soil": 9.4077, "units": "%g", "ln_tau": 0.4327, "ln_phi": 0.6579, "ln_sigma": 0.7875, "ln_sigma_rock": 0.7982, "ln_sigma_soil": 0.7982, "ln_bias": -0.1776, "ln_bias_sigma": 0.1696}, {"name": "sa(1.0)", "value": 15.6937, "value_rock": 8.5829, "value_soil": 29.2276, "units": "%g", "ln_tau": 0.4261, "ln_phi": 0.6751, "ln_sigma": 0.7984, "ln_sigma_rock": 0.8055, "ln_sigma_soil": 0.7965, "ln_bias": 0.1341, "ln_bias_sigma": 0.1602}, {"name": "pgv", "value": 16.0766, "value_rock": 10.4143, "value_soil": 25.4527, "units": "cm/s", "ln_tau": 0.3907, "ln_phi": 0.6, "ln_sigma": 0.716, "ln_sigma_rock": 0.7223, "ln_sigma_soil": 0.7136, "ln_bias": -0.1574, "ln_bias_sigma": 0.1407}, {"name": "pga", "value": 13.1787, "value_rock": 10.4992, "value_soil": 14.591, "units": "%g", "ln_tau": 0.3947, "ln_phi": 0.5859, "ln_sigma": 0.7065, "ln_sigma_rock": 0.7133, "ln_sigma_soil": 0.6962, "ln_bias": 0.0179, "ln_bias_sigma": 0.1285}, {"name": "sa(0.3)", "value": 29.7005, "value_rock": 18.693, "value_soil": 39.6124, "units": "%g", "ln_tau": 0.381, "ln_phi": 0.658, "ln_sigma": 0.7603, "ln_sigma_rock": 0.7665, "ln_sigma_soil": 0.7433, "ln_bias": -0.0371, "ln_bias_sigma": 0.1459}, {"name": "mmi", "value": 6.2876, "value_rock": 5.6917, "value_soil": 6.9181, "units": "intensity", "tau": 0.5362, "phi": 1.0368, "sigma": 1.1673, "sigma_rock": 1.1745, "sigma_soil": 1.1645, "bias": -0.0767, "bias_sigma": 0.2134}], "mmi_from_pgm": [{"name": "sa(3.0)", "value": 5.62, "sigma": 0.89, "flag": "0"}, {"name": "sa(1.0)", "value": 5.54, "sigma": 0.75, "flag": "0"}, {"name": "pgv", "value": 5.99, "sigma": 0.63, "flag": "0"}, {"name": "pga", "value": 6.27, "sigma": 0.66, "flag": "0"}, {"name": "sa(0.3)", "value": 6.86, "sigma": 0.82, "flag": "0"}], "distance_stddev": 0.0, "distances": {"repi": 82.575, "rhypo": 84.307, "rjb": 47.316, "rjb_var": 0.0, "rrup": 47.474, "rrup_var": 0.0, "rx": 44.061, "ry0": 161.842, "rvolc": 0.0}}, "geometry": {"type": "Point", "coordinates": [28.95, 41.02]}}, {"type": "Feature", "id": "G.KUT", "properties": {"code": "KUT", "name": "Kutahya-Sivil Savunma Mudurlugu", "instrumentType": "UNK", "source": "G", "network": "G", "commType": "UNK", "location": "", "intensity": 6.0, "intensity_flag": "", "intensity_stddev": 0.63, "pga": 6.051, "pgv": 12.7, "distance": 144.958, "elev": null, "vs30": 272.85, "channels": [{"name": "Z", "amplitudes": [{"name": "sa(1.0)", "value": 5.7449, "units": "%g", "flag": "0", "ln_sigma": 0.0}, {"name": "sa(0.3)", "value": 3.6224, "units": "%g", "flag": "0", "ln_sigma": 0.0}, {"name": "sa(3.0)", "value": 1.9796, "units": "%g", "flag": "0", "ln_sigma": 0.0}, {"name": "pgv", "value": 4.95, "units": "cm/s", "flag": "0", "ln_sigma": 0.0}, {"name": "pga", "value": 2.3367, "units": "%g", "flag": "0", "ln_sigma": 0.0}]}, {"name": "N", "amplitudes": [{"name": "sa(1.0)", "value": 23.3673, "units": "%g", "flag": "0", "ln_sigma": 0.0}, {"name": "sa(0.3)", "value": 11.5306, "units": "%g", "flag": "0", "ln_sigma": 0.0}, {"name": "sa(3.0)", "value": 9.7551, "units": "%g", "flag": "0", "ln_sigma": 0.0}, {"name": "pgv", "value": 12.7, "units": "cm/s", "flag": "0", "ln_sigma": 0.0}, {"name": "pga", "value": 6.051, "units": "%g", "flag": "0", "ln_sigma": 0.0}]}, {"name": "E", "amplitudes": [{"name": "sa(1.0)", "value": 11.4286, "units": "%g", "flag": "0", "ln_sigma": 0.0}, {"name": "sa(0.3)", "value": 9.4796, "units": "%g", "flag": "0", "ln_sigma": 0.0}, {"name": "sa(3.0)", "value": 6.3776, "units": "%g", "flag": "0", "ln_sigma": 0.0}, {"name": "pgv", "value": 9.09, "units": "cm/s", "flag": "0", "ln_sigma": 0.0}, {"name": "pga", "value": 5.0918, "units": "%g", "flag": "0", "ln_sigma": 0.0}]}], "station_type": "seismic", "nresp": "null", "predictions": [{"name": "sa(3.0)", "value": 2.9929, "value_rock": 1.3336, "value_soil": 4.1688, "units": "%g", "ln_tau": 0.4327, "ln_phi": 0.6591, "ln_sigma": 0.7884, "ln_sigma_rock": 0.7992, "ln_sigma_soil": 0.7993, "ln_bias": -0.1776, "ln_bias_sigma": 0.1696}, {"name": "sa(1.0)", "value": 9.2801, "value_rock": 3.5393, "value_soil": 13.261, "units": "%g", "ln_tau": 0.4257, "ln_phi": 0.6756, "ln_sigma": 0.7986, "ln_sigma_rock": 0.8067, "ln_sigma_soil": 0.8017, "ln_bias": 0.134, "ln_bias_sigma": 0.1602}, {"name": "pgv", "value": 7.9025, "value_rock": 3.9196, "value_soil": 10.2825, "units": "cm/s", "ln_tau": 0.3903, "ln_phi": 0.5997, "ln_sigma": 0.7155, "ln_sigma_rock": 0.7235, "ln_sigma_soil": 0.7173, "ln_bias": -0.1574, "ln_bias_sigma": 0.1406}, {"name": "pga", "value": 4.3845, "value_rock": 3.1193, "value_soil": 4.8512, "units": "%g", "ln_tau": 0.3958, "ln_phi": 0.5872, "ln_sigma": 0.7081, "ln_sigma_rock": 0.7147, "ln_sigma_soil": 0.7057, "ln_bias": 0.0179, "ln_bias_sigma": 0.1285}, {"name": "sa(0.3)", "value": 12.0344, "value_rock": 5.9027, "value_soil": 14.8268, "units": "%g", "ln_tau": 0.3813, "ln_phi": 0.6599, "ln_sigma": 0.7621, "ln_sigma_rock": 0.7688, "ln_sigma_soil": 0.757, "ln_bias": -0.0371, "ln_bias_sigma": 0.146}, {"name": "mmi", "value": 5.3129, "value_rock": 4.3506, "value_soil": 5.6742, "units": "intensity", "tau": 0.5357, "phi": 1.0364, "sigma": 1.1667, "sigma_rock": 1.1759, "sigma_soil": 1.1688, "bias": -0.0767, "bias_sigma": 0.2134}], "mmi_from_pgm": [{"name": "sa(3.0)", "value": 7.1, "sigma": 0.89, "flag": "0"}, {"name": "sa(1.0)", "value": 6.14, "sigma": 0.75, "flag": "0"}, {"name": "pgv", "value": 5.96, "sigma": 0.63, "flag": "0"}, {"name": "pga", "value": 5.02, "sigma": 0.66, "flag": "0"}, {"name": "sa(0.3)", "value": 4.98, "sigma": 0.82, "flag": "0"}], "distance_stddev": 0.0, "distances": {"repi": 148.211, "rhypo": 149.182, "rjb": 144.958, "rjb_var": 0.0, "rrup": 144.958, "rrup_var": 0.0, "rx": -133.82, "ry0": 103.99, "rvolc": 0.0}}, "geometry": {"type": "Point", "coordinates": [29.997, 39.419]}}, {"type": "Feature", "id": "G.IZT", "properties": {"code": "IZT", "name": "Izmit-Meteoroloji Istasyonu", "instrumentType": "UNK", "source": "G", "network": "G", "commType": "UNK", "location": "", "intensity": 7.0, "intensity_flag": "", "intensity_stddev": 0.63, "pga": 22.3469, "pgv": 26.6, "distance": 2.997, "elev": null, "vs30": 587.9, "channels": [{"name": "Z", "amplitudes": [{"name": "sa(1.0)", "value": 8.5714, "units": "%g", "flag": "0", "ln_sigma": 0.0}, {"name": "sa(0.3)", "value": 22.2449, "units": "%g", "flag": "0", "ln_sigma": 0.0}, {"name": "sa(3.0)", "value": 3.6429, "units": "%g", "flag": "0", "ln_sigma": 0.0}, {"name": "pgv", "value": 10.9, "units": "cm/s", "flag": "0", "ln_sigma": 0.0}, {"name": "pga", "value": 14.1837, "units": "%g", "flag": "0", "ln_sigma": 0.0}]}, {"name": "N", "amplitudes": [{"name": "sa(1.0)", "value": 26.5306, "units": "%g", "flag": "0", "ln_sigma": 0.0}, {"name": "sa(0.3)", "value": 106.1224, "units": "%g", "flag": "0", "ln_sigma": 0.0}, {"name": "sa(3.0)", "value": 7.0816, "units": "%g", "flag": "0", "ln_sigma": 0.0}, {"name": "pgv", "value": 26.6, "units": "cm/s", "flag": "0", "ln_sigma"