{"type": "FeatureCollection", "features": [{"type": "Feature", "id": "G.BOS", "properties": {"code": "BOS", "name": "Boshroyeh", "instrumentType": "UNK", "source": "G", "network": "G", "commType": "UNK", "location": "", "intensity": 6.2, "intensity_flag": "", "intensity_stddev": 0.63, "pga": 10.2041, "pgv": 14.7, "distance": 23.469, "elev": null, "vs30": 331.31, "channels": [{"name": "N", "amplitudes": [{"name": "sa(1.0)", "value": 11.4286, "units": "%g", "flag": "0", "ln_sigma": 0.0}, {"name": "sa(0.3)", "value": 20.3061, "units": "%g", "flag": "0", "ln_sigma": 0.0}, {"name": "sa(3.0)", "value": 7.9592, "units": "%g", "flag": "0", "ln_sigma": 0.0}, {"name": "pga", "value": 8.7041, "units": "%g", "flag": "0", "ln_sigma": 0.0}, {"name": "pgv", "value": 14.7, "units": "cm/s", "flag": "0", "ln_sigma": 0.0}]}, {"name": "Z", "amplitudes": [{"name": "sa(1.0)", "value": 7.1531, "units": "%g", "flag": "0", "ln_sigma": 0.0}, {"name": "sa(0.3)", "value": 17.2449, "units": "%g", "flag": "0", "ln_sigma": 0.0}, {"name": "sa(3.0)", "value": 3.5816, "units": "%g", "flag": "0", "ln_sigma": 0.0}, {"name": "pga", "value": 7.9388, "units": "%g", "flag": "0", "ln_sigma": 0.0}, {"name": "pgv", "value": 10.0, "units": "cm/s", "flag": "0", "ln_sigma": 0.0}]}, {"name": "E", "amplitudes": [{"name": "sa(1.0)", "value": 17.0408, "units": "%g", "flag": "0", "ln_sigma": 0.0}, {"name": "sa(0.3)", "value": 21.4286, "units": "%g", "flag": "0", "ln_sigma": 0.0}, {"name": "sa(3.0)", "value": 3.449, "units": "%g", "flag": "0", "ln_sigma": 0.0}, {"name": "pga", "value": 10.2041, "units": "%g", "flag": "0", "ln_sigma": 0.0}, {"name": "pgv", "value": 11.1, "units": "cm/s", "flag": "0", "ln_sigma": 0.0}]}], "station_type": "seismic", "nresp": "null", "predictions": [{"name": "pga", "value": 40.6342, "value_rock": 36.3738, "value_soil": 35.3934, "units": "%g", "ln_tau": 0.2486, "ln_phi": 0.459, "ln_sigma": 0.522, "ln_sigma_rock": 0.5891, "ln_sigma_soil": 0.4446, "ln_bias": -0.0318, "ln_bias_sigma": 0.1115}, {"name": "pgv", "value": 42.2274, "value_rock": 25.0295, "value_soil": 51.9552, "units": "cm/s", "ln_tau": 0.2968, "ln_phi": 0.486, "ln_sigma": 0.5695, "ln_sigma_rock": 0.5835, "ln_sigma_soil": 0.5313, "ln_bias": -0.4302, "ln_bias_sigma": 0.1243}, {"name": "sa(1.0)", "value": 53.2258, "value_rock": 24.3377, "value_soil": 72.4711, "units": "%g", "ln_tau": 0.3324, "ln_phi": 0.6092, "ln_sigma": 0.694, "ln_sigma_rock": 0.7065, "ln_sigma_soil": 0.6205, "ln_bias": -0.335, "ln_bias_sigma": 0.1513}, {"name": "sa(0.3)", "value": 107.4223, "value_rock": 71.43, "value_soil": 93.104, "units": "%g", "ln_tau": 0.2584, "ln_phi": 0.5185, "ln_sigma": 0.5794, "ln_sigma_rock": 0.6559, "ln_sigma_soil": 0.4566, "ln_bias": -0.3459, "ln_bias_sigma": 0.1245}, {"name": "sa(3.0)", "value": 11.9559, "value_rock": 5.1264, "value_soil": 21.7371, "units": "%g", "ln_tau": 0.3652, "ln_phi": 0.6033, "ln_sigma": 0.7052, "ln_sigma_rock": 0.707, "ln_sigma_soil": 0.7057, "ln_bias": -0.5146, "ln_bias_sigma": 0.1673}, {"name": "mmi", "value": 7.6129, "value_rock": 6.8951, "value_soil": 7.8974, "units": "intensity", "tau": 0.4073, "phi": 0.9175, "sigma": 1.0038, "sigma_rock": 1.0189, "sigma_soil": 0.9636, "bias": -0.4749, "bias_sigma": 0.2006}], "mmi_from_pgm": [{"name": "pga", "value": 5.05, "sigma": 0.66, "flag": "0"}, {"name": "pgv", "value": 6.16, "sigma": 0.63, "flag": "0"}, {"name": "sa(1.0)", "value": 6.13, "sigma": 0.75, "flag": "0"}, {"name": "sa(0.3)", "value": 5.24, "sigma": 0.82, "flag": "0"}, {"name": "sa(3.0)", "value": 7.28, "sigma": 0.89, "flag": "0"}], "distance_stddev": 0.0, "distances": {"repi": 52.722, "rhypo": 62.198, "rjb": 12.405, "rjb_var": 0.0, "rrup": 23.469, "rrup_var": 0.0, "rx": 53.407, "ry0": 3.297}}, "geometry": {"type": "Point", "coordinates": [57.42, 33.86]}}, {"type": "Feature", "id": "G.FER", "properties": {"code": "FER", "name": "Ferdoos", "instrumentType": "UNK", "source": "G", "network": "G", "commType": "UNK", "location": "", "intensity": 4.9, "intensity_flag": "", "intensity_stddev": 0.63, "pga": 10.2041, "pgv": 5.8, "distance": 83.804, "elev": null, "vs30": 274.2, "channels": [{"name": "N", "amplitudes": [{"name": "sa(1.0)", "value": 5.3776, "units": "%g", "flag": "0", "ln_sigma": 0.0}, {"name": "sa(0.3)", "value": 17.0408, "units": "%g", "flag": "0", "ln_sigma": 0.0}, {"name": "sa(3.0)", "value": 1.2143, "units": "%g", "flag": "0", "ln_sigma": 0.0}, {"name": "pga", "value": 10.2041, "units": "%g", "flag": "0", "ln_sigma": 0.0}, {"name": "pgv", "value": 5.8, "units": "cm/s", "flag": "0", "ln_sigma": 0.0}]}, {"name": "Z", "amplitudes": [{"name": "sa(1.0)", "value": 3.2143, "units": "%g", "flag": "0", "ln_sigma": 0.0}, {"name": "sa(0.3)", "value": 7.8163, "units": "%g", "flag": "0", "ln_sigma": 0.0}, {"name": "sa(3.0)", "value": 1.8265, "units": "%g", "flag": "0", "ln_sigma": 0.0}, {"name": "pga", "value": 5.3163, "units": "%g", "flag": "0", "ln_sigma": 0.0}, {"name": "pgv", "value": 4.98, "units": "cm/s", "flag": "0", "ln_sigma": 0.0}]}, {"name": "E", "amplitudes": [{"name": "sa(1.0)", "value": 3.7041, "units": "%g", "flag": "0", "ln_sigma": 0.0}, {"name": "sa(0.3)", "value": 26.9388, "units": "%g", "flag": "0", "ln_sigma": 0.0}, {"name": "sa(3.0)", "value": 1.4286, "units": "%g", "flag": "0", "ln_sigma": 0.0}, {"name": "pga", "value": 9.2347, "units": "%g", "flag": "0", "ln_sigma": 0.0}, {"name": "pgv", "value": 4.54, "units": "cm/s", "flag": "0", "ln_sigma": 0.0}]}], "station_type": "seismic", "nresp": "null", "predictions": [{"name": "pga", "value": 9.4697, "value_rock": 6.6641, "value_soil": 10.4705, "units": "%g", "ln_tau": 0.2833, "ln_phi": 0.4838, "ln_sigma": 0.5606, "ln_sigma_rock": 0.5921, "ln_sigma_soil": 0.5344, "ln_bias": -0.0333, "ln_bias_sigma": 0.1141}, {"name": "pgv", "value": 13.2448, "value_rock": 6.752, "value_soil": 16.8267, "units": "cm/s", "ln_tau": 0.2985, "ln_phi": 0.4877, "ln_sigma": 0.5718, "ln_sigma_rock": 0.5836, "ln_sigma_soil": 0.5587, "ln_bias": -0.431, "ln_bias_sigma": 0.1244}, {"name": "sa(1.0)", "value": 14.2756, "value_rock": 5.3273, "value_soil": 20.3576, "units": "%g", "ln_tau": 0.3333, "ln_phi": 0.6102, "ln_sigma": 0.6953, "ln_sigma_rock": 0.7067, "ln_sigma_soil": 0.6753, "ln_bias": -0.3354, "ln_bias_sigma": 0.1514}, {"name": "sa(0.3)", "value": 26.701, "value_rock": 12.86, "value_soil": 33.2822, "units": "%g", "ln_tau": 0.289, "ln_phi": 0.5465, "ln_sigma": 0.6182, "ln_sigma_rock": 0.6567, "ln_sigma_soil": 0.5776, "ln_bias": -0.3628, "ln_bias_sigma": 0.1276}, {"name": "sa(3.0)", "value": 4.3819, "value_rock": 1.5623, "value_soil": 6.6404, "units": "%g", "ln_tau": 0.3654, "ln_phi": 0.6035, "ln_sigma": 0.7056, "ln_sigma_rock": 0.7071, "ln_sigma_soil": 0.7063, "ln_bias": -0.5147, "ln_bias_sigma": 0.1673}, {"name": "mmi", "value": 6.0217, "value_rock": 5.097, "value_soil": 6.3502, "units": "intensity", "tau": 0.4097, "phi": 0.9192, "sigma": 1.0063, "sigma_rock": 1.019, "sigma_soil": 0.9923, "bias": -0.4762, "bias_sigma": 0.2009}], "mmi_from_pgm": [{"name": "pga", "value": 5.61, "sigma": 0.66, "flag": "0"}, {"name": "pgv", "value": 4.89, "sigma": 0.63, "flag": "0"}, {"name": "sa(1.0)", "value": 4.41, "sigma": 0.75, "flag": "0"}, {"name": "sa(0.3)", "value": 5.98, "sigma": 0.82, "flag": "0"}, {"name": "sa(3.0)", "value": 4.72, "sigma": 0.89, "flag": "0"}], "distance_stddev": 0.0, "distances": {"repi": 96.567, "rhypo": 102.05, "rjb": 81.512, "rjb_var": 0.0, "rrup": 83.804, "rrup_var": 0.0, "rx": 115.444, "ry0": 0.0}}, "geometry": {"type": "Point", "coordinates": [58.16, 34.01]}}, {"type": "Feature", "id": "G.BRJ", "properties": {"code": "BRJ", "name": "Birjand", "instrumentType": "UNK", "source": "G", "network": "G", "commType": "UNK", "location": "", "intensity": "null", "intensity_flag": "", "intensity_stddev": "null", "pga": 1.6633, "pgv": "null", "distance": 160.799, "elev": null, "vs30": 377.44, "channels": [{"name": "UNK", "amplitudes": [{"name": "pga", "value": 1.6633, "units": "%g", "flag": "0", "ln_sigma": 0.0}]}], "station_type": "seismic", "nresp": "null", "predictions": [{"name": "pga", "value": 3.4161, "value_rock": 2.5719, "value_soil": 4.4745, "units": "%g", "ln_tau": 0.303, "ln_phi": 0.5005, "ln_sigma": 0.585, "ln_sigma_rock": 0.5928, "ln_sigma_soil": 0.5664, "ln_bias": -0.034, "ln_bias_sigma": 0.1153}, {"name": "pgv", "value": 6.0532, "value_rock": 3.7227, "value_soil": 9.6754, "units": "cm/s", "ln_tau": 0.3047, "ln_phi": 0.4938, "ln_sigma": 0.5802, "ln_sigma_rock": 0.5836, "ln_sigma_soil": 0.5684, "ln_bias": -0.4341, "ln_bias_sigma": 0.1249}, {"name": "sa(1.0)", "value": 5.7637, "value_rock": 2.8427, "value_soil": 11.4055, "units": "%g", "ln_tau": 0.3402, "ln_phi": 0.6173, "ln_sigma": 0.7049, "ln_sigma_rock": 0.7067, "ln_sigma_soil": 0.6892, "ln_bias": -0.3382, "ln_bias_sigma": 0.1521}, {"name": "sa(0.3)", "value": 8.7755, "value_rock": 4.9929, "value_soil": 14.8154, "units": "%g", "ln_tau": 0.3132, "ln_phi": 0.5694, "ln_sigma": 0.6498, "ln_sigma_rock": 0.657, "ln_sigma_soil": 0.6215, "ln_bias": -0.3736, "ln_bias_sigma": 0.1294}, {"name": "sa(3.0)", "value": 1.9035, "value_rock": 0.9241, "value_soil": 3.9302, "units": "%g", "ln_tau": 0.3657, "ln_phi": 0.6038, "ln_sigma": 0.7059, "ln_sigma_rock": 0.7072, "ln_sigma_soil": 0.7065, "ln_bias": -0.5149, "ln_bias_sigma": 0.1673}, {"name": "mmi", "value": 4.9471, "value_rock": 4.2799, "value_soil": 5.5907, "units": "intensity", "tau": 0.4182, "phi": 0.9252, "sigma": 1.0154, "sigma_rock": 1.019, "sigma_soil": 1.0027, "bias": -0.4809, "bias_sigma": 0.2019}], "mmi_from_pgm": [{"name": "pga", "value": 3.76, "sigma": 0.66, "flag": "0"}, {"name": "pgv", "value": null, "sigma": null, "flag": "0"}, {"name": "sa(1.0)", "value": null, "sigma": null, "flag": "0"}, {"name": "sa(0.3)", "value": null, "sigma": null, "flag": "0"}, {"name": "sa(3.0)", "value": null, "sigma": null, "flag": "0"}], "distance_stddev": 0.0, "distances": {"repi": 175.049, "rhypo": 178.132, "rjb": 159.801, "rjb_var": 0.0, "rrup": 160.799, "rrup_var": 0.0, "rx": 132.859, "ry0": 94.731}}, "geometry": {"type": "Point", "coordinates": [59.21, 32.87]}}, {"type": "Feature", "id": "G.DAY", "properties": {"code": "DAY", "name": "Dayhook", "instrumentType": "UNK", "source": "G", "network": "G", "commType": "UNK", "location": "", "intensity": 6.9, "intensity_flag": "", "intensity_stddev": 0.63, "pga": 38.5714, "pgv": 24.6, "distance": 11.981, "elev": null, "vs30": 401.07, "channels": [{"name": "N", "amplitudes": [{"name": "sa(1.0)", "value": 34.898, "units": "%g", "flag": "0", "ln_sigma": 0.0}, {"name": "sa(0.3)", "value": 59.898, "units": "%g", "flag": "0", "ln_sigma": 0.0}, {"name": "sa(3.0)", "value": 5.551, "units": "%g", "flag": "0", "ln_sigma": 0.0}, {"name": "pga", "value": 38.5714, "units": "%g", "flag": "0", "ln_sigma": 0.0}, {"name": "pgv", "value": 24.6, "units": "cm/s", "flag": "0", "ln_sigma": 0.0}]}, {"name": "Z", "amplitudes": [{"name": "sa(1.0)", "value": 12.1429, "units": "%g", "flag": "0", "ln_sigma": 0.0}, {"name": "sa(0.3)", "value": 27.0408, "units": "%g", "flag": "0", "ln_sigma": 0.0}, {"name": "sa(3.0)", "value": 3.4184, "units": "%g", "flag": "0", "ln_sigma": 0.0}, {"name": "pga", "value": 17.449, "units": "%g", "flag": "0", "ln_sigma": 0.0}, {"name": "pgv", "value": 10.8, "units": "cm/s", "flag": "0", "ln_sigma": 0.0}]}, {"name": "E", "amplitudes": [{"name": "sa(1.0)", "value": 22.9592, "units": "%g", "flag": "0", "ln_sigma": 0.0}, {"name": "sa(0.3)", "value": 55.102, "units": "%g", "flag": "0", "ln_sigma": 0.0}, {"name": "sa(3.0)", "value": 5.4898, "units": "%g", "flag": "0", "ln_sigma": 0.0}, {"name": "pga", "value": 33.8776, "units": "%g", "flag": "0", "ln_sigma": 0.0}, {"name": "pgv", "value": 17.7, "units": "cm/s", "flag": "0", "ln_sigma": 0.0}]}], "station_type": "seismic", "nresp": "null", "predictions": [{"name": "pga", "value": 85.6919, "value_rock": 87.2597, "value_soil": 56.395, "units": "%g", "ln_tau": 0.2497, "ln_phi": 0.4603, "ln_sigma": 0.5237, "ln_sigma_rock": 0.5866, "ln_sigma_soil": 0.4231, "ln_bias": -0.0319, "ln_bias_sigma": 0.1116}, {"name": "pgv", "value": 77.6824, "value_rock": 50.7938, "value_soil": 85.7127, "units": "cm/s", "ln_tau": 0.303, "ln_phi": 0.492, "ln_sigma": 0.5778, "ln_sigma_rock": 0.5835, "ln_sigma_soil": 0.5198, "ln_bias": -0.4332, "ln_bias_sigma": 0.1248}, {"name": "sa(1.0)", "value": 105.413, "value_rock": 56.3204, "value_soil": 127.5036, "units": "%g", "ln_tau": 0.3372, "ln_phi": 0.6143, "ln_sigma": 0.7008, "ln_sigma_rock": 0.7065, "ln_sigma_soil": 0.5904, "ln_bias": -0.337, "ln_bias_sigma": 0.1518}, {"name": "sa(0.3)", "value": 226.9307, "value_rock": 175.4441, "value_soil": 120.9371, "units": "%g", "ln_tau": 0.2749, "ln_phi": 0.5322, "ln_sigma": 0.599, "ln_sigma_rock": 0.6556, "ln_sigma_soil": 0.432, "ln_bias": -0.3555, "ln_bias_sigma": 0.1263}, {"name": "sa(3.0)", "value": 18.408, "value_rock": 9.4997, "value_soil": 40.2098, "units": "%g", "ln_tau": 0.3652, "ln_phi": 0.6033, "ln_sigma": 0.7053, "ln_sigma_rock": 0.7069, "ln_sigma_soil": 0.7055, "ln_bias": -0.5146, "ln_bias_sigma": 0.1673}, {"name": "mmi", "value": 8.4494, "value_rock": 7.8664, "value_soil": 8.5844, "units": "intensity", "tau": 0.4158, "phi": 0.9234, "sigma": 1.0127, "sigma_rock": 1.0189, "sigma_soil": 0.9517, "bias": -0.4796, "bias_sigma": 0.2016}], "mmi_from_pgm": [{"name": "pga", "value": 6.89, "sigma": 0.66, "flag": "0"}, {"name": "pgv", "value": 6.87, "sigma": 0.63, "flag": "0"}, {"name": "sa(1.0)", "value": 7.17, "sigma": 0.75, "flag": "0"}, {"name": "sa(0.3)", "value": 6.91, "sigma": 0.82, "flag": "0"}, {"name": "sa(3.0)", "value": 6.98, "sigma": 0.89, "flag": "0"}], "distance_stddev": 0.0, "distances": {"repi": 12.31, "rhypo": 35.221, "rjb": 0.0, "rjb_var": 0.0, "rrup": 11.981, "rrup_var": 0.0, "rx": 29.101, "ry0": 0.0}}, "geometry": {"type": "Point", "coordinates": [57.5, 33.29]}}, {"type": "Feature", "id": "G.KAS", "properties": {"code": "KAS", "name": "Kashmar", "instrumentType": "UNK", "source": "G", "network": "G", "commType": "UNK", "location": "", "intensity": 5.3, "intensity_flag": "", "intensity_stddev": 0.63, "pga": 3.8265, "pgv": 7.76, "distance": 185.157, "elev": null, "vs30": 262.89, "channels": [{"name": "N", "amplitudes": [{"name": "sa(1.0)", "value": 7.398, "units": "%g", "flag": "0", "ln_sigma": 0.0}, {"name": "sa(0.3)", "value": 9.102, "units": "%g", "flag": "0", "ln_sigma": 0.0}, {"name": "sa(3.0)", "value": 2.0306, "units": "%g", "flag": "0", "ln_sigma": 0.0}, {"name": "pga", "value": 3.8265, "units": "%g", "flag": "0", "ln_sigma": 0.0}, {"name": "pgv", "value": 7.76, "units": "cm/s", "flag": "0", "ln_sigma": 0.0}]}, {"name": "Z", "amplitudes": [{"name": "sa(1.0)", "value": 5.3061, "units": "%g", "flag": "0", "ln_sigma": 0.0}, {"name": "sa(0.3)", "value": 5.0204, "units": "%g", "flag": "0", "ln_sigma": 0.0}, {"name": "sa(3.0)", "value": 1.7143, "units": "%g", "flag": "0", "ln_sigma": 0.0}, {"name": "pga", "value": 2.7347, "units": "%g", "flag": "0", "ln_sigma": 0.0}, {"name": "pgv", "value": 5.45, "units": "cm/s", "flag": "0", "ln_sigma": 0.0}]}, {"name": "E", "amplitudes": [{"name": "sa(1.0)", "value": 9.8673, "units": "%g", "flag": "0", "ln_sigma": 0.0}, {"name": "sa(0.3)", "value": 7.5408, "units": "%g", "flag": "0", "ln_sigma": 0.0}, {"name": "sa(3.0)", "value": 2.3265, "units": "%g", "flag": "0", "ln_sigma": 0.0}, {"name": "pga", "value": 3.8061, "units": "%g", "flag": "0", "ln_sigma": 0.0}, {"name": "pgv", "value": 7.15, "units": "cm/s", "flag": "0", "ln_sigma": 0.0}]}], "station_type": "seismic", "nresp": "null", "predictions": [{"name": "pga", "value": 3.0523, "value_rock": 1.9901, "value_soil": 3.5175, "units": "%g", "ln_tau": 0.2994, "ln_phi": 0.4973, "ln_sigma": 0.5805, "ln_sigma_rock": 0.5929, "ln_sigma_soil": 0.5719, "ln_bias": -0.0339, "ln_bias_sigma": 0.1151}, {"name": "pgv", "value": 6.6569, "value_rock": 3.2399, "value_soil": 8.4785, "units": "cm/s", "ln_tau": 0.3017, "ln_phi": 0.4907, "ln_sigma": 0.576, "ln_sigma_rock": 0.5836, "ln_sigma_soil": 0.5701, "ln_bias": -0.4326, "ln_bias_sigma": 0.1247}, {"name": "sa(1.0)", "value": 6.9392, "value_rock": 2.4403, "value_soil": 9.8672, "units": "%g", "ln_tau": 0.3371, "ln_phi": 0.6141, "ln_sigma": 0.7005, "ln_sigma_rock": 0.7067, "ln_sigma_soil": 0.6917, "ln_bias": -0.3369, "ln_bias_sigma": 0.1518}, {"name": "sa(0.3)", "value": 8.9294, "value_rock": 3.8738, "value_soil": 11.7348, "units": "%g", "ln_tau": 0.3076, "ln_phi": 0.5641, "ln_sigma": 0.6425, "ln_sigma_rock": 0.6571, "ln_sigma_soil": 0.629, "ln_bias": -0.3712, "ln_bias_sigma": 0.129}, {"name": "sa(3.0)", "value": 2.3972, "value_rock": 0.8201, "value_soil": 3.4884, "units": "%g", "ln_tau": 0.3656, "ln_phi": 0.6037, "ln_sigma": 0.7058, "ln_sigma_rock": 0.7072, "ln_sigma_soil": 0.7066, "ln_bias": -0.5148, "ln_bias_sigma": 0.1673}, {"name": "mmi", "value": 5.0775, "value_rock": 4.1165, "value_soil": 5.4095, "units": "intensity", "tau": 0.414, "phi": 0.9222, "sigma": 1.0108, "sigma_rock": 0.7319, "sigma_soil": 1.0045, "bias": -0.4786, "bias_sigma": 0.2014}], "mmi_from_pgm": [{"name": "pga", "value": 4.39, "sigma": 0.66, "flag": "0"}, {"name": "pgv", "value": 5.29, "sigma": 0.63, "flag": "0"}, {"name": "sa(1.0)", "value": 5.0, "sigma": 0.75, "flag": "0"}, {"name": "sa(0.3)", "value": 4.87, "sigma": 0.82, "flag": "0"}, {"name": "sa(3.0)", "value": 5.16, "sigma": 0.89, "flag": "0"}], "distance_stddev": 0.0, "distances": {"repi": 225.276, "rhypo": 227.68, "rjb": 184.366, "rjb_var": 0.0, "rrup": 185.157, "rrup_var": 0.0, "rx": 191.517, "ry0": 79.959}}, "geometry": {"type": "Point", "coordinates": [58.45, 35.23]}}, {"type": "Feature", "id": "G.BAJ", "properties": {"code": "BAJ", "name": "Bajestan", "instrumentType": "UNK", "source": "G", "network": "G", "commType": "UNK", "location": "", "intensity": 4.6, "intensity_flag": "", "intensity_stddev": 0.63, "pga": 18.9796, "pgv": 4.79, "distance": 110.713, "elev": null, "vs30": 365.18, "channels": [{"name": "N", "amplitudes": [{"name": "sa(1.0)", "value": 3.3061, "units": "%g", "flag": "0", "ln_sigma": 0.0}, {"name": "sa(0.3)", "value": 24.2857, "units": "%g", "flag": "0", "ln_sigma": 0.0}, {"name": "sa(3.0)", "value": 1.2143, "units": "%g", "flag": "0", "ln_sigma": 0.0}, {"name": "pga", "value": 18.9796, "units": "%g", "flag": "0", "ln_sigma": 0.0}, {"name": "pgv", "value": 3.99, "units": "cm/s", "flag": "0", "ln_sigma": 0.0}]}, {"name": "Z", "amplitudes": [{"name": "sa(1.0)", "value": 2.7347, "units": "%g", "flag": "0", "ln_sigma": 0.0}, {"name": "sa(0.3)", "value": 3.3673, "units": "%g", "flag": "0", "ln_sigma": 0.0}, {"name": "sa(3.0)", "value": 1.8265, "units": "%g", "flag": "0", "ln_sigma": 0.0}, {"name": "pga", "value": 2.3878, "units": "%g", "flag": "0", "ln_sigma": 0.0}, {"name": "pgv", "value": 5.35, "units": "cm/s", "flag": "0", "ln_sigma": 0.0}]}, {"name": "E", "amplitudes": [{"name": "sa(1.0)", "value": 3.9286, "units": "%g", "flag": "0", "ln_sigma": 0.0}, {"name": "sa(0.3)", "value": 16.1224, "units": "%g", "flag": "0", "ln_sigma": 0.0}, {"name": "sa(3.0)", "value": 1.5102, "units": "%g", "flag": "0", "ln_sigma": 0.0}, {"name": "pga", "value": 9.2347, "units": "%g", "flag": "0", "ln_sigma": 0.0}, {"name": "pgv", "value": 4.79, "units": "cm/s", "flag": "0", "ln_sigma": 0.0}]}], "station_type": "seismic", "nresp": "null", "predictions": [{"name": "pga", "value": 6.099, "value_rock": 4.6012, "value_soil": 7.5966, "units": "%g", "ln_tau": 0.2982, "ln_phi": 0.4963, "ln_sigma": 0.579, "ln_sigma_rock": 0.5924, "ln_sigma_soil": 0.5493, "ln_bias": -0.0339, "ln_bias_sigma": 0.1151}, {"name": "pgv", "value": 8.7278, "value_rock": 5.2689, "value_soil": 13.4025, "units": "cm/s", "ln_tau": 0.3039, "ln_phi": 0.493, "ln_sigma": 0.5791, "ln_sigma_rock": 0.5836, "ln_sigma_soil": 0.5632, "ln_bias": -0.4337, "ln_bias_sigma": 0.1248}, {"name": "sa(1.0)", "value": 8.5954, "value_rock": 4.1202, "value_soil": 16.1243, "units": "%g", "ln_tau": 0.3394, "ln_phi": 0.6165, "ln_sigma": 0.7038, "ln_sigma_rock": 0.7067, "ln_sigma_soil": 0.6817, "ln_bias": -0.3379, "ln_bias_sigma": 0.152}, {"name": "sa(0.3)", "value