{"type": "FeatureCollection", "features": [{"type": "Feature", "id": "DYFI.UTM:(28R 0575 3115 1000)", "properties": {"code": "UTM:(28R 0575 3115 1000)", "name": null, "refid": 1, "instrumentType": "OBSERVED", "source": "USGS (Did You Feel It?)", "network": "DYFI", "commType": "UNK", "location": "", "intensity": 1.0, "intensity_flag": "0", "intensity_stddev": 0.5298, "pga": "null", "pgv": "null", "distance": 636.372, "elev": null, "vs30": 760.0, "channels": [], "nresp": 1, "station_type": "macroseismic", "predictions": [{"name": "pga", "value": 0.0221, "value_rock": 0.0221, "value_soil": 0.0439, "units": "%g", "ln_tau": 0.325, "ln_phi": 0.5402, "ln_sigma": 0.6305, "ln_sigma_rock": 0.6313, "ln_sigma_soil": 0.6164, "ln_bias": 0.1248, "ln_bias_sigma": 0.0859}, {"name": "mmi", "value": 2.4939, "value_rock": 2.4939, "value_soil": 3.1674, "units": "intensity", "tau": 0.2036, "phi": 0.7173, "sigma": 0.7456, "sigma_rock": 0.7458, "sigma_soil": 0.7393, "bias": 0.065, "bias_sigma": 0.0589}, {"name": "sa(0.3)", "value": 0.0658, "value_rock": 0.0658, "value_soil": 0.2161, "units": "%g", "ln_tau": 0.3027, "ln_phi": 0.6174, "ln_sigma": 0.6876, "ln_sigma_rock": 0.6904, "ln_sigma_soil": 0.6783, "ln_bias": 0.0777, "ln_bias_sigma": 0.0982}, {"name": "pgv", "value": 0.2216, "value_rock": 0.2216, "value_soil": 0.6363, "units": "cm/s", "ln_tau": 0.3189, "ln_phi": 0.5371, "ln_sigma": 0.6246, "ln_sigma_rock": 0.6251, "ln_sigma_soil": 0.6061, "ln_bias": 0.1404, "ln_bias_sigma": 0.0882}, {"name": "sa(1.0)", "value": 0.2171, "value_rock": 0.2171, "value_soil": 0.929, "units": "%g", "ln_tau": 0.3362, "ln_phi": 0.652, "ln_sigma": 0.7336, "ln_sigma_rock": 0.7327, "ln_sigma_soil": 0.7277, "ln_bias": 0.1833, "ln_bias_sigma": 0.1064}, {"name": "sa(3.0)", "value": 0.0962, "value_rock": 0.0962, "value_soil": 0.4103, "units": "%g", "ln_tau": 0.3665, "ln_phi": 0.6369, "ln_sigma": 0.7349, "ln_sigma_rock": 0.7337, "ln_sigma_soil": 0.7337, "ln_bias": 0.1608, "ln_bias_sigma": 0.1214}], "pgm_from_mmi": [{"name": "pga", "value": null, "units": "%g", "ln_sigma": null, "flag": "0"}, {"name": "sa(0.3)", "value": null, "units": "%g", "ln_sigma": null, "flag": "0"}, {"name": "sa(3.0)", "value": null, "units": "%g", "ln_sigma": null, "flag": "0"}, {"name": "pgv", "value": null, "units": "cm/s", "ln_sigma": null, "flag": "0"}, {"name": "sa(1.0)", "value": null, "units": "%g", "ln_sigma": null, "flag": "0"}], "distance_stddev": 8.143, "distances": {"repi": 650.1, "rhypo": 650.62, "rjb": 635.686, "rjb_var": 66.482, "rrup": 636.372, "rrup_var": 66.309, "rx": 0.0, "ry0": 0.0}}, "geometry": {"type": "Point", "coordinates": [-14.231, 28.163]}}, {"type": "Feature", "id": "DYFI.UTM:(28R 0586 3118 1000)", "properties": {"code": "UTM:(28R 0586 3118 1000)", "name": null, "refid": 1, "instrumentType": "OBSERVED", "source": "USGS (Did You Feel It?)", "network": "DYFI", "commType": "UNK", "location": "", "intensity": 2.7, "intensity_flag": "0", "intensity_stddev": 0.5298, "pga": "null", "pgv": "null", "distance": 625.448, "elev": null, "vs30": 760.0, "channels": [], "nresp": 1, "station_type": "macroseismic", "predictions": [{"name": "pga", "value": 0.0243, "value_rock": 0.0243, "value_soil": 0.0482, "units": "%g", "ln_tau": 0.325, "ln_phi": 0.5403, "ln_sigma": 0.6305, "ln_sigma_rock": 0.6313, "ln_sigma_soil": 0.6164, "ln_bias": 0.1248, "ln_bias_sigma": 0.0859}, {"name": "mmi", "value": 2.5184, "value_rock": 2.5184, "value_soil": 3.1918, "units": "intensity", "tau": 0.2036, "phi": 0.7173, "sigma": 0.7456, "sigma_rock": 0.7458, "sigma_soil": 0.7393, "bias": 0.065, "bias_sigma": 0.0589}, {"name": "sa(0.3)", "value": 0.0716, "value_rock": 0.0716, "value_soil": 0.2349, "units": "%g", "ln_tau": 0.3027, "ln_phi": 0.6174, "ln_sigma": 0.6876, "ln_sigma_rock": 0.6904, "ln_sigma_soil": 0.6783, "ln_bias": 0.0777, "ln_bias_sigma": 0.0982}, {"name": "pgv", "value": 0.2302, "value_rock": 0.2302, "value_soil": 0.6611, "units": "cm/s", "ln_tau": 0.3189, "ln_phi": 0.5371, "ln_sigma": 0.6247, "ln_sigma_rock": 0.6251, "ln_sigma_soil": 0.606, "ln_bias": 0.1404, "ln_bias_sigma": 0.0882}, {"name": "sa(1.0)", "value": 0.2254, "value_rock": 0.2254, "value_soil": 0.9647, "units": "%g", "ln_tau": 0.3362, "ln_phi": 0.652, "ln_sigma": 0.7336, "ln_sigma_rock": 0.7327, "ln_sigma_soil": 0.7276, "ln_bias": 0.1833, "ln_bias_sigma": 0.1064}, {"name": "sa(3.0)", "value": 0.0984, "value_rock": 0.0984, "value_soil": 0.4198, "units": "%g", "ln_tau": 0.3665, "ln_phi": 0.637, "ln_sigma": 0.7349, "ln_sigma_rock": 0.7337, "ln_sigma_soil": 0.7337, "ln_bias": 0.1608, "ln_bias_sigma": 0.1214}], "pgm_from_mmi": [{"name": "pga", "value": null, "units": "%g", "ln_sigma": null, "flag": "0"}, {"name": "sa(0.3)", "value": null, "units": "%g", "ln_sigma": null, "flag": "0"}, {"name": "sa(3.0)", "value": null, "units": "%g", "ln_sigma": null, "flag": "0"}, {"name": "pgv", "value": null, "units": "cm/s", "ln_sigma": null, "flag": "0"}, {"name": "sa(1.0)", "value": null, "units": "%g", "ln_sigma": null, "flag": "0"}], "distance_stddev": 8.143, "distances": {"repi": 639.169, "rhypo": 639.697, "rjb": 624.755, "rjb_var": 66.48, "rrup": 625.448, "rrup_var": 66.307, "rx": 0.0, "ry0": 0.0}}, "geometry": {"type": "Point", "coordinates": [-14.1187, 28.1894]}}, {"type": "Feature", "id": "DYFI.UTM:(28R 0610 3179 1000)", "properties": {"code": "UTM:(28R 0610 3179 1000)", "name": null, "refid": 1, "instrumentType": "OBSERVED", "source": "USGS (Did You Feel It?)", "network": "DYFI", "commType": "UNK", "location": "", "intensity": 2.2, "intensity_flag": "0", "intensity_stddev": 0.5298, "pga": "null", "pgv": "null", "distance": 574.248, "elev": null, "vs30": 760.0, "channels": [], "nresp": 1, "station_type": "macroseismic", "predictions": [{"name": "pga", "value": 0.0375, "value_rock": 0.0375, "value_soil": 0.0744, "units": "%g", "ln_tau": 0.325, "ln_phi": 0.5404, "ln_sigma": 0.6306, "ln_sigma_rock": 0.6314, "ln_sigma_soil": 0.6163, "ln_bias": 0.1248, "ln_bias_sigma": 0.0859}, {"name": "mmi", "value": 2.6355, "value_rock": 2.6355, "value_soil": 3.3084, "units": "intensity", "tau": 0.2036, "phi": 0.7173, "sigma": 0.7456, "sigma_rock": 0.7458, "sigma_soil": 0.7392, "bias": 0.065, "bias_sigma": 0.0589}, {"name": "sa(0.3)", "value": 0.1062, "value_rock": 0.1062, "value_soil": 0.3484, "units": "%g", "ln_tau": 0.3027, "ln_phi": 0.6175, "ln_sigma": 0.6877, "ln_sigma_rock": 0.6905, "ln_sigma_soil": 0.6781, "ln_bias": 0.0777, "ln_bias_sigma": 0.0982}, {"name": "pgv", "value": 0.2766, "value_rock": 0.2766, "value_soil": 0.7935, "units": "cm/s", "ln_tau": 0.3189, "ln_phi": 0.5371, "ln_sigma": 0.6247, "ln_sigma_rock": 0.6252, "ln_sigma_soil": 0.6058, "ln_bias": 0.1404, "ln_bias_sigma": 0.0882}, {"name": "sa(1.0)", "value": 0.2701, "value_rock": 0.2701, "value_soil": 1.1548, "units": "%g", "ln_tau": 0.3362, "ln_phi": 0.652, "ln_sigma": 0.7336, "ln_sigma_rock": 0.7327, "ln_sigma_soil": 0.7274, "ln_bias": 0.1833, "ln_bias_sigma": 0.1064}, {"name": "sa(3.0)", "value": 0.1099, "value_rock": 0.1099, "value_soil": 0.4691, "units": "%g", "ln_tau": 0.3665, "ln_phi": 0.637, "ln_sigma": 0.7349, "ln_sigma_rock": 0.7338, "ln_sigma_soil": 0.7337, "ln_bias": 0.1608, "ln_bias_sigma": 0.1214}], "pgm_from_mmi": [{"name": "pga", "value": null, "units": "%g", "ln_sigma": null, "flag": "0"}, {"name": "sa(0.3)", "value": null, "units": "%g", "ln_sigma": null, "flag": "0"}, {"name": "sa(3.0)", "value": null, "units": "%g", "ln_sigma": null, "flag": "0"}, {"name": "pgv", "value": null, "units": "cm/s", "ln_sigma": null, "flag": "0"}, {"name": "sa(1.0)", "value": null, "units": "%g", "ln_sigma": null, "flag": "0"}], "distance_stddev": 8.143, "distances": {"repi": 587.857, "rhypo": 588.431, "rjb": 573.456, "rjb_var": 66.452, "rrup": 574.248, "rrup_var": 66.303, "rx": 0.0, "ry0": 0.0}}, "geometry": {"type": "Point", "coordinates": [-13.8684, 28.7381]}}, {"type": "Feature", "id": "DYFI.UTM:(28R 0611 3152 1000)", "properties": {"code": "UTM:(28R 0611 3152 1000)", "name": null, "refid": 1, "instrumentType": "OBSERVED", "source": "USGS (Did You Feel It?)", "network": "DYFI", "commType": "UNK", "location": "", "intensity": 2.2, "intensity_flag": "0", "intensity_stddev": 0.5298, "pga": "null", "pgv": "null", "distance": 586.543, "elev": null, "vs30": 760.0, "channels": [], "nresp": 1, "station_type": "macroseismic", "predictions": [{"name": "pga", "value": 0.0337, "value_rock": 0.0337, "value_soil": 0.067, "units": "%g", "ln_tau": 0.325, "ln_phi": 0.5403, "ln_sigma": 0.6305, "ln_sigma_rock": 0.6314, "ln_sigma_soil": 0.6163, "ln_bias": 0.1248, "ln_bias_sigma": 0.0859}, {"name": "mmi", "value": 2.607, "value_rock": 2.607, "value_soil": 3.28, "units": "intensity", "tau": 0.2036, "phi": 0.7173, "sigma": 0.7456, "sigma_rock": 0.7458, "sigma_soil": 0.7393, "bias": 0.065, "bias_sigma": 0.0589}, {"name": "sa(0.3)", "value": 0.0966, "value_rock": 0.0966, "value_soil": 0.3167, "units": "%g", "ln_tau": 0.3027, "ln_phi": 0.6174, "ln_sigma": 0.6876, "ln_sigma_rock": 0.6905, "ln_sigma_soil": 0.6782, "ln_bias": 0.0777, "ln_bias_sigma": 0.0982}, {"name": "pgv", "value": 0.2645, "value_rock": 0.2645, "value_soil": 0.7591, "units": "cm/s", "ln_tau": 0.3189, "ln_phi": 0.5371, "ln_sigma": 0.6247, "ln_sigma_rock": 0.6252, "ln_sigma_soil": 0.6058, "ln_bias": 0.1404, "ln_bias_sigma": 0.0882}, {"name": "sa(1.0)", "value": 0.2585, "value_rock": 0.2585, "value_soil": 1.1054, "units": "%g", "ln_tau": 0.3362, "ln_phi": 0.652, "ln_sigma": 0.7336, "ln_sigma_rock": 0.7327, "ln_sigma_soil": 0.7275, "ln_bias": 0.1833, "ln_bias_sigma": 0.1064}, {"name": "sa(3.0)", "value": 0.107, "value_rock": 0.107, "value_soil": 0.4565, "units": "%g", "ln_tau": 0.3665, "ln_phi": 0.637, "ln_sigma": 0.7349, "ln_sigma_rock": 0.7338, "ln_sigma_soil": 0.7337, "ln_bias": 0.1608, "ln_bias_sigma": 0.1214}], "pgm_from_mmi": [{"name": "pga", "value": null, "units": "%g", "ln_sigma": null, "flag": "0"}, {"name": "sa(0.3)", "value": null, "units": "%g", "ln_sigma": null, "flag": "0"}, {"name": "sa(3.0)", "value": null, "units": "%g", "ln_sigma": null, "flag": "0"}, {"name": "pgv", "value": null, "units": "cm/s", "ln_sigma": null, "flag": "0"}, {"name": "sa(1.0)", "value": null, "units": "%g", "ln_sigma": null, "flag": "0"}], "distance_stddev": 8.143, "distances": {"repi": 600.182, "rhypo": 600.745, "rjb": 585.778, "rjb_var": 66.46, "rrup": 586.543, "rrup_var": 66.304, "rx": 0.0, "ry0": 0.0}}, "geometry": {"type": "Point", "coordinates": [-13.8608, 28.4944]}}, {"type": "Feature", "id": "DYFI.UTM:(28R 0614 3193 1000)", "properties": {"code": "UTM:(28R 0614 3193 1000)", "name": null, "refid": 1, "instrumentType": "OBSERVED", "source": "USGS (Did You Feel It?)", "network": "DYFI", "commType": "UNK", "location": "", "intensity": 4.1, "intensity_flag": "0", "intensity_stddev": 0.5298, "pga": 1.614, "pgv": 2.7422, "distance": 564.247, "elev": null, "vs30": 760.0, "channels": [], "nresp": 1, "station_type": "macroseismic", "predictions": [{"name": "pga", "value": 0.0408, "value_rock": 0.0408, "value_soil": 0.081, "units": "%g", "ln_tau": 0.325, "ln_phi": 0.5404, "ln_sigma": 0.6306, "ln_sigma_rock": 0.6314, "ln_sigma_soil": 0.6163, "ln_bias": 0.1248, "ln_bias_sigma": 0.0859}, {"name": "mmi", "value": 2.6589, "value_rock": 2.6589, "value_soil": 3.3316, "units": "intensity", "tau": 0.2036, "phi": 0.7173, "sigma": 0.7456, "sigma_rock": 0.7458, "sigma_soil": 0.7392, "bias": 0.065, "bias_sigma": 0.0589}, {"name": "sa(0.3)", "value": 0.1148, "value_rock": 0.1148, "value_soil": 0.3765, "units": "%g", "ln_tau": 0.3027, "ln_phi": 0.6175, "ln_sigma": 0.6877, "ln_sigma_rock": 0.6905, "ln_sigma_soil": 0.6781, "ln_bias": 0.0777, "ln_bias_sigma": 0.0982}, {"name": "pgv", "value": 0.2869, "value_rock": 0.2869, "value_soil": 0.8229, "units": "cm/s", "ln_tau": 0.3189, "ln_phi": 0.5372, "ln_sigma": 0.6247, "ln_sigma_rock": 0.6252, "ln_sigma_soil": 0.6057, "ln_bias": 0.1404, "ln_bias_sigma": 0.0882}, {"name": "sa(1.0)", "value": 0.2799, "value_rock": 0.2799, "value_soil": 1.197, "units": "%g", "ln_tau": 0.3362, "ln_phi": 0.6521, "ln_sigma": 0.7336, "ln_sigma_rock": 0.7327, "ln_sigma_soil": 0.7274, "ln_bias": 0.1833, "ln_bias_sigma": 0.1064}, {"name": "sa(3.0)", "value": 0.1124, "value_rock": 0.1124, "value_soil": 0.4797, "units": "%g", "ln_tau": 0.3665, "ln_phi": 0.637, "ln_sigma": 0.7349, "ln_sigma_rock": 0.7338, "ln_sigma_soil": 0.7337, "ln_bias": 0.1608, "ln_bias_sigma": 0.1214}], "pgm_from_mmi": [{"name": "pga", "value": 1.614, "units": "%g", "ln_sigma": 0.8059, "flag": "0"}, {"name": "sa(0.3)", "value": 2.6956, "units": "%g", "ln_sigma": 1.0131, "flag": "0"}, {"name": "sa(3.0)", "value": 1.043, "units": "%g", "ln_sigma": 1.4737, "flag": "0"}, {"name": "pgv", "value": 2.7422, "units": "cm/s", "ln_sigma": 0.875, "flag": "0"}, {"name": "sa(1.0)", "value": 4.666, "units": "%g", "ln_sigma": 1.0822, "flag": "0"}], "distance_stddev": 8.143, "distances": {"repi": 577.83, "rhypo": 578.415, "rjb": 563.432, "rjb_var": 66.446, "rrup": 564.247, "rrup_var": 66.303, "rx": 0.0, "ry0": 0.0}}, "geometry": {"type": "Point", "coordinates": [-13.826, 28.8641]}}, {"type": "Feature", "id": "DYFI.UTM:(28R 0616 3193 1000)", "properties": {"code": "UTM:(28R 0616 3193 1000)", "name": null, "refid": 1, "instrumentType": "OBSERVED", "source": "USGS (Did You Feel It?)", "network": "DYFI", "commType": "UNK", "location": "", "intensity": 3.4, "intensity_flag": "0", "intensity_stddev": 0.5298, "pga": "null", "pgv": "null", "distance": 562.468, "elev": null, "vs30": 760.0, "channels": [], "nresp": 1, "station_type": "macroseismic", "predictions": [{"name": "pga", "value": 0.0415, "value_rock": 0.0415, "value_soil": 0.0823, "units": "%g", "ln_tau": 0.325, "ln_phi": 0.5404, "ln_sigma": 0.6306, "ln_sigma_rock": 0.6314, "ln_sigma_soil": 0.6163, "ln_bias": 0.1248, "ln_bias_sigma": 0.0859}, {"name": "mmi", "value": 2.6631, "value_rock": 2.6631, "value_soil": 3.3357, "units": "intensity", "tau": 0.2036, "phi": 0.7173, "sigma": 0.7456, "sigma_rock": 0.7458, "sigma_soil": 0.7392, "bias": 0.065, "bias_sigma": 0.0589}, {"name": "sa(0.3)", "value": 0.1164, "value_rock": 0.1164, "value_soil": 0.3817, "units": "%g", "ln_tau": 0.3027, "ln_phi": 0.6175, "ln_sigma": 0.6877, "ln_sigma_rock": 0.6905, "ln_sigma_soil": 0.6781, "ln_bias": 0.0777, "ln_bias_sigma": 0.0982}, {"name": "pgv", "value": 0.2888, "value_rock": 0.2888, "value_soil": 0.8283, "units": "cm/s", "ln_tau": 0.3189, "ln_phi": 0.5372, "ln_sigma": 0.6247, "ln_sigma_rock": 0.6252, "ln_sigma_soil": 0.6057, "ln_bias": 0.1404, "ln_bias_sigma": 0.0882}, {"name": "sa(1.0)", "value": 0.2817, "value_rock": 0.2817, "value_soil": 1.2046, "units": "%g", "ln_tau": 0.3362, "ln_phi": 0.6521, "ln_sigma": 0.7336, "ln_sigma_rock": 0.7327, "ln_sigma_soil": 0.7274, "ln_bias": 0.1833, "ln_bias_sigma": 0.1064}, {"name": "sa(3.0)", "value": 0.1129, "value_rock": 0.1129, "value_soil": 0.4816, "units": "%g", "ln_tau": 0.3665, "ln_phi": 0.637, "ln_sigma": 0.7349, "ln_sigma_rock": 0.7338, "ln_sigma_soil": 0.7337, "ln_bias": 0.1608, "ln_bias_sigma": 0.1214}], "pgm_from_mmi": [{"name": "pga", "value": null, "units": "%g", "ln_sigma": null, "flag": "0"}, {"name": "sa(0.3)", "value": null, "units": "%g", "ln_sigma": null, "flag": "0"}, {"name": "sa(3.0)", "value": null, "units": "%g", "ln_sigma": null, "flag": "0"}, {"name": "pgv", "value": null, "units": "cm/s", "ln_sigma": null, "flag": "0"}, {"name": "sa(1.0)", "value": null, "units": "%g", "ln_sigma": null, "flag": "0"}], "distance_stddev": 8.143, "distances": {"repi": 576.047, "rhypo": 576.634, "rjb": 561.649, "rjb_var": 66.445, "rrup": 562.468, "rrup_var": 66.303, "rx": 0.0, "ry0": 0.0}}, "geometry": {"type": "Point", "coordinates": [-13.8055, 28.864]}}, {"type": "Feature", "id": "DYFI.UTM:(28R 0642 3215 1000)", "properties": {"code": "UTM:(28R 0642 3215 1000)", "name": null, "refid": 1, "instrumentType": "OBSERVED", "source": "USGS (Did You Feel It?)", "network": "DYFI", "commType": "UNK", "location": "", "intensity": 2.2, "intensity_flag": "0", "intensity_stddev": 0.5298, "pga": "null", "pgv": "null", "distance": 529.459, "elev": null, "vs30": 760.0, "channels": [], "nresp": 1, "station_type": "macroseismic", "predictions": [{"name": "pga", "value": 0.0551, "value_rock": 0.0551, "value_soil": 0.1093, "units": "%g", "ln_tau": 0.325, "ln_phi": 0.5405, "ln_sigma": 0.6307, "ln_sigma_rock": 0.6315, "ln_sigma_soil": 0.6162, "ln_bias": 0.1248, "ln_bias_sigma": 0.0859}, {"name": "mmi", "value": 2.7415, "value_rock": 2.7415, "value_soil": 3.4137, "units": "intensity", "tau": 0.2036, "phi": 0.7173, "sigma": 0.7456, "sigma_rock": 0.7458, "sigma_soil": 0.7391, "bias": 0.065, "bias_sigma": 0.0589}, {"name": "sa(0.3)", "value": 0.1508, "value_rock": 0.1508, "value_soil": 0.4941, "units": "%g", "ln_tau": 0.3027, "ln_phi": 0.6176, "ln_sigma": 0.6877, "ln_sigma_rock": 0.6906, "ln_sigma_soil": 0.678, "ln_bias": 0.0777, "ln_bias_sigma": 0.0982}, {"name": "pgv", "value": 0.3265, "value_rock": 0.3265, "value_soil": 0.9358, "units": "cm/s", "ln_tau": 0.3189, "ln_phi": 0.5372, "ln_sigma": 0.6247, "ln_sigma_rock": 0.6252, "ln_sigma_soil": 0.6055, "ln_bias": 0.1404, "ln_bias_sigma": 0.0882}, {"name": "sa(1.0)", "value": 0.3179, "value_rock": 0.3179, "value_soil": 1.3584, "units": "%g", "ln_tau": 0.3362, "ln_phi": 0.6521, "ln_sigma": 0.7337, "ln_sigma_rock": 0.7327, "ln_sigma_soil": 0.7272, "ln_bias": 0.1833, "ln_bias_sigma": 0.1064}, {"name": "sa(3.0)", "value": 0.1218, "value_rock": 0.1218, "value_soil": 0.5196, "units": "%g", "ln_tau": 0.3665, "ln_phi": 0.637, "ln_sigma": 0.7349, "ln_sigma_rock": 0.7338, "ln_sigma_soil": 0.7337, "ln_bias": 0.1608, "ln_bias_sigma": 0.1214}], "pgm_from_mmi": [{"name": "pga", "value": null, "units": "%g", "ln_sigma": null, "flag": "0"}, {"name": "sa(0.3)", "value": null, "units": "%g", "ln_sigma": null, "flag": "0"}, {"name": "sa(3.0)", "value": null, "units": "%g", "ln_sigma": null, "flag": "0"}, {"name": "pgv", "value": null, "units": "cm/s", "ln_sigma": null, "flag": "0"}, {"name": "sa(1.0)", "value": null, "units": "%g", "ln_sigma": null, "flag": "0"}], "distance_stddev": 8.143, "distances": {"repi": 542.956, "rhypo": 543.578, "rjb": 528.567, "rjb_var": 66.425, "rrup": 529.459, "rrup_var": 66.302, "rx": 0.0, "ry0": 0.0}}, "geometry": {"type": "Point", "coordinates": [-13.5362, 29.0598]}}, {"type": "Feature", "id": "DYFI.UTM:(28R 0678 3003 1000)", "properties": {"code": "UTM:(28R 0678 3003 1000)", "name": null, "refid": 1, "instrumentType": "OBSERVED", "source": "USGS (Did You Feel It?)", "network": "DYFI", "commType": "UNK", "location": "", "intensity": 1.0, "intensity_flag": "0", "intensity_stddev": 0.5298, "pga": "null", "pgv": "null", "distance": 625.177, "elev": null, "vs30": 760.0, "channels": [], "nresp": 1, "station_type": "macroseismic", "predictions": [{"name": "pga", "value": 0.0243, "value_rock": 0.0243, "value_soil": 0.0483, "units": "%g", "ln_tau": 0.325, "ln_phi": 0.5403, "ln_sigma": 0.6305, "ln_sigma_rock": 0.6313, "ln_sigma_soil": 0.6164, "ln_bias": 0.1248, "ln_bias_sigma": 0.0859}, {"name": "mmi", "value": 2.519, "value_rock": 2.519, "value_soil": 3.1924, "units": "intensity", "tau": 0.2036, "phi": 0.7173, "sigma": 0.7456, "sigma_rock": 0.7458, "sigma_soil": 0.7393, "bias": 0.065, "bias_sigma": 0.0589}, {"name": "sa(0.3)", "value": 0.0717, "value_rock": 0.0717, "value_soil": 0.2354, "units": "%g", "ln_tau": 0.3027, "ln_phi": 0.6174, "ln_sigma": 0.6876, "ln_sigma_rock": 0.6904, "ln_sigma_soil": 0.6783, "ln_bias": 0.0777, "ln_bias_sigma": 0.0982}, {"name": "pgv", "value": 0.2304, "value_rock": 0.2304, "value_soil": 0.6617, "units": "cm/s", "ln_tau": 0.3189, "ln_phi": 0.5371, "ln_sigma": 0.6247, "ln_sigma_rock": 0.6251, "ln_sigma_soil": 0.606, "ln_bias": 0.1404, "ln_bias_sigma": 0.0882}, {"name": "sa(1.0)", "value": 0.2257, "value_rock": 0.2257, "value_soil": 0.9656, "units": "%g", "ln_tau": 0.3362, "ln_phi": 0.652, "ln_sigma": 0.7336, "ln_sigma_rock": 0.7327, "ln_sigma_soil": 0.7276, "ln_bias": 0.1833, "ln_bias_sigma": 0.1064}, {"name": "sa(3.0)", "value": 0.0985, "value_rock": 0.0985, "value_soil": 0.4201,