{"type": "FeatureCollection", "features": [{"type": "Feature", "id": "NZ.WNPS", "properties": {"code": "WNPS", "name": "WNPS", "instrumentType": "UNK", "source": "NZ", "network": "NZ", "commType": "UNK", "location": "", "intensity": "null", "intensity_flag": "", "intensity_stddev": "null", "pga": "null", "pgv": "null", "distance": 253.9, "elev": null, "vs30": 227.15, "channels": [{"name": "HNZ", "amplitudes": [{"name": "pga", "value": 0.9123, "units": "%g", "flag": "Outlier", "ln_sigma": 0.0}, {"name": "pgv", "value": 1.827, "units": "cm/s", "flag": "Outlier", "ln_sigma": 0.0}]}, {"name": "HNS", "amplitudes": [{"name": "pga", "value": 1.4985, "units": "%g", "flag": "UnknownOrientation,0,Outlier", "ln_sigma": 0.0}, {"name": "pgv", "value": 3.51, "units": "cm/s", "flag": "UnknownOrientation,0,Outlier", "ln_sigma": 0.0}]}], "station_type": "seismic", "nresp": "null", "predictions": [{"name": "sa(1.0)", "value": 2.6179, "value_rock": 0.8694, "value_soil": 3.219, "units": "%g", "ln_tau": 0.3337, "ln_phi": 0.611, "ln_sigma": 0.6962, "ln_sigma_rock": 0.7039, "ln_sigma_soil": 0.6938, "ln_bias": -0.0769, "ln_bias_sigma": 0.2128}, {"name": "pgv", "value": 2.3378, "value_rock": 0.9366, "value_soil": 2.7746, "units": "cm/s", "ln_tau": 0.3251, "ln_phi": 0.6246, "ln_sigma": 0.7041, "ln_sigma_rock": 0.72, "ln_sigma_soil": 0.7033, "ln_bias": -0.1224, "ln_bias_sigma": 0.1275}, {"name": "sa(3.0)", "value": 1.0208, "value_rock": 0.329, "value_soil": 1.2765, "units": "%g", "ln_tau": 0.3975, "ln_phi": 0.606, "ln_sigma": 0.7248, "ln_sigma_rock": 0.7275, "ln_sigma_soil": 0.727, "ln_bias": -0.3285, "ln_bias_sigma": 0.2592}, {"name": "sa(0.3)", "value": 2.5314, "value_rock": 1.0289, "value_soil": 2.9914, "units": "%g", "ln_tau": 0.296, "ln_phi": 0.5746, "ln_sigma": 0.6463, "ln_sigma_rock": 0.6593, "ln_sigma_soil": 0.645, "ln_bias": -0.0692, "ln_bias_sigma": 0.1891}, {"name": "pga", "value": 0.802, "value_rock": 0.473, "value_soil": 0.89, "units": "%g", "ln_tau": 0.2936, "ln_phi": 0.4977, "ln_sigma": 0.5779, "ln_sigma_rock": 0.5898, "ln_sigma_soil": 0.5768, "ln_bias": -0.0841, "ln_bias_sigma": 0.0974}, {"name": "mmi", "value": 3.9621, "value_rock": 3.3782, "value_soil": 4.0715, "units": "intensity", "tau": 0.2075, "phi": 0.7456, "sigma": 0.7739, "sigma_rock": 0.7799, "sigma_soil": 0.7736, "bias": -0.0602, "bias_sigma": 0.1541}], "mmi_from_pgm": [{"name": "sa(1.0)", "value": null, "sigma": null, "flag": "0"}, {"name": "pgv", "value": null, "sigma": null, "flag": "0"}, {"name": "sa(3.0)", "value": null, "sigma": null, "flag": "0"}, {"name": "sa(0.3)", "value": null, "sigma": null, "flag": "0"}, {"name": "pga", "value": null, "sigma": null, "flag": "0"}], "distance_stddev": 0.0, "distances": {"repi": 251.127, "rhypo": 251.414, "rjb": 253.943, "rjb_var": 0.0, "rrup": 253.9, "rrup_var": 0.0, "rx": -188.367, "ry0": 149.534}}, "geometry": {"type": "Point", "coordinates": [169.14278, -44.69611]}}, {"type": "Feature", "id": "NZ.EBPS", "properties": {"code": "EBPS", "name": "EBPS", "instrumentType": "UNK", "source": "NZ", "network": "NZ", "commType": "UNK", "location": "", "intensity": "null", "intensity_flag": "", "intensity_stddev": "null", "pga": "null", "pgv": "null", "distance": 315.077, "elev": null, "vs30": 600.0, "channels": [{"name": "HNZ", "amplitudes": [{"name": "pga", "value": 0.105, "units": "%g", "flag": "Outlier", "ln_sigma": 0.0}, {"name": "pgv", "value": 0.069, "units": "cm/s", "flag": "Outlier", "ln_sigma": 0.0}]}, {"name": "HNS", "amplitudes": [{"name": "pga", "value": 0.3099, "units": "%g", "flag": "UnknownOrientation,0,Outlier", "ln_sigma": 0.0}, {"name": "pgv", "value": 0.113, "units": "cm/s", "flag": "UnknownOrientation,0,Outlier", "ln_sigma": 0.0}]}], "station_type": "seismic", "nresp": "null", "predictions": [{"name": "sa(1.0)", "value": 0.7984, "value_rock": 0.6345, "value_soil": 2.3649, "units": "%g", "ln_tau": 0.3374, "ln_phi": 0.6182, "ln_sigma": 0.7043, "ln_sigma_rock": 0.7048, "ln_sigma_soil": 0.6968, "ln_bias": -0.0776, "ln_bias_sigma": 0.2137}, {"name": "pgv", "value": 0.8252, "value_rock": 0.6818, "value_soil": 2.0332, "units": "cm/s", "ln_tau": 0.329, "ln_phi": 0.639, "ln_sigma": 0.7187, "ln_sigma_rock": 0.7208, "ln_sigma_soil": 0.7057, "ln_bias": -0.1229, "ln_bias_sigma": 0.1278}, {"name": "sa(3.0)", "value": 0.324, "value_rock": 0.2641, "value_soil": 1.0248, "units": "%g", "ln_tau": 0.3979, "ln_phi": 0.6063, "ln_sigma": 0.7252, "ln_sigma_rock": 0.7276, "ln_sigma_soil": 0.7271, "ln_bias": -0.3288, "ln_bias_sigma": 0.2593}, {"name": "sa(0.3)", "value": 0.7001, "value_rock": 0.5759, "value_soil": 1.6923, "units": "%g", "ln_tau": 0.3, "ln_phi": 0.5862, "ln_sigma": 0.6586, "ln_sigma_rock": 0.6604, "ln_sigma_soil": 0.6496, "ln_bias": -0.07, "ln_bias_sigma": 0.1901}, {"name": "pga", "value": 0.2728, "value_rock": 0.2487, "value_soil": 0.4715, "units": "%g", "ln_tau": 0.2962, "ln_phi": 0.5103, "ln_sigma": 0.5901, "ln_sigma_rock": 0.5906, "ln_sigma_soil": 0.5799, "ln_bias": -0.0843, "ln_bias_sigma": 0.0975}, {"name": "mmi", "value": 3.2973, "value_rock": 3.1755, "value_soil": 3.873, "units": "intensity", "tau": 0.21, "phi": 0.7506, "sigma": 0.7794, "sigma_rock": 0.7802, "sigma_soil": 0.7745, "bias": -0.061, "bias_sigma": 0.1551}], "mmi_from_pgm": [{"name": "sa(1.0)", "value": null, "sigma": null, "flag": "0"}, {"name": "pgv", "value": null, "sigma": null, "flag": "0"}, {"name": "sa(3.0)", "value": null, "sigma": null, "flag": "0"}, {"name": "sa(0.3)", "value": null, "sigma": null, "flag": "0"}, {"name": "pga", "value": null, "sigma": null, "flag": "0"}], "distance_stddev": 0.0, "distances": {"repi": 353.602, "rhypo": 353.805, "rjb": 315.1, "rjb_var": 0.0, "rrup": 315.077, "rrup_var": 0.0, "rx": 265.106, "ry0": 63.672}}, "geometry": {"type": "Point", "coordinates": [174.9, -41.29111]}}, {"type": "Feature", "id": "NZ.GDLC", "properties": {"code": "GDLC", "name": "GDLC", "instrumentType": "UNK", "source": "NZ", "network": "NZ", "commType": "UNK", "location": "", "intensity": 8.8, "intensity_flag": "", "intensity_stddev": 0.63, "pga": 75.2018, "pgv": 94.515, "distance": 7.078, "elev": null, "vs30": 274.33, "channels": [{"name": "HNZ", "amplitudes": [{"name": "pga", "value": 95.0092, "units": "%g", "flag": "0", "ln_sigma": 0.0}, {"name": "pgv", "value": 32.186, "units": "cm/s", "flag": "0", "ln_sigma": 0.0}]}, {"name": "HNS", "amplitudes": [{"name": "pga", "value": 67.6361, "units": "%g", "flag": "UnknownOrientation,0", "ln_sigma": 0.0}, {"name": "pgv", "value": 92.942, "units": "cm/s", "flag": "UnknownOrientation,0", "ln_sigma": 0.0}]}, {"name": "HNN", "amplitudes": [{"name": "pga", "value": 75.2018, "units": "%g", "flag": "0", "ln_sigma": 0.0}, {"name": "pgv", "value": 94.515, "units": "cm/s", "flag": "0", "ln_sigma": 0.0}]}], "station_type": "seismic", "nresp": "null", "predictions": [{"name": "sa(1.0)", "value": 58.0519, "value_rock": 27.158, "value_soil": 66.0023, "units": "%g", "ln_tau": 0.3112, "ln_phi": 0.5792, "ln_sigma": 0.6575, "ln_sigma_rock": 0.6921, "ln_sigma_soil": 0.6091, "ln_bias": -0.0725, "ln_bias_sigma": 0.2066}, {"name": "pgv", "value": 56.2434, "value_rock": 30.7222, "value_soil": 61.2768, "units": "cm/s", "ln_tau": 0.3043, "ln_phi": 0.6058, "ln_sigma": 0.678, "ln_sigma_rock": 0.7107, "ln_sigma_soil": 0.643, "ln_bias": -0.1198, "ln_bias_sigma": 0.1262}, {"name": "sa(3.0)", "value": 18.4849, "value_rock": 7.1888, "value_soil": 27.558, "units": "%g", "ln_tau": 0.3958, "ln_phi": 0.5925, "ln_sigma": 0.7125, "ln_sigma_rock": 0.7162, "ln_sigma_soil": 0.7135, "ln_bias": -0.3272, "ln_bias_sigma": 0.2587}, {"name": "sa(0.3)", "value": 100.1379, "value_rock": 76.1153, "value_soil": 84.0384, "units": "%g", "ln_tau": 0.2189, "ln_phi": 0.493, "ln_sigma": 0.5394, "ln_sigma_rock": 0.64, "ln_sigma_soil": 0.4645, "ln_bias": -0.0518, "ln_bias_sigma": 0.1635}, {"name": "pga", "value": 42.9802, "value_rock": 38.8266, "value_soil": 37.8734, "units": "%g", "ln_tau": 0.2394, "ln_phi": 0.4472, "ln_sigma": 0.5072, "ln_sigma_rock": 0.5763, "ln_sigma_soil": 0.4561, "ln_bias": -0.0797, "ln_bias_sigma": 0.0948}, {"name": "mmi", "value": 8.0602, "value_rock": 7.2303, "value_soil": 8.1779, "units": "intensity", "tau": 0.4177, "phi": 1.0431, "sigma": 1.1236, "sigma_rock": 1.1611, "sigma_soil": 1.0842, "bias": -0.103, "bias_sigma": 0.2016}], "mmi_from_pgm": [{"name": "sa(1.0)", "value": null, "sigma": null, "flag": "0"}, {"name": "pgv", "value": 8.77, "sigma": 0.63, "flag": "0"}, {"name": "sa(3.0)", "value": null, "sigma": null, "flag": "0"}, {"name": "sa(0.3)", "value": null, "sigma": null, "flag": "0"}, {"name": "pga", "value": 7.93, "sigma": 0.66, "flag": "0"}], "distance_stddev": 0.0, "distances": {"repi": 22.16, "rhypo": 25.2, "rjb": 7.078, "rjb_var": 0.0, "rrup": 7.078, "rrup_var": 0.0, "rx": -5.656, "ry0": 22.56}}, "geometry": {"type": "Point", "coordinates": [172.08944, -43.58806]}}, {"type": "Feature", "id": "NZ.HSES", "properties": {"code": "HSES", "name": "HSES", "instrumentType": "UNK", "source": "NZ", "network": "NZ", "commType": "UNK", "location": "", "intensity": 4.8, "intensity_flag": "", "intensity_stddev": 0.63, "pga": 4.0296, "pgv": 5.122, "distance": 109.291, "elev": null, "vs30": 523.73, "channels": [{"name": "HNZ", "amplitudes": [{"name": "pga", "value": 1.4241, "units": "%g", "flag": "0", "ln_sigma": 0.0}, {"name": "pgv", "value": 2.114, "units": "cm/s", "flag": "0", "ln_sigma": 0.0}]}, {"name": "HNN", "amplitudes": [{"name": "pga", "value": 4.0296, "units": "%g", "flag": "0", "ln_sigma": 0.0}, {"name": "pgv", "value": 5.122, "units": "cm/s", "flag": "0", "ln_sigma": 0.0}]}], "station_type": "seismic", "nresp": "null", "predictions": [{"name": "sa(1.0)", "value": 3.2483, "value_rock": 2.2767, "value_soil": 8.0835, "units": "%g", "ln_tau": 0.3369, "ln_phi": 0.6042, "ln_sigma": 0.6917, "ln_sigma_rock": 0.6924, "ln_sigma_soil": 0.6715, "ln_bias": -0.0775, "ln_bias_sigma": 0.2136}, {"name": "pgv", "value": 3.3295, "value_rock": 2.4829, "value_soil": 7.0641, "units": "cm/s", "ln_tau": 0.3284, "ln_phi": 0.6278, "ln_sigma": 0.7085, "ln_sigma_rock": 0.7114, "ln_sigma_soil": 0.6866, "ln_bias": -0.1228, "ln_bias_sigma": 0.1277}, {"name": "sa(3.0)", "value": 0.9702, "value_rock": 0.6913, "value_soil": 2.6787, "units": "%g", "ln_tau": 0.3977, "ln_phi": 0.594, "ln_sigma": 0.7148, "ln_sigma_rock": 0.7167, "ln_sigma_soil": 0.7157, "ln_bias": -0.3286, "ln_bias_sigma": 0.2592}, {"name": "sa(0.3)", "value": 6.6569, "value_rock": 4.9745, "value_soil": 13.2038, "units": "%g", "ln_tau": 0.2981, "ln_phi": 0.5665, "ln_sigma": 0.6402, "ln_sigma_rock": 0.6431, "ln_sigma_soil": 0.6024, "ln_bias": -0.0697, "ln_bias_sigma": 0.1896}, {"name": "pga", "value": 3.0324, "value_rock": 2.6142, "value_soil": 4.5986, "units": "%g", "ln_tau": 0.2945, "ln_phi": 0.495, "ln_sigma": 0.576, "ln_sigma_rock": 0.5787, "ln_sigma_soil": 0.548, "ln_bias": -0.0842, "ln_bias_sigma": 0.0975}, {"name": "mmi", "value": 4.1879, "value_rock": 4.0006, "value_soil": 5.213, "units": "intensity", "tau": 0.2097, "phi": 0.7467, "sigma": 0.7756, "sigma_rock": 0.7766, "sigma_soil": 1.1335, "bias": -0.0609, "bias_sigma": 0.155}], "mmi_from_pgm": [{"name": "sa(1.0)", "value": null, "sigma": null, "flag": "0"}, {"name": "pgv", "value": 4.77, "sigma": 0.63, "flag": "0"}, {"name": "sa(3.0)", "value": null, "sigma": null, "flag": "0"}, {"name": "sa(0.3)", "value": null, "sigma": null, "flag": "0"}, {"name": "pga", "value": 4.29, "sigma": 0.66, "flag": "0"}], "distance_stddev": 0.0, "distances": {"repi": 137.483, "rhypo": 138.006, "rjb": 109.295, "rjb_var": 0.0, "rrup": 109.291, "rrup_var": 0.0, "rx": 102.862, "ry0": 13.354}}, "geometry": {"type": "Point", "coordinates": [172.83028, -42.525]}}, {"type": "Feature", "id": "NZ.WNAS", "properties": {"code": "WNAS", "name": "WNAS", "instrumentType": "UNK", "source": "NZ", "network": "NZ", "commType": "UNK", "location": "", "intensity": 2.8, "intensity_flag": "", "intensity_stddev": 0.63, "pga": 0.3221, "pgv": 0.395, "distance": 307.182, "elev": null, "vs30": 398.91, "channels": [{"name": "HNZ", "amplitudes": [{"name": "pga", "value": 0.2589, "units": "%g", "flag": "0", "ln_sigma": 0.0}, {"name": "pgv", "value": 0.193, "units": "cm/s", "flag": "0", "ln_sigma": 0.0}]}, {"name": "HNS", "amplitudes": [{"name": "pga", "value": 0.4292, "units": "%g", "flag": "UnknownOrientation,0", "ln_sigma": 0.0}, {"name": "pgv", "value": 0.417, "units": "cm/s", "flag": "UnknownOrientation,0", "ln_sigma": 0.0}]}, {"name": "HNN", "amplitudes": [{"name": "pga", "value": 0.3221, "units": "%g", "flag": "0", "ln_sigma": 0.0}, {"name": "pgv", "value": 0.395, "units": "cm/s", "flag": "0", "ln_sigma": 0.0}]}], "station_type": "seismic", "nresp": "null", "predictions": [{"name": "sa(1.0)", "value": 1.208, "value_rock": 0.6598, "value_soil": 2.4575, "units": "%g", "ln_tau": 0.3369, "ln_phi": 0.6177, "ln_sigma": 0.7036, "ln_sigma_rock": 0.7048, "ln_sigma_soil": 0.6966, "ln_bias": -0.0775, "ln_bias_sigma": 0.2136}, {"name": "pgv", "value": 1.1704, "value_rock": 0.7092, "value_soil": 2.1134, "units": "cm/s", "ln_tau": 0.3284, "ln_phi": 0.6386, "ln_sigma": 0.7181, "ln_sigma_rock": 0.7208, "ln_sigma_soil": 0.7055, "ln_bias": -0.1228, "ln_bias_sigma": 0.1277}, {"name": "sa(3.0)", "value": 0.4942, "value_rock": 0.2712, "value_soil": 1.0526, "units": "%g", "ln_tau": 0.3978, "ln_phi": 0.6062, "ln_sigma": 0.725, "ln_sigma_rock": 0.7276, "ln_sigma_soil": 0.7271, "ln_bias": -0.3287, "ln_bias_sigma": 0.2592}, {"name": "sa(0.3)", "value": 1.0206, "value_rock": 0.6198, "value_soil": 1.8194, "units": "%g", "ln_tau": 0.2995, "ln_phi": 0.5857, "ln_sigma": 0.6578, "ln_sigma_rock": 0.6604, "ln_sigma_soil": 0.6492, "ln_bias": -0.0699, "ln_bias_sigma": 0.19}, {"name": "pga", "value": 0.3565, "value_rock": 0.2698, "value_soil": 0.5113, "units": "%g", "ln_tau": 0.2958, "ln_phi": 0.51, "ln_sigma": 0.5896, "ln_sigma_rock": 0.5906, "ln_sigma_soil": 0.5797, "ln_bias": -0.0842, "ln_bias_sigma": 0.0975}, {"name": "mmi", "value": 3.5205, "value_rock": 3.2007, "value_soil": 3.8977, "units": "intensity", "tau": 0.2096, "phi": 0.7504, "sigma": 0.7791, "sigma_rock": 0.7802, "sigma_soil": 0.7745, "bias": -0.0609, "bias_sigma": 0.155}], "mmi_from_pgm": [{"name": "sa(1.0)", "value": null, "sigma": null, "flag": "0"}, {"name": "pgv", "value": 2.83, "sigma": 0.63, "flag": "0"}, {"name": "sa(3.0)", "value": null, "sigma": null, "flag": "0"}, {"name": "sa(0.3)", "value": null, "sigma": null, "flag": "0"}, {"name": "pga", "value": 2.98, "sigma": 0.66, "flag": "0"}], "distance_stddev": 0.0, "distances": {"repi": 345.349, "rhypo": 345.557, "rjb": 307.204, "rjb_var": 0.0, "rrup": 307.182, "rrup_var": 0.0, "rx": 259.497, "ry0": 59.051}}, "geometry": {"type": "Point", "coordinates": [174.80889, -41.32806]}}, {"type": "Feature", "id": "NZ.WSFC", "properties": {"code": "WSFC", "name": "WSFC", "instrumentType": "UNK", "source": "NZ", "network": "NZ", "commType": "UNK", "location": "", "intensity": 5.4, "intensity_flag": "", "intensity_stddev": 0.63, "pga": 6.6514, "pgv": 8.264, "distance": 40.374, "elev": null, "vs30": 278.11, "channels": [{"name": "HNZ", "amplitudes": [{"name": "pga", "value": 6.2406, "units": "%g", "flag": "0", "ln_sigma": 0.0}, {"name": "pgv", "value": 4.212, "units": "cm/s", "flag": "0", "ln_sigma": 0.0}]}, {"name": "HNS", "amplitudes": [{"name": "pga", "value": 6.9959, "units": "%g", "flag": "UnknownOrientation,0", "ln_sigma": 0.0}, {"name": "pgv", "value": 9.149, "units": "cm/s", "flag": "UnknownOrientation,0", "ln_sigma": 0.0}]}, {"name": "HNN", "amplitudes": [{"name": "pga", "value": 6.6514, "units": "%g", "flag": "0", "ln_sigma": 0.0}, {"name": "pgv", "value": 8.264, "units": "cm/s", "flag": "0", "ln_sigma": 0.0}]}], "station_type": "seismic", "nresp": "null", "predictions": [{"name": "sa(1.0)", "value": 14.1964, "value_rock": 5.9462, "value_soil": 19.2649, "units": "%g", "ln_tau": 0.3257, "ln_phi": 0.5929, "ln_sigma": 0.6765, "ln_sigma_rock": 0.6923, "ln_sigma_soil": 0.6518, "ln_bias": -0.0754, "ln_bias_sigma": 0.2106}, {"name": "pgv", "value": 13.3828, "value_rock": 6.5574, "value_soil": 17.104, "units": "cm/s", "ln_tau": 0.3175, "ln_phi": 0.6161, "ln_sigma": 0.6931, "ln_sigma_rock": 0.7109, "ln_sigma_soil": 0.6715, "ln_bias": -0.1215, "ln_bias_sigma": 0.127}, {"name": "sa(3.0)", "value": 4.2039, "value_rock": 1.6459, "value_soil": 6.3611, "units": "%g", "ln_tau": 0.3968, "ln_phi": 0.5933, "ln_sigma": 0.7137, "ln_sigma_rock": 0.7165, "ln_sigma_soil": 0.7149, "ln_bias": -0.3279, "ln_bias_sigma": 0.2589}, {"name": "sa(0.3)", "value": 30.0484, "value_rock": 16.4013, "value_soil": 34.9902, "units": "%g", "ln_tau": 0.2656, "ln_phi": 0.5334, "ln_sigma": 0.5959, "ln_sigma_rock": 0.6413, "ln_sigma_soil": 0.5483, "ln_bias": -0.063, "ln_bias_sigma": 0.1804}, {"name": "pga", "value": 12.2821, "value_rock": 8.8588, "value_soil": 13.3068, "units": "%g", "ln_tau": 0.2718, "ln_phi": 0.4727, "ln_sigma": 0.5453, "ln_sigma_rock": 0.578, "ln_sigma_soil": 0.5126, "ln_bias": -0.0826, "ln_bias_sigma": 0.0965}, {"name": "mmi", "value": 6.0899, "value_rock": 5.1109, "value_soil": 6.4266, "units": "intensity", "tau": 0.4357, "phi": 1.0545, "sigma": 1.1409, "sigma_rock": 1.1613, "sigma_soil": 1.1163, "bias": -0.105, "bias_sigma": 0.2035}], "mmi_from_pgm": [{"name": "sa(1.0)", "value": null, "sigma": null, "flag": "0"}, {"name": "pgv", "value": 5.43, "sigma": 0.63, "flag": "0"}, {"name": "sa(3.0)", "value": null, "sigma": null, "flag": "0"}, {"name": "sa(0.3)", "value": null, "sigma": null, "flag": "0"}, {"name": "pga", "value": 4.65, "sigma": 0.66, "flag": "0"}], "distance_stddev": 0.0, "distances": {"repi": 39.399, "rhypo": 41.186, "rjb": 39.787, "rjb_var": 0.0, "rrup": 40.374, "rrup_var": 0.0, "rx": -42.223, "ry0": 37.598}}, "geometry": {"type": "Point", "coordinates": [171.61083, -43.83889]}}, {"type": "Feature", "id": "NZ.GRZ", "properties": {"code": "GRZ", "name": "GRZ", "instrumentType": "UNK", "source": "NZ", "network": "NZ", "commType": "UNK", "location": "", "intensity": 1.0, "intensity_flag": "", "intensity_stddev": 0.63, "pga": 0.0061, "pgv": 0.024, "distance": 840.82, "elev": null, "vs30": 760.0, "channels": [{"name": "HNZ", "amplitudes": [{"name": "pga", "value": 0.0051, "units": "%g", "flag": "0", "ln_sigma": 0.0}, {"name": "pgv", "value": 0.013, "units": "cm/s", "flag": "0", "ln_sigma": 0.0}]}, {"name": "HNE", "amplitudes": [{"name": "pga", "value": 0.0061, "units": "%g", "flag": "0", "ln_sigma": 0.0}, {"name": "pgv", "value": 0.022, "units": "cm/s", "flag": "0", "ln_sigma": 0.0}]}, {"name": "HNN", "amplitudes": [{"name": "pga", "value": 0.0061, "units": "%g", "flag": "0", "ln_sigma": 0.0}, {"name": "pgv", "value": 0.024, "units": "cm/s", "flag": "0", "ln_sigma": 0.0}]}], "station_type": "seismic", "nresp": "null", "predictions": [{"name": "sa(1.0)", "value": 0.0732, "value_rock": 0.0732, "value_soil": 0.2765, "units": "%g", "ln_tau": 0.3376, "ln_phi": 0.6183, "ln_sigma": 0.7044, "ln_sigma_rock": 0.7049, "ln_sigma_soil": 0.702, "ln_bias": -0.0776, "ln_bias_sigma": 0.2138}, {"name": "pgv", "value": 0.0784, "value_rock": 0.0784, "value_soil": 0.2373, "units": "cm/s", "ln_tau": 0.3291, "ln_phi": 0.6391, "ln_sigma": 0.7189, "ln_sigma_rock": 0.7208, "ln_sigma_soil": 0.7102, "ln_bias": -0.1229, "ln_bias_sigma": 0.1278}, {"name": "sa(3.0)", "value": 0.0699, "value_rock": 0.0699, "value_soil": 0.2714, "units": "%g", "ln_tau": 0.3981, "ln_phi": 0.6064, "ln_sigma": 0.7254, "ln_sigma_rock": 0.7277, "ln_sigma_soil": 0.7275, "ln_bias": -0.3289, "ln_bias_sigma": 0.2593}, {"name": "sa(0.3)", "value": 0.0066, "value_rock": 0.0066, "value_soil": 0.0197, "units": "%g", "ln_tau": 0.3002, "ln_phi": 0.5864, "ln_sigma": 0.6587, "ln_sigma_rock": 0.6604, "ln_sigma_soil": 0.6539, "ln_bias": -0.07, "ln_bias_sigma": 0.1902}, {"name": "pga", "value": 0.0016, "value_rock": 0.0016, "value_soil": 0.0031, "units": "%g", "ln_tau": 0.2963, "ln_phi": 0.5104, "ln_sigma": 0.5902, "ln_sigma_rock": 0.5907, "ln_sigma_soil": 0.5825, "ln_bias": -0.0843, "ln_bias_sigma": 0.0975}, {"name": "mmi", "value": 1.7948, "value_rock": 1.7948, "value_soi