{
   "type":"FeatureCollection",
   "features":[
      {
         "type":"Feature",
         "id":"unknown.TLIG",
         "properties":{
            "code":"TLIG",
            "name":"TLIG",
            "instrumentType":"UNK",
            "source":"unknown",
            "network":"unknown",
            "commType":"UNK",
            "location":"",
            "intensity":4.4,
            "intensity_flag":"",
            "intensity_stddev":0.63,
            "pga":11.2844,
            "pgv":3.9,
            "distance":121.519,
            "elev":null,
            "vs30":881.2,
            "channels":[
               {
                  "name":"UNK",
                  "amplitudes":[
                     {
                        "name":"sa(1.0)",
                        "value":2.2977,
                        "units":"%g",
                        "flag":"0",
                        "ln_sigma":0.0
                     },
                     {
                        "name":"pgv",
                        "value":3.9,
                        "units":"cm/s",
                        "flag":"0",
                        "ln_sigma":0.0
                     },
                     {
                        "name":"pga",
                        "value":11.2844,
                        "units":"%g",
                        "flag":"0",
                        "ln_sigma":0.0
                     }
                  ]
               }
            ],
            "station_type":"seismic",
            "nresp":"null",
            "predictions":[
               {
                  "name":"pga",
                  "value":6.7774,
                  "value_rock":7.9877,
                  "value_soil":9.9737,
                  "units":"%g",
                  "ln_tau":0.4025,
                  "ln_phi":0.5831,
                  "ln_sigma":0.7085,
                  "ln_sigma_rock":0.7111,
                  "ln_sigma_soil":0.7111,
                  "ln_bias":0.1891,
                  "ln_bias_sigma":0.1697
               },
               {
                  "name":"sa(1.0)",
                  "value":4.0609,
                  "value_rock":4.5697,
                  "value_soil":10.1431,
                  "units":"%g",
                  "ln_tau":0.3705,
                  "ln_phi":0.6313,
                  "ln_sigma":0.732,
                  "ln_sigma_rock":0.7349,
                  "ln_sigma_soil":0.7342,
                  "ln_bias":0.3062,
                  "ln_bias_sigma":0.1851
               },
               {
                  "name":"pgv",
                  "value":3.7974,
                  "value_rock":4.2732,
                  "value_soil":9.4849,
                  "units":"cm/s",
                  "ln_tau":0.3705,
                  "ln_phi":0.81,
                  "ln_sigma":0.8907,
                  "ln_sigma_rock":0.8933,
                  "ln_sigma_soil":0.8924,
                  "ln_bias":0.442,
                  "ln_bias_sigma":0.2146
               },
               {
                  "name":"mmi",
                  "value":5.1535,
                  "value_rock":5.4175,
                  "value_soil":5.7743,
                  "units":"intensity",
                  "tau":0.6468,
                  "phi":1.1461,
                  "sigma":1.316,
                  "sigma_rock":1.3195,
                  "sigma_soil":1.3196,
                  "bias":0.2415,
                  "bias_sigma":0.3226
               }
            ],
            "mmi_from_pgm":[
               {
                  "name":"pga",
                  "value":5.97,
                  "sigma":0.66,
                  "flag":"0"
               },
               {
                  "name":"sa(1.0)",
                  "value":3.73,
                  "sigma":0.75,
                  "flag":"0"
               },
               {
                  "name":"pgv",
                  "value":4.38,
                  "sigma":0.63,
                  "flag":"0"
               }
            ],
            "distance_stddev":0.0,
            "distances":{
               "repi":110.082,
               "rhypo":120.092,
               "rjb":107.859,
               "rjb_var":0.0,
               "rrup":121.519,
               "rrup_var":0.0,
               "rvolc":0.0
            }
         },
         "geometry":{
            "type":"Point",
            "coordinates":[
               -98.56647,
               17.562675
            ]
         }
      },
      {
         "type":"Feature",
         "id":"unknown.TPIG",
         "properties":{
            "code":"TPIG",
            "name":"TPIG",
            "instrumentType":"UNK",
            "source":"unknown",
            "network":"unknown",
            "commType":"UNK",
            "location":"",
            "intensity":5.3,
            "intensity_flag":"",
            "intensity_stddev":0.63,
            "pga":7.2722,
            "pgv":7.41,
            "distance":110.718,
            "elev":null,
            "vs30":418.97,
            "channels":[
               {
                  "name":"UNK",
                  "amplitudes":[
                     {
                        "name":"sa(1.0)",
                        "value":4.317,
                        "units":"%g",
                        "flag":"0",
                        "ln_sigma":0.0
                     },
                     {
                        "name":"pgv",
                        "value":7.41,
                        "units":"cm/s",
                        "flag":"0",
                        "ln_sigma":0.0
                     },
                     {
                        "name":"pga",
                        "value":7.2722,
                        "units":"%g",
                        "flag":"0",
                        "ln_sigma":0.0
                     }
                  ]
               }
            ],
            "station_type":"seismic",
            "nresp":"null",
            "predictions":[
               {
                  "name":"pga",
                  "value":9.994,
                  "value_rock":8.6394,
                  "value_soil":10.8554,
                  "units":"%g",
                  "ln_tau":0.4025,
                  "ln_phi":0.5831,
                  "ln_sigma":0.7085,
                  "ln_sigma_rock":0.7111,
                  "ln_sigma_soil":0.7111,
                  "ln_bias":0.1891,
                  "ln_bias_sigma":0.1697
               },
               {
                  "name":"sa(1.0)",
                  "value":6.3743,
                  "value_rock":4.8772,
                  "value_soil":10.8664,
                  "units":"%g",
                  "ln_tau":0.3705,
                  "ln_phi":0.6313,
                  "ln_sigma":0.732,
                  "ln_sigma_rock":0.7349,
                  "ln_sigma_soil":0.7342,
                  "ln_bias":0.3062,
                  "ln_bias_sigma":0.1851
               },
               {
                  "name":"pgv",
                  "value":5.9614,
                  "value_rock":4.5613,
                  "value_soil":10.1625,
                  "units":"cm/s",
                  "ln_tau":0.3705,
                  "ln_phi":0.81,
                  "ln_sigma":0.8907,
                  "ln_sigma_rock":0.8933,
                  "ln_sigma_soil":0.8924,
                  "ln_bias":0.442,
                  "ln_bias_sigma":0.2146
               },
               {
                  "name":"mmi",
                  "value":5.7363,
                  "value_rock":5.5023,
                  "value_soil":5.8692,
                  "units":"intensity",
                  "tau":0.6468,
                  "phi":1.1461,
                  "sigma":1.316,
                  "sigma_rock":1.3195,
                  "sigma_soil":1.3196,
                  "bias":0.2415,
                  "bias_sigma":0.3226
               }
            ],
            "mmi_from_pgm":[
               {
                  "name":"pga",
                  "value":5.23,
                  "sigma":0.66,
                  "flag":"0"
               },
               {
                  "name":"sa(1.0)",
                  "value":4.17,
                  "sigma":0.75,
                  "flag":"0"
               },
               {
                  "name":"pgv",
                  "value":5.26,
                  "sigma":0.63,
                  "flag":"0"
               }
            ],
            "distance_stddev":0.0,
            "distances":{
               "repi":119.694,
               "rhypo":128.96,
               "rjb":101.03,
               "rjb_var":0.0,
               "rrup":110.718,
               "rrup_var":0.0,
               "rvolc":0.0
            }
         },
         "geometry":{
            "type":"Point",
            "coordinates":[
               -97.361969,
               18.42023
            ]
         }
      },
      {
         "type":"Feature",
         "id":"unknown.MEIG",
         "properties":{
            "code":"MEIG",
            "name":"MEIG",
            "instrumentType":"UNK",
            "source":"unknown",
            "network":"unknown",
            "commType":"UNK",
            "location":"",
            "intensity":4.0,
            "intensity_flag":"",
            "intensity_stddev":0.63,
            "pga":7.6035,
            "pgv":2.42,
            "distance":146.181,
            "elev":null,
            "vs30":525.18,
            "channels":[
               {
                  "name":"UNK",
                  "amplitudes":[
                     {
                        "name":"sa(1.0)",
                        "value":1.3945,
                        "units":"%g",
                        "flag":"0",
                        "ln_sigma":0.0
                     },
                     {
                        "name":"pgv",
                        "value":2.42,
                        "units":"cm/s",
                        "flag":"0",
                        "ln_sigma":0.0
                     },
                     {
                        "name":"pga",
                        "value":7.6035,
                        "units":"%g",
                        "flag":"0",
                        "ln_sigma":0.0
                     }
                  ]
               }
            ],
            "station_type":"seismic",
            "nresp":"null",
            "predictions":[
               {
                  "name":"pga",
                  "value":6.2666,
                  "value_rock":5.5438,
                  "value_soil":7.0516,
                  "units":"%g",
                  "ln_tau":0.4025,
                  "ln_phi":0.5831,
                  "ln_sigma":0.7085,
                  "ln_sigma_rock":0.7111,
                  "ln_sigma_soil":0.7111,
                  "ln_bias":0.1891,
                  "ln_bias_sigma":0.1697
               },
               {
                  "name":"sa(1.0)",
                  "value":4.0579,
                  "value_rock":3.3068,
                  "value_soil":7.4128,
                  "units":"%g",
                  "ln_tau":0.3705,
                  "ln_phi":0.6313,
                  "ln_sigma":0.732,
                  "ln_sigma_rock":0.7349,
                  "ln_sigma_soil":0.7342,
                  "ln_bias":0.3062,
                  "ln_bias_sigma":0.1851
               },
               {
                  "name":"pgv",
                  "value":3.7936,
                  "value_rock":3.0915,
                  "value_soil":6.9301,
                  "units":"cm/s",
                  "ln_tau":0.3705,
                  "ln_phi":0.81,
                  "ln_sigma":0.8907,
                  "ln_sigma_rock":0.8933,
                  "ln_sigma_soil":0.8924,
                  "ln_bias":0.442,
                  "ln_bias_sigma":0.2146
               },
               {
                  "name":"mmi",
                  "value":5.1094,
                  "value_rock":4.9124,
                  "value_soil":5.299,
                  "units":"intensity",
                  "tau":0.6468,
                  "phi":1.1461,
                  "sigma":1.316,
                  "sigma_rock":1.3195,
                  "sigma_soil":1.3196,
                  "bias":0.2415,
                  "bias_sigma":0.3226
               }
            ],
            "mmi_from_pgm":[
               {
                  "name":"pga",
                  "value":5.42,
                  "sigma":0.66,
                  "flag":"0"
               },
               {
                  "name":"sa(1.0)",
                  "value":3.37,
                  "sigma":0.75,
                  "flag":"0"
               },
               {
                  "name":"pgv",
                  "value":3.97,
                  "sigma":0.63,
                  "flag":"0"
               }
            ],
            "distance_stddev":0.0,
            "distances":{
               "repi":138.193,
               "rhypo":146.292,
               "rjb":135.258,
               "rjb_var":0.0,
               "rrup":146.181,
               "rrup_var":0.0,
               "rvolc":0.0
            }
         },
         "geometry":{
            "type":"Point",
            "coordinates":[
               -99.619725,
               17.924894
            ]
         }
      },
      {
         "type":"Feature",
         "id":"unknown.COMA",
         "properties":{
            "code":"COMA",
            "name":"COMA",
            "instrumentType":"UNK",
            "source":"unknown",
            "network":"unknown",
            "commType":"UNK",
            "location":"",
            "intensity":2.9,
            "intensity_flag":"",
            "intensity_stddev":0.63,
            "pga":0.2273,
            "pgv":0.44,
            "distance":556.252,
            "elev":null,
            "vs30":760.0,
            "channels":[
               {
                  "name":"UNK",
                  "amplitudes":[
                     {
                        "name":"sa(1.0)",
                        "value":0.7757,
                        "units":"%g",
                        "flag":"0",
                        "ln_sigma":0.0
                     },
                     {
                        "name":"pgv",
                        "value":0.44,
                        "units":"cm/s",
                        "flag":"0",
                        "ln_sigma":0.0
                     },
                     {
                        "name":"pga",
                        "value":0.2273,
                        "units":"%g",
                        "flag":"0",
                        "ln_sigma":0.0
                     }
                  ]
               }
            ],
            "station_type":"seismic",
            "nresp":"null",
            "predictions":[
               {
                  "name":"pga",
                  "value":0.1976,
                  "value_rock":0.1976,
                  "value_soil":0.2629,
                  "units":"%g",
                  "ln_tau":0.4025,
                  "ln_phi":0.5831,
                  "ln_sigma":0.7085,
                  "ln_sigma_rock":0.7111,
                  "ln_sigma_soil":0.7111,
                  "ln_bias":0.1891,
                  "ln_bias_sigma":0.1697
               },
               {
                  "name":"sa(1.0)",
                  "value":0.1558,
                  "value_rock":0.1558,
                  "value_soil":0.3575,
                  "units":"%g",
                  "ln_tau":0.3705,
                  "ln_phi":0.6313,
                  "ln_sigma":0.732,
                  "ln_sigma_rock":0.7349,
                  "ln_sigma_soil":0.7342,
                  "ln_bias":0.3062,
                  "ln_bias_sigma":0.1851
               },
               {
                  "name":"pgv",
                  "value":0.1455,
                  "value_rock":0.1455,
                  "value_soil":0.3338,
                  "units":"cm/s",
                  "ln_tau":0.3705,
                  "ln_phi":0.81,
                  "ln_sigma":0.8907,
                  "ln_sigma_rock":0.8933,
                  "ln_sigma_soil":0.8924,
                  "ln_bias":0.442,
                  "ln_bias_sigma":0.2146
               },
               {
                  "name":"mmi",
                  "value":2.6351,
                  "value_rock":2.6351,
                  "value_soil":2.8275,
                  "units":"intensity",
                  "tau":0.271,
                  "phi":0.7679,
                  "sigma":0.8143,
                  "sigma_rock":0.8153,
                  "sigma_soil":0.8153,
                  "bias":0.1114,
                  "bias_sigma":0.2191
               }
            ],
            "mmi_from_pgm":[
               {
                  "name":"pga",
                  "value":2.73,
                  "sigma":0.66,
                  "flag":"0"
               },
               {
                  "name":"sa(1.0)",
                  "value":2.83,
                  "sigma":0.75,
                  "flag":"0"
               },
               {
                  "name":"pgv",
                  "value":2.88,
                  "sigma":0.63,
                  "flag":"0"
               }
            ],
            "distance_stddev":0.0,
            "distances":{
               "repi":561.138,
               "rhypo":563.187,
               "rjb":555.818,
               "rjb_var":0.0,
               "rrup":556.252,
               "rrup_var":0.0,
               "rvolc":0.0
            }
         },
         "geometry":{
            "type":"Point",
            "coordinates":[
               -103.760813,
               19.325266
            ]
         }
      },
      {
         "type":"Feature",
         "id":"unknown.TUIG",
         "properties":{
            "code":"TUIG",
            "name":"TUIG",
            "instrumentType":"UNK",
            "source":"unknown",
            "network":"unknown",
            "commType":"UNK",
            "location":"",
            "intensity":2.7,
            "intensity_flag":"",
            "intensity_stddev":0.63,
            "pga":0.211,
            "pgv":0.33,
            "distance":415.652,
            "elev":null,
            "vs30":760.0,
            "channels":[
               {
                  "name":"UNK",
                  "amplitudes":[
                     {
                        "name":"sa(1.0)",
                        "value":0.2956,
                        "units":"%g",
                        "flag":"0",
                        "ln_sigma":0.0
                     },
                     {
                        "name":"pgv",
                        "value":0.33,
                        "units":"cm/s",
                        "flag":"0",
                        "ln_sigma":0.0
                     },
                     {
                        "name":"pga",
                        "value":0.211,
                        "units":"%g",
                        "flag":"0",
                        "ln_sigma":0.0
                     }
                  ]
               }
            ],
            "station_type":"seismic",
            "nresp":"null",
            "predictions":[
               {
                  "name":"pga",
                  "value":0.4633,
                  "value_rock":0.4633,
                  "value_soil":0.6149,
                  "units":"%g",
                  "ln_tau":0.4025,
                  "ln_phi":0.5831,
                  "ln_sigma":0.7085,
                  "ln_sigma_rock":0.7111,
                  "ln_sigma_soil":0.7111,
                  "ln_bias":0.1891,
                  "ln_bias_sigma":0.1697
               },
               {
                  "name":"sa(1.0)",
                  "value":0.3432,
                  "value_rock":0.3432,
                  "value_soil":0.7863,
                  "units":"%g",
                  "ln_tau":0.3705,
                  "ln_phi":0.6313,
                  "ln_sigma":0.732,
