{
   "type":"FeatureCollection",
   "features":[
      {
         "type":"Feature",
         "id":"DYFI.UTM:(18N 0420 0500 5000)",
         "properties":{
            "code":"UTM:(18N 0420 0500 5000)",
            "name":null,
            "instrumentType":"OBSERVED",
            "source":"DYFI",
            "network":"DYFI",
            "commType":"UNK",
            "location":"",
            "intensity":3.3,
            "intensity_flag":"0",
            "intensity_stddev":0.3,
            "pga":"null",
            "pgv":"null",
            "distance":210.15,
            "elev":null,
            "vs30":760.0,
            "channels":[
               
            ],
            "nresp":-1,
            "station_type":"macroseismic",
            "predictions":[
               {
                  "name":"mmi",
                  "value":2.7679,
                  "value_rock":2.7679,
                  "value_soil":3.2153,
                  "units":"intensity",
                  "tau":0.2322,
                  "phi":0.7538,
                  "sigma":0.7887,
                  "sigma_rock":0.7891,
                  "sigma_soil":0.7835,
                  "bias":0.0458,
                  "bias_sigma":0.2167
               },
               {
                  "name":"sa(0.3)",
                  "value":0.4876,
                  "value_rock":0.4876,
                  "value_soil":1.5545,
                  "units":"%g",
                  "ln_tau":0.3225,
                  "ln_phi":0.6131,
                  "ln_sigma":0.6927,
                  "ln_sigma_rock":0.6962,
                  "ln_sigma_soil":0.6827,
                  "ln_bias":0.024,
                  "ln_bias_sigma":0.2923
               },
               {
                  "name":"sa(1.0)",
                  "value":0.2549,
                  "value_rock":0.2549,
                  "value_soil":1.0591,
                  "units":"%g",
                  "ln_tau":0.3577,
                  "ln_phi":0.641,
                  "ln_sigma":0.734,
                  "ln_sigma_rock":0.7357,
                  "ln_sigma_soil":0.7301,
                  "ln_bias":0.0488,
                  "ln_bias_sigma":0.3219
               },
               {
                  "name":"sa(3.0)",
                  "value":0.054,
                  "value_rock":0.054,
                  "value_soil":0.2228,
                  "units":"%g",
                  "ln_tau":0.3854,
                  "ln_phi":0.6254,
                  "ln_sigma":0.7346,
                  "ln_sigma_rock":0.7362,
                  "ln_sigma_soil":0.7361,
                  "ln_bias":0.0614,
                  "ln_bias_sigma":0.3562
               },
               {
                  "name":"pgv",
                  "value":0.2579,
                  "value_rock":0.2579,
                  "value_soil":0.7309,
                  "units":"cm/s",
                  "ln_tau":0.3305,
                  "ln_phi":0.5495,
                  "ln_sigma":0.6413,
                  "ln_sigma_rock":0.642,
                  "ln_sigma_soil":0.6247,
                  "ln_bias":0.0599,
                  "ln_bias_sigma":0.2907
               },
               {
                  "name":"pga",
                  "value":0.2247,
                  "value_rock":0.2247,
                  "value_soil":0.4367,
                  "units":"%g",
                  "ln_tau":0.345,
                  "ln_phi":0.5409,
                  "ln_sigma":0.6415,
                  "ln_sigma_rock":0.6427,
                  "ln_sigma_soil":0.6271,
                  "ln_bias":0.0831,
                  "ln_bias_sigma":0.2954
               }
            ],
            "pgm_from_mmi":[
               {
                  "name":"sa(3.0)",
                  "value":null,
                  "units":"%g",
                  "ln_sigma":null,
                  "flag":"0"
               },
               {
                  "name":"pga",
                  "value":null,
                  "units":"%g",
                  "ln_sigma":null,
                  "flag":"0"
               },
               {
                  "name":"sa(0.3)",
                  "value":null,
                  "units":"%g",
                  "ln_sigma":null,
                  "flag":"0"
               },
               {
                  "name":"pgv",
                  "value":null,
                  "units":"cm/s",
                  "ln_sigma":null,
                  "flag":"0"
               },
               {
                  "name":"sa(1.0)",
                  "value":null,
                  "units":"%g",
                  "ln_sigma":null,
                  "flag":"0"
               }
            ],
            "distance_stddev":5.364,
            "distances":{
               "repi":215.822,
               "rhypo":216.005,
               "rjb":210.243,
               "rjb_var":24.038,
               "rrup":210.15,
               "rrup_var":28.778,
               "rx":0.0,
               "ry0":0.0,
               "rvolc":0.0
            }
         },
         "geometry":{
            "type":"Point",
            "coordinates":[
               -75.6987,
               4.5458
            ]
         }
      },
      {
         "type":"Feature",
         "id":"DYFI.UTM:(18N 0680 0610 5000)",
         "properties":{
            "code":"UTM:(18N 0680 0610 5000)",
            "name":null,
            "instrumentType":"OBSERVED",
            "source":"DYFI",
            "network":"DYFI",
            "commType":"UNK",
            "location":"",
            "intensity":3.7,
            "intensity_flag":"0",
            "intensity_stddev":0.3,
            "pga":"null",
            "pgv":"null",
            "distance":136.714,
            "elev":null,
            "vs30":760.0,
            "channels":[
               
            ],
            "nresp":-1,
            "station_type":"macroseismic",
            "predictions":[
               {
                  "name":"mmi",
                  "value":3.2223,
                  "value_rock":3.2223,
                  "value_soil":3.6613,
                  "units":"intensity",
                  "tau":0.2322,
                  "phi":0.7508,
                  "sigma":0.7859,
                  "sigma_rock":0.7862,
                  "sigma_soil":0.7797,
                  "bias":0.0458,
                  "bias_sigma":0.2167
               },
               {
                  "name":"sa(0.3)",
                  "value":1.1807,
                  "value_rock":1.1807,
                  "value_soil":3.7035,
                  "units":"%g",
                  "ln_tau":0.3225,
                  "ln_phi":0.6001,
                  "ln_sigma":0.6812,
                  "ln_sigma_rock":0.6838,
                  "ln_sigma_soil":0.6667,
                  "ln_bias":0.024,
                  "ln_bias_sigma":0.2922
               },
               {
                  "name":"sa(1.0)",
                  "value":0.4532,
                  "value_rock":0.4532,
                  "value_soil":1.8676,
                  "units":"%g",
                  "ln_tau":0.3577,
                  "ln_phi":0.6301,
                  "ln_sigma":0.7246,
                  "ln_sigma_rock":0.7258,
                  "ln_sigma_soil":0.7189,
                  "ln_bias":0.0488,
                  "ln_bias_sigma":0.3219
               },
               {
                  "name":"sa(3.0)",
                  "value":0.0874,
                  "value_rock":0.0874,
                  "value_soil":0.3609,
                  "units":"%g",
                  "ln_tau":0.3854,
                  "ln_phi":0.608,
                  "ln_sigma":0.7198,
                  "ln_sigma_rock":0.7207,
                  "ln_sigma_soil":0.7206,
                  "ln_bias":0.0614,
                  "ln_bias_sigma":0.3562
               },
               {
                  "name":"pgv",
                  "value":0.482,
                  "value_rock":0.482,
                  "value_soil":1.3552,
                  "units":"cm/s",
                  "ln_tau":0.3305,
                  "ln_phi":0.5421,
                  "ln_sigma":0.6349,
                  "ln_sigma_rock":0.6356,
                  "ln_sigma_soil":0.6174,
                  "ln_bias":0.0599,
                  "ln_bias_sigma":0.2907
               },
               {
                  "name":"pga",
                  "value":0.5855,
                  "value_rock":0.5855,
                  "value_soil":1.124,
                  "units":"%g",
                  "ln_tau":0.345,
                  "ln_phi":0.5316,
                  "ln_sigma":0.6337,
                  "ln_sigma_rock":0.6348,
                  "ln_sigma_soil":0.6167,
                  "ln_bias":0.083,
                  "ln_bias_sigma":0.2954
               }
            ],
            "pgm_from_mmi":[
               {
                  "name":"sa(3.0)",
                  "value":null,
                  "units":"%g",
                  "ln_sigma":null,
                  "flag":"0"
               },
               {
                  "name":"pga",
                  "value":null,
                  "units":"%g",
                  "ln_sigma":null,
                  "flag":"0"
               },
               {
                  "name":"sa(0.3)",
                  "value":null,
                  "units":"%g",
                  "ln_sigma":null,
                  "flag":"0"
               },
               {
                  "name":"pgv",
                  "value":null,
                  "units":"cm/s",
                  "ln_sigma":null,
                  "flag":"0"
               },
               {
                  "name":"sa(1.0)",
                  "value":null,
                  "units":"%g",
                  "ln_sigma":null,
                  "flag":"0"
               }
            ],
            "distance_stddev":5.528,
            "distances":{
               "repi":141.953,
               "rhypo":142.232,
               "rjb":136.43,
               "rjb_var":23.858,
               "rrup":136.714,
               "rrup_var":30.555,
               "rx":0.0,
               "ry0":0.0,
               "rvolc":0.0
            }
         },
         "geometry":{
            "type":"Point",
            "coordinates":[
               -73.3525,
               5.539
            ]
         }
      },
      {
         "type":"Feature",
         "id":"DYFI.UTM:(18N 0600 0510 5000)",
         "properties":{
            "code":"UTM:(18N 0600 0510 5000)",
            "name":null,
            "instrumentType":"OBSERVED",
            "source":"DYFI",
            "network":"DYFI",
            "commType":"UNK",
            "location":"",
            "intensity":4.9,
            "intensity_flag":"0",
            "intensity_stddev":0.3,
            "pga":6.7016,
            "pgv":4.8679,
            "distance":45.071,
            "elev":null,
            "vs30":325.67,
            "channels":[
               
            ],
            "nresp":-1,
            "station_type":"macroseismic",
            "predictions":[
               {
                  "name":"mmi",
                  "value":4.3688,
                  "value_rock":3.9075,
                  "value_soil":4.7035,
                  "units":"intensity",
                  "tau":0.5425,
                  "phi":1.0897,
                  "sigma":1.2172,
                  "sigma_rock":0.7909,
                  "sigma_soil":1.1788,
                  "bias":0.1587,
                  "bias_sigma":0.4032
               },
               {
                  "name":"sa(0.3)",
                  "value":11.8373,
                  "value_rock":6.1695,
                  "value_soil":17.3137,
                  "units":"%g",
                  "ln_tau":0.315,
                  "ln_phi":0.6002,
                  "ln_sigma":0.6778,
                  "ln_sigma_rock":0.6905,
                  "ln_sigma_soil":0.6456,
                  "ln_bias":0.0231,
                  "ln_bias_sigma":0.2866
               },
               {
                  "name":"sa(1.0)",
                  "value":3.8987,
                  "value_rock":1.6973,
                  "value_soil":6.6375,
                  "units":"%g",
                  "ln_tau":0.3563,
                  "ln_phi":0.6393,
                  "ln_sigma":0.7319,
                  "ln_sigma_rock":0.735,
                  "ln_sigma_soil":0.7201,
                  "ln_bias":0.0485,
                  "ln_bias_sigma":0.3209
               },
               {
                  "name":"sa(3.0)",
                  "value":0.6849,
                  "value_rock":0.2953,
                  "value_soil":1.2176,
                  "units":"%g",
                  "ln_tau":0.3852,
                  "ln_phi":0.6205,
                  "ln_sigma":0.7304,
                  "ln_sigma_rock":0.7312,
                  "ln_sigma_soil":0.731,
                  "ln_bias":0.0613,
                  "ln_bias_sigma":0.3561
               },
               {
                  "name":"pgv",
                  "value":3.5858,
                  "value_rock":1.9659,
                  "value_soil":5.2525,
                  "units":"cm/s",
                  "ln_tau":0.3288,
                  "ln_phi":0.5542,
                  "ln_sigma":0.6444,
                  "ln_sigma_rock":0.6477,
                  "ln_sigma_soil":0.6218,
                  "ln_bias":0.0595,
                  "ln_bias_sigma":0.2896
               },
               {
                  "name":"pga",
                  "value":4.8152,
                  "value_rock":3.363,
                  "value_soil":5.9303,
                  "units":"%g",
                  "ln_tau":0.3376,
                  "ln_phi":0.5396,
                  "ln_sigma":0.6365,
                  "ln_sigma_rock":0.6474,
                  "ln_sigma_soil":0.6079,
                  "ln_bias":0.0804,
                  "ln_bias_sigma":0.2907
               }
            ],
            "pgm_from_mmi":[
               {
                  "name":"sa(3.0)",
                  "value":1.1625,
                  "units":"%g",
                  "ln_sigma":1.4737,
                  "flag":"0"
               },
               {
                  "name":"pga",
                  "value":6.7016,
                  "units":"%g",
                  "ln_sigma":0.8059,
                  "flag":"0"
               },
               {
                  "name":"sa(0.3)",
                  "value":15.7144,
                  "units":"%g",
                  "ln_sigma":1.0131,
                  "flag":"0"
               },
               {
                  "name":"pgv",
                  "value":4.8679,
                  "units":"cm/s",
                  "ln_sigma":0.875,
                  "flag":"0"
               },
               {
                  "name":"sa(1.0)",
                  "value":5.1965,
                  "units":"%g",
                  "ln_sigma":1.0822,
                  "flag":"0"
               }
            ],
            "distance_stddev":6.206,
            "distances":{
               "repi":48.518,
               "rhypo":49.327,
               "rjb":43.293,
               "rjb_var":22.592,
               "rrup":45.071,
               "rrup_var":38.508,
               "rx":0.0,
               "ry0":0.0,
               "rvolc":0.0
            }
         },
         "geometry":{
            "type":"Point",
            "coordinates":[
               -74.0759,
               4.6361
            ]
         }
      },
      {
         "type":"Feature",
         "id":"DYFI.UTM:(18N 0600 0535 5000)",
         "properties":{
            "code":"UTM:(18N 0600 0535 5000)",
            "name":null,
            "instrumentType":"OBSERVED",
            "source":"DYFI",
            "network":"DYFI",
            "commType":"UNK",
            "location":"",
            "intensity":4.0,
            "intensity_flag":"0",
            "intensity_stddev":0.3,
            "pga":3.0505,
            "pgv":1.8191,
            "distance":64.411,
            "elev":null,
            "vs30":569.46,
            "channels":[
               
            ],
            "nresp":-1,
            "station_type":"macroseismic",
            "predictions":[
               {
                  "name":"mmi",
                  "value":3.8262,
                  "value_rock":3.7368,
                  "value_soil":4.144,
                  "units":"intensity",
                  "tau":0.2316,
                  "phi":0.7514,
                  "sigma":0.7863,
                  "sigma_rock":0.7871,
                  "sigma_soil":0.7765,
                  "bias":0.0456,
                  "bias_sigma":0.2162
               },
               {
                  "name":"sa(0.3)",
                  "value":4.9137,
                  "value_rock":3.8597,
                  "value_soil":11.3829,
                  "units":"%g",
                  "ln_tau":0.322,
                  "ln_phi":0.5975,
                  "ln_sigma":0.6788,
                  "ln_sigma_rock":0.6813,
                  "ln_sigma_soil":0.6494,
                  "ln_bias":0.024,
                  "ln_bias_sigma":0.2919
               },
               {
                  "name":"sa(1.0)",
                  "value":1.5054,
                  "value_rock":1.1205,
                  "value_soil":4.484,
                  "units":"%g",
                  "ln_tau":0.3576,
                  "ln_phi":0.6319,
                  "ln_sigma":0.726,
                  "ln_sigma_rock":0.7272,
                  "ln_sigma_soil":0.7161,
                  "ln_bias":0.0487,
                  "ln_bias_sigma":0.3219
               },
               {
                  "name":"sa(3.0)",
                  "value":0.267,
                  "value_rock":0.1986,
                  "value_soil":0.8194,
                  "units":"%g",
                  "ln_tau":0.3853,
                  "ln_phi":0.6116,
                  "ln_sigma":0.7228,
                  "ln_sigma_rock":0.7236,
                  "ln_sigma_soil":0.7235,
                  "ln_bias":0.0614,
                  "ln_bias_sigma":0.3562
               },
               {
                  "name":"pgv",
                  "value":1.5716,
                  "value_rock":1.2699,
                  "value_soil":3.47,
                  "units":"cm/s",
                  "ln_tau":0.3304,
                  "ln_phi":0.5445,
                  "ln_sigma":0.6369,
                  "ln_sigma_rock":0.6377,
                  "ln_sigma_soil":0.6156,
                  "ln_bias":0.0599,
                  "ln_bias_sigma":0.2907
               },
               {
                  "name":"pga",
                  "value":2.3565,
                  "value_rock":2.0632,
                  "value_soil":3.7781,
                  "units":"%g",
                  "ln_tau":0.344,
                  "ln_phi":0.5337,
                  "ln_sigma":0.6349,
                  "ln_sigma_rock":0.6371,
                  "ln_sigma_soil":0.6076,
                  "ln_bias":0.0827,
                  "ln_bias_sigma":0.2948
               }
            ],
            "pgm_from_mmi":[
               {
                  "name":"sa(3.0)",
                  "value":0.301,
                  "units":"%g",
                  "ln_sigma":1.4737,
                  "flag":"0"
               },
               {
                  "name":"pga",
                  "value":3.0505,
                  "units":"%g",
                  "ln_sigma":0.8059,
                  "flag":"0"
               },
               {
                  "name":"sa(0.3)",
                  "value":4.0616,
                  "units":"%g",
                  "ln_sigma":1.0131,
                  "flag":"0"
               },
               {
                  "name":"pgv",
                  "value":1.8191,
                  "units":"cm/s",
                  "ln_sigma":0.875,
                  "flag":"0"
               },
               {
