{"type": "FeatureCollection", "features": [{"type": "Feature", "id": "G.BLK", "properties": {"code": "BLK", "name": "Balikesir-Bayindirlik ve Iskan Mudurlugu", "instrumentType": "UNK", "source": "G", "network": "G", "commType": "UNK", "location": "", "intensity": 3.6, "intensity_flag": "", "intensity_stddev": 0.63, "pga": 0.4622, "pgv": 1.15, "distance": 253.666, "elev": null, "vs30": 382.91, "channels": [{"name": "Z", "amplitudes": [{"name": "sa(0.3)", "value": 0.3939, "units": "%g", "flag": "0", "ln_sigma": 0.0}, {"name": "sa(1.0)", "value": 0.6327, "units": "%g", "flag": "0", "ln_sigma": 0.0}, {"name": "pga", "value": 0.2439, "units": "%g", "flag": "0", "ln_sigma": 0.0}, {"name": "pgv", "value": 0.493, "units": "cm/s", "flag": "0", "ln_sigma": 0.0}, {"name": "sa(3.0)", "value": 0.1225, "units": "%g", "flag": "0", "ln_sigma": 0.0}]}, {"name": "E", "amplitudes": [{"name": "sa(0.3)", "value": 0.8704, "units": "%g", "flag": "0", "ln_sigma": 0.0}, {"name": "sa(1.0)", "value": 0.9918, "units": "%g", "flag": "0", "ln_sigma": 0.0}, {"name": "pga", "value": 0.4622, "units": "%g", "flag": "0", "ln_sigma": 0.0}, {"name": "pgv", "value": 1.15, "units": "cm/s", "flag": "0", "ln_sigma": 0.0}, {"name": "sa(3.0)", "value": 0.1735, "units": "%g", "flag": "0", "ln_sigma": 0.0}]}, {"name": "N", "amplitudes": [{"name": "sa(0.3)", "value": 0.548, "units": "%g", "flag": "0", "ln_sigma": 0.0}, {"name": "sa(1.0)", "value": 0.8235, "units": "%g", "flag": "0", "ln_sigma": 0.0}, {"name": "pga", "value": 0.2704, "units": "%g", "flag": "0", "ln_sigma": 0.0}, {"name": "pgv", "value": 0.538, "units": "cm/s", "flag": "0", "ln_sigma": 0.0}, {"name": "sa(3.0)", "value": 0.1163, "units": "%g", "flag": "0", "ln_sigma": 0.0}]}], "station_type": "seismic", "nresp": "null", "predictions": [{"name": "pga", "value": 0.4869, "value_rock": 0.3867, "value_soil": 0.5932, "units": "%g", "ln_tau": 0.0, "ln_phi": 0.5721, "ln_sigma": 0.5721, "ln_sigma_rock": 0.6851, "ln_sigma_soil": 0.6806, "ln_bias": -0.3642, "ln_bias_sigma": 0.2324}, {"name": "sa(3.0)", "value": 0.153, "value_rock": 0.1006, "value_soil": 0.2837, "units": "%g", "ln_tau": 0.0, "ln_phi": 0.6358, "ln_sigma": 0.6358, "ln_sigma_rock": 0.7612, "ln_sigma_soil": 0.7533, "ln_bias": 0.1321, "ln_bias_sigma": 0.2614}, {"name": "sa(1.0)", "value": 0.6285, "value_rock": 0.3757, "value_soil": 1.2623, "units": "%g", "ln_tau": 0.0, "ln_phi": 0.6423, "ln_sigma": 0.6423, "ln_sigma_rock": 0.7691, "ln_sigma_soil": 0.7636, "ln_bias": 0.1088, "ln_bias_sigma": 0.2628}, {"name": "pgv", "value": 0.49, "value_rock": 0.331, "value_soil": 0.8636, "units": "cm/s", "ln_tau": 0.0, "ln_phi": 0.6362, "ln_sigma": 0.6362, "ln_sigma_rock": 0.7618, "ln_sigma_soil": 0.7554, "ln_bias": 0.0126, "ln_bias_sigma": 0.2604}, {"name": "sa(0.3)", "value": 1.1885, "value_rock": 0.7593, "value_soil": 1.829, "units": "%g", "ln_tau": 0.0, "ln_phi": 0.6149, "ln_sigma": 0.6149, "ln_sigma_rock": 0.7363, "ln_sigma_soil": 0.7334, "ln_bias": -0.1488, "ln_bias_sigma": 0.2494}, {"name": "mmi", "value": 3.2869, "value_rock": 3.1319, "value_soil": 3.4199, "units": "intensity", "tau": 0.0, "phi": 0.6724, "sigma": 0.6724, "sigma_rock": 0.8052, "sigma_soil": 0.8034, "bias": -0.0277, "bias_sigma": 0.3525}], "mmi_from_pgm": [{"name": "pga", "value": 3.25, "sigma": 0.66, "flag": "0"}, {"name": "sa(3.0)", "value": 3.28, "sigma": 0.89, "flag": "0"}, {"name": "sa(1.0)", "value": 3.23, "sigma": 0.75, "flag": "0"}, {"name": "pgv", "value": 3.62, "sigma": 0.63, "flag": "0"}, {"name": "sa(0.3)", "value": 3.23, "sigma": 0.82, "flag": "0"}], "distance_stddev": 0.0, "distances": {"repi": 262.912, "rhypo": 264.975, "rjb": 253.682, "rjb_var": 0.0, "rrup": 253.666, "rrup_var": 0.0, "rx": 56.353, "ry0": 247.163, "rvolc": 0.0}}, "geometry": {"type": "Point", "coordinates": [27.883, 39.65]}}, {"type": "Feature", "id": "G.DIN", "properties": {"code": "DIN", "name": "Dinar-Meteoroloji Mudurlugu", "instrumentType": "UNK", "source": "G", "network": "G", "commType": "UNK", "location": "", "intensity": 7.7, "intensity_flag": "", "intensity_stddev": 0.63, "pga": 31.9388, "pgv": 40.6, "distance": 1.323, "elev": null, "vs30": 290.49, "channels": [{"name": "Z", "amplitudes": [{"name": "sa(0.3)", "value": 20.4082, "units": "%g", "flag": "0", "ln_sigma": 0.0}, {"name": "sa(1.0)", "value": 23.8776, "units": "%g", "flag": "0", "ln_sigma": 0.0}, {"name": "pga", "value": 13.0612, "units": "%g", "flag": "0", "ln_sigma": 0.0}, {"name": "pgv", "value": 15.1, "units": "cm/s", "flag": "0", "ln_sigma": 0.0}, {"name": "sa(3.0)", "value": 2.7143, "units": "%g", "flag": "0", "ln_sigma": 0.0}]}, {"name": "E", "amplitudes": [{"name": "sa(0.3)", "value": 105.102, "units": "%g", "flag": "0", "ln_sigma": 0.0}, {"name": "sa(1.0)", "value": 34.898, "units": "%g", "flag": "0", "ln_sigma": 0.0}, {"name": "pga", "value": 27.2449, "units": "%g", "flag": "0", "ln_sigma": 0.0}, {"name": "pgv", "value": 29.4, "units": "cm/s", "flag": "0", "ln_sigma": 0.0}, {"name": "sa(3.0)", "value": 7.5612, "units": "%g", "flag": "0", "ln_sigma": 0.0}]}, {"name": "N", "amplitudes": [{"name": "sa(0.3)", "value": 127.551, "units": "%g", "flag": "0", "ln_sigma": 0.0}, {"name": "sa(1.0)", "value": 59.1837, "units": "%g", "flag": "0", "ln_sigma": 0.0}, {"name": "pga", "value": 31.9388, "units": "%g", "flag": "0", "ln_sigma": 0.0}, {"name": "pgv", "value": 40.6, "units": "cm/s", "flag": "0", "ln_sigma": 0.0}, {"name": "sa(3.0)", "value": 10.4082, "units": "%g", "flag": "0", "ln_sigma": 0.0}]}], "station_type": "seismic", "nresp": "null", "predictions": [{"name": "pga", "value": 60.6535, "value_rock": 58.7963, "value_soil": 55.3846, "units": "%g", "ln_tau": 0.0, "ln_phi": 0.5592, "ln_sigma": 0.5592, "ln_sigma_rock": 0.682, "ln_sigma_soil": 0.6618, "ln_bias": -0.3578, "ln_bias_sigma": 0.2304}, {"name": "sa(3.0)", "value": 9.6323, "value_rock": 5.0673, "value_soil": 12.8218, "units": "%g", "ln_tau": 0.0, "ln_phi": 0.6269, "ln_sigma": 0.6269, "ln_sigma_rock": 0.7587, "ln_sigma_soil": 0.7506, "ln_bias": 0.1307, "ln_bias_sigma": 0.2599}, {"name": "sa(1.0)", "value": 61.6597, "value_rock": 29.6778, "value_soil": 69.7864, "units": "%g", "ln_tau": 0.0, "ln_phi": 0.6336, "ln_sigma": 0.6336, "ln_sigma_rock": 0.7664, "ln_sigma_soil": 0.7515, "ln_bias": 0.1076, "ln_bias_sigma": 0.2614}, {"name": "pgv", "value": 55.6603, "value_rock": 30.9457, "value_soil": 59.9016, "units": "cm/s", "ln_tau": 0.0, "ln_phi": 0.6288, "ln_sigma": 0.6288, "ln_sigma_rock": 0.7597, "ln_sigma_soil": 0.7473, "ln_bias": 0.0125, "ln_bias_sigma": 0.2592}, {"name": "sa(0.3)", "value": 136.3808, "value_rock": 98.6497, "value_soil": 122.6466, "units": "%g", "ln_tau": 0.0, "ln_phi": 0.6002, "ln_sigma": 0.6002, "ln_sigma_rock": 0.7323, "ln_sigma_soil": 0.7079, "ln_bias": -0.1461, "ln_bias_sigma": 0.2471}, {"name": "mmi", "value": 7.6877, "value_rock": 7.6378, "value_soil": 7.5417, "units": "intensity", "tau": 0.0, "phi": 1.0542, "sigma": 1.0542, "sigma_rock": 1.2793, "sigma_soil": 1.2516, "bias": -0.0444, "bias_sigma": 0.4461}], "mmi_from_pgm": [{"name": "pga", "value": 6.66, "sigma": 0.66, "flag": "0"}, {"name": "sa(3.0)", "value": 8.03, "sigma": 0.89, "flag": "0"}, {"name": "sa(1.0)", "value": 8.14, "sigma": 0.75, "flag": "0"}, {"name": "pgv", "value": 7.72, "sigma": 0.63, "flag": "0"}, {"name": "sa(0.3)", "value": 8.22, "sigma": 0.82, "flag": "0"}], "distance_stddev": 0.0, "distances": {"repi": 1.869, "rhypo": 33.053, "rjb": 0.0, "rjb_var": 0.0, "rrup": 1.323, "rrup_var": 0.0, "rx": 1.572, "ry0": 0.249, "rvolc": 0.0}}, "geometry": {"type": "Point", "coordinates": [30.155, 38.06]}}, {"type": "Feature", "id": "G.BUR", "properties": {"code": "BUR", "name": "Bursa-Bayindirlik ve Iskan Mudurlugu", "instrumentType": "UNK", "source": "G", "network": "G", "commType": "UNK", "location": "", "intensity": 2.9, "intensity_flag": "", "intensity_stddev": 0.63, "pga": 0.2378, "pgv": 0.362, "distance": 240.413, "elev": null, "vs30": 760.0, "channels": [{"name": "Z", "amplitudes": [{"name": "sa(0.3)", "value": 0.4357, "units": "%g", "flag": "0", "ln_sigma": 0.0}, {"name": "sa(1.0)", "value": 0.3826, "units": "%g", "flag": "0", "ln_sigma": 0.0}, {"name": "pga", "value": 0.1296, "units": "%g", "flag": "0", "ln_sigma": 0.0}, {"name": "pgv", "value": 0.207, "units": "cm/s", "flag": "0", "ln_sigma": 0.0}, {"name": "sa(3.0)", "value": 0.0354, "units": "%g", "flag": "0", "ln_sigma": 0.0}]}, {"name": "E", "amplitudes": [{"name": "sa(0.3)", "value": 0.3469, "units": "%g", "flag": "0", "ln_sigma": 0.0}, {"name": "sa(1.0)", "value": 0.8255, "units": "%g", "flag": "0", "ln_sigma": 0.0}, {"name": "pga", "value": 0.2378, "units": "%g", "flag": "0", "ln_sigma": 0.0}, {"name": "pgv", "value": 0.289, "units": "cm/s", "flag": "0", "ln_sigma": 0.0}, {"name": "sa(3.0)", "value": 0.0582, "units": "%g", "flag": "0", "ln_sigma": 0.0}]}, {"name": "N", "amplitudes": [{"name": "sa(0.3)", "value": 0.4704, "units": "%g", "flag": "0", "ln_sigma": 0.0}, {"name": "sa(1.0)", "value": 0.7724, "units": "%g", "flag": "0", "ln_sigma": 0.0}, {"name": "pga", "value": 0.2378, "units": "%g", "flag": "0", "ln_sigma": 0.0}, {"name": "pgv", "value": 0.362, "units": "cm/s", "flag": "0", "ln_sigma": 0.0}, {"name": "sa(3.0)", "value": 0.0729, "units": "%g", "flag": "0", "ln_sigma": 0.0}]}], "station_type": "seismic", "nresp": "null", "predictions": [{"name": "pga", "value": 0.4286, "value_rock": 0.4286, "value_soil": 0.657, "units": "%g", "ln_tau": 0.0, "ln_phi": 0.5721, "ln_sigma": 0.5721, "ln_sigma_rock": 0.685, "ln_sigma_soil": 0.6804, "ln_bias": -0.3641, "ln_bias_sigma": 0.2324}, {"name": "sa(3.0)", "value": 0.1073, "value_rock": 0.1073, "value_soil": 0.3022, "units": "%g", "ln_tau": 0.0, "ln_phi": 0.6358, "ln_sigma": 0.6358, "ln_sigma_rock": 0.7612, "ln_sigma_soil": 0.7533, "ln_bias": 0.1321, "ln_bias_sigma": 0.2614}, {"name": "sa(1.0)", "value": 0.4036, "value_rock": 0.4036, "value_soil": 1.3543, "units": "%g", "ln_tau": 0.0, "ln_phi": 0.6422, "ln_sigma": 0.6422, "ln_sigma_rock": 0.7689, "ln_sigma_soil": 0.7634, "ln_bias": 0.1087, "ln_bias_sigma": 0.2627}, {"name": "pgv", "value": 0.3564, "value_rock": 0.3564, "value_soil": 0.9288, "units": "cm/s", "ln_tau": 0.0, "ln_phi": 0.6361, "ln_sigma": 0.6361, "ln_sigma_rock": 0.7617, "ln_sigma_soil": 0.7553, "ln_bias": 0.0126, "ln_bias_sigma": 0.2604}, {"name": "sa(0.3)", "value": 0.836, "value_rock": 0.836, "value_soil": 2.012, "units": "%g", "ln_tau": 0.0, "ln_phi": 0.6147, "ln_sigma": 0.6147, "ln_sigma_rock": 0.7361, "ln_sigma_soil": 0.7331, "ln_bias": -0.1488, "ln_bias_sigma": 0.2494}, {"name": "mmi", "value": 3.1774, "value_rock": 3.1774, "value_soil": 3.4649, "units": "intensity", "tau": 0.0, "phi": 0.6724, "sigma": 0.6724, "sigma_rock": 0.8051, "sigma_soil": 0.8034, "bias": -0.0277, "bias_sigma": 0.3525}], "mmi_from_pgm": [{"name": "pga", "value": 2.78, "sigma": 0.66, "flag": "0"}, {"name": "sa(3.0)", "value": 2.85, "sigma": 0.89, "flag": "0"}, {"name": "sa(1.0)", "value": 3.12, "sigma": 0.75, "flag": "0"}, {"name": "pgv", "value": 2.88, "sigma": 0.63, "flag": "0"}, {"name": "sa(0.3)", "value": 2.76, "sigma": 0.82, "flag": "0"}], "distance_stddev": 0.0, "distances": {"repi": 251.309, "rhypo": 253.467, "rjb": 240.413, "rjb_var": 0.0, "rrup": 240.413, "rrup_var": 0.0, "rx": -60.12, "ry0": 233.036, "rvolc": 0.0}}, "geometry": {"type": "Point", "coordinates": [29.08, 40.17]}}, {"type": "Feature", "id": "G.IZM1", "properties": {"code": "IZM1", "name": "Izmir-Meteoroloji Istasyonu", "instrumentType": "UNK", "source": "G", "network": "G", "commType": "UNK", "location": "", "intensity": 2.3, "intensity_flag": "", "intensity_stddev": 0.63, "pga": 0.1867, "pgv": 0.142, "distance": 251.401, "elev": null, "vs30": 760.0, "channels": [{"name": "Z", "amplitudes": [{"name": "sa(0.3)", "value": 0.1969, "units": "%g", "flag": "0", "ln_sigma": 0.0}, {"name": "sa(1.0)", "value": 0.1643, "units": "%g", "flag": "0", "ln_sigma": 0.0}, {"name": "pga", "value": 0.0942, "units": "%g", "flag": "0", "ln_sigma": 0.0}, {"name": "pgv", "value": 0.0871, "units": "cm/s", "flag": "0", "ln_sigma": 0.0}, {"name": "sa(3.0)", "value": 0.0158, "units": "%g", "flag": "0", "ln_sigma": 0.0}]}, {"name": "E", "amplitudes": [{"name": "sa(0.3)", "value": 0.2469, "units": "%g", "flag": "0", "ln_sigma": 0.0}, {"name": "sa(1.0)", "value": 0.1857, "units": "%g", "flag": "0", "ln_sigma": 0.0}, {"name": "pga", "value": 0.1041, "units": "%g", "flag": "0", "ln_sigma": 0.0}, {"name": "pgv", "value": 0.109, "units": "cm/s", "flag": "0", "ln_sigma": 0.0}, {"name": "sa(3.0)", "value": 0.0113, "units": "%g", "flag": "0", "ln_sigma": 0.0}]}, {"name": "N", "amplitudes": [{"name": "sa(0.3)", "value": 0.3163, "units": "%g", "flag": "0", "ln_sigma": 0.0}, {"name": "sa(1.0)", "value": 0.1122, "units": "%g", "flag": "0", "ln_sigma": 0.0}, {"name": "pga", "value": 0.1867, "units": "%g", "flag": "0", "ln_sigma": 0.0}, {"name": "pgv", "value": 0.142, "units": "cm/s", "flag": "0", "ln_sigma": 0.0}, {"name": "sa(3.0)", "value": 0.0272, "units": "%g", "flag": "0", "ln_sigma": 0.0}]}], "station_type": "seismic", "nresp": "null", "predictions": [{"name": "pga", "value": 0.3934, "value_rock": 0.3934, "value_soil": 0.6033, "units": "%g", "ln_tau": 0.0, "ln_phi": 0.5722, "ln_sigma": 0.5722, "ln_sigma_rock": 0.6851, "ln_sigma_soil": 0.6806, "ln_bias": -0.3642, "ln_bias_sigma": 0.2324}, {"name": "sa(3.0)", "value": 0.1017, "value_rock": 0.1017, "value_soil": 0.2866, "units": "%g", "ln_tau": 0.0, "ln_phi": 0.6358, "ln_sigma": 0.6358, "ln_sigma_rock": 0.7612, "ln_sigma_soil": 0.7533, "ln_bias": 0.1321, "ln_bias_sigma": 0.2614}, {"name": "sa(1.0)", "value": 0.3801, "value_rock": 0.3801, "value_soil": 1.2767, "units": "%g", "ln_tau": 0.0, "ln_phi": 0.6423, "ln_sigma": 0.6423, "ln_sigma_rock": 0.7691, "ln_sigma_soil": 0.7635, "ln_bias": 0.1088, "ln_bias_sigma": 0.2628}, {"name": "pgv", "value": 0.335, "value_rock": 0.335, "value_soil": 0.8738, "units": "cm/s", "ln_tau": 0.0, "ln_phi": 0.6362, "ln_sigma": 0.6362, "ln_sigma_rock": 0.7618, "ln_sigma_soil": 0.7554, "ln_bias": 0.0126, "ln_bias_sigma": 0.2604}, {"name": "sa(0.3)", "value": 0.7715, "value_rock": 0.7715, "value_soil": 1.8579, "units": "%g", "ln_tau": 0.0, "ln_phi": 0.6149, "ln_sigma": 0.6149, "ln_sigma_rock": 0.7363, "ln_sigma_soil": 0.7333, "ln_bias": -0.1488, "ln_bias_sigma": 0.2494}, {"name": "mmi", "value": 3.1394, "value_rock": 3.1394, "value_soil": 3.4273, "units": "intensity", "tau": 0.0, "phi": 0.6724, "sigma": 0.6724, "sigma_rock": 0.8052, "sigma_soil": 0.8034, "bias": -0.0277, "bias_sigma": 0.3525}], "mmi_from_pgm": [{"name": "pga", "value": 2.64, "sigma": 0.66, "flag": "0"}, {"name": "sa(3.0)", "value": 2.34, "sigma": 0.89, "flag": "0"}, {"name": "sa(1.0)", "value": 2.13, "sigma": 0.75, "flag": "0"}, {"name": "pgv", "value": 2.28, "sigma": 0.63, "flag": "0"}, {"name": "sa(0.3)", "value": 2.48, "sigma": 0.82, "flag": "0"}], "distance_stddev": 0.0, "distances": {"repi": 261.837, "rhypo": 263.909, "rjb": 251.145, "rjb_var": 0.0, "rrup": 251.401, "rrup_var": 0.0, "rx": 189.436, "ry0": 173.465, "rvolc": 0.0}}, "geometry": {"type": "Point", "coordinates": [27.167, 38.4]}}, {"type": "Feature", "id": "G.BRD", "properties": {"code": "BRD", "name": "Burdur-Meteoroloji Mudurgulu", "instrumentType": "UNK", "source": "G", "network": "G", "commType": "UNK", "location": "", "intensity": 4.8, "intensity_flag": "", "intensity_stddev": 0.63, "pga": 3.9184, "pgv": 4.89, "distance": 38.025, "elev": null, "vs30": 442.02, "channels": [{"name": "Z", "amplitudes": [{"name": "sa(0.3)", "value": 6.8163, "units": "%g", "flag": "0", "ln_sigma": 0.0}, {"name": "sa(1.0)", "value": 3.9898, "units": "%g", "flag": "0", "ln_sigma": 0.0}, {"name": "pga", "value": 3.3673, "units": "%g", "flag": "0", "ln_sigma": 0.0}, {"name": "pgv", "value": 2.96, "units": "cm/s", "flag": "0", "ln_sigma": 0.0}, {"name": "sa(3.0)", "value": 0.6061, "units": "%g", "flag": "0", "ln_sigma": 0.0}]}, {"name": "E", "amplitudes": [{"name": "sa(0.3)", "value": 8.449, "units": "%g", "flag": "0", "ln_sigma": 0.0}, {"name": "sa(1.0)", "value": 5.5306, "units": "%g", "flag": "0", "ln_sigma": 0.0}, {"name": "pga", "value": 3.6531, "units": "%g", "flag": "0", "ln_sigma": 0.0}, {"name": "pgv", "value": 4.89, "units": "cm/s", "flag": "0", "ln_sigma": 0.0}, {"name": "sa(3.0)", "value": 1.3367, "units": "%g", "flag": "0", "ln_sigma": 0.0}]}, {"name": "N", "amplitudes": [{"name": "sa(0.3)", "value": 12.551, "units": "%g", "flag": "0", "ln_sigma": 0.0}, {"name": "sa(1.0)", "value": 6.949, "units": "%g", "flag": "0", "ln_sigma": 0.0}, {"name": "pga", "value": 3.9184, "units": "%g", "flag": "0", "ln_sigma": 0.0}, {"name": "pgv", "value": 4.57, "units": "cm/s", "flag": "0", "ln_sigma": 0.0}, {"name": "sa(3.0)", "value": 1.1224, "units": "%g", "flag": "0", "ln_sigma": 0.0}]}], "station_type": "seismic", "nresp": "null", "predictions": [{"name": "pga", "value": 9.1843, "value_rock": 7.6673, "value_soil": 10.6727, "units": "%g", "ln_tau": 0.0, "ln_phi": 0.5691, "ln_sigma": 0.5691, "ln_sigma_rock": 0.6825, "ln_sigma_soil": 0.6728, "ln_bias": -0.3627, "ln_bias_sigma": 0.232}, {"name": "sa(3.0)", "value": 1.2264, "value_rock": 0.8748, "value_soil": 2.3396, "units": "%g", "ln_tau": 0.0, "ln_phi": 0.6336, "ln_sigma": 0.6336, "ln_sigma_rock": 0.7587, "ln_sigma_soil": 0.7507, "ln_bias": 0.1318, "ln_bias_sigma": 0.261}, {"name": "sa(1.0)", "value": 5.8817, "value_rock": 3.8871, "value_soil": 11.8418, "units": "%g", "ln_tau": 0.0, "ln_phi": 0.64, "ln_sigma": 0.64, "ln_sigma_rock": 0.7665, "ln_sigma_soil": 0.7588, "ln_bias": 0.1085, "ln_bias_sigma": 0.2624}, {"name": "pgv", "value": 5.2207, "value_rock": 3.797, "value_soil": 9.1528, "units": "cm/s", "ln_tau": 0.0, "ln_phi": 0.6344, "ln_sigma": 0.6344, "ln_sigma_rock": 0.7597, "ln_sigma_soil": 0.7514, "ln_bias": 0.0126, "ln_bias_sigma": 0.2601}, {"name": "sa(0.3)", "value": 17.948, "value_rock": 12.4933, "value_soil": 26.3262, "units": "%g", "ln_tau": 0.0, "ln_phi": 0.611, "ln_sigma": 0.611, "ln_sigma_rock": 0.7324, "ln_sigma_soil": 0.7226, "ln_bias": -0.1481, "ln_bias_sigma": 0.2488}, {"name": "mmi", "value": 5.2461, "value_rock": 4.956, "value_soil": 5.4875, "units": "intensity", "tau": 0.0, "phi": 1.0678, "sigma": 1.0678, "sigma_rock": 1.28, "sigma_soil": 1.2667, "bias": -0.0449, "bias_sigma": 0.4485}], "mmi_from_pgm": [{"name": "pga", "value": 3.88, "sigma": 0.66, "flag": "0"}, {"name": "sa(3.0)", "value": 5.02, "sigma": 0.89, "flag": "0"}, {"name": "sa(1.0)", "value": 5.16, "sigma": 0.75, "flag": "0"}, {"name": "pgv", "value": 4.82, "sigma": 0.63, "flag": "0"}, {"name": "sa(0.3)", "value": 4.69, "sigma": 0.82, "flag": "0"}], "distance_stddev": 0.0, "distances": {"repi": 40.329, "rhypo": 52.11, "rjb": 34.891, "rjb_var": 0.0, "rrup": 38.025, "rrup_var": 0.0, "rx": 13.307, "ry0": 37.857, "rvolc": 0.0}}, "geometry": {"type": "Point", "coordinates": [30.294, 37.723]}}, {"type": "Feature", "id": "G.DNZ", "properties": {"code": "DNZ", "name": "Denizli-Bayindirlik ve Iskan Mudurlugu", "instrumentType": "UNK", "source": "G", "network": "G", "commType": "UNK", "location": "", "intensity": 4.2, "intensity_flag": "", "intensity_stddev": 0.63, "pga": 1.5714, "pgv": 3.08, "distance": 85.247, "elev": null, "vs30": 454.46, "channels": [{"name": "Z", "amplitudes": [{"name": "sa(0.3)", "value": 2.4592, "units": "%g", "flag": "0", "ln_sigma": 0.0}, {"name": "sa(1.0)", "value": 2.3265, "units": "%g", "flag": "0", "ln_sigma": 0.0}, {"name": "pga", "value": 0.9306, "units": "%g", "flag": "0", "ln_sigma": 0.0}, {"name": "pgv", "value": 1.46, "units": "cm/s", "flag": "0", "ln_sigma": 0.0}, {"name": "sa(3.0)", "value": 0.5378, "units": "%g", "flag": "0", "ln_sigma": 0.0}]}, {"name": "E", "amplitudes": [{"name": "sa(0.3)", "value": 3.2449, "units": "%g", "flag": "0", "ln_sigma": 0.0}, {"name": "sa(1.0)", "value": 2.7041, "units": "%g", "flag": "0", "ln_sigma": 0.0}, {"name": "pga", "value": 1.5714, "units": "%g", "flag": "0", "ln_sigma": 0.0}, {"name": "pgv", "value": 2.61, "units": "cm/s", "flag": "0", "ln_sigma": 0.0}, {"name": "sa(3.0)", "value": 1.081