{
   "type":"FeatureCollection",
   "features":[
      {
         "type":"Feature",
         "id":"TOVAR.1",
         "properties":{
            "code":"TOVAR.1",
            "name":"1",
            "instrumentType":"OBSERVED",
            "source":"Tovar and Sanchez (2020)",
            "network":"Tovar and Sanchez (2020)",
            "commType":"UNK",
            "location":"",
            "intensity":9.0,
            "intensity_flag":"0",
            "intensity_stddev":0.5,
            "pga":132.9647,
            "pgv":99.1294,
            "distance":3.146,
            "elev":null,
            "vs30":557.24,
            "channels":[
               
            ],
            "nresp":-1,
            "station_type":"macroseismic",
            "predictions":[
               {
                  "name":"mmi",
                  "value":7.4455,
                  "value_rock":7.3152,
                  "value_soil":7.1727,
                  "units":"intensity",
                  "tau":0.5281,
                  "phi":1.0517,
                  "sigma":1.1768,
                  "sigma_rock":1.2007,
                  "sigma_soil":1.0305,
                  "bias":0.6065,
                  "bias_sigma":0.2368
               },
               {
                  "name":"sa(0.3)",
                  "value":101.9462,
                  "value_rock":81.8094,
                  "value_soil":90.6215,
                  "units":"%g",
                  "ln_tau":0.3165,
                  "ln_phi":0.586,
                  "ln_sigma":0.666,
                  "ln_sigma_rock":0.6752,
                  "ln_sigma_soil":0.5033,
                  "ln_bias":0.2923,
                  "ln_bias_sigma":0.1524
               },
               {
                  "name":"sa(1.0)",
                  "value":30.421,
                  "value_rock":22.3257,
                  "value_soil":57.894,
                  "units":"%g",
                  "ln_tau":0.3576,
                  "ln_phi":0.6338,
                  "ln_sigma":0.7277,
                  "ln_sigma_rock":0.73,
                  "ln_sigma_soil":0.664,
                  "ln_bias":0.3778,
                  "ln_bias_sigma":0.1664
               },
               {
                  "name":"sa(3.0)",
                  "value":5.2563,
                  "value_rock":3.8312,
                  "value_soil":15.6933,
                  "units":"%g",
                  "ln_tau":0.3859,
                  "ln_phi":0.6162,
                  "ln_sigma":0.7271,
                  "ln_sigma_rock":0.7291,
                  "ln_sigma_soil":0.7281,
                  "ln_bias":0.5685,
                  "ln_bias_sigma":0.1769
               },
               {
                  "name":"pgv",
                  "value":37.4919,
                  "value_rock":30.0738,
                  "value_soil":54.6399,
                  "units":"cm/s",
                  "ln_tau":0.3323,
                  "ln_phi":0.538,
                  "ln_sigma":0.6324,
                  "ln_sigma_rock":0.6344,
                  "ln_sigma_soil":0.5724,
                  "ln_bias":0.1574,
                  "ln_bias_sigma":0.1434
               },
               {
                  "name":"pga",
                  "value":50.5351,
                  "value_rock":46.5996,
                  "value_soil":42.6458,
                  "units":"%g",
                  "ln_tau":0.3287,
                  "ln_phi":0.5096,
                  "ln_sigma":0.6064,
                  "ln_sigma_rock":0.6242,
                  "ln_sigma_soil":0.4925,
                  "ln_bias":0.1112,
                  "ln_bias_sigma":0.1349
               }
            ],
            "pgm_from_mmi":[
               {
                  "name":"sa(1.0)",
                  "value":109.4008,
                  "units":"%g",
                  "ln_sigma":1.0822,
                  "flag":"0"
               },
               {
                  "name":"sa(3.0)",
                  "value":20.7794,
                  "units":"%g",
                  "ln_sigma":1.4737,
                  "flag":"0"
               },
               {
                  "name":"pga",
                  "value":132.9647,
                  "units":"%g",
                  "ln_sigma":0.8059,
                  "flag":"0"
               },
               {
                  "name":"sa(0.3)",
                  "value":196.4966,
                  "units":"%g",
                  "ln_sigma":1.0131,
                  "flag":"0"
               },
               {
                  "name":"pgv",
                  "value":99.1294,
                  "units":"cm/s",
                  "ln_sigma":0.875,
                  "flag":"0"
               }
            ],
            "distance_stddev":0.0,
            "distances":{
               "repi":5.731,
               "rhypo":17.94,
               "rjb":2.983,
               "rjb_var":0.0,
               "rrup":3.146,
               "rrup_var":0.0,
               "rx":0.31,
               "ry0":3.019,
               "rvolc":0.0
            }
         },
         "geometry":{
            "type":"Point",
            "coordinates":[
               -75.70517,
               4.413
            ]
         }
      },
      {
         "type":"Feature",
         "id":"TOVAR.2",
         "properties":{
            "code":"TOVAR.2",
            "name":"2",
            "instrumentType":"OBSERVED",
            "source":"Tovar and Sanchez (2020)",
            "network":"Tovar and Sanchez (2020)",
            "commType":"UNK",
            "location":"",
            "intensity":9.0,
            "intensity_flag":"0",
            "intensity_stddev":0.5,
            "pga":132.9647,
            "pgv":99.1294,
            "distance":1.081,
            "elev":null,
            "vs30":489.2,
            "channels":[
               
            ],
            "nresp":-1,
            "station_type":"macroseismic",
            "predictions":[
               {
                  "name":"mmi",
                  "value":7.7575,
                  "value_rock":7.6182,
                  "value_soil":7.3508,
                  "units":"intensity",
                  "tau":0.513,
                  "phi":1.0433,
                  "sigma":1.1626,
                  "sigma_rock":1.2004,
                  "sigma_soil":1.0245,
                  "bias":0.5993,
                  "bias_sigma":0.2354
               },
               {
                  "name":"sa(0.3)",
                  "value":128.5475,
                  "value_rock":98.4559,
                  "value_soil":97.1123,
                  "units":"%g",
                  "ln_tau":0.3088,
                  "ln_phi":0.5784,
                  "ln_sigma":0.6556,
                  "ln_sigma_rock":0.6751,
                  "ln_sigma_soil":0.4967,
                  "ln_bias":0.2889,
                  "ln_bias_sigma":0.1515
               },
               {
                  "name":"sa(1.0)",
                  "value":41.6693,
                  "value_rock":27.049,
                  "value_soil":66.5663,
                  "units":"%g",
                  "ln_tau":0.3569,
                  "ln_phi":0.633,
                  "ln_sigma":0.7267,
                  "ln_sigma_rock":0.73,
                  "ln_sigma_soil":0.6584,
                  "ln_bias":0.3774,
                  "ln_bias_sigma":0.1663
               },
               {
                  "name":"sa(3.0)",
                  "value":7.1532,
                  "value_rock":4.5628,
                  "value_soil":18.6711,
                  "units":"%g",
                  "ln_tau":0.3858,
                  "ln_phi":0.6161,
                  "ln_sigma":0.7269,
                  "ln_sigma_rock":0.729,
                  "ln_sigma_soil":0.728,
                  "ln_bias":0.5684,
                  "ln_bias_sigma":0.1769
               },
               {
                  "name":"pgv",
                  "value":50.0237,
                  "value_rock":36.8894,
                  "value_soil":63.9727,
                  "units":"cm/s",
                  "ln_tau":0.3317,
                  "ln_phi":0.5374,
                  "ln_sigma":0.6315,
                  "ln_sigma_rock":0.6344,
                  "ln_sigma_soil":0.5704,
                  "ln_bias":0.1573,
                  "ln_bias_sigma":0.1434
               },
               {
                  "name":"pga",
                  "value":61.3672,
                  "value_rock":56.2709,
                  "value_soil":47.6438,
                  "units":"%g",
                  "ln_tau":0.3193,
                  "ln_phi":0.5028,
                  "ln_sigma":0.5956,
                  "ln_sigma_rock":0.624,
                  "ln_sigma_soil":0.4877,
                  "ln_bias":0.1101,
                  "ln_bias_sigma":0.1342
               }
            ],
            "pgm_from_mmi":[
               {
                  "name":"sa(1.0)",
                  "value":109.4008,
                  "units":"%g",
                  "ln_sigma":1.0822,
                  "flag":"0"
               },
               {
                  "name":"sa(3.0)",
                  "value":20.7794,
                  "units":"%g",
                  "ln_sigma":1.4737,
                  "flag":"0"
               },
               {
                  "name":"pga",
                  "value":132.9647,
                  "units":"%g",
                  "ln_sigma":0.8059,
                  "flag":"0"
               },
               {
                  "name":"sa(0.3)",
                  "value":196.4966,
                  "units":"%g",
                  "ln_sigma":1.0131,
                  "flag":"0"
               },
               {
                  "name":"pgv",
                  "value":99.1294,
                  "units":"cm/s",
                  "ln_sigma":0.875,
                  "flag":"0"
               }
            ],
            "distance_stddev":0.0,
            "distances":{
               "repi":3.41,
               "rhypo":17.339,
               "rjb":0.411,
               "rjb_var":0.0,
               "rrup":1.081,
               "rrup_var":0.0,
               "rx":0.411,
               "ry0":0.0,
               "rvolc":0.0
            }
         },
         "geometry":{
            "type":"Point",
            "coordinates":[
               -75.70159,
               4.44
            ]
         }
      },
      {
         "type":"Feature",
         "id":"TOVAR.3",
         "properties":{
            "code":"TOVAR.3",
            "name":"3",
            "instrumentType":"OBSERVED",
            "source":"Tovar and Sanchez (2020)",
            "network":"Tovar and Sanchez (2020)",
            "commType":"UNK",
            "location":"",
            "intensity":9.0,
            "intensity_flag":"0",
            "intensity_stddev":0.5,
            "pga":132.9647,
            "pgv":99.1294,
            "distance":3.322,
            "elev":null,
            "vs30":709.66,
            "channels":[
               
            ],
            "nresp":-1,
            "station_type":"macroseismic",
            "predictions":[
               {
                  "name":"mmi",
                  "value":7.3218,
                  "value_rock":7.2864,
                  "value_soil":7.1559,
                  "units":"intensity",
                  "tau":0.5452,
                  "phi":1.062,
                  "sigma":1.1938,
                  "sigma_rock":1.2008,
                  "sigma_soil":1.0311,
                  "bias":0.6141,
                  "bias_sigma":0.2382
               },
               {
                  "name":"sa(0.3)",
                  "value":84.6733,
                  "value_rock":80.3859,
                  "value_soil":90.0361,
                  "units":"%g",
                  "ln_tau":0.3207,
                  "ln_phi":0.5902,
                  "ln_sigma":0.6717,
                  "ln_sigma_rock":0.6752,
                  "ln_sigma_soil":0.504,
                  "ln_bias":0.2941,
                  "ln_bias_sigma":0.1529
               },
               {
                  "name":"sa(1.0)",
                  "value":23.46,
                  "value_rock":21.9214,
                  "value_soil":57.1307,
                  "units":"%g",
                  "ln_tau":0.3582,
                  "ln_phi":0.6343,
                  "ln_sigma":0.7285,
                  "ln_sigma_rock":0.73,
                  "ln_sigma_soil":0.6646,
                  "ln_bias":0.378,
                  "ln_bias_sigma":0.1664
               },
               {
                  "name":"sa(3.0)",
                  "value":4.036,
                  "value_rock":3.7684,
                  "value_soil":15.4371,
                  "units":"%g",
                  "ln_tau":0.386,
                  "ln_phi":0.6164,
                  "ln_sigma":0.7273,
                  "ln_sigma_rock":0.7291,
                  "ln_sigma_soil":0.7281,
                  "ln_bias":0.5685,
                  "ln_bias_sigma":0.1769
               },
               {
                  "name":"pgv",
                  "value":30.9613,
                  "value_rock":29.4947,
                  "value_soil":53.8238,
                  "units":"cm/s",
                  "ln_tau":0.3329,
                  "ln_phi":0.5385,
                  "ln_sigma":0.6331,
                  "ln_sigma_rock":0.6344,
                  "ln_sigma_soil":0.5726,
                  "ln_bias":0.1575,
                  "ln_bias_sigma":0.1435
               },
               {
                  "name":"pga",
                  "value":46.7903,
                  "value_rock":45.7712,
                  "value_soil":42.2023,
                  "units":"%g",
                  "ln_tau":0.3393,
                  "ln_phi":0.5178,
                  "ln_sigma":0.6191,
                  "ln_sigma_rock":0.6243,
                  "ln_sigma_soil":0.493,
                  "ln_bias":0.1124,
                  "ln_bias_sigma":0.1356
               }
            ],
            "pgm_from_mmi":[
               {
                  "name":"sa(1.0)",
                  "value":109.4008,
                  "units":"%g",
                  "ln_sigma":1.0822,
                  "flag":"0"
               },
               {
                  "name":"sa(3.0)",
                  "value":20.7794,
                  "units":"%g",
                  "ln_sigma":1.4737,
                  "flag":"0"
               },
               {
                  "name":"pga",
                  "value":132.9647,
                  "units":"%g",
                  "ln_sigma":0.8059,
                  "flag":"0"
               },
               {
                  "name":"sa(0.3)",
                  "value":196.4966,
                  "units":"%g",
                  "ln_sigma":1.0131,
                  "flag":"0"
               },
               {
                  "name":"pgv",
                  "value":99.1294,
                  "units":"cm/s",
                  "ln_sigma":0.875,
                  "flag":"0"
               }
            ],
            "distance_stddev":0.0,
            "distances":{
               "repi":6.48,
               "rhypo":18.193,
               "rjb":3.168,
               "rjb_var":0.0,
               "rrup":3.322,
               "rrup_var":0.0,
               "rx":-3.165,
               "ry0":0.0,
               "rvolc":0.0
            }
         },
         "geometry":{
            "type":"Point",
            "coordinates":[
               -75.66556,
               4.46
            ]
         }
      },
      {
         "type":"Feature",
         "id":"TOVAR.4",
         "properties":{
            "code":"TOVAR.4",
            "name":"4",
            "instrumentType":"OBSERVED",
            "source":"Tovar and Sanchez (2020)",
            "network":"Tovar and Sanchez (2020)",
            "commType":"UNK",
            "location":"",
            "intensity":9.0,
            "intensity_flag":"0",
            "intensity_stddev":0.5,
            "pga":132.9647,
            "pgv":99.1294,
            "distance":2.695,
            "elev":null,
            "vs30":432.6,
            "channels":[
               
            ],
            "nresp":-1,
            "station_type":"macroseismic",
            "predictions":[
               {
                  "name":"mmi",
                  "value":7.5533,
                  "value_rock":7.3877,
                  "value_soil":7.2149,
                  "units":"intensity",
                  "tau":0.5015,
                  "phi":1.0368,
                  "sigma":1.1517,
                  "sigma_rock":1.2006,
                  "sigma_soil":1.0289,
                  "bias":0.5934,
                  "bias_sigma":0.2342
               },
               {
                  "name":"sa(0.3)",
                  "value":116.8522,
                  "value_rock":85.501,
                  "value_soil":92.1001,
                  "units":"%g",
                  "ln_tau":0.302,
                  "ln_phi":0.5717,
                  "ln_sigma":0.6466,
                  "ln_sigma_rock":0.6752,
                  "ln_sigma_soil":0.5016,
                  "ln_bias":0.2858,
                  "ln_bias_sigma":0.1507
               },
               {
                  "name":"sa(1.0)",
                  "value":40.0881,
                  "value_rock":23.3748,
                  "value_soil":59.8539,
                  "units":"%g",
                  "ln_tau":0.3561,
                  "ln_phi":0.6323,
                  "ln_sigma":0.7256,
                  "ln_sigma_rock":0.73,
                  "ln_sigma_soil":0.6627,
                  "ln_bias":0.3771,
                  "ln_bias_sigma":0.1662
               },
               {
                  "name":"sa(3.0)",
                  "value":7.0307,
                  "value_rock":3.9939,
                  "value_soil":16.3557,
                  "units":"%g",
                  "ln_tau":0.3857,
                  "ln_phi":0.6161,
                  "ln_sigma":0.7269,
                  "ln_sigma_rock":0.729,
                  "ln_sigma_soil":0.7281,
                  "ln_bias":0.5684,
                  "ln_bias_sigma":0.1769
               },
               {
                  "name":"pgv",
                  "value":46.1798,
                  "value_rock":31.5802,
                  "value_soil":56.7431,
                  "units":"cm/s",
                  "ln_tau":0.331,
                  "ln_phi":0.5366,
                  "ln_sigma":0.6305,
                  "ln_sigma_rock":0.6344,
                  "ln_sigma_soil":0.5719,
                  "ln_bias":0.1571,
                  "ln_bias_sigma":0.1433
               },
               {
                  "name":"pga",
                  "value":54.0425,
                  "value_rock":48.7497,
                  "value_soil":43.7798,
                  "units":"%g",
                  "ln_tau":0.3121,
                  "ln_phi":0.4976,
                  "ln_sigma":0.5874,
                  "ln_sigma_rock":0.6242,
                  "ln_sigma_soil":0.4912,
                  "ln_bias":0.1092,
                  "ln_bias_sigma":0.1337
               }
            ],
            "pgm_from_mmi":[
               {
                  "name":"sa(1.0)",
                  "value":109.4008,
                  "units":"%g",
                  "ln_sigma":1.0822,
                  "flag":"0"
               },
               {
                  "name":"sa(3.0)",
                  "value":20.7794,
                  "units":"%g",
                  "ln_sigma":1.4737,
                  "flag":"0"
               },
               {
                  "name":"pga",
                  "value":132.9647,
                  "units":"%g",
                  "ln_sigma":0.8059,
                  "flag":"0"
               },
               {
                  "name":"sa(0.3)",
                  "value":196.4966,
                  "units":"%g",
                  "ln_sigma":1.0131,
