{"type": "FeatureCollection", "features": [{"type": "Feature", "id": "SL.BOJS", "properties": {"code": "BOJS", "name": "Bojanci, SL", "instrumentType": "UNK", "source": "SL", "network": "SL", "commType": "UNK", "location": "", "intensity": 2.8, "intensity_flag": "", "intensity_stddev": 0.63, "pga": 0.3505, "pgv": 0.2172, "distance": 68.989, "elev": null, "vs30": 355.96, "channels": [{"name": "HNE", "amplitudes": [{"name": "sa(0.3)", "value": 0.4167, "units": "%g", "flag": "0", "ln_sigma": 0.0}, {"name": "sa(1.0)", "value": 0.166, "units": "%g", "flag": "0", "ln_sigma": 0.0}, {"name": "sa(3.0)", "value": 0.0263, "units": "%g", "flag": "0", "ln_sigma": 0.0}, {"name": "pga", "value": 0.3505, "units": "%g", "flag": "0", "ln_sigma": 0.0}, {"name": "pgv", "value": 0.2172, "units": "cm/s", "flag": "0", "ln_sigma": 0.0}]}, {"name": "HNN", "amplitudes": [{"name": "sa(0.3)", "value": 0.3406, "units": "%g", "flag": "0", "ln_sigma": 0.0}, {"name": "sa(1.0)", "value": 0.2279, "units": "%g", "flag": "0", "ln_sigma": 0.0}, {"name": "sa(3.0)", "value": 0.0179, "units": "%g", "flag": "0", "ln_sigma": 0.0}, {"name": "pga", "value": 0.2515, "units": "%g", "flag": "0", "ln_sigma": 0.0}, {"name": "pgv", "value": 0.2158, "units": "cm/s", "flag": "0", "ln_sigma": 0.0}]}, {"name": "HNZ", "amplitudes": [{"name": "sa(0.3)", "value": 0.3074, "units": "%g", "flag": "0", "ln_sigma": 0.0}, {"name": "sa(1.0)", "value": 0.1669, "units": "%g", "flag": "0", "ln_sigma": 0.0}, {"name": "sa(3.0)", "value": 0.0152, "units": "%g", "flag": "0", "ln_sigma": 0.0}, {"name": "pga", "value": 0.2008, "units": "%g", "flag": "0", "ln_sigma": 0.0}, {"name": "pgv", "value": 0.1094, "units": "cm/s", "flag": "0", "ln_sigma": 0.0}]}], "station_type": "seismic", "nresp": "null", "predictions": [{"name": "pgv", "value": 0.6498, "value_rock": 0.3898, "value_soil": 1.065, "units": "cm/s", "ln_tau": 0.3977, "ln_phi": 0.6163, "ln_sigma": 0.7334, "ln_sigma_rock": 0.7382, "ln_sigma_soil": 0.7342, "ln_bias": 0.3603, "ln_bias_sigma": 0.1757}, {"name": "pga", "value": 1.2794, "value_rock": 0.9568, "value_soil": 1.5768, "units": "%g", "ln_tau": 0.4108, "ln_phi": 0.6102, "ln_sigma": 0.7356, "ln_sigma_rock": 0.7384, "ln_sigma_soil": 0.7338, "ln_bias": 0.1338, "ln_bias_sigma": 0.1739}, {"name": "sa(0.3)", "value": 2.3127, "value_rock": 1.309, "value_soil": 3.5938, "units": "%g", "ln_tau": 0.3962, "ln_phi": 0.6781, "ln_sigma": 0.7854, "ln_sigma_rock": 0.7871, "ln_sigma_soil": 0.7825, "ln_bias": 0.0271, "ln_bias_sigma": 0.1889}, {"name": "sa(3.0)", "value": 0.0906, "value_rock": 0.0503, "value_soil": 0.1607, "units": "%g", "ln_tau": 0.4491, "ln_phi": 0.6647, "ln_sigma": 0.8022, "ln_sigma_rock": 0.8049, "ln_sigma_soil": 0.8048, "ln_bias": 0.3555, "ln_bias_sigma": 0.2048}, {"name": "sa(1.0)", "value": 0.5809, "value_rock": 0.2855, "value_soil": 1.1303, "units": "%g", "ln_tau": 0.4415, "ln_phi": 0.6839, "ln_sigma": 0.814, "ln_sigma_rock": 0.8161, "ln_sigma_soil": 0.8145, "ln_bias": 0.4327, "ln_bias_sigma": 0.1972}, {"name": "mmi", "value": 3.4508, "value_rock": 3.1245, "value_soil": 3.7662, "units": "intensity", "tau": 0.2539, "phi": 0.7428, "sigma": 0.7849, "sigma_rock": 0.7868, "sigma_soil": 0.7853, "bias": 0.2801, "bias_sigma": 0.1522}], "mmi_from_pgm": [{"name": "pgv", "value": 2.75, "sigma": 0.63, "flag": "0"}, {"name": "pga", "value": 2.68, "sigma": 0.66, "flag": "0"}, {"name": "sa(0.3)", "value": 2.35, "sigma": 0.82, "flag": "0"}, {"name": "sa(3.0)", "value": 2.87, "sigma": 0.89, "flag": "0"}, {"name": "sa(1.0)", "value": 2.86, "sigma": 0.75, "flag": "0"}], "distance_stddev": 3.615, "distances": {"repi": 71.517, "rhypo": 72.213, "rjb": 68.323, "rjb_var": 8.644, "rrup": 68.989, "rrup_var": 13.068, "rx": 0.0, "ry0": 0.0, "rvolc": 0.0}}, "geometry": {"type": "Point", "coordinates": [15.2518, 45.5043]}}, {"type": "Feature", "id": "SL.CEY", "properties": {"code": "CEY", "name": "Cerknica, SL", "instrumentType": "UNK", "source": "SL", "network": "SL", "commType": "UNK", "location": "", "intensity": 2.6, "intensity_flag": "", "intensity_stddev": 0.63, "pga": 0.1983, "pgv": 0.1758, "distance": 118.322, "elev": null, "vs30": 760.0, "channels": [{"name": "HNE", "amplitudes": [{"name": "sa(0.3)", "value": 0.1747, "units": "%g", "flag": "0", "ln_sigma": 0.0}, {"name": "sa(1.0)", "value": 0.218, "units": "%g", "flag": "0", "ln_sigma": 0.0}, {"name": "sa(3.0)", "value": 0.0212, "units": "%g", "flag": "0", "ln_sigma": 0.0}, {"name": "pga", "value": 0.1577, "units": "%g", "flag": "0", "ln_sigma": 0.0}, {"name": "pgv", "value": 0.1237, "units": "cm/s", "flag": "0", "ln_sigma": 0.0}]}, {"name": "HNN", "amplitudes": [{"name": "sa(0.3)", "value": 0.2204, "units": "%g", "flag": "0", "ln_sigma": 0.0}, {"name": "sa(1.0)", "value": 0.2545, "units": "%g", "flag": "0", "ln_sigma": 0.0}, {"name": "sa(3.0)", "value": 0.0251, "units": "%g", "flag": "0", "ln_sigma": 0.0}, {"name": "pga", "value": 0.1983, "units": "%g", "flag": "0", "ln_sigma": 0.0}, {"name": "pgv", "value": 0.1758, "units": "cm/s", "flag": "0", "ln_sigma": 0.0}]}, {"name": "HNZ", "amplitudes": [{"name": "sa(0.3)", "value": 0.1898, "units": "%g", "flag": "0", "ln_sigma": 0.0}, {"name": "sa(1.0)", "value": 0.3487, "units": "%g", "flag": "0", "ln_sigma": 0.0}, {"name": "sa(3.0)", "value": 0.0376, "units": "%g", "flag": "0", "ln_sigma": 0.0}, {"name": "pga", "value": 0.1776, "units": "%g", "flag": "0", "ln_sigma": 0.0}, {"name": "pgv", "value": 0.2034, "units": "cm/s", "flag": "0", "ln_sigma": 0.0}]}], "station_type": "seismic", "nresp": "null", "predictions": [{"name": "pgv", "value": 0.1831, "value_rock": 0.1831, "value_soil": 0.5055, "units": "cm/s", "ln_tau": 0.3977, "ln_phi": 0.6144, "ln_sigma": 0.7319, "ln_sigma_rock": 0.7366, "ln_sigma_soil": 0.7331, "ln_bias": 0.3603, "ln_bias_sigma": 0.1757}, {"name": "pga", "value": 0.3817, "value_rock": 0.3817, "value_soil": 0.6387, "units": "%g", "ln_tau": 0.4112, "ln_phi": 0.6081, "ln_sigma": 0.7341, "ln_sigma_rock": 0.7364, "ln_sigma_soil": 0.733, "ln_bias": 0.1339, "ln_bias_sigma": 0.1739}, {"name": "sa(0.3)", "value": 0.562, "value_rock": 0.562, "value_soil": 1.5791, "units": "%g", "ln_tau": 0.3966, "ln_phi": 0.6772, "ln_sigma": 0.7848, "ln_sigma_rock": 0.786, "ln_sigma_soil": 0.783, "ln_bias": 0.0271, "ln_bias_sigma": 0.1889}, {"name": "sa(3.0)", "value": 0.0256, "value_rock": 0.0256, "value_soil": 0.0821, "units": "%g", "ln_tau": 0.4491, "ln_phi": 0.6628, "ln_sigma": 0.8006, "ln_sigma_rock": 0.8033, "ln_sigma_soil": 0.8033, "ln_bias": 0.3555, "ln_bias_sigma": 0.2048}, {"name": "sa(1.0)", "value": 0.141, "value_rock": 0.141, "value_soil": 0.5658, "units": "%g", "ln_tau": 0.4416, "ln_phi": 0.6821, "ln_sigma": 0.8126, "ln_sigma_rock": 0.8146, "ln_sigma_soil": 0.8134, "ln_bias": 0.4327, "ln_bias_sigma": 0.1972}, {"name": "mmi", "value": 2.6423, "value_rock": 2.6423, "value_soil": 3.2904, "units": "intensity", "tau": 0.2539, "phi": 0.7421, "sigma": 0.7844, "sigma_rock": 0.7862, "sigma_soil": 0.7848, "bias": 0.2801, "bias_sigma": 0.1522}], "mmi_from_pgm": [{"name": "pgv", "value": 2.62, "sigma": 0.63, "flag": "0"}, {"name": "pga", "value": 2.53, "sigma": 0.66, "flag": "0"}, {"name": "sa(0.3)", "value": 1.99, "sigma": 0.82, "flag": "0"}, {"name": "sa(3.0)", "value": 2.71, "sigma": 0.89, "flag": "0"}, {"name": "sa(1.0)", "value": 2.82, "sigma": 0.75, "flag": "0"}], "distance_stddev": 3.431, "distances": {"repi": 121.386, "rhypo": 121.797, "rjb": 118.144, "rjb_var": 8.737, "rrup": 118.322, "rrup_var": 11.773, "rx": 0.0, "ry0": 0.0, "rvolc": 0.0}}, "geometry": {"type": "Point", "coordinates": [14.4221, 45.7381]}}, {"type": "Feature", "id": "SL.CRES", "properties": {"code": "CRES", "name": "Cresnjevec, SL", "instrumentType": "UNK", "source": "SL", "network": "SL", "commType": "UNK", "location": "", "intensity": 3.3, "intensity_flag": "", "intensity_stddev": 0.63, "pga": 1.1031, "pgv": 0.5391, "distance": 38.988, "elev": null, "vs30": 573.79, "channels": [{"name": "HNE", "amplitudes": [{"name": "sa(0.3)", "value": 1.9623, "units": "%g", "flag": "0", "ln_sigma": 0.0}, {"name": "sa(1.0)", "value": 0.2605, "units": "%g", "flag": "0", "ln_sigma": 0.0}, {"name": "sa(3.0)", "value": 0.0543, "units": "%g", "flag": "0", "ln_sigma": 0.0}, {"name": "pga", "value": 1.1031, "units": "%g", "flag": "0", "ln_sigma": 0.0}, {"name": "pgv", "value": 0.403, "units": "cm/s", "flag": "0", "ln_sigma": 0.0}]}, {"name": "HNN", "amplitudes": [{"name": "sa(0.3)", "value": 1.4995, "units": "%g", "flag": "0", "ln_sigma": 0.0}, {"name": "sa(1.0)", "value": 0.413, "units": "%g", "flag": "0", "ln_sigma": 0.0}, {"name": "sa(3.0)", "value": 0.0614, "units": "%g", "flag": "0", "ln_sigma": 0.0}, {"name": "pga", "value": 0.9357, "units": "%g", "flag": "0", "ln_sigma": 0.0}, {"name": "pgv", "value": 0.5391, "units": "cm/s", "flag": "0", "ln_sigma": 0.0}]}, {"name": "HNZ", "amplitudes": [{"name": "sa(0.3)", "value": 0.7634, "units": "%g", "flag": "0", "ln_sigma": 0.0}, {"name": "sa(1.0)", "value": 0.2089, "units": "%g", "flag": "0", "ln_sigma": 0.0}, {"name": "sa(3.0)", "value": 0.064, "units": "%g", "flag": "0", "ln_sigma": 0.0}, {"name": "pga", "value": 0.4571, "units": "%g", "flag": "0", "ln_sigma": 0.0}, {"name": "pgv", "value": 0.25, "units": "cm/s", "flag": "0", "ln_sigma": 0.0}]}], "station_type": "seismic", "nresp": "null", "predictions": [{"name": "pgv", "value": 1.0534, "value_rock": 0.8567, "value_soil": 2.2905, "units": "cm/s", "ln_tau": 0.3977, "ln_phi": 0.6247, "ln_sigma": 0.7406, "ln_sigma_rock": 0.7451, "ln_sigma_soil": 0.7401, "ln_bias": 0.3603, "ln_bias_sigma": 0.1757}, {"name": "pga", "value": 2.6514, "value_rock": 2.3382, "value_soil": 3.728, "units": "%g", "ln_tau": 0.411, "ln_phi": 0.6198, "ln_sigma": 0.7437, "ln_sigma_rock": 0.7462, "ln_sigma_soil": 0.7386, "ln_bias": 0.1339, "ln_bias_sigma": 0.1739}, {"name": "sa(0.3)", "value": 3.8638, "value_rock": 3.0194, "value_soil": 7.8834, "units": "%g", "ln_tau": 0.3965, "ln_phi": 0.686, "ln_sigma": 0.7924, "ln_sigma_rock": 0.7936, "ln_sigma_soil": 0.7854, "ln_bias": 0.0271, "ln_bias_sigma": 0.1889}, {"name": "sa(3.0)", "value": 0.1281, "value_rock": 0.1018, "value_soil": 0.3215, "units": "%g", "ln_tau": 0.4491, "ln_phi": 0.6712, "ln_sigma": 0.8076, "ln_sigma_rock": 0.8102, "ln_sigma_soil": 0.81, "ln_bias": 0.3555, "ln_bias_sigma": 0.2048}, {"name": "sa(1.0)", "value": 0.7892, "value_rock": 0.5957, "value_soil": 2.2895, "units": "%g", "ln_tau": 0.4416, "ln_phi": 0.6907, "ln_sigma": 0.8198, "ln_sigma_rock": 0.8217, "ln_sigma_soil": 0.8191, "ln_bias": 0.4327, "ln_bias_sigma": 0.1972}, {"name": "mmi", "value": 3.7592, "value_rock": 3.6272, "value_soil": 4.2551, "units": "intensity", "tau": 0.2539, "phi": 0.7456, "sigma": 0.7877, "sigma_rock": 0.7894, "sigma_soil": 0.7875, "bias": 0.2801, "bias_sigma": 0.1522}], "mmi_from_pgm": [{"name": "pgv", "value": 3.33, "sigma": 0.63, "flag": "0"}, {"name": "pga", "value": 3.19, "sigma": 0.66, "flag": "0"}, {"name": "sa(0.3)", "value": 3.34, "sigma": 0.82, "flag": "0"}, {"name": "sa(3.0)", "value": 3.44, "sigma": 0.89, "flag": "0"}, {"name": "sa(1.0)", "value": 3.37, "sigma": 0.75, "flag": "0"}], "distance_stddev": 3.895, "distances": {"repi": 40.719, "rhypo": 41.929, "rjb": 37.613, "rjb_var": 8.452, "rrup": 38.988, "rrup_var": 15.169, "rx": 0.0, "ry0": 0.0, "rvolc": 0.0}}, "geometry": {"type": "Point", "coordinates": [15.4569, 45.826]}}, {"type": "Feature", "id": "SL.KOGS", "properties": {"code": "KOGS", "name": "Kog, SL", "instrumentType": "UNK", "source": "SL", "network": "SL", "commType": "UNK", "location": "", "intensity": 3.9, "intensity_flag": "", "intensity_stddev": 0.63, "pga": 2.8216, "pgv": 1.2695, "distance": 61.526, "elev": null, "vs30": 366.04, "channels": [{"name": "HNE", "amplitudes": [{"name": "sa(0.3)", "value": 3.7205, "units": "%g", "flag": "0", "ln_sigma": 0.0}, {"name": "sa(1.0)", "value": 0.4792, "units": "%g", "flag": "0", "ln_sigma": 0.0}, {"name": "sa(3.0)", "value": 0.1405, "units": "%g", "flag": "0", "ln_sigma": 0.0}, {"name": "pga", "value": 2.8216, "units": "%g", "flag": "0", "ln_sigma": 0.0}, {"name": "pgv", "value": 1.2695, "units": "cm/s", "flag": "0", "ln_sigma": 0.0}]}, {"name": "HNN", "amplitudes": [{"name": "sa(0.3)", "value": 3.4481, "units": "%g", "flag": "0", "ln_sigma": 0.0}, {"name": "sa(1.0)", "value": 0.4474, "units": "%g", "flag": "0", "ln_sigma": 0.0}, {"name": "sa(3.0)", "value": 0.1378, "units": "%g", "flag": "0", "ln_sigma": 0.0}, {"name": "pga", "value": 2.6147, "units": "%g", "flag": "0", "ln_sigma": 0.0}, {"name": "pgv", "value": 0.8382, "units": "cm/s", "flag": "0", "ln_sigma": 0.0}]}, {"name": "HNZ", "amplitudes": [{"name": "sa(0.3)", "value": 1.6947, "units": "%g", "flag": "0", "ln_sigma": 0.0}, {"name": "sa(1.0)", "value": 0.1791, "units": "%g", "flag": "0", "ln_sigma": 0.0}, {"name": "sa(3.0)", "value": 0.1368, "units": "%g", "flag": "0", "ln_sigma": 0.0}, {"name": "pga", "value": 1.1387, "units": "%g", "flag": "0", "ln_sigma": 0.0}, {"name": "pgv", "value": 0.4046, "units": "cm/s", "flag": "0", "ln_sigma": 0.0}]}], "station_type": "seismic", "nresp": "null", "predictions": [{"name": "pgv", "value": 0.7478, "value_rock": 0.4567, "value_soil": 1.244, "units": "cm/s", "ln_tau": 0.3977, "ln_phi": 0.6173, "ln_sigma": 0.7343, "ln_sigma_rock": 0.739, "ln_sigma_soil": 0.7349, "ln_bias": 0.3603, "ln_bias_sigma": 0.1757}, {"name": "pga", "value": 1.5219, "value_rock": 1.1498, "value_soil": 1.8856, "units": "%g", "ln_tau": 0.4107, "ln_phi": 0.6113, "ln_sigma": 0.7365, "ln_sigma_rock": 0.7394, "ln_sigma_soil": 0.7343, "ln_bias": 0.1338, "ln_bias_sigma": 0.1739}, {"name": "sa(0.3)", "value": 2.6898, "value_rock": 1.5525, "value_soil": 4.2306, "units": "%g", "ln_tau": 0.3962, "ln_phi": 0.679, "ln_sigma": 0.7861, "ln_sigma_rock": 0.7879, "ln_sigma_soil": 0.7828, "ln_bias": 0.0271, "ln_bias_sigma": 0.1888}, {"name": "sa(3.0)", "value": 0.1023, "value_rock": 0.058, "value_soil": 0.185, "units": "%g", "ln_tau": 0.4491, "ln_phi": 0.6655, "ln_sigma": 0.8029, "ln_sigma_rock": 0.8055, "ln_sigma_soil": 0.8055, "ln_bias": 0.3555, "ln_bias_sigma": 0.2048}, {"name": "sa(1.0)", "value": 0.6566, "value_rock": 0.331, "value_soil": 1.3046, "units": "%g", "ln_tau": 0.4415, "ln_phi": 0.6846, "ln_sigma": 0.8147, "ln_sigma_rock": 0.8167, "ln_sigma_soil": 0.8151, "ln_bias": 0.4327, "ln_bias_sigma": 0.1972}, {"name": "mmi", "value": 3.5405, "value_rock": 3.2257, "value_soil": 3.8654, "units": "intensity", "tau": 0.2539, "phi": 0.7431, "sigma": 0.7853, "sigma_rock": 0.7871, "sigma_soil": 0.7855, "bias": 0.2801, "bias_sigma": 0.1522}], "mmi_from_pgm": [{"name": "pgv", "value": 3.88, "sigma": 0.63, "flag": "0"}, {"name": "pga", "value": 4.03, "sigma": 0.66, "flag": "0"}, {"name": "sa(0.3)", "value": 3.92, "sigma": 0.82, "flag": "0"}, {"name": "sa(3.0)", "value": 3.75, "sigma": 0.89, "flag": "0"}, {"name": "sa(1.0)", "value": 3.37, "sigma": 0.75, "flag": "0"}], "distance_stddev": 3.668, "distances": {"repi": 63.91, "rhypo": 64.688, "rjb": 60.731, "rjb_var": 8.617, "rrup": 61.526, "rrup_var": 13.451, "rx": 0.0, "ry0": 0.0, "rvolc": 0.0}}, "geometry": {"type": "Point", "coordinates": [16.2504, 46.4481]}}, {"type": "Feature", "id": "SL.LJU", "properties": {"code": "LJU", "name": "Ljubljana, SL", "instrumentType": "UNK", "source": "SL", "network": "SL", "commType": "UNK", "location": "", "intensity": 3.0, "intensity_flag": "", "intensity_stddev": 0.63, "pga": 0.4688, "pgv": 0.3235, "distance": 109.447, "elev": null, "vs30": 760.0, "channels": [{"name": "HNE", "amplitudes": [{"name": "sa(0.3)", "value": 0.4844, "units": "%g", "flag": "0", "ln_sigma": 0.0}, {"name": "sa(1.0)", "value": 0.4523, "units": "%g", "flag": "0", "ln_sigma": 0.0}, {"name": "sa(3.0)", "value": 0.0463, "units": "%g", "flag": "0", "ln_sigma": 0.0}, {"name": "pga", "value": 0.4688, "units": "%g", "flag": "0", "ln_sigma": 0.0}, {"name": "pgv", "value": 0.2305, "units": "cm/s", "flag": "0", "ln_sigma": 0.0}]}, {"name": "HNN", "amplitudes": [{"name": "sa(0.3)", "value": 0.424, "units": "%g", "flag": "0", "ln_sigma": 0.0}, {"name": "sa(1.0)", "value": 0.5187, "units": "%g", "flag": "0", "ln_sigma": 0.0}, {"name": "sa(3.0)", "value": 0.0545, "units": "%g", "flag": "0", "ln_sigma": 0.0}, {"name": "pga", "value": 0.4011, "units": "%g", "flag": "0", "ln_sigma": 0.0}, {"name": "pgv", "value": 0.3235, "units": "cm/s", "flag": "0", "ln_sigma": 0.0}]}, {"name": "HNZ", "amplitudes": [{"name": "sa(0.3)", "value": 0.1616, "units": "%g", "flag": "0", "ln_sigma": 0.0}, {"name": "sa(1.0)", "value": 0.2505, "units": "%g", "flag": "0", "ln_sigma": 0.0}, {"name": "sa(3.0)", "value": 0.0368, "units": "%g", "flag": "0", "ln_sigma": 0.0}, {"name": "pga", "value": 0.1427, "units": "%g", "flag": "0", "ln_sigma": 0.0}, {"name": "pgv", "value": 0.1378, "units": "cm/s", "flag": "0", "ln_sigma": 0.0}]}], "station_type": "seismic", "nresp": "null", "predictions": [{"name": "pgv", "value": 0.2044, "value_rock": 0.2044, "value_soil": 0.5637, "units": "cm/s", "ln_tau": 0.3977, "ln_phi": 0.6143, "ln_sigma": 0.7318, "ln_sigma_rock": 0.7365, "ln_sigma_soil": 0.7329, "ln_bias": 0.3603, "ln_bias_sigma": 0.1757}, {"name": "pga", "value": 0.4384, "value_rock": 0.4384, "value_soil": 0.7325, "units": "%g", "ln_tau": 0.4112, "ln_phi": 0.608, "ln_sigma": 0.734, "ln_sigma_rock": 0.7363, "ln_sigma_soil": 0.7328, "ln_bias": 0.1339, "ln_bias_sigma": 0.1739}, {"name": "sa(0.3)", "value": 0.6379, "value_rock": 0.6379, "value_soil": 1.7882, "units": "%g", "ln_tau": 0.3966, "ln_phi": 0.6769, "ln_sigma": 0.7845, "ln_sigma_rock": 0.7857, "ln_sigma_soil": 0.7825, "ln_bias": 0.0271, "ln_bias_sigma": 0.1889}, {"name": "sa(3.0)", "value": 0.0282, "value_rock": 0.0282, "value_soil": 0.0906, "units": "%g", "ln_tau": 0.4491, "ln_phi": 0.663, "ln_sigma": 0.8008, "ln_sigma_rock": 0.8034, "ln_sigma_soil": 0.8034, "ln_bias": 0.3555, "ln_bias_sigma": 0.2048}, {"name": "sa(1.0)", "value": 0.1563, "value_rock": 0.1563, "value_soil": 0.6263, "units": "%g", "ln_tau": 0.4416, "ln_phi": 0.6822, "ln_sigma": 0.8127, "ln_sigma_rock": 0.8146, "ln_sigma_soil": 0.8135, "ln_bias": 0.4327, "ln_bias_sigma": 0.1972}, {"name": "mmi", "value": 2.7126, "value_rock": 2.7126, "value_soil": 3.36, "units": "intensity", "tau": 0.2539, "phi": 0.7421, "sigma": 0.7843, "sigma_rock": 0.7861, "sigma_soil": 0.7848, "bias": 0.2801, "bias_sigma": 0.1522}], "mmi_from_pgm": [{"name": "pgv", "value": 3.01, "sigma": 0.63, "flag": "0"}, {"name": "pga", "value": 3.08, "sigma": 0.66, "flag": "0"}, {"name": "sa(0.3)", "value": 2.58, "sigma": 0.82, "flag": "0"}, {"name": "sa(3.0)", "value": 3.13, "sigma": 0.89, "flag": "0"}, {"name": "sa(1.0)", "value": 3.3, "sigma": 0.75, "flag": "0"}], "distance_stddev": 3.449, "distances": {"repi": 112.454, "rhypo": 112.898, "rjb": 109.217, "rjb_var": 8.728, "rrup": 109.447, "rrup_var": 11.893, "rx": 0.0, "ry0": 0.0, "rvolc": 0.0}}, "geometry": {"type": "Point", "coordinates": [14.5278, 46.0438]}}, {"type": "Feature", "id": "SL.PERS", "properties": {"code": "PERS", "name": "Pernice, SL", "instrumentType": "UNK", "source": "SL", "network": "SL", "commType": "UNK", "location": "", "intensity": 2.8, "intensity_flag": "", "intensity_stddev": 0.63, "pga": 0.4426, "pgv": 0.2459, "distance": 101.483, "elev": null, "vs30": 900.0, "channels": [{"name": "HNE", "amplitudes": [{"name": "sa(0.3)", "value": 0.3539, "units": "%g", "flag": "0", "ln_sigma": 0.0}, {"name": "sa(1.0)", "value": 0.1731, "units": "%g", "flag": "0", "ln_sigma": 0.0}, {"name": "sa(3.0)", "value": 0.0554, "units": "%g", "flag": "0", "ln_sigma": 0.0}, {"name": "pga", "value": 0.3294, "units": "%g", "flag": "0", "ln_sigma": 0.0}, {"name": "pgv", "value": 0.2275, "units": "cm/s", "flag": "0", "ln_sigma": 0.0}]}, {"name": "HNN", "amplitudes": [{"name": "sa(0.3)", "value": 0.4805, "units": "%g", "flag": "0", "ln_sigma": 0.0}, {"name": "sa(1.0)", "value": 0.2344, "units": "%g", "flag": "0", "ln_sigma": 0.0}, {"name": "sa(3.0)", "value": 0.0388, "units": "%g", "flag": "0", "ln_sigma": 0.0}, {"name": "pga", "value": 0.4426, "units": "%g", "flag": "0", "ln_sigma": 0.0}, {"name": 