{
    "type": "FeatureCollection",
    "features": [
        {
            "type": "Feature",
            "id": "BO.OIT012",
            "properties": {
                "code": "OIT012",
                "name": "",
                "instrumentType": "UNK",
                "source": "BO",
                "network": "BO",
                "commType": "UNK",
                "location": "",
                "intensity": 6.6,
                "intensity_flag": "",
                "intensity_stddev": 0.63,
                "pga": 9.9811,
                "pgv": 19.8711,
                "distance": 37.684,
                "elev": null,
                "vs30": 405.6,
                "channels": [
                    {
                        "name": "H1",
                        "amplitudes": [
                            {
                                "name": "pga",
                                "value": 9.2157,
                                "units": "%g",
                                "flag": "0",
                                "ln_sigma": 0.0
                            },
                            {
                                "name": "pgv",
                                "value": 18.8601,
                                "units": "cm/s",
                                "flag": "0",
                                "ln_sigma": 0.0
                            },
                            {
                                "name": "sa(0.3)",
                                "value": 9.1308,
                                "units": "%g",
                                "flag": "0",
                                "ln_sigma": 0.0
                            },
                            {
                                "name": "sa(1.0)",
                                "value": 7.6506,
                                "units": "%g",
                                "flag": "0",
                                "ln_sigma": 0.0
                            },
                            {
                                "name": "sa(3.0)",
                                "value": 8.0807,
                                "units": "%g",
                                "flag": "0",
                                "ln_sigma": 0.0
                            }
                        ]
                    },
                    {
                        "name": "H2",
                        "amplitudes": [
                            {
                                "name": "pga",
                                "value": 9.9811,
                                "units": "%g",
                                "flag": "0",
                                "ln_sigma": 0.0
                            },
                            {
                                "name": "pgv",
                                "value": 19.8711,
                                "units": "cm/s",
                                "flag": "0",
                                "ln_sigma": 0.0
                            },
                            {
                                "name": "sa(0.3)",
                                "value": 12.4187,
                                "units": "%g",
                                "flag": "0",
                                "ln_sigma": 0.0
                            },
                            {
                                "name": "sa(1.0)",
                                "value": 20.0229,
                                "units": "%g",
                                "flag": "0",
                                "ln_sigma": 0.0
                            },
                            {
                                "name": "sa(3.0)",
                                "value": 12.2938,
                                "units": "%g",
                                "flag": "0",
                                "ln_sigma": 0.0
                            }
                        ]
                    },
                    {
                        "name": "Z",
                        "amplitudes": [
                            {
                                "name": "pga",
                                "value": 5.4357,
                                "units": "%g",
                                "flag": "0",
                                "ln_sigma": 0.0
                            },
                            {
                                "name": "pgv",
                                "value": 7.7791,
                                "units": "cm/s",
                                "flag": "0",
                                "ln_sigma": 0.0
                            },
                            {
                                "name": "sa(0.3)",
                                "value": 7.3905,
                                "units": "%g",
                                "flag": "0",
                                "ln_sigma": 0.0
                            },
                            {
                                "name": "sa(1.0)",
                                "value": 6.5607,
                                "units": "%g",
                                "flag": "0",
                                "ln_sigma": 0.0
                            },
                            {
                                "name": "sa(3.0)",
                                "value": 3.2182,
                                "units": "%g",
                                "flag": "0",
                                "ln_sigma": 0.0
                            }
                        ]
                    }
                ],
                "station_type": "seismic",
                "nresp": "null",
                "predictions": [
                    {
                        "name": "pga",
                        "value": 12.7089,
                        "value_rock": 9.9867,
                        "value_soil": 15.1424,
                        "units": "%g",
                        "ln_tau": 0.3125,
                        "ln_phi": 0.5032,
                        "ln_sigma": 0.5923,
                        "ln_sigma_rock": 0.607,
                        "ln_sigma_soil": 0.5381,
                        "ln_bias": 0.1922,
                        "ln_bias_sigma": 0.075
                    },
                    {
                        "name": "sa(0.3)",
                        "value": 29.9969,
                        "value_rock": 18.8814,
                        "value_soil": 42.9725,
                        "units": "%g",
                        "ln_tau": 0.2935,
                        "ln_phi": 0.5725,
                        "ln_sigma": 0.6433,
                        "ln_sigma_rock": 0.6568,
                        "ln_sigma_soil": 0.5681,
                        "ln_bias": 0.0809,
                        "ln_bias_sigma": 0.0829
                    },
                    {
                        "name": "pgv",
                        "value": 12.877,
                        "value_rock": 8.2577,
                        "value_soil": 20.3281,
                        "units": "cm/s",
                        "ln_tau": 0.3215,
                        "ln_phi": 0.5261,
                        "ln_sigma": 0.6166,
                        "ln_sigma_rock": 0.6203,
                        "ln_sigma_soil": 0.5826,
                        "ln_bias": -0.0184,
                        "ln_bias_sigma": 0.0827
                    },
                    {
                        "name": "sa(1.0)",
                        "value": 12.3967,
                        "value_rock": 6.6692,
                        "value_soil": 23.8668,
                        "units": "%g",
                        "ln_tau": 0.336,
                        "ln_phi": 0.6276,
                        "ln_sigma": 0.7119,
                        "ln_sigma_rock": 0.7146,
                        "ln_sigma_soil": 0.6821,
                        "ln_bias": -0.0869,
                        "ln_bias_sigma": 0.0983
                    },
                    {
                        "name": "sa(3.0)",
                        "value": 3.3458,
                        "value_rock": 1.7774,
                        "value_soil": 7.3782,
                        "units": "%g",
                        "ln_tau": 0.3648,
                        "ln_phi": 0.6151,
                        "ln_sigma": 0.7152,
                        "ln_sigma_rock": 0.718,
                        "ln_sigma_soil": 0.7173,
                        "ln_bias": -0.0761,
                        "ln_bias_sigma": 0.1028
                    },
                    {
                        "name": "mmi",
                        "value": 5.662,
                        "value_rock": 5.2747,
                        "value_soil": 5.9436,
                        "units": "intensity",
                        "tau": 0.5021,
                        "phi": 1.0438,
                        "sigma": 1.1582,
                        "sigma_rock": 1.1777,
                        "sigma_soil": 1.0877,
                        "bias": 0.3633,
                        "bias_sigma": 0.1612
                    }
                ],
                "mmi_from_pgm": [
                    {
                        "name": "pga",
                        "value": 5.27,
                        "sigma": 0.66,
                        "flag": "0"
                    },
                    {
                        "name": "sa(0.3)",
                        "value": 4.68,
                        "sigma": 0.82,
                        "flag": "0"
                    },
                    {
                        "name": "pgv",
                        "value": 6.63,
                        "sigma": 0.63,
                        "flag": "0"
                    },
                    {
                        "name": "sa(1.0)",
                        "value": 6.32,
                        "sigma": 0.75,
                        "flag": "0"
                    },
                    {
                        "name": "sa(3.0)",
                        "value": 7.8,
                        "sigma": 0.89,
                        "flag": "0"
                    }
                ],
                "distance_stddev": 0.0,
                "distances": {
                    "repi": 65.415,
                    "rhypo": 66.175,
                    "rjb": 37.682,
                    "rjb_var": 0.0,
                    "rrup": 37.684,
                    "rrup_var": 0.0,
                    "rx": -3.689,
                    "ry0": 37.452,
                    "rvolc": 0.0
                }
            },
            "geometry": {
                "type": "Point",
                "coordinates": [
                    131.3734,
                    33.0664
                ]
            }
        },
        {
            "type": "Feature",
            "id": "BO.TKS007",
            "properties": {
                "code": "TKS007",
                "name": "",
                "instrumentType": "UNK",
                "source": "BO",
                "network": "BO",
                "commType": "UNK",
                "location": "",
                "intensity": 4.1,
                "intensity_flag": "",
                "intensity_stddev": 0.63,
                "pga": 0.8579,
                "pgv": 3.0559,
                "distance": 330.69,
                "elev": null,
                "vs30": 394.0,
                "channels": [
                    {
                        "name": "H1",
                        "amplitudes": [
                            {
                                "name": "pga",
                                "value": 0.8579,
                                "units": "%g",
                                "flag": "0",
                                "ln_sigma": 0.0
                            },
                            {
                                "name": "pgv",
                                "value": 2.5392,
                                "units": "cm/s",
                                "flag": "0",
                                "ln_sigma": 0.0
                            },
                            {
                                "name": "sa(0.3)",
                                "value": 0.9103,
                                "units": "%g",
                                "flag": "0",
                                "ln_sigma": 0.0
                            },
                            {
                                "name": "sa(1.0)",
                                "value": 2.2357,
                                "units": "%g",
                                "flag": "0",
                                "ln_sigma": 0.0
                            },
                            {
                                "name": "sa(3.0)",
                                "value": 1.9346,
                                "units": "%g",
                                "flag": "0",
                                "ln_sigma": 0.0
                            }
                        ]
                    },
                    {
                        "name": "H2",
                        "amplitudes": [
                            {
                                "name": "pga",
                                "value": 0.7095,
                                "units": "%g",
                                "flag": "0",
                                "ln_sigma": 0.0
                            },
                            {
                                "name": "pgv",
                                "value": 3.0559,
                                "units": "cm/s",
                                "flag": "0",
                                "ln_sigma": 0.0
                            },
                            {
                                "name": "sa(0.3)",
                                "value": 0.8088,
                                "units": "%g",
                                "flag": "0",
                                "ln_sigma": 0.0
                            },
                            {
                                "name": "sa(1.0)",
                                "value": 2.1993,
                                "units": "%g",
                                "flag": "0",
                                "ln_sigma": 0.0
                            },
                            {
                                "name": "sa(3.0)",
                                "value": 1.0541,
                                "units": "%g",
                                "flag": "0",
                                "ln_sigma": 0.0
                            }
                        ]
                    },
                    {
                        "name": "Z",
                        "amplitudes": [
                            {
                                "name": "pga",
                                "value": 0.5242,
                                "units": "%g",
                                "flag": "0",
                                "ln_sigma": 0.0
                            },
                            {
                                "name": "pgv",
                                "value": 1.5563,
                                "units": "cm/s",
                                "flag": "0",
                                "ln_sigma": 0.0
                            },
                            {
                                "name": "sa(0.3)",
                                "value": 0.5995,
                                "units": "%g",
                                "flag": "0",
                                "ln_sigma": 0.0
                            },
                            {
                                "name": "sa(1.0)",
                                "value": 1.0194,
                                "units": "%g",
                                "flag": "0",
                                "ln_sigma": 0.0
                            },
                            {
                                "name": "sa(3.0)",
                                "value": 0.7199,
                                "units": "%g",
                                "flag": "0",
                                "ln_sigma": 0.0
                            }
                        ]
                    }
                ],
                "station_type": "seismic",
                "nresp": "null",
                "predictions": [
                    {
                        "name": "pga",
                        "value": 0.3589,
                        "value_rock": 0.2641,
                        "value_soil": 0.5139,
                        "units": "%g",
                        "ln_tau": 0.3235,
                        "ln_phi": 0.5363,
                        "ln_sigma": 0.6263,
                        "ln_sigma_rock": 0.6282,
                        "ln_sigma_soil": 0.6116,
                        "ln_bias": 0.1929,
                        "ln_bias_sigma": 0.0752
                    },
                    {
                        "name": "sa(0.3)",
                        "value": 1.0008,
                        "value_rock": 0.5823,
                        "value_soil": 1.8554,
                        "units": "%g",
                        "ln_tau": 0.3024,
                        "ln_phi": 0.6142,
                        "ln_sigma": 0.6846,
                        "ln_sigma_rock": 0.6882,
                        "ln_sigma_soil": 0.6738,
                        "ln_bias": 0.0813,
                        "ln_bias_sigma": 0.0831
                    },
                    {
                        "name": "pgv",
                        "value": 1.1461,
                        "value_rock": 0.7093,
                        "value_soil": 2.0106,
                        "units": "cm/s",
                        "ln_tau": 0.3226,
                        "ln_phi": 0.5467,
                        "ln_sigma": 0.6347,
                        "ln_sigma_rock": 0.6372,
                        "ln_sigma_soil": 0.617,
                        "ln_bias": -0.0184,
                        "ln_bias_sigma": 0.0827
                    },
                    {
                        "name": "sa(1.0)",
                        "value": 1.1615,
                        "value_rock": 0.599,
                        "value_soil": 2.4962,
                        "units": "%g",
                        "ln_tau": 0.3373,
                        "ln_phi": 0.6522,
                        "ln_sigma": 0.7343,
                        "ln_sigma_rock": 0.736,
                        "ln_sigma_soil": 0.7289,
                        "ln_bias": -0.087,
                        "ln_bias_sigma": 0.0984
                    },
                    {
                        "name": "sa(3.0)",
                        "value": 0.4465,
                        "value_rock": 0.2304,
                        "value_soil": 0.9594,
                        "units": "%g",
                        "ln_tau": 0.3651,
                        "ln_phi": 0.6363,
                        "ln_sigma": 0.7336,
                        "ln_sigma_rock": 0.7367,
                        "ln_sigma_soil": 0.7365,
                        "ln_bias": -0.0761,
                        "ln_bias_sigma": 0.1028
                    },
                    {
                        "name": "mmi",
                        "value": 3.0539,
                        "value_rock": 2.8475,
                        "value_soil": 3.2956,
                        "units": "intensity",
                        "tau": 0.2178,
                        "phi": 0.7523,
                        "sigma": 0.7832,
                        "sigma_rock": 0.7838,
                        "sigma_soil": 0.7779,
                        "bias": 0.2515,
