{"type": "FeatureCollection", "features": [{"type": "Feature", "id": "G.HIST_5", "properties": {"code": "HIST_5", "name": "Germy", "instrumentType": "UNK", "source": "G", "network": "G", "commType": "UNK", "location": "", "intensity": "null", "intensity_flag": "", "intensity_stddev": "null", "pga": 4.4898, "pgv": "null", "distance": 83.833, "elev": null, "vs30": 640.4, "channels": [{"name": "UNK", "amplitudes": [{"name": "pga", "value": 4.4898, "units": "%g", "flag": "0", "ln_sigma": 0.0}]}], "station_type": "seismic", "nresp": "null", "predictions": [{"name": "pga", "value": 1.9218, "value_rock": 1.7749, "value_soil": 3.3252, "units": "%g", "ln_tau": 0.3434, "ln_phi": 0.5208, "ln_sigma": 0.6239, "ln_sigma_rock": 0.6256, "ln_sigma_soil": 0.5973, "ln_bias": 0.0924, "ln_bias_sigma": 0.1208}, {"name": "sa(0.3)", "value": 3.9733, "value_rock": 3.4438, "value_soil": 10.4734, "units": "%g", "ln_tau": 0.3205, "ln_phi": 0.5893, "ln_sigma": 0.6709, "ln_sigma_rock": 0.6732, "ln_sigma_soil": 0.6434, "ln_bias": 0.0089, "ln_bias_sigma": 0.2425}, {"name": "sa(3.0)", "value": 0.2791, "value_rock": 0.2334, "value_soil": 0.9951, "units": "%g", "ln_tau": 0.3846, "ln_phi": 0.6164, "ln_sigma": 0.7266, "ln_sigma_rock": 0.7271, "ln_sigma_soil": 0.727, "ln_bias": 0.0864, "ln_bias_sigma": 0.305}, {"name": "pgv", "value": 1.4771, "value_rock": 1.3008, "value_soil": 3.6083, "units": "cm/s", "ln_tau": 0.3278, "ln_phi": 0.5264, "ln_sigma": 0.6201, "ln_sigma_rock": 0.6209, "ln_sigma_soil": 0.5973, "ln_bias": -0.205, "ln_bias_sigma": 0.1303}, {"name": "sa(1.0)", "value": 1.3656, "value_rock": 1.1436, "value_soil": 4.7177, "units": "%g", "ln_tau": 0.3547, "ln_phi": 0.6335, "ln_sigma": 0.726, "ln_sigma_rock": 0.7264, "ln_sigma_soil": 0.7159, "ln_bias": 0.0833, "ln_bias_sigma": 0.2682}, {"name": "mmi", "value": 3.831, "value_rock": 3.7499, "value_soil": 4.4531, "units": "intensity", "tau": 0.2093, "phi": 0.714, "sigma": 0.7441, "sigma_rock": 0.7443, "sigma_soil": 1.0339, "bias": -0.026, "bias_sigma": 0.1563}], "mmi_from_pgm": [{"name": "pga", "value": 4.5, "sigma": 0.66, "flag": "0"}, {"name": "sa(0.3)", "value": null, "sigma": null, "flag": "0"}, {"name": "sa(3.0)", "value": null, "sigma": null, "flag": "0"}, {"name": "pgv", "value": null, "sigma": null, "flag": "0"}, {"name": "sa(1.0)", "value": null, "sigma": null, "flag": "0"}], "distance_stddev": 0.0, "distances": {"repi": 105.094, "rhypo": 105.568, "rjb": 83.835, "rjb_var": 0.0, "rrup": 83.833, "rrup_var": 0.0, "rx": -15.637, "ry0": 82.505}}, "geometry": {"type": "Point", "coordinates": [48.07, 39.02]}}, {"type": "Feature", "id": "BHRC.20", "properties": {"code": "20", "name": "Miyaneh", "instrumentType": "UNK", "source": "BHRC", "network": "BHRC", "commType": "UNK", "location": "", "intensity": 3.5, "intensity_flag": "", "intensity_stddev": 0.63, "pga": 1.66, "pgv": 0.84, "distance": 81.063, "elev": null, "vs30": 406.19, "channels": [{"name": "H1", "amplitudes": [{"name": "pga", "value": 1.27, "units": "%g", "flag": "0", "ln_sigma": 0.0}, {"name": "sa(3.0)", "value": "null", "units": "%g", "flag": "Glitch,0,Outlier", "ln_sigma": "null"}, {"name": "pgv", "value": 0.75, "units": "cm/s", "flag": "0", "ln_sigma": 0.0}, {"name": "sa(1.0)", "value": "null", "units": "%g", "flag": "Glitch,0,Outlier", "ln_sigma": "null"}, {"name": "sa(0.3)", "value": "null", "units": "%g", "flag": "Glitch,0,Outlier", "ln_sigma": "null"}]}, {"name": "UP", "amplitudes": [{"name": "pga", "value": 0.853, "units": "%g", "flag": "UnknownOrientation,0", "ln_sigma": 0.0}, {"name": "sa(3.0)", "value": "null", "units": "%g", "flag": "G,UnknownOrientation,0,Outlier", "ln_sigma": "null"}, {"name": "pgv", "value": 0.48, "units": "cm/s", "flag": "UnknownOrientation,0", "ln_sigma": 0.0}, {"name": "sa(1.0)", "value": "null", "units": "%g", "flag": "G,UnknownOrientation,0,Outlier", "ln_sigma": "null"}, {"name": "sa(0.3)", "value": "null", "units": "%g", "flag": "G,UnknownOrientation,0,Outlier", "ln_sigma": "null"}]}, {"name": "H2", "amplitudes": [{"name": "pga", "value": 1.66, "units": "%g", "flag": "0", "ln_sigma": 0.0}, {"name": "sa(3.0)", "value": "null", "units": "%g", "flag": "Glitch,0,Outlier", "ln_sigma": "null"}, {"name": "pgv", "value": 0.84, "units": "cm/s", "flag": "0", "ln_sigma": 0.0}, {"name": "sa(1.0)", "value": "null", "units": "%g", "flag": "Glitch,0,Outlier", "ln_sigma": "null"}, {"name": "sa(0.3)", "value": "null", "units": "%g", "flag": "Glitch,0,Outlier", "ln_sigma": "null"}]}], "station_type": "seismic", "nresp": "null", "predictions": [{"name": "pga", "value": 2.484, "value_rock": 1.8692, "value_soil": 3.4915, "units": "%g", "ln_tau": 0.3411, "ln_phi": 0.5189, "ln_sigma": 0.621, "ln_sigma_rock": 0.6256, "ln_sigma_soil": 0.5965, "ln_bias": 0.0922, "ln_bias_sigma": 0.1207}, {"name": "sa(0.3)", "value": 6.0256, "value_rock": 3.6174, "value_soil": 10.9591, "units": "%g", "ln_tau": 0.3184, "ln_phi": 0.5873, "ln_sigma": 0.6681, "ln_sigma_rock": 0.6732, "ln_sigma_soil": 0.6424, "ln_bias": 0.0088, "ln_bias_sigma": 0.2416}, {"name": "sa(3.0)", "value": 0.4616, "value_rock": 0.2417, "value_soil": 1.0304, "units": "%g", "ln_tau": 0.3846, "ln_phi": 0.6164, "ln_sigma": 0.7265, "ln_sigma_rock": 0.7271, "ln_sigma_soil": 0.727, "ln_bias": 0.0864, "ln_bias_sigma": 0.305}, {"name": "pgv", "value": 2.1454, "value_rock": 1.3547, "value_soil": 3.7515, "units": "cm/s", "ln_tau": 0.3275, "ln_phi": 0.526, "ln_sigma": 0.6196, "ln_sigma_rock": 0.6209, "ln_sigma_soil": 0.5971, "ln_bias": -0.2049, "ln_bias_sigma": 0.1303}, {"name": "sa(1.0)", "value": 2.2545, "value_rock": 1.188, "value_soil": 4.8923, "units": "%g", "ln_tau": 0.3544, "ln_phi": 0.6331, "ln_sigma": 0.7256, "ln_sigma_rock": 0.7264, "ln_sigma_soil": 0.7156, "ln_bias": 0.0832, "ln_bias_sigma": 0.268}, {"name": "mmi", "value": 4.0693, "value_rock": 3.7758, "value_soil": 4.5065, "units": "intensity", "tau": 0.209, "phi": 0.7139, "sigma": 0.7439, "sigma_rock": 0.7443, "sigma_soil": 1.0336, "bias": -0.0259, "bias_sigma": 0.1561}], "mmi_from_pgm": [{"name": "pga", "value": 3.66, "sigma": 0.66, "flag": "0"}, {"name": "sa(0.3)", "value": null, "sigma": null, "flag": "0"}, {"name": "sa(3.0)", "value": null, "sigma": null, "flag": "0"}, {"name": "pgv", "value": 3.47, "sigma": 0.63, "flag": "0"}, {"name": "sa(1.0)", "value": null, "sigma": null, "flag": "0"}], "distance_stddev": 0.0, "distances": {"repi": 77.701, "rhypo": 78.341, "rjb": 81.064, "rjb_var": 0.0, "rrup": 81.063, "rrup_var": 0.0, "rx": 44.373, "ry0": 67.941}}, "geometry": {"type": "Point", "coordinates": [47.71, 37.43]}}, {"type": "Feature", "id": "BHRC.1695", "properties": {"code": "1695", "name": "AstaraStation", "instrumentType": "UNK", "source": "BHRC", "network": "BHRC", "commType": "UNK", "location": "", "intensity": "null", "intensity_flag": "", "intensity_stddev": "null", "pga": "null", "pgv": "null", "distance": 73.39, "elev": null, "vs30": 217.11, "channels": [{"name": "V2", "amplitudes": [{"name": "pga", "value": 1.911, "units": "%g", "flag": "UnknownOrientation,0,Outlier", "ln_sigma": 0.0}, {"name": "sa(3.0)", "value": "null", "units": "%g", "flag": "G,UnknownOrientation,0,Outlier", "ln_sigma": "null"}, {"name": "pgv", "value": 1.8325, "units": "cm/s", "flag": "UnknownOrientation,0,Outlier", "ln_sigma": 0.0}, {"name": "sa(1.0)", "value": "null", "units": "%g", "flag": "G,UnknownOrientation,0,Outlier", "ln_sigma": "null"}, {"name": "sa(0.3)", "value": "null", "units": "%g", "flag": "G,UnknownOrientation,0,Outlier", "ln_sigma": "null"}]}, {"name": "T3", "amplitudes": [{"name": "pga", "value": 3.974, "units": "%g", "flag": "UnknownOrientation,0,Outlier", "ln_sigma": 0.0}, {"name": "sa(3.0)", "value": "null", "units": "%g", "flag": "G,UnknownOrientation,0,Outlier", "ln_sigma": "null"}, {"name": "pgv", "value": 4.0161, "units": "cm/s", "flag": "UnknownOrientation,0,Outlier", "ln_sigma": 0.0}, {"name": "sa(1.0)", "value": "null", "units": "%g", "flag": "G,UnknownOrientation,0,Outlier", "ln_sigma": "null"}, {"name": "sa(0.3)", "value": "null", "units": "%g", "flag": "G,UnknownOrientation,0,Outlier", "ln_sigma": "null"}]}, {"name": "L1", "amplitudes": [{"name": "pga", "value": 4.527, "units": "%g", "flag": "UnknownOrientation,0,Outlier", "ln_sigma": 0.0}, {"name": "sa(3.0)", "value": "null", "units": "%g", "flag": "G,UnknownOrientation,0,Outlier", "ln_sigma": "null"}, {"name": "pgv", "value": 3.812, "units": "cm/s", "flag": "UnknownOrientation,0,Outlier", "ln_sigma": 0.0}, {"name": "sa(1.0)", "value": "null", "units": "%g", "flag": "G,UnknownOrientation,0,Outlier", "ln_sigma": "null"}, {"name": "sa(0.3)", "value": "null", "units": "%g", "flag": "G,UnknownOrientation,0,Outlier", "ln_sigma": "null"}]}], "station_type": "seismic", "nresp": "null", "predictions": [{"name": "pga", "value": 3.6957, "value_rock": 2.1516, "value_soil": 3.9841, "units": "%g", "ln_tau": 0.3332, "ln_phi": 0.4953, "ln_sigma": 0.597, "ln_sigma_rock": 0.6255, "ln_sigma_soil": 0.5945, "ln_bias": 0.0917, "ln_bias_sigma": 0.1204}, {"name": "sa(0.3)", "value": 10.8467, "value_rock": 4.1384, "value_soil": 12.3956, "units": "%g", "ln_tau": 0.308, "ln_phi": 0.5657, "ln_sigma": 0.6441, "ln_sigma_rock": 0.6732, "ln_sigma_soil": 0.6398, "ln_bias": 0.0085, "ln_bias_sigma": 0.237}, {"name": "sa(3.0)", "value": 0.9452, "value_rock": 0.2681, "value_soil": 1.1428, "units": "%g", "ln_tau": 0.3845, "ln_phi": 0.6163, "ln_sigma": 0.7265, "ln_sigma_rock": 0.7271, "ln_sigma_soil": 0.727, "ln_bias": 0.0864, "ln_bias_sigma": 0.3049}, {"name": "pgv", "value": 3.6908, "value_rock": 1.5226, "value_soil": 4.1946, "units": "cm/s", "ln_tau": 0.3241, "ln_phi": 0.5032, "ln_sigma": 0.5985, "ln_sigma_rock": 0.6209, "ln_sigma_soil": 0.5964, "ln_bias": -0.2043, "ln_bias_sigma": 0.1301}, {"name": "sa(1.0)", "value": 4.5503, "value_rock": 1.328, "value_soil": 5.4396, "units": "%g", "ln_tau": 0.351, "ln_phi": 0.6249, "ln_sigma": 0.7167, "ln_sigma_rock": 0.7264, "ln_sigma_soil": 0.7149, "ln_bias": 0.0823, "ln_bias_sigma": 0.2666}, {"name": "mmi", "value": 4.4841, "value_rock": 3.8504, "value_soil": 4.6597, "units": "intensity", "tau": 0.4448, "phi": 0.9348, "sigma": 1.0352, "sigma_rock": 0.7443, "sigma_soil": 1.0329, "bias": -0.0459, "bias_sigma": 0.2077}], "mmi_from_pgm": [{"name": "pga", "value": null, "sigma": null, "flag": "0"}, {"name": "sa(0.3)", "value": null, "sigma": null, "flag": "0"}, {"name": "sa(3.0)", "value": null, "sigma": null, "flag": "0"}, {"name": "pgv", "value": null, "sigma": null, "flag": "0"}, {"name": "sa(1.0)", "value": null, "sigma": null, "flag": "0"}], "distance_stddev": 0.0, "distances": {"repi": 80.999, "rhypo": 81.614, "rjb": 73.391, "rjb_var": 0.0, "rrup": 73.39, "rrup_var": 0.0, "rx": -72.837, "ry0": 6.908}}, "geometry": {"type": "Point", "coordinates": [48.86, 38.43]}}, {"type": "Feature", "id": "BHRC.5", "properties": {"code": "5", "name": "Bile-Savar", "instrumentType": "UNK", "source": "BHRC", "network": "BHRC", "commType": "UNK", "location": "", "intensity": 4.0, "intensity_flag": "", "intensity_stddev": 0.63, "pga": 1.153, "pgv": 1.81, "distance": 123.841, "elev": null, "vs30": 468.14, "channels": [{"name": "H1", "amplitudes": [{"name": "pga", "value": 1.153, "units": "%g", "flag": "0", "ln_sigma": 0.0}, {"name": "sa(3.0)", "value": "null", "units": "%g", "flag": "Glitch,0,Outlier", "ln_sigma": "null"}, {"name": "pgv", "value": 1.81, "units": "cm/s", "flag": "0", "ln_sigma": 0.0}, {"name": "sa(1.0)", "value": "null", "units": "%g", "flag": "Glitch,0,Outlier", "ln_sigma": "null"}, {"name": "sa(0.3)", "value": "null", "units": "%g", "flag": "Glitch,0,Outlier", "ln_sigma": "null"}]}, {"name": "UP", "amplitudes": [{"name": "pga", "value": 0.484, "units": "%g", "flag": "UnknownOrientation,0", "ln_sigma": 0.0}, {"name": "sa(3.0)", "value": "null", "units": "%g", "flag": "G,UnknownOrientation,0,Outlier", "ln_sigma": "null"}, {"name": "pgv", "value": 0.64, "units": "cm/s", "flag": "UnknownOrientation,0", "ln_sigma": 0.0}, {"name": "sa(1.0)", "value": "null", "units": "%g", "flag": "G,UnknownOrientation,0,Outlier", "ln_sigma": "null"}, {"name": "sa(0.3)", "value": "null", "units": "%g", "flag": "G,UnknownOrientation,0,Outlier", "ln_sigma": "null"}]}, {"name": "H2", "amplitudes": [{"name": "pga", "value": 1.14, "units": "%g", "flag": "0", "ln_sigma": 0.0}, {"name": "sa(3.0)", "value": "null", "units": "%g", "flag": "Glitch,0,Outlier", "ln_sigma": "null"}, {"name": "pgv", "value": 1.38, "units": "cm/s", "flag": "0", "ln_sigma": 0.0}, {"name": "sa(1.0)", "value": "null", "units": "%g", "flag": "Glitch,0,Outlier", "ln_sigma": "null"}, {"name": "sa(0.3)", "value": "null", "units": "%g", "flag": "Glitch,0,Outlier", "ln_sigma": "null"}]}], "station_type": "seismic", "nresp": "null", "predictions": [{"name": "pga", "value": 1.1562, "value_rock": 0.9228, "value_soil": 1.777, "units": "%g", "ln_tau": 0.343, "ln_phi": 0.5238, "ln_sigma": 0.6261, "ln_sigma_rock": 0.6284, "ln_sigma_soil": 0.6066, "ln_bias": 0.0924, "ln_bias_sigma": 0.1208}, {"name": "sa(0.3)", "value": 2.7865, "value_rock": 1.8589, "value_soil": 5.8594, "units": "%g", "ln_tau": 0.32, "ln_phi": 0.5954, "ln_sigma": 0.676, "ln_sigma_rock": 0.6793, "ln_sigma_soil": 0.6579, "ln_bias": 0.0089, "ln_bias_sigma": 0.2423}, {"name": "sa(3.0)", "value": 0.2584, "value_rock": 0.1554, "value_soil": 0.663, "units": "%g", "ln_tau": 0.3846, "ln_phi": 0.6164, "ln_sigma": 0.7266, "ln_sigma_rock": 0.7271, "ln_sigma_soil": 0.727, "ln_bias": 0.0864, "ln_bias_sigma": 0.305}, {"name": "pgv", "value": 1.1479, "value_rock": 0.8009, "value_soil": 2.2584, "units": "cm/s", "ln_tau": 0.3277, "ln_phi": 0.5298, "ln_sigma": 0.6229, "ln_sigma_rock": 0.6239, "ln_sigma_soil": 0.6025, "ln_bias": -0.205, "ln_bias_sigma": 0.1303}, {"name": "sa(1.0)", "value": 1.2013, "value_rock": 0.7264, "value_soil": 3.0473, "units": "%g", "ln_tau": 0.3546, "ln_phi": 0.6352, "ln_sigma": 0.7275, "ln_sigma_rock": 0.728, "ln_sigma_soil": 0.7199, "ln_bias": 0.0833, "ln_bias_sigma": 0.2681}, {"name": "mmi", "value": 3.6701, "value_rock": 3.4403, "value_soil": 4.1021, "units": "intensity", "tau": 0.2092, "phi": 0.715, "sigma": 0.745, "sigma_rock": 0.7453, "sigma_soil": 0.7381, "bias": -0.0259, "bias_sigma": 0.1562}], "mmi_from_pgm": [{"name": "pga", "value": 3.6, "sigma": 0.66, "flag": "0"}, {"name": "sa(0.3)", "value": null, "sigma": null, "flag": "0"}, {"name": "sa(3.0)", "value": null, "sigma": null, "flag": "0"}, {"name": "pgv", "value": 3.96, "sigma": 0.63, "flag": "0"}, {"name": "sa(1.0)", "value": null, "sigma": null, "flag": "0"}], "distance_stddev": 0.0, "distances": {"repi": 144.793, "rhypo": 145.138, "rjb": 123.847, "rjb_var": 0.0, "rrup": 123.841, "rrup_var": 0.0, "rx": -42.992, "ry0": 116.343}}, "geometry": {"type": "Point", "coordinates": [48.32, 39.36]}}, {"type": "Feature", "id": "BHRC.19", "properties": {"code": "19", "name": "Meshkin Shahr", "instrumentType": "UNK", "source": "BHRC", "network": "BHRC", "commType": "UNK", "location": "", "intensity": 3.6, "intensity_flag": "", "intensity_stddev": 0.63, "pga": 2.328, "pgv": 1.02, "distance": 35.766, "elev": null, "vs30": 476.14, "channels": [{"name": "H1", "amplitudes": [{"name": "pga", "value": 1.911, "units": "%g", "flag": "0", "ln_sigma": 0.0}, {"name": "sa(3.0)", "value": "null", "units": "%g", "flag": "Glitch,0,Outlier", "ln_sigma": "null"}, {"name": "pgv", "value": 0.95, "units": "cm/s", "flag": "0", "ln_sigma": 0.0}, {"name": "sa(1.0)", "value": "null", "units": "%g", "flag": "Glitch,0,Outlier", "ln_sigma": "null"}, {"name": "sa(0.3)", "value": "null", "units": "%g", "flag": "Glitch,0,Outlier", "ln_sigma": "null"}]}, {"name": "UP", "amplitudes": [{"name": "pga", "value": 1.535, "units": "%g", "flag": "UnknownOrientation,0", "ln_sigma": 0.0}, {"name": "sa(3.0)", "value": "null", "units": "%g", "flag": "G,UnknownOrientation,0,Outlier", "ln_sigma": "null"}, {"name": "pgv", "value": 0.79, "units": "cm/s", "flag": "UnknownOrientation,0", "ln_sigma": 0.0}, {"name": "sa(1.0)", "value": "null", "units": "%g", "flag": "G,UnknownOrientation,0,Outlier", "ln_sigma": "null"}, {"name": "sa(0.3)", "value": "null", "units": "%g", "flag": "G,UnknownOrientation,0,Outlier", "ln_sigma": "null"}]}, {"name": "H2", "amplitudes": [{"name": "pga", "value": 2.328, "units": "%g", "flag": "0", "ln_sigma": 0.0}, {"name": "sa(3.0)", "value": "null", "units": "%g", "flag": "Glitch,0,Outlier", "ln_sigma": "null"}, {"name": "pgv", "value": 1.02, "units": "cm/s", "flag": "0", "ln_sigma": 0.0}, {"name": "sa(1.0)", "value": "null", "units": "%g", "flag": "Glitch,0,Outlier", "ln_sigma": "null"}, {"name": "sa(0.3)", "value": "null", "units": "%g", "flag": "Glitch,0,Outlier", "ln_sigma": "null"}]}], "station_type": "seismic", "nresp": "null", "predictions": [{"name": "pga", "value": 6.622, "value_rock": 5.4158, "value_soil": 9.1576, "units": "%g", "ln_tau": 0.339, "ln_phi": 0.5172, "ln_sigma": 0.6183, "ln_sigma_rock": 0.6251, "ln_sigma_soil": 0.5732, "ln_bias": 0.0921, "ln_bias_sigma": 0.1207}, {"name": "sa(0.3)", "value": 14.7389, "value_rock": 10.1271, "value_soil": 26.9129, "units": "%g", "ln_tau": 0.3175, "ln_phi": 0.5864, "ln_sigma": 0.6669, "ln_sigma_rock": 0.673, "ln_sigma_soil": 0.6121, "ln_bias": 0.0088, "ln_bias_sigma": 0.2412}, {"name": "sa(3.0)", "value": 0.9387, "value_rock": 0.5743, "value_soil": 2.4458, "units": "%g", "ln_tau": 0.3845, "ln_phi": 0.6163, "ln_sigma": 0.7265, "ln_sigma_rock": 0.7271, "ln_sigma_soil": 0.7268, "ln_bias": 0.0864, "ln_bias_sigma": 0.3049}, {"name": "pgv", "value": 4.9417, "value_rock": 3.5053, "value_soil": 9.1598, "units": "cm/s", "ln_tau": 0.3274, "ln_phi": 0.5259, "ln_sigma": 0.6195, "ln_sigma_rock": 0.6209, "ln_sigma_soil": 0.5892, "ln_bias": -0.2049, "ln_bias_sigma": 0.1303}, {"name": "sa(1.0)", "value": 4.7702, "value_rock": 2.9448, "value_soil": 11.4241, "units": "%g", "ln_tau": 0.3543, "ln_phi": 0.6331, "ln_sigma": 0.7255, "ln_sigma_rock": 0.7263, "ln_sigma_soil": 0.7069, "ln_bias": 0.0832, "ln_bias_sigma": 0.268}, {"name": "mmi", "value": 4.8846, "value_rock": 4.4133, "value_soil": 5.7316, "units": "intensity", "tau": 0.4493, "phi": 0.9581, "sigma": 1.0582, "sigma_rock": 1.0597, "sigma_soil": 1.0251, "bias": -0.0461, "bias_sigma": 0.2081}], "mmi_from_pgm": [{"name": "pga", "value": 3.52, "sigma": 0.66, "flag": "0"}, {"name": "sa(0.3)", "value": null, "sigma": null, "flag": "0"}, {"name": "sa(3.0)", "value": null, "sigma": null, "flag": "0"}, {"name": "pgv", "value": 3.59, "sigma": 0.63, "flag": "0"}, {"name": "sa(1.0)", "value": null, "sigma": null, "flag": "0"}], "distance_stddev": 0.0, "distances": {"repi": 48.254, "rhypo": 49.28, "rjb": 35.766, "rjb_var": 0.0, "rrup": 35.766, "rrup_var": 0.0, "rx": 30.102, "ry0": 19.114}}, "geometry": {"type": "Point", "coordinates": [47.67, 38.39]}}, {"type": "Feature", "id": "BHRC.24", "properties": {"code": "24", "name": "Razi-Khorasan", "instrumentType": "UNK", "source": "BHRC", "network": "BHRC", "commType": "UNK", "location": "", "intensity": 4.1, "intensity_flag": "", "intensity_stddev": 0.63, "pga": 4.65, "pgv": 2.25, "distance": 40.69, "elev": null, "vs30": 407.82, "channels": [{"name": "H1", "amplitudes": [{"name": "pga", "value": 3.671, "units": "%g", "flag": "0", "ln_sigma": 0.0}, {"name": "sa(3.0)", "value": "null", "units": "%g", "flag": "Glitch,0,Outlier", "ln_sigma": "null"}, {"name": "pgv", "value": 2.25, "units": "cm/s", "flag": "0", "ln_sigma": 0.0}, {"name": "sa(1.0)", "value": "null", "units": "%g", "flag": "Glitch,0,Outlier", "ln_sigma": "null"}, {"name": "sa(0.3)", "value": "null", "units": "%g", "flag": "Glitch,0,Outlier", "ln_sigma": "null"}]}, {"name": "UP", "amplitudes": [{"name": "pga", "value": 2.258, "units": "%g", "flag": "UnknownOrientation,0", "ln_sigma": 0.0}, {"name": "sa(3.0)", "value": "null", "units": "%g", "flag": "G,UnknownOrientation,0,Outlier", "ln_sigma": "null"}, {"name": "pgv", "value": 1.25, "units": "cm/s", "flag": "UnknownOrientation,0", "ln_sigma": 0.0}, {"name": "sa(1.0)", "value": "null", "units": "%g", "flag": "G,UnknownOrientation,0,Outlier", "ln_sigma": "null"}, {"name": "sa(0.3)", "va