{
   "type":"FeatureCollection",
   "features":[
      {
         "type":"Feature",
         "id":"INTENSITY.obs_2",
         "properties":{
            "code":"obs_2",
            "name":"Julumito (Intensity IX)",
            "instrumentType":"OBSERVED",
            "source":"INTENSITY",
            "network":"INTENSITY",
            "commType":"UNK",
            "location":"",
            "intensity":9.0,
            "intensity_flag":"0",
            "intensity_stddev":0.3,
            "pga":108.0771,
            "pgv":91.6274,
            "distance":16.845,
            "elev":null,
            "vs30":338.79,
            "channels":[
               
            ],
            "nresp":-1,
            "station_type":"macroseismic",
            "predictions":[
               {
                  "name":"mmi",
                  "value":6.1556,
                  "value_rock":5.7751,
                  "value_soil":6.2044,
                  "units":"intensity",
                  "tau":0.5469,
                  "phi":1.1675,
                  "sigma":1.2893,
                  "sigma_rock":1.3439,
                  "sigma_soil":1.2009,
                  "bias":0.7997,
                  "bias_sigma":0.3988
               },
               {
                  "name":"pgv",
                  "value":9.6433,
                  "value_rock":5.6748,
                  "value_soil":12.3502,
                  "units":"cm/s",
                  "ln_tau":0.3408,
                  "ln_phi":0.6346,
                  "ln_sigma":0.7203,
                  "ln_sigma_rock":0.7287,
                  "ln_sigma_soil":0.6739,
                  "ln_bias":0.5822,
                  "ln_bias_sigma":0.2632
               },
               {
                  "name":"pga",
                  "value":18.407,
                  "value_rock":14.5261,
                  "value_soil":18.9743,
                  "units":"%g",
                  "ln_tau":0.3403,
                  "ln_phi":0.5993,
                  "ln_sigma":0.6892,
                  "ln_sigma_rock":0.7285,
                  "ln_sigma_soil":0.6244,
                  "ln_bias":0.442,
                  "ln_bias_sigma":0.2537
               },
               {
                  "name":"sa(0.3)",
                  "value":31.2411,
                  "value_rock":19.1325,
                  "value_soil":35.5418,
                  "units":"%g",
                  "ln_tau":0.3183,
                  "ln_phi":0.6491,
                  "ln_sigma":0.723,
                  "ln_sigma_rock":0.7638,
                  "ln_sigma_soil":0.6406,
                  "ln_bias":0.4092,
                  "ln_bias_sigma":0.2577
               },
               {
                  "name":"sa(1.0)",
                  "value":7.7482,
                  "value_rock":3.6596,
                  "value_soil":11.5981,
                  "units":"%g",
                  "ln_tau":0.3738,
                  "ln_phi":0.6961,
                  "ln_sigma":0.7902,
                  "ln_sigma_rock":0.7968,
                  "ln_sigma_soil":0.759,
                  "ln_bias":0.6481,
                  "ln_bias_sigma":0.295
               },
               {
                  "name":"sa(3.0)",
                  "value":1.0281,
                  "value_rock":0.4611,
                  "value_soil":1.8948,
                  "units":"%g",
                  "ln_tau":0.4047,
                  "ln_phi":0.6732,
                  "ln_sigma":0.7855,
                  "ln_sigma_rock":0.7862,
                  "ln_sigma_soil":0.7859,
                  "ln_bias":0.7273,
                  "ln_bias_sigma":0.3302
               }
            ],
            "pgm_from_mmi":[
               {
                  "name":"pga",
                  "value":108.0771,
                  "units":"%g",
                  "ln_sigma":0.8059,
                  "flag":"0"
               },
               {
                  "name":"sa(0.3)",
                  "value":182.1931,
                  "units":"%g",
                  "ln_sigma":1.0131,
                  "flag":"0"
               },
               {
                  "name":"sa(3.0)",
                  "value":20.8287,
                  "units":"%g",
                  "ln_sigma":1.4737,
                  "flag":"0"
               },
               {
                  "name":"pgv",
                  "value":91.6274,
                  "units":"cm/s",
                  "ln_sigma":0.875,
                  "flag":"0"
               },
               {
                  "name":"sa(1.0)",
                  "value":104.061,
                  "units":"%g",
                  "ln_sigma":1.0822,
                  "flag":"0"
               }
            ],
            "distance_stddev":4.887,
            "distances":{
               "repi":4.182,
               "rhypo":22.591,
               "rjb":2.426,
               "rjb_var":1.916,
               "rrup":16.845,
               "rrup_var":23.881,
               "rx":0.0,
               "ry0":0.0,
               "rvolc":0.0
            }
         },
         "geometry":{
            "type":"Point",
            "coordinates":[
               -76.65,
               2.45
            ]
         }
      },
      {
         "type":"Feature",
         "id":"INTENSITY.obs_10",
         "properties":{
            "code":"obs_10",
            "name":"Buenaventura (Intensity IV)",
            "instrumentType":"OBSERVED",
            "source":"INTENSITY",
            "network":"INTENSITY",
            "commType":"UNK",
            "location":"",
            "intensity":4.0,
            "intensity_flag":"0",
            "intensity_stddev":0.3,
            "pga":1.5083,
            "pgv":1.6251,
            "distance":161.114,
            "elev":null,
            "vs30":760.0,
            "channels":[
               
            ],
            "nresp":-1,
            "station_type":"macroseismic",
            "predictions":[
               {
                  "name":"mmi",
                  "value":2.9719,
                  "value_rock":2.9719,
                  "value_soil":3.4156,
                  "units":"intensity",
                  "tau":0.2458,
                  "phi":0.7614,
                  "sigma":0.8001,
                  "sigma_rock":0.8004,
                  "sigma_soil":0.7942,
                  "bias":0.258,
                  "bias_sigma":0.2265
               },
               {
                  "name":"pgv",
                  "value":0.2115,
                  "value_rock":0.2115,
                  "value_soil":0.598,
                  "units":"cm/s",
                  "ln_tau":0.3452,
                  "ln_phi":0.5716,
                  "ln_sigma":0.6678,
                  "ln_sigma_rock":0.6675,
                  "ln_sigma_soil":0.6508,
                  "ln_bias":0.591,
                  "ln_bias_sigma":0.2652
               },
               {
                  "name":"pga",
                  "value":0.3275,
                  "value_rock":0.3275,
                  "value_soil":0.6331,
                  "units":"%g",
                  "ln_tau":0.3651,
                  "ln_phi":0.564,
                  "ln_sigma":0.6719,
                  "ln_sigma_rock":0.6727,
                  "ln_sigma_soil":0.6562,
                  "ln_bias":0.4768,
                  "ln_bias_sigma":0.2635
               },
               {
                  "name":"sa(0.3)",
                  "value":0.5378,
                  "value_rock":0.5378,
                  "value_soil":1.7023,
                  "units":"%g",
                  "ln_tau":0.3416,
                  "ln_phi":0.6314,
                  "ln_sigma":0.7179,
                  "ln_sigma_rock":0.7202,
                  "ln_sigma_soil":0.7058,
                  "ln_bias":0.4479,
                  "ln_bias_sigma":0.2696
               },
               {
                  "name":"sa(1.0)",
                  "value":0.1731,
                  "value_rock":0.1731,
                  "value_soil":0.7174,
                  "units":"%g",
                  "ln_tau":0.3772,
                  "ln_phi":0.6484,
                  "ln_sigma":0.7502,
                  "ln_sigma_rock":0.7511,
                  "ln_sigma_soil":0.7466,
                  "ln_bias":0.6553,
                  "ln_bias_sigma":0.2967
               },
               {
                  "name":"sa(3.0)",
                  "value":0.0265,
                  "value_rock":0.0265,
                  "value_soil":0.1095,
                  "units":"%g",
                  "ln_tau":0.4049,
                  "ln_phi":0.6219,
                  "ln_sigma":0.7421,
                  "ln_sigma_rock":0.7436,
                  "ln_sigma_soil":0.7436,
                  "ln_bias":0.7278,
                  "ln_bias_sigma":0.3303
               }
            ],
            "pgm_from_mmi":[
               {
                  "name":"pga",
                  "value":1.5083,
                  "units":"%g",
                  "ln_sigma":0.8059,
                  "flag":"0"
               },
               {
                  "name":"sa(0.3)",
                  "value":2.9332,
                  "units":"%g",
                  "ln_sigma":1.0131,
                  "flag":"0"
               },
               {
                  "name":"sa(3.0)",
                  "value":0.3987,
                  "units":"%g",
                  "ln_sigma":1.4737,
                  "flag":"0"
               },
               {
                  "name":"pgv",
                  "value":1.6251,
                  "units":"cm/s",
                  "ln_sigma":0.875,
                  "flag":"0"
               },
               {
                  "name":"sa(1.0)",
                  "value":1.866,
                  "units":"%g",
                  "ln_sigma":1.0822,
                  "flag":"0"
               }
            ],
            "distance_stddev":4.839,
            "distances":{
               "repi":164.233,
               "rhypo":165.727,
               "rjb":160.063,
               "rjb_var":15.379,
               "rrup":161.114,
               "rrup_var":23.415,
               "rx":0.0,
               "ry0":0.0,
               "rvolc":0.0
            }
         },
         "geometry":{
            "type":"Point",
            "coordinates":[
               -77.06,
               3.89
            ]
         }
      },
      {
         "type":"Feature",
         "id":"INTENSITY.OBS_2",
         "properties":{
            "code":"OBS_2",
            "name":"La Mercedes",
            "instrumentType":"OBSERVED",
            "source":"INTENSITY",
            "network":"INTENSITY",
            "commType":"UNK",
            "location":"",
            "intensity":7.0,
            "intensity_flag":"0",
            "intensity_stddev":0.3,
            "pga":30.5788,
            "pgv":21.336,
            "distance":17.975,
            "elev":null,
            "vs30":486.74,
            "channels":[
               
            ],
            "nresp":-1,
            "station_type":"macroseismic",
            "predictions":[
               {
                  "name":"mmi",
                  "value":5.8331,
                  "value_rock":5.5741,
                  "value_soil":6.0748,
                  "units":"intensity",
                  "tau":0.5692,
                  "phi":1.2038,
                  "sigma":1.3316,
                  "sigma_rock":1.3556,
                  "sigma_soil":1.2116,
                  "bias":0.8339,
                  "bias_sigma":0.4072
               },
               {
                  "name":"pgv",
                  "value":6.803,
                  "value_rock":4.9486,
                  "value_soil":11.147,
                  "units":"cm/s",
                  "ln_tau":0.3446,
                  "ln_phi":0.6489,
                  "ln_sigma":0.7348,
                  "ln_sigma_rock":0.7359,
                  "ln_sigma_soil":0.6793,
                  "ln_bias":0.5899,
                  "ln_bias_sigma":0.265
               },
               {
                  "name":"pga",
                  "value":14.7921,
                  "value_rock":12.5905,
                  "value_soil":17.1941,
                  "units":"%g",
                  "ln_tau":0.3543,
                  "ln_phi":0.6265,
                  "ln_sigma":0.7197,
                  "ln_sigma_rock":0.7369,
                  "ln_sigma_soil":0.6323,
                  "ln_bias":0.4618,
                  "ln_bias_sigma":0.2593
               },
               {
                  "name":"sa(0.3)",
                  "value":23.2471,
                  "value_rock":16.7427,
                  "value_soil":33.0872,
                  "units":"%g",
                  "ln_tau":0.3354,
                  "ln_phi":0.6805,
                  "ln_sigma":0.7587,
                  "ln_sigma_rock":0.7712,
                  "ln_sigma_soil":0.6474,
                  "ln_bias":0.4376,
                  "ln_bias_sigma":0.2665
               },
               {
                  "name":"sa(1.0)",
                  "value":5.0466,
                  "value_rock":3.2305,
                  "value_soil":10.6105,
                  "units":"%g",
                  "ln_tau":0.3767,
                  "ln_phi":0.7073,
                  "ln_sigma":0.8013,
                  "ln_sigma_rock":0.8026,
                  "ln_sigma_soil":0.763,
                  "ln_bias":0.6543,
                  "ln_bias_sigma":0.2964
               },
               {
                  "name":"sa(3.0)",
                  "value":0.6526,
                  "value_rock":0.4136,
                  "value_soil":1.7007,
                  "units":"%g",
                  "ln_tau":0.4048,
                  "ln_phi":0.6777,
                  "ln_sigma":0.7894,
                  "ln_sigma_rock":0.7902,
                  "ln_sigma_soil":0.7898,
                  "ln_bias":0.7275,
                  "ln_bias_sigma":0.3303
               }
            ],
            "pgm_from_mmi":[
               {
                  "name":"pga",
                  "value":30.5788,
                  "units":"%g",
                  "ln_sigma":0.8059,
                  "flag":"0"
               },
               {
                  "name":"sa(0.3)",
                  "value":59.3409,
                  "units":"%g",
                  "ln_sigma":1.0131,
                  "flag":"0"
               },
               {
                  "name":"sa(3.0)",
                  "value":4.5661,
                  "units":"%g",
                  "ln_sigma":1.4737,
                  "flag":"0"
               },
               {
                  "name":"pgv",
                  "value":21.336,
                  "units":"cm/s",
                  "ln_sigma":0.875,
                  "flag":"0"
               },
               {
                  "name":"sa(1.0)",
                  "value":21.4979,
                  "units":"%g",
                  "ln_sigma":1.0822,
                  "flag":"0"
               }
            ],
            "distance_stddev":5.12,
            "distances":{
               "repi":8.156,
               "rhypo":23.651,
               "rjb":5.623,
               "rjb_var":5.205,
               "rrup":17.975,
               "rrup_var":26.214,
               "rx":0.0,
               "ry0":0.0,
               "rvolc":0.0
            }
         },
         "geometry":{
            "type":"Point",
            "coordinates":[
               -76.7,
               2.533
            ]
         }
      },
      {
         "type":"Feature",
         "id":"INTENSITY.obs_6",
         "properties":{
            "code":"obs_6",
            "name":"El Zarzal (Intensity IX)",
            "instrumentType":"OBSERVED",
            "source":"INTENSITY",
            "network":"INTENSITY",
            "commType":"UNK",
            "location":"",
            "intensity":9.0,
            "intensity_flag":"0",
            "intensity_stddev":0.3,
            "pga":107.7716,
            "pgv":91.6274,
            "distance":17.019,
            "elev":null,
            "vs30":322.89,
            "channels":[
               
            ],
            "nresp":-1,
            "station_type":"macroseismic",
            "predictions":[
               {
                  "name":"mmi",
                  "value":6.1364,
                  "value_rock":5.7397,
                  "value_soil":6.1821,
                  "units":"intensity",
                  "tau":0.5438,
                  "phi":1.1666,
                  "sigma":1.2871,
                  "sigma_rock":1.3466,
                  "sigma_soil":1.2029,
                  "bias":0.7949,
                  "bias_sigma":0.3976
               },
               {
                  "name":"pgv",
                  "value":9.658,
                  "value_rock":5.5451,
                  "value_soil":12.1457,
                  "units":"cm/s",
                  "ln_tau":0.3399,
                  "ln_phi":0.6343,
                  "ln_sigma":0.7196,
                  "ln_sigma_rock":0.7301,
                  "ln_sigma_soil":0.6747,
                  "ln_bias":0.5802,
                  "ln_bias_sigma":0.2628
               },
               {
                  "name":"pga",
                  "value":18.1366,
                  "value_rock":14.1687,
                  "value_soil":18.6594,
                  "units":"%g",
                  "ln_tau":0.3384,
                  "ln_phi":0.5986,
                  "ln_sigma":0.6877,
                  "ln_sigma_rock":0.7305,
                  "ln_sigma_soil":0.6258,
                  "ln_bias":0.4392,
                  "ln_bias_sigma":0.2529
               },
               {
                  "name":"sa(0.3)",
                  "value":31.1713,
                  "value_rock":18.7013,
                  "value_soil":35.1376,
                  "units":"%g",
                  "ln_tau":0.3157,
                  "ln_phi":0.6465,
                  "ln_sigma":0.7195,
                  "ln_sigma_rock":0.7654,
                  "ln_sigma_soil":0.6416,
                  "ln_bias":0.4048,
                  "ln_bias_sigma":0.2563
               },
               {
                  "name":"sa(1.0)",
                  "value":7.8733,
                  "value_rock":3.5844,
                  "value_soil":11.4361,
                  "units":"%g",
                  "ln_tau":0.3731,
                  "ln_phi":0.6957,
                  "ln_sigma":0.7894,
                  "ln_sigma_rock":0.7978,
                  "ln_sigma_soil":0.7596,
                  "ln_bias":0.6465,
                  "ln_bias_sigma":0.2947
               },
               {
                  "name":"sa(3.0)",
                  "value":1.0572,
                  "value_rock":0.4531,
                  "value_soil":1.8621,
                  "units":"%g",
                  "ln_tau":0.4047,
                  "ln_phi":0.6738,
                  "ln_sigma":0.786,
                  "ln_sigma_rock":0.7867,
                  "ln_sigma_soil":0.7864,
                  "ln_bias":0.7273,
                  "ln_bias_sigma":0.3302
               }
            ],
            "pgm_from_mmi":[
               {
                  "name":"pga",
                  "value":107.7716,
                  "units":"%g",
                  "ln_sigma":0.8059,
                  "flag":"0"
               },
               {
                  "name":"sa(0.3)",
                  "value":181.9221,
                  "units":"%g",
                  "ln_sigma":1.0131,
                  "flag":"0"
               },
               {
                  "name":"sa(3.0)",
                  "value":20.8692,
                  "units":"%g",
                  "ln_sigma":1.4737,
                  "flag":"0"
               },
               {
                  "name":"pgv",
                  "value":91.6274,
                  "units":"cm/s",
                  "ln_sigma":0.875,
                  "flag":"0"
