{
   "type":"FeatureCollection",
   "features":[
      {
         "type":"Feature",
         "id":"C.PAP",
         "properties":{
            "code":"PAP",
            "name":"Papudo",
            "instrumentType":"UNK",
            "source":"C",
            "network":"C",
            "commType":"UNK",
            "location":"",
            "intensity":"null",
            "intensity_flag":"",
            "intensity_stddev":"null",
            "pga":"null",
            "pgv":"null",
            "distance":139.477,
            "elev":null,
            "vs30":866.33,
            "channels":[
               {
                  "name":"peak",
                  "amplitudes":[
                     {
                        "name":"pgv",
                        "value":24.79,
                        "units":"cm/s",
                        "flag":"UnknownOrientation,0,Outlier",
                        "ln_sigma":0.0
                     },
                     {
                        "name":"pga",
                        "value":42.0,
                        "units":"%g",
                        "flag":"UnknownOrientation,0,Outlier",
                        "ln_sigma":0.0
                     },
                     {
                        "name":"sa(1.0)",
                        "value":10.4,
                        "units":"%g",
                        "flag":"UnknownOrientation,0,Outlier",
                        "ln_sigma":0.0
                     },
                     {
                        "name":"sa(0.3)",
                        "value":166.5,
                        "units":"%g",
                        "flag":"UnknownOrientation,0,Outlier",
                        "ln_sigma":0.0
                     },
                     {
                        "name":"sa(3.0)",
                        "value":3.9,
                        "units":"%g",
                        "flag":"UnknownOrientation,0,Outlier",
                        "ln_sigma":0.0
                     }
                  ]
               }
            ],
            "station_type":"seismic",
            "nresp":"null",
            "predictions":[
               {
                  "name":"sa(3.0)",
                  "value":2.4696,
                  "value_rock":2.7044,
                  "value_soil":4.7797,
                  "units":"%g",
                  "ln_tau":0.4131,
                  "ln_phi":0.5957,
                  "ln_sigma":0.725,
                  "ln_sigma_rock":0.7669,
                  "ln_sigma_soil":0.7669,
                  "ln_bias":0.1583,
                  "ln_bias_sigma":0.1232
               },
               {
                  "name":"sa(0.3)",
                  "value":20.0593,
                  "value_rock":22.975,
                  "value_soil":40.3541,
                  "units":"%g",
                  "ln_tau":0.3632,
                  "ln_phi":0.6536,
                  "ln_sigma":0.7477,
                  "ln_sigma_rock":0.7484,
                  "ln_sigma_soil":0.7528,
                  "ln_bias":-0.4865,
                  "ln_bias_sigma":0.1022
               },
               {
                  "name":"sa(1.0)",
                  "value":8.8793,
                  "value_rock":9.8712,
                  "value_soil":20.6019,
                  "units":"%g",
                  "ln_tau":0.4378,
                  "ln_phi":0.6379,
                  "ln_sigma":0.7737,
                  "ln_sigma_rock":0.7825,
                  "ln_sigma_soil":0.7867,
                  "ln_bias":0.1955,
                  "ln_bias_sigma":0.108
               },
               {
                  "name":"pgv",
                  "value":8.5891,
                  "value_rock":9.5486,
                  "value_soil":19.9287,
                  "units":"cm/s",
                  "ln_tau":0.4378,
                  "ln_phi":0.81,
                  "ln_sigma":0.9207,
                  "ln_sigma_rock":0.9307,
                  "ln_sigma_soil":0.9356,
                  "ln_bias":-0.1475,
                  "ln_bias_sigma":0.1194
               },
               {
                  "name":"pga",
                  "value":8.4692,
                  "value_rock":9.9252,
                  "value_soil":12.3689,
                  "units":"%g",
                  "ln_tau":0.3652,
                  "ln_phi":0.5743,
                  "ln_sigma":0.6805,
                  "ln_sigma_rock":0.6813,
                  "ln_sigma_soil":0.6849,
                  "ln_bias":-0.0808,
                  "ln_bias_sigma":0.0874
               },
               {
                  "name":"mmi",
                  "value":5.5386,
                  "value_rock":5.7935,
                  "value_soil":6.1472,
                  "units":"intensity",
                  "tau":0.5868,
                  "phi":1.1345,
                  "sigma":1.2773,
                  "sigma_rock":1.2783,
                  "sigma_soil":1.2833,
                  "bias":-0.2356,
                  "bias_sigma":0.1491
               }
            ],
            "mmi_from_pgm":[
               {
                  "name":"sa(3.0)",
                  "value":null,
                  "sigma":null,
                  "flag":"0"
               },
               {
                  "name":"sa(0.3)",
                  "value":null,
                  "sigma":null,
                  "flag":"0"
               },
               {
                  "name":"sa(1.0)",
                  "value":null,
                  "sigma":null,
                  "flag":"0"
               },
               {
                  "name":"pgv",
                  "value":null,
                  "sigma":null,
                  "flag":"0"
               },
               {
                  "name":"pga",
                  "value":null,
                  "sigma":null,
                  "flag":"0"
               }
            ],
            "distance_stddev":0.0,
            "distances":{
               "repi":422.005,
               "rhypo":422.626,
               "rjb":135.797,
               "rjb_var":0.0,
               "rrup":139.477,
               "rrup_var":0.0,
               "rvolc":0.0
            }
         },
         "geometry":{
            "type":"Point",
            "coordinates":[
               -71.45,
               -32.52
            ]
         }
      },
      {
         "type":"Feature",
         "id":"C.CRMA",
         "properties":{
            "code":"CRMA",
            "name":"Santiago Maipu",
            "instrumentType":"UNK",
            "source":"C",
            "network":"C",
            "commType":"UNK",
            "location":"",
            "intensity":"null",
            "intensity_flag":"",
            "intensity_stddev":"null",
            "pga":"null",
            "pgv":"null",
            "distance":74.888,
            "elev":null,
            "vs30":289.01,
            "channels":[
               {
                  "name":"peak",
                  "amplitudes":[
                     {
                        "name":"pgv",
                        "value":44.13,
                        "units":"cm/s",
                        "flag":"UnknownOrientation,0,Outlier",
                        "ln_sigma":0.0
                     },
                     {
                        "name":"pga",
                        "value":56.2,
                        "units":"%g",
                        "flag":"UnknownOrientation,0,Outlier",
                        "ln_sigma":0.0
                     },
                     {
                        "name":"sa(1.0)",
                        "value":49.8,
                        "units":"%g",
                        "flag":"UnknownOrientation,0,Outlier",
                        "ln_sigma":0.0
                     },
                     {
                        "name":"sa(0.3)",
                        "value":122.0,
                        "units":"%g",
                        "flag":"UnknownOrientation,0,Outlier",
                        "ln_sigma":0.0
                     },
                     {
                        "name":"sa(3.0)",
                        "value":10.5,
                        "units":"%g",
                        "flag":"UnknownOrientation,0,Outlier",
                        "ln_sigma":0.0
                     }
                  ]
               }
            ],
            "station_type":"seismic",
            "nresp":"null",
            "predictions":[
               {
                  "name":"sa(3.0)",
                  "value":6.0866,
                  "value_rock":4.1868,
                  "value_soil":7.3998,
                  "units":"%g",
                  "ln_tau":0.4131,
                  "ln_phi":0.5957,
                  "ln_sigma":0.725,
                  "ln_sigma_rock":0.7669,
                  "ln_sigma_soil":0.7669,
                  "ln_bias":0.1583,
                  "ln_bias_sigma":0.1232
               },
               {
                  "name":"sa(0.3)",
                  "value":73.755,
                  "value_rock":47.9791,
                  "value_soil":73.5687,
                  "units":"%g",
                  "ln_tau":0.3632,
                  "ln_phi":0.6536,
                  "ln_sigma":0.7477,
                  "ln_sigma_rock":0.7484,
                  "ln_sigma_soil":0.7528,
                  "ln_bias":-0.4865,
                  "ln_bias_sigma":0.1022
               },
               {
                  "name":"sa(1.0)",
                  "value":30.263,
                  "value_rock":17.229,
                  "value_soil":34.352,
                  "units":"%g",
                  "ln_tau":0.4378,
                  "ln_phi":0.6379,
                  "ln_sigma":0.7737,
                  "ln_sigma_rock":0.7825,
                  "ln_sigma_soil":0.7867,
                  "ln_bias":0.1955,
                  "ln_bias_sigma":0.108
               },
               {
                  "name":"pgv",
                  "value":29.2978,
                  "value_rock":16.6794,
                  "value_soil":33.2564,
                  "units":"cm/s",
                  "ln_tau":0.4378,
                  "ln_phi":0.81,
                  "ln_sigma":0.9207,
                  "ln_sigma_rock":0.9307,
                  "ln_sigma_soil":0.9356,
                  "ln_bias":-0.1475,
                  "ln_bias_sigma":0.1194
               },
               {
                  "name":"pga",
                  "value":22.3989,
                  "value_rock":20.6785,
                  "value_soil":23.86,
                  "units":"%g",
                  "ln_tau":0.3652,
                  "ln_phi":0.5743,
                  "ln_sigma":0.6805,
                  "ln_sigma_rock":0.6813,
                  "ln_sigma_soil":0.6849,
                  "ln_bias":-0.0808,
                  "ln_bias_sigma":0.0874
               },
               {
                  "name":"mmi",
                  "value":6.8259,
                  "value_rock":6.6975,
                  "value_soil":6.9275,
                  "units":"intensity",
                  "tau":0.5868,
                  "phi":1.1345,
                  "sigma":1.2773,
                  "sigma_rock":1.2783,
                  "sigma_soil":1.2833,
                  "bias":-0.2356,
                  "bias_sigma":0.1491
               }
            ],
            "mmi_from_pgm":[
               {
                  "name":"sa(3.0)",
                  "value":null,
                  "sigma":null,
                  "flag":"0"
               },
               {
                  "name":"sa(0.3)",
                  "value":null,
                  "sigma":null,
                  "flag":"0"
               },
               {
                  "name":"sa(1.0)",
                  "value":null,
                  "sigma":null,
                  "flag":"0"
               },
               {
                  "name":"pgv",
                  "value":null,
                  "sigma":null,
                  "flag":"0"
               },
               {
                  "name":"pga",
                  "value":null,
                  "sigma":null,
                  "flag":"0"
               }
            ],
            "distance_stddev":0.0,
            "distances":{
               "repi":348.897,
               "rhypo":349.648,
               "rjb":53.816,
               "rjb_var":0.0,
               "rrup":74.888,
               "rrup_var":0.0,
               "rvolc":0.0
            }
         },
         "geometry":{
            "type":"Point",
            "coordinates":[
               -70.767,
               -33.517
            ]
         }
      },
      {
         "type":"Feature",
         "id":"C.m2ar",
         "properties":{
            "code":"m2ar",
            "name":"Vina Del Mar  El Salt",
            "instrumentType":"UNK",
            "source":"C",
            "network":"C",
            "commType":"UNK",
            "location":"",
            "intensity":"null",
            "intensity_flag":"",
            "intensity_stddev":"null",
            "pga":"null",
            "pgv":"null",
            "distance":85.771,
            "elev":null,
            "vs30":604.2,
            "channels":[
               {
                  "name":"peak",
                  "amplitudes":[
                     {
                        "name":"pgv",
                        "value":44.58,
                        "units":"cm/s",
                        "flag":"UnknownOrientation,0,Outlier",
                        "ln_sigma":0.0
                     },
                     {
                        "name":"pga",
                        "value":35.3,
                        "units":"%g",
                        "flag":"UnknownOrientation,0,Outlier",
                        "ln_sigma":0.0
                     },
                     {
                        "name":"sa(1.0)",
                        "value":12.8,
                        "units":"%g",
                        "flag":"UnknownOrientation,0,Outlier",
                        "ln_sigma":0.0
                     },
                     {
                        "name":"sa(0.3)",
                        "value":66.9,
                        "units":"%g",
                        "flag":"UnknownOrientation,0,Outlier",
                        "ln_sigma":0.0
                     },
                     {
                        "name":"sa(3.0)",
                        "value":7.3,
                        "units":"%g",
                        "flag":"UnknownOrientation,0,Outlier",
                        "ln_sigma":0.0
                     }
                  ]
               }
            ],
            "station_type":"seismic",
            "nresp":"null",
            "predictions":[
               {
                  "name":"sa(3.0)",
                  "value":3.9351,
                  "value_rock":3.8343,
                  "value_soil":6.7768,
                  "units":"%g",
                  "ln_tau":0.4131,
                  "ln_phi":0.5957,
                  "ln_sigma":0.725,
                  "ln_sigma_rock":0.7669,
                  "ln_sigma_soil":0.7669,
                  "ln_bias":0.1583,
                  "ln_bias_sigma":0.1232
               },
               {
                  "name":"sa(0.3)",
                  "value":44.0901,
                  "value_rock":41.7868,
                  "value_soil":66.5252,
                  "units":"%g",
                  "ln_tau":0.3632,
                  "ln_phi":0.6536,
                  "ln_sigma":0.7477,
                  "ln_sigma_rock":0.7484,
                  "ln_sigma_soil":0.7528,
                  "ln_bias":-0.4865,
                  "ln_bias_sigma":0.1022
               },
               {
                  "name":"sa(1.0)",
                  "value":16.2832,
                  "value_rock":15.4519,
                  "value_soil":31.1807,
                  "units":"%g",
                  "ln_tau":0.4378,
                  "ln_phi":0.6379,
                  "ln_sigma":0.7737,
                  "ln_sigma_rock":0.7825,
                  "ln_sigma_soil":0.7867,
                  "ln_bias":0.1955,
                  "ln_bias_sigma":0.108
               },
               {
                  "name":"pgv",
                  "value":15.7611,
                  "value_rock":14.9564,
                  "value_soil":30.1809,
                  "units":"cm/s",
                  "ln_tau":0.4378,
                  "ln_phi":0.81,
                  "ln_sigma":0.9207,
                  "ln_sigma_rock":0.9307,
                  "ln_sigma_soil":0.9356,
                  "ln_bias":-0.1475,
                  "ln_bias_sigma":0.1194
               },
               {
                  "name":"pga",
                  "value":18.2917,
                  "value_rock":17.9445,
                  "value_soil":21.1162,
                  "units":"%g",
                  "ln_tau":0.3652,
                  "ln_phi":0.5743,
                  "ln_sigma":0.6805,
                  "ln_sigma_rock":0.6813,
                  "ln_sigma_soil":0.6849,
                  "ln_bias":-0.0808,
                  "ln_bias_sigma":0.0874
               },
               {
                  "name":"mmi",
                  "value":6.5605,
                  "value_rock":6.5297,
                  "value_soil":6.7913,
                  "units":"intensity",
                  "tau":0.5868,
                  "phi":1.1345,
                  "sigma":1.2773,
                  "sigma_rock":1.2783,
                  "sigma_soil":1.2833,
                  "bias":-0.2356,
                  "bias_sigma":0.1491
               }
            ],
            "mmi_from_pgm":[
               {
                  "name":"sa(3.0)",
                  "value":null,
                  "sigma":null,
                  "flag":"0"
               },
               {
                  "name":"sa(0.3)",
                  "value":null,
                  "sigma":null,
                  "flag":"0"
               },
               {
                  "name":"sa(1.0)",
                  "value":null,
                  "sigma":null,
                  "flag":"0"
               },
               {
                  "name":"pgv",
                  "value":null,
                  "sigma":null,
                  "flag":"0"
               },
               {
                  "name":"pga",
                  "value":null,
                  "sigma":null,
                  "flag":"0"
               }
            ],
            "distance_stddev":0.0,
            "distances":{
               "repi":364.758,
               "rhypo":365.476,
               "rjb":78.019,
               "rjb_var":0.0,
               "rrup":85.771,
               "rrup_var":0.0,
               "rvolc":0.0
            }
         },
         "geometry":{
            "type":"Point",
            "coordinates":[
               -71.51,
               -33.047
            ]
         }
      },
      {
         "type":"Feature",
         "id":"C.LLO",
         "properties":{
            "code":"LLO",
            "name":"Llolleo",
            "instrumentType":"UNK",
            "source":"C",
            "network":"C",
            "commType":"UNK",
            "location":"",
            "intensity":"null",
            "intensity_flag":"",
            "intensity_stddev":"null",
            "pga":"null",
            "pgv":"null",
            "distance":41.246,
            "elev":null,
            "vs30":480.69,
            "channels":[
               {
                  "name":"peak",
                  "amplitudes":[
                     {
                        "name":"pgv",
                        "value":30.95,
                        "units":"cm/s",
                        "flag":"UnknownOrientation,0,Outlier",
                        "ln_sigma":0.0
                     },
                     {
                        "name":"pga",
