{"type": "FeatureCollection", "features": [{"type": "Feature", "id": "DYFI.UTM:(34T 0620 4895 5000)", "properties": {"code": "UTM:(34T 0620 4895 5000)", "name": null, "instrumentType": "OBSERVED", "source": "DYFI", "network": "DYFI", "commType": "UNK", "location": "", "intensity": 4.2, "intensity_flag": "0", "intensity_stddev": 0.3, "pga": 2.1274, "pgv": 2.223, "distance": 150.048, "elev": null, "vs30": 760.0, "channels": [], "nresp": -1, "station_type": "macroseismic", "predictions": [{"name": "mmi", "value": 2.6011, "value_rock": 2.6011, "value_soil": 3.25, "units": "intensity", "tau": 0.2525, "phi": 0.7403, "sigma": 0.7821, "sigma_rock": 0.7841, "sigma_soil": 0.7826, "bias": 0.1097, "bias_sigma": 0.1921}, {"name": "pga", "value": 0.2876, "value_rock": 0.2876, "value_soil": 0.4822, "units": "%g", "ln_tau": 0.4084, "ln_phi": 0.6015, "ln_sigma": 0.727, "ln_sigma_rock": 0.7291, "ln_sigma_soil": 0.7258, "ln_bias": 0.1776, "ln_bias_sigma": 0.3187}, {"name": "sa(0.3)", "value": 0.4693, "value_rock": 0.4693, "value_soil": 1.3224, "units": "%g", "ln_tau": 0.3937, "ln_phi": 0.6736, "ln_sigma": 0.7802, "ln_sigma_rock": 0.7812, "ln_sigma_soil": 0.7775, "ln_bias": 0.0948, "ln_bias_sigma": 0.3315}, {"name": "sa(1.0)", "value": 0.1545, "value_rock": 0.1545, "value_soil": 0.6212, "units": "%g", "ln_tau": 0.4363, "ln_phi": 0.6821, "ln_sigma": 0.8097, "ln_sigma_rock": 0.8129, "ln_sigma_soil": 0.8109, "ln_bias": 0.1144, "ln_bias_sigma": 0.362}, {"name": "sa(3.0)", "value": 0.0319, "value_rock": 0.0319, "value_soil": 0.1025, "units": "%g", "ln_tau": 0.4446, "ln_phi": 0.6647, "ln_sigma": 0.7996, "ln_sigma_rock": 0.8024, "ln_sigma_soil": 0.8024, "ln_bias": 0.1333, "ln_bias_sigma": 0.3903}, {"name": "pgv", "value": 0.1817, "value_rock": 0.1817, "value_soil": 0.5019, "units": "cm/s", "ln_tau": 0.3955, "ln_phi": 0.6089, "ln_sigma": 0.726, "ln_sigma_rock": 0.7313, "ln_sigma_soil": 0.7273, "ln_bias": 0.1682, "ln_bias_sigma": 0.3195}], "pgm_from_mmi": [{"name": "sa(1.0)", "value": 2.4736, "units": "%g", "ln_sigma": 1.0822, "flag": "0"}, {"name": "pgv", "value": 2.223, "units": "cm/s", "ln_sigma": 0.875, "flag": "0"}, {"name": "sa(3.0)", "value": 0.5709, "units": "%g", "ln_sigma": 1.4737, "flag": "0"}, {"name": "pga", "value": 2.1274, "units": "%g", "ln_sigma": 0.8059, "flag": "0"}, {"name": "sa(0.3)", "value": 3.9505, "units": "%g", "ln_sigma": 1.0131, "flag": "0"}], "distance_stddev": 2.097, "distances": {"repi": 153.097, "rhypo": 153.1, "rjb": 150.206, "rjb_var": 4.38, "rrup": 150.048, "rrup_var": 4.398, "rx": 0.0, "ry0": 0.0, "rvolc": 0.0}}, "geometry": {"type": "Point", "coordinates": [22.5336, 44.2204]}}, {"type": "Feature", "id": "DYFI.UTM:(34T 0490 4945 5000)", "properties": {"code": "UTM:(34T 0490 4945 5000)", "name": null, "instrumentType": "OBSERVED", "source": "DYFI", "network": "DYFI", "commType": "UNK", "location": "", "intensity": 3.8, "intensity_flag": "0", "intensity_stddev": 0.3, "pga": "null", "pgv": "null", "distance": 100.352, "elev": null, "vs30": 760.0, "channels": [], "nresp": -1, "station_type": "macroseismic", "predictions": [{"name": "mmi", "value": 2.9522, "value_rock": 2.9522, "value_soil": 3.5975, "units": "intensity", "tau": 0.2525, "phi": 0.7399, "sigma": 0.7818, "sigma_rock": 0.7838, "sigma_soil": 0.7822, "bias": 0.1097, "bias_sigma": 0.1921}, {"name": "pga", "value": 0.5807, "value_rock": 0.5807, "value_soil": 0.9653, "units": "%g", "ln_tau": 0.4084, "ln_phi": 0.6003, "ln_sigma": 0.726, "ln_sigma_rock": 0.7281, "ln_sigma_soil": 0.7242, "ln_bias": 0.1776, "ln_bias_sigma": 0.3187}, {"name": "sa(0.3)", "value": 0.8933, "value_rock": 0.8933, "value_soil": 2.4849, "units": "%g", "ln_tau": 0.3937, "ln_phi": 0.6714, "ln_sigma": 0.7783, "ln_sigma_rock": 0.779, "ln_sigma_soil": 0.7746, "ln_bias": 0.0948, "ln_bias_sigma": 0.3315}, {"name": "sa(1.0)", "value": 0.2586, "value_rock": 0.2586, "value_soil": 1.0315, "units": "%g", "ln_tau": 0.4363, "ln_phi": 0.681, "ln_sigma": 0.8087, "ln_sigma_rock": 0.8118, "ln_sigma_soil": 0.8096, "ln_bias": 0.1144, "ln_bias_sigma": 0.362}, {"name": "sa(3.0)", "value": 0.052, "value_rock": 0.052, "value_soil": 0.1668, "units": "%g", "ln_tau": 0.4446, "ln_phi": 0.6634, "ln_sigma": 0.7986, "ln_sigma_rock": 0.8012, "ln_sigma_soil": 0.8013, "ln_bias": 0.1333, "ln_bias_sigma": 0.3903}, {"name": "pgv", "value": 0.3149, "value_rock": 0.3149, "value_soil": 0.8651, "units": "cm/s", "ln_tau": 0.3955, "ln_phi": 0.6077, "ln_sigma": 0.7251, "ln_sigma_rock": 0.7303, "ln_sigma_soil": 0.7261, "ln_bias": 0.1682, "ln_bias_sigma": 0.3195}], "pgm_from_mmi": [{"name": "sa(1.0)", "value": null, "units": "%g", "ln_sigma": null, "flag": "0"}, {"name": "pgv", "value": null, "units": "cm/s", "ln_sigma": null, "flag": "0"}, {"name": "sa(3.0)", "value": null, "units": "%g", "ln_sigma": null, "flag": "0"}, {"name": "pga", "value": null, "units": "%g", "ln_sigma": null, "flag": "0"}, {"name": "sa(0.3)", "value": null, "units": "%g", "ln_sigma": null, "flag": "0"}], "distance_stddev": 2.116, "distances": {"repi": 103.338, "rhypo": 103.342, "rjb": 100.457, "rjb_var": 4.365, "rrup": 100.352, "rrup_var": 4.477, "rx": 0.0, "ry0": 0.0, "rvolc": 0.0}}, "geometry": {"type": "Point", "coordinates": [20.9054, 44.6808]}}, {"type": "Feature", "id": "DYFI.UTM:(34T 0285 4855 5000)", "properties": {"code": "UTM:(34T 0285 4855 5000)", "name": null, "instrumentType": "OBSERVED", "source": "DYFI", "network": "DYFI", "commType": "UNK", "location": "", "intensity": 3.2, "intensity_flag": "0", "intensity_stddev": 0.3, "pga": "null", "pgv": "null", "distance": 187.597, "elev": null, "vs30": 760.0, "channels": [], "nresp": -1, "station_type": "macroseismic", "predictions": [{"name": "mmi", "value": 2.4027, "value_rock": 2.4027, "value_soil": 3.0528, "units": "intensity", "tau": 0.2525, "phi": 0.7405, "sigma": 0.7824, "sigma_rock": 0.7844, "sigma_soil": 0.7829, "bias": 0.1097, "bias_sigma": 0.1921}, {"name": "pga", "value": 0.1894, "value_rock": 0.1894, "value_soil": 0.3184, "units": "%g", "ln_tau": 0.4084, "ln_phi": 0.6026, "ln_sigma": 0.7279, "ln_sigma_rock": 0.73, "ln_sigma_soil": 0.7268, "ln_bias": 0.1776, "ln_bias_sigma": 0.3187}, {"name": "sa(0.3)", "value": 0.3208, "value_rock": 0.3208, "value_soil": 0.908, "units": "%g", "ln_tau": 0.3937, "ln_phi": 0.6751, "ln_sigma": 0.7815, "ln_sigma_rock": 0.7826, "ln_sigma_soil": 0.7791, "ln_bias": 0.0948, "ln_bias_sigma": 0.3315}, {"name": "sa(1.0)", "value": 0.1154, "value_rock": 0.1154, "value_soil": 0.4653, "units": "%g", "ln_tau": 0.4363, "ln_phi": 0.6833, "ln_sigma": 0.8107, "ln_sigma_rock": 0.814, "ln_sigma_soil": 0.8121, "ln_bias": 0.1144, "ln_bias_sigma": 0.362}, {"name": "sa(3.0)", "value": 0.0242, "value_rock": 0.0242, "value_soil": 0.078, "units": "%g", "ln_tau": 0.4446, "ln_phi": 0.667, "ln_sigma": 0.8016, "ln_sigma_rock": 0.8045, "ln_sigma_soil": 0.8045, "ln_bias": 0.1333, "ln_bias_sigma": 0.3903}, {"name": "pgv", "value": 0.1331, "value_rock": 0.1331, "value_soil": 0.3686, "units": "cm/s", "ln_tau": 0.3955, "ln_phi": 0.6097, "ln_sigma": 0.7267, "ln_sigma_rock": 0.732, "ln_sigma_soil": 0.7281, "ln_bias": 0.1682, "ln_bias_sigma": 0.3195}], "pgm_from_mmi": [{"name": "sa(1.0)", "value": null, "units": "%g", "ln_sigma": null, "flag": "0"}, {"name": "pgv", "value": null, "units": "cm/s", "ln_sigma": null, "flag": "0"}, {"name": "sa(3.0)", "value": null, "units": "%g", "ln_sigma": null, "flag": "0"}, {"name": "pga", "value": null, "units": "%g", "ln_sigma": null, "flag": "0"}, {"name": "sa(0.3)", "value": null, "units": "%g", "ln_sigma": null, "flag": "0"}], "distance_stddev": 2.09, "distances": {"repi": 190.673, "rhypo": 190.675, "rjb": 187.778, "rjb_var": 4.386, "rrup": 187.597, "rrup_var": 4.366, "rx": 0.0, "ry0": 0.0, "rvolc": 0.0}}, "geometry": {"type": "Point", "coordinates": [18.3567, 43.84]}}, {"type": "Feature", "id": "DYFI.UTM:(34T 0685 4725 5000)", "properties": {"code": "UTM:(34T 0685 4725 5000)", "name": null, "instrumentType": "OBSERVED", "source": "DYFI", "network": "DYFI", "commType": "UNK", "location": "", "intensity": 2.4, "intensity_flag": "0", "intensity_stddev": 0.3, "pga": "null", "pgv": "null", "distance": 236.634, "elev": null, "vs30": 760.0, "channels": [], "nresp": -1, "station_type": "macroseismic", "predictions": [{"name": "mmi", "value": 2.1927, "value_rock": 2.1927, "value_soil": 2.8438, "units": "intensity", "tau": 0.2525, "phi": 0.7409, "sigma": 0.7827, "sigma_rock": 0.7847, "sigma_soil": 0.7832, "bias": 0.1097, "bias_sigma": 0.1921}, {"name": "pga", "value": 0.1194, "value_rock": 0.1194, "value_soil": 0.2011, "units": "%g", "ln_tau": 0.4084, "ln_phi": 0.6037, "ln_sigma": 0.7289, "ln_sigma_rock": 0.731, "ln_sigma_soil": 0.7279, "ln_bias": 0.1776, "ln_bias_sigma": 0.3187}, {"name": "sa(0.3)", "value": 0.211, "value_rock": 0.211, "value_soil": 0.5993, "units": "%g", "ln_tau": 0.3937, "ln_phi": 0.6767, "ln_sigma": 0.7829, "ln_sigma_rock": 0.7841, "ln_sigma_soil": 0.7807, "ln_bias": 0.0948, "ln_bias_sigma": 0.3315}, {"name": "sa(1.0)", "value": 0.0847, "value_rock": 0.0847, "value_soil": 0.3421, "units": "%g", "ln_tau": 0.4363, "ln_phi": 0.6846, "ln_sigma": 0.8118, "ln_sigma_rock": 0.8152, "ln_sigma_soil": 0.8133, "ln_bias": 0.1144, "ln_bias_sigma": 0.362}, {"name": "sa(3.0)", "value": 0.0182, "value_rock": 0.0182, "value_soil": 0.0585, "units": "%g", "ln_tau": 0.4446, "ln_phi": 0.6674, "ln_sigma": 0.8019, "ln_sigma_rock": 0.8048, "ln_sigma_soil": 0.8048, "ln_bias": 0.1333, "ln_bias_sigma": 0.3903}, {"name": "pgv", "value": 0.0958, "value_rock": 0.0958, "value_soil": 0.2657, "units": "cm/s", "ln_tau": 0.3955, "ln_phi": 0.6106, "ln_sigma": 0.7275, "ln_sigma_rock": 0.7328, "ln_sigma_soil": 0.7289, "ln_bias": 0.1682, "ln_bias_sigma": 0.3195}], "pgm_from_mmi": [{"name": "sa(1.0)", "value": null, "units": "%g", "ln_sigma": null, "flag": "0"}, {"name": "pgv", "value": null, "units": "cm/s", "ln_sigma": null, "flag": "0"}, {"name": "sa(3.0)", "value": null, "units": "%g", "ln_sigma": null, "flag": "0"}, {"name": "pga", "value": null, "units": "%g", "ln_sigma": null, "flag": "0"}, {"name": "sa(0.3)", "value": null, "units": "%g", "ln_sigma": null, "flag": "0"}], "distance_stddev": 2.084, "distances": {"repi": 239.73, "rhypo": 239.732, "rjb": 236.832, "rjb_var": 4.391, "rrup": 236.634, "rrup_var": 4.343, "rx": 0.0, "ry0": 0.0, "rvolc": 0.0}}, "geometry": {"type": "Point", "coordinates": [23.2884, 42.6771]}}, {"type": "Feature", "id": "DYFI.UTM:(34T 0470 4840 5000)", "properties": {"code": "UTM:(34T 0470 4840 5000)", "name": null, "instrumentType": "OBSERVED", "source": "DYFI", "network": "DYFI", "commType": "UNK", "location": "", "intensity": 6.1, "intensity_flag": "0", "intensity_stddev": 0.3, "pga": 20.5298, "pgv": 11.074, "distance": 5.13, "elev": null, "vs30": 275.65, "channels": [], "nresp": -1, "station_type": "macroseismic", "predictions": [{"name": "mmi", "value": 6.7898, "value_rock": 5.9324, "value_soil": 7.0635, "units": "intensity", "tau": 0.5394, "phi": 1.1001, "sigma": 1.2252, "sigma_rock": 1.2377, "sigma_soil": 1.2195, "bias": 0.2003, "bias_sigma": 0.2596}, {"name": "pga", "value": 28.7284, "value_rock": 23.1384, "value_soil": 28.7332, "units": "%g", "ln_tau": 0.3978, "ln_phi": 0.6265, "ln_sigma": 0.7421, "ln_sigma_rock": 0.7614, "ln_sigma_soil": 0.7296, "ln_bias": 0.1719, "ln_bias_sigma": 0.3136}, {"name": "sa(0.3)", "value": 54.5386, "value_rock": 32.1376, "value_soil": 57.5201, "units": "%g", "ln_tau": 0.382, "ln_phi": 0.6967, "ln_sigma": 0.7946, "ln_sigma_rock": 0.8165, "ln_sigma_soil": 0.7741, "ln_bias": 0.0908, "ln_bias_sigma": 0.3244}, {"name": "sa(1.0)", "value": 15.7358, "value_rock": 6.6481, "value_soil": 20.732, "units": "%g", "ln_tau": 0.4339, "ln_phi": 0.7287, "ln_sigma": 0.8481, "ln_sigma_rock": 0.8562, "ln_sigma_soil": 0.842, "ln_bias": 0.1135, "ln_bias_sigma": 0.3606}, {"name": "sa(3.0)", "value": 2.1098, "value_rock": 0.9805, "value_soil": 2.8791, "units": "%g", "ln_tau": 0.4445, "ln_phi": 0.6971, "ln_sigma": 0.8268, "ln_sigma_rock": 0.8299, "ln_sigma_soil": 0.8292, "ln_bias": 0.1332, "ln_bias_sigma": 0.3902}, {"name": "pgv", "value": 18.3064, "value_rock": 9.8012, "value_soil": 22.3461, "units": "cm/s", "ln_tau": 0.393, "ln_phi": 0.6571, "ln_sigma": 0.7657, "ln_sigma_rock": 0.7763, "ln_sigma_soil": 0.7609, "ln_bias": 0.1668, "ln_bias_sigma": 0.3182}], "pgm_from_mmi": [{"name": "sa(1.0)", "value": 9.5284, "units": "%g", "ln_sigma": 1.0822, "flag": "0"}, {"name": "pgv", "value": 11.074, "units": "cm/s", "ln_sigma": 0.875, "flag": "0"}, {"name": "sa(3.0)", "value": 2.0527, "units": "%g", "ln_sigma": 1.4737, "flag": "0"}, {"name": "pga", "value": 20.5298, "units": "%g", "ln_sigma": 0.8059, "flag": "0"}, {"name": "sa(0.3)", "value": 39.1626, "units": "%g", "ln_sigma": 1.0131, "flag": "0"}], "distance_stddev": 2.318, "distances": {"repi": 6.381, "rhypo": 6.444, "rjb": 4.011, "rjb_var": 2.773, "rrup": 5.13, "rrup_var": 5.373, "rx": 0.0, "ry0": 0.0, "rvolc": 0.0}}, "geometry": {"type": "Point", "coordinates": [20.6585, 43.735]}}, {"type": "Feature", "id": "DYFI.UTM:(34T 0315 5045 5000)", "properties": {"code": "UTM:(34T 0315 5045 5000)", "name": null, "instrumentType": "OBSERVED", "source": "DYFI", "network": "DYFI", "commType": "UNK", "location": "", "intensity": 2.6, "intensity_flag": "0", "intensity_stddev": 0.3, "pga": "null", "pgv": "null", "distance": 255.127, "elev": null, "vs30": 760.0, "channels": [], "nresp": -1, "station_type": "macroseismic", "predictions": [{"name": "mmi", "value": 2.1237, "value_rock": 2.1237, "value_soil": 2.7749, "units": "intensity", "tau": 0.2525, "phi": 0.741, "sigma": 0.7828, "sigma_rock": 0.7848, "sigma_soil": 0.7833, "bias": 0.1097, "bias_sigma": 0.1921}, {"name": "pga", "value": 0.1021, "value_rock": 0.1021, "value_soil": 0.1721, "units": "%g", "ln_tau": 0.4084, "ln_phi": 0.6041, "ln_sigma": 0.7292, "ln_sigma_rock": 0.7314, "ln_sigma_soil": 0.7282, "ln_bias": 0.1776, "ln_bias_sigma": 0.3187}, {"name": "sa(0.3)", "value": 0.1831, "value_rock": 0.1831, "value_soil": 0.5205, "units": "%g", "ln_tau": 0.3937, "ln_phi": 0.6772, "ln_sigma": 0.7833, "ln_sigma_rock": 0.7846, "ln_sigma_soil": 0.7812, "ln_bias": 0.0948, "ln_bias_sigma": 0.3315}, {"name": "sa(1.0)", "value": 0.0765, "value_rock": 0.0765, "value_soil": 0.3091, "units": "%g", "ln_tau": 0.4363, "ln_phi": 0.685, "ln_sigma": 0.8122, "ln_sigma_rock": 0.8156, "ln_sigma_soil": 0.8137, "ln_bias": 0.1144, "ln_bias_sigma": 0.362}, {"name": "sa(3.0)", "value": 0.0165, "value_rock": 0.0165, "value_soil": 0.0533, "units": "%g", "ln_tau": 0.4446, "ln_phi": 0.6674, "ln_sigma": 0.8019, "ln_sigma_rock": 0.8048, "ln_sigma_soil": 0.8048, "ln_bias": 0.1333, "ln_bias_sigma": 0.3903}, {"name": "pgv", "value": 0.086, "value_rock": 0.086, "value_soil": 0.2385, "units": "cm/s", "ln_tau": 0.3955, "ln_phi": 0.6109, "ln_sigma": 0.7278, "ln_sigma_rock": 0.7331, "ln_sigma_soil": 0.7292, "ln_bias": 0.1682, "ln_bias_sigma": 0.3195}], "pgm_from_mmi": [{"name": "sa(1.0)", "value": null, "units": "%g", "ln_sigma": null, "flag": "0"}, {"name": "pgv", "value": null, "units": "cm/s", "ln_sigma": null, "flag": "0"}, {"name": "sa(3.0)", "value": null, "units": "%g", "ln_sigma": null, "flag": "0"}, {"name": "pga", "value": null, "units": "%g", "ln_sigma": null, "flag": "0"}, {"name": "sa(0.3)", "value": null, "units": "%g", "ln_sigma": null, "flag": "0"}], "distance_stddev": 2.082, "distances": {"repi": 258.23, "rhypo": 258.232, "rjb": 255.331, "rjb_var": 4.393, "rrup": 255.127, "rrup_var": 4.335, "rx": 0.0, "ry0": 0.0, "rvolc": 0.0}}, "geometry": {"type": "Point", "coordinates": [18.6617, 45.5571]}}, {"type": "Feature", "id": "DYFI.UTM:(34T 0355 4955 5000)", "properties": {"code": "UTM:(34T 0355 4955 5000)", "name": null, "instrumentType": "OBSERVED", "source": "DYFI", "network": "DYFI", "commType": "UNK", "location": "", "intensity": 3.6, "intensity_flag": "0", "intensity_stddev": 0.3, "pga": "null", "pgv": "null", "distance": 161.67, "elev": null, "vs30": 760.0, "channels": [], "nresp": -1, "station_type": "macroseismic", "predictions": [{"name": "mmi", "value": 2.5352, "value_rock": 2.5352, "value_soil": 3.1845, "units": "intensity", "tau": 0.2525, "phi": 0.7404, "sigma": 0.7822, "sigma_rock": 0.7842, "sigma_soil": 0.7827, "bias": 0.1097, "bias_sigma": 0.1921}, {"name": "pga", "value": 0.2507, "value_rock": 0.2507, "value_soil": 0.4209, "units": "%g", "ln_tau": 0.4084, "ln_phi": 0.6018, "ln_sigma": 0.7273, "ln_sigma_rock": 0.7294, "ln_sigma_soil": 0.7261, "ln_bias": 0.1776, "ln_bias_sigma": 0.3187}, {"name": "sa(0.3)", "value": 0.4142, "value_rock": 0.4142, "value_soil": 1.1691, "units": "%g", "ln_tau": 0.3937, "ln_phi": 0.6741, "ln_sigma": 0.7807, "ln_sigma_rock": 0.7817, "ln_sigma_soil": 0.778, "ln_bias": 0.0948, "ln_bias_sigma": 0.3315}, {"name": "sa(1.0)", "value": 0.1403, "value_rock": 0.1403, "value_soil": 0.5644, "units": "%g", "ln_tau": 0.4363, "ln_phi": 0.6825, "ln_sigma": 0.8101, "ln_sigma_rock": 0.8133, "ln_sigma_soil": 0.8113, "ln_bias": 0.1144, "ln_bias_sigma": 0.362}, {"name": "sa(3.0)", "value": 0.0291, "value_rock": 0.0291, "value_soil": 0.0936, "units": "%g", "ln_tau": 0.4446, "ln_phi": 0.6655, "ln_sigma": 0.8003, "ln_sigma_rock": 0.8031, "ln_sigma_soil": 0.8031, "ln_bias": 0.1333, "ln_bias_sigma": 0.3903}, {"name": "pgv", "value": 0.1638, "value_rock": 0.1638, "value_soil": 0.453, "units": "cm/s", "ln_tau": 0.3955, "ln_phi": 0.6091, "ln_sigma": 0.7263, "ln_sigma_rock": 0.7315, "ln_sigma_soil": 0.7275, "ln_bias": 0.1682, "ln_bias_sigma": 0.3195}], "pgm_from_mmi": [{"name": "sa(1.0)", "value": null, "units": "%g", "ln_sigma": null, "flag": "0"}, {"name": "pgv", "value": null, "units": "cm/s", "ln_sigma": null, "flag": "0"}, {"name": "sa(3.0)", "value": null, "units": "%g", "ln_sigma": null, "flag": "0"}, {"name": "pga", "value": null, "units": "%g", "ln_sigma": null, "flag": "0"}, {"name": "sa(0.3)", "value": null, "units": "%g", "ln_sigma": null, "flag": "0"}], "distance_stddev": 2.095, "distances": {"repi": 164.728, "rhypo": 164.73, "rjb": 161.835, "rjb_var": 4.382, "rrup": 161.67, "rrup_var": 4.388, "rx": 0.0, "ry0": 0.0, "rvolc": 0.0}}, "geometry": {"type": "Point", "coordinates": [19.1996, 44.7567]}}, {"type": "Feature", "id": "DYFI.UTM:(34T 0555 4820 5000)", "properties": {"code": "UTM:(34T 0555 4820 5000)", "name": null, "instrumentType": "OBSERVED", "source": "DYFI", "network": "DYFI", "commType": "UNK", "location": "", "intensity": 4.0, "intensity_flag": "0", "intensity_stddev": 0.3, "pga": 2.4041, "pgv": 1.6251, "distance": 79.334, "elev": null, "vs30": 368.89, "channels": [], "nresp": -1, "station_type": "macroseismic", "predictions": [{"name": "mmi", "value": 3.4666, "value_rock": 3.1547, "value_soil": 3.7966, "units": "intensity", "tau": 0.2524, "phi": 0.74, "sigma": 0.7819, "sigma_rock": 0.7839, "sigma_soil": 0.7822, "bias": 0.1097, "bias_sigma": 0.1921}, {"name": "pga", "value": 1.1296, "value_rock": 0.855, "value_soil": 1.4103, "units": "%g", "ln_tau": 0.408, "ln_phi": 0.6004, "ln_sigma": 0.7259, "ln_sigma_rock": 0.7284, "ln_sigma_soil": 0.7239, "ln_bias": 0.1774, "ln_bias_sigma": 0.3185}, {"name": "sa(0.3)", "value": 2.2026, "value_rock": 1.2765, "value_soil": 3.5098, "units": "%g", "ln_tau": 0.3933, "ln_phi": 0.6713, "ln_sigma": 0.7781, "ln_sigma_rock": 0.7793, "ln_sigma_soil": 0.7742, "ln_bias": 0.0947, "ln_bias_sigma": 0.3313}, {"name": "sa(1.0)", "value": 0.6855, "value_rock": 0.3478, "value_soil": 1.3778, "units": "%g", "ln_tau": 0.4362, "ln_phi": 0.6812, "ln_sigma": 0.8089, "ln_sigma_rock": 0.812, "ln_sigma_soil": 0.8097, "ln_bias": 0.1144, "ln_bias_sigma": 0.362}, {"name": "sa(3.0)", "value": 0.1212, "value_rock": 0.0691, "value_soil": 0.2209, "units": "%g", "ln_tau": 0.4446, "ln_phi": 0.6637, "ln_sigma": 0.7988, "ln_sigma_rock": 0.8015, "ln_sigma_soil": 0.8015, "ln_bias": 0.1333, "ln_bias_sigma": 0.3903}, {"name": "pgv", "value": 0.7047, "value_rock": 0.4323, "value_soil": 1.1817, "units": "cm/s", "ln_tau": 0.3954, "ln_phi": 0.608, "ln_sigma": 0.7253, "ln_sigma_rock": 0.7306, "ln_sigma_soil": 0.7263, "ln_bias": 0.1681, "ln_bias_sigma": 0.3195}]