{
   "type":"FeatureCollection",
   "features":[
      {
         "type":"Feature",
         "id":"DYFI.UTM:(38S 040 360 10000)",
         "properties":{
            "code":"UTM:(38S 040 360 10000)",
            "name":null,
            "instrumentType":"OBSERVED",
            "source":"DYFI",
            "network":"DYFI",
            "commType":"UNK",
            "location":"",
            "intensity":4.9,
            "intensity_flag":"0",
            "intensity_stddev":0.3,
            "pga":4.6151,
            "pgv":5.8491,
            "distance":298.449,
            "elev":null,
            "vs30":290.69,
            "channels":[
               
            ],
            "nresp":-1,
            "station_type":"macroseismic",
            "predictions":[
               {
                  "name":"mmi",
                  "value":4.1762,
                  "value_rock":3.7143,
                  "value_soil":4.6296,
                  "units":"intensity",
                  "tau":0.4346,
                  "phi":0.9644,
                  "sigma":1.0578,
                  "sigma_rock":0.7458,
                  "sigma_soil":1.0348,
                  "bias":0.3846,
                  "bias_sigma":0.2632
               },
               {
                  "name":"pga",
                  "value":1.3042,
                  "value_rock":0.8377,
                  "value_soil":1.6154,
                  "units":"%g",
                  "ln_tau":0.3189,
                  "ln_phi":0.5312,
                  "ln_sigma":0.6196,
                  "ln_sigma_rock":0.6262,
                  "ln_sigma_soil":0.602,
                  "ln_bias":0.1715,
                  "ln_bias_sigma":0.2133
               },
               {
                  "name":"sa(0.3)",
                  "value":3.938,
                  "value_rock":1.8038,
                  "value_soil":5.7049,
                  "units":"%g",
                  "ln_tau":0.2962,
                  "ln_phi":0.6094,
                  "ln_sigma":0.6775,
                  "ln_sigma_rock":0.6863,
                  "ln_sigma_soil":0.6615,
                  "ln_bias":0.0712,
                  "ln_bias_sigma":0.2258
               },
               {
                  "name":"sa(1.0)",
                  "value":3.9295,
                  "value_rock":1.4941,
                  "value_soil":6.2377,
                  "units":"%g",
                  "ln_tau":0.3319,
                  "ln_phi":0.6495,
                  "ln_sigma":0.7294,
                  "ln_sigma_rock":0.7319,
                  "ln_sigma_soil":0.7183,
                  "ln_bias":0.3579,
                  "ln_bias_sigma":0.2495
               },
               {
                  "name":"sa(3.0)",
                  "value":1.2341,
                  "value_rock":0.4657,
                  "value_soil":1.9854,
                  "units":"%g",
                  "ln_tau":0.3633,
                  "ln_phi":0.636,
                  "ln_sigma":0.7324,
                  "ln_sigma_rock":0.7312,
                  "ln_sigma_soil":0.7309,
                  "ln_bias":0.2281,
                  "ln_bias_sigma":0.2889
               },
               {
                  "name":"pgv",
                  "value":3.4518,
                  "value_rock":1.7256,
                  "value_soil":4.8029,
                  "units":"cm/s",
                  "ln_tau":0.3167,
                  "ln_phi":0.532,
                  "ln_sigma":0.6192,
                  "ln_sigma_rock":0.6252,
                  "ln_sigma_soil":0.5982,
                  "ln_bias":0.2134,
                  "ln_bias_sigma":0.2206
               }
            ],
            "pgm_from_mmi":[
               {
                  "name":"sa(3.0)",
                  "value":2.0822,
                  "units":"%g",
                  "ln_sigma":1.4737,
                  "flag":"0"
               },
               {
                  "name":"pgv",
                  "value":5.8491,
                  "units":"cm/s",
                  "ln_sigma":0.875,
                  "flag":"0"
               },
               {
                  "name":"sa(1.0)",
                  "value":9.8726,
                  "units":"%g",
                  "ln_sigma":1.0822,
                  "flag":"0"
               },
               {
                  "name":"pga",
                  "value":4.6151,
                  "units":"%g",
                  "ln_sigma":0.8059,
                  "flag":"0"
               },
               {
                  "name":"sa(0.3)",
                  "value":8.0321,
                  "units":"%g",
                  "ln_sigma":1.0131,
                  "flag":"0"
               }
            ],
            "distance_stddev":0.0,
            "distances":{
               "repi":316.989,
               "rhypo":317.558,
               "rjb":298.14,
               "rjb_var":0.0,
               "rrup":298.449,
               "rrup_var":0.0,
               "rx":-211.357,
               "ry0":210.595
            }
         },
         "geometry":{
            "type":"Point",
            "coordinates":[
               43.9878,
               32.5784
            ]
         }
      },
      {
         "type":"Feature",
         "id":"DYFI.UTM:(39R 045 289 10000)",
         "properties":{
            "code":"UTM:(39R 045 289 10000)",
            "name":null,
            "instrumentType":"OBSERVED",
            "source":"DYFI",
            "network":"DYFI",
            "commType":"UNK",
            "location":"",
            "intensity":3.1,
            "intensity_flag":"0",
            "intensity_stddev":0.3,
            "pga":"null",
            "pgv":"null",
            "distance":1044.531,
            "elev":null,
            "vs30":760.0,
            "channels":[
               
            ],
            "nresp":-1,
            "station_type":"macroseismic",
            "predictions":[
               {
                  "name":"mmi",
                  "value":2.1251,
                  "value_rock":2.1251,
                  "value_soil":2.7992,
                  "units":"intensity",
                  "tau":0.2038,
                  "phi":0.7172,
                  "sigma":0.7456,
                  "sigma_rock":0.7458,
                  "sigma_soil":0.7395,
                  "bias":0.1672,
                  "bias_sigma":0.1735
               },
               {
                  "name":"pga",
                  "value":0.0018,
                  "value_rock":0.0018,
                  "value_soil":0.0035,
                  "units":"%g",
                  "ln_tau":0.3224,
                  "ln_phi":0.536,
                  "ln_sigma":0.6255,
                  "ln_sigma_rock":0.6263,
                  "ln_sigma_soil":0.6115,
                  "ln_bias":0.1731,
                  "ln_bias_sigma":0.2143
               },
               {
                  "name":"sa(0.3)",
                  "value":0.0066,
                  "value_rock":0.0066,
                  "value_soil":0.0216,
                  "units":"%g",
                  "ln_tau":0.3001,
                  "ln_phi":0.6144,
                  "ln_sigma":0.6837,
                  "ln_sigma_rock":0.6864,
                  "ln_sigma_soil":0.6746,
                  "ln_bias":0.0723,
                  "ln_bias_sigma":0.2275
               },
               {
                  "name":"sa(1.0)",
                  "value":0.1183,
                  "value_rock":0.1183,
                  "value_soil":0.5067,
                  "units":"%g",
                  "ln_tau":0.3339,
                  "ln_phi":0.6522,
                  "ln_sigma":0.7327,
                  "ln_sigma_rock":0.7319,
                  "ln_sigma_soil":0.7274,
                  "ln_bias":0.3604,
                  "ln_bias_sigma":0.2504
               },
               {
                  "name":"sa(3.0)",
                  "value":0.1024,
                  "value_rock":0.1024,
                  "value_soil":0.437,
                  "units":"%g",
                  "ln_tau":0.3635,
                  "ln_phi":0.6363,
                  "ln_sigma":0.7328,
                  "ln_sigma_rock":0.7313,
                  "ln_sigma_soil":0.7312,
                  "ln_bias":0.2283,
                  "ln_bias_sigma":0.289
               },
               {
                  "name":"pgv",
                  "value":0.1432,
                  "value_rock":0.1432,
                  "value_soil":0.4115,
                  "units":"cm/s",
                  "ln_tau":0.3193,
                  "ln_phi":0.5369,
                  "ln_sigma":0.6246,
                  "ln_sigma_rock":0.6253,
                  "ln_sigma_soil":0.6065,
                  "ln_bias":0.2151,
                  "ln_bias_sigma":0.2215
               }
            ],
            "pgm_from_mmi":[
               {
                  "name":"sa(3.0)",
                  "value":null,
                  "units":"%g",
                  "ln_sigma":null,
                  "flag":"0"
               },
               {
                  "name":"pgv",
                  "value":null,
                  "units":"cm/s",
                  "ln_sigma":null,
                  "flag":"0"
               },
               {
                  "name":"sa(1.0)",
                  "value":null,
                  "units":"%g",
                  "ln_sigma":null,
                  "flag":"0"
               },
               {
                  "name":"pga",
                  "value":null,
                  "units":"%g",
                  "ln_sigma":null,
                  "flag":"0"
               },
               {
                  "name":"sa(0.3)",
                  "value":null,
                  "units":"%g",
                  "ln_sigma":null,
                  "flag":"0"
               }
            ],
            "distance_stddev":0.0,
            "distances":{
               "repi":1065.996,
               "rhypo":1066.165,
               "rjb":1046.448,
               "rjb_var":0.0,
               "rrup":1044.531,
               "rrup_var":0.0,
               "rx":309.258,
               "ry0":1008.024
            }
         },
         "geometry":{
            "type":"Point",
            "coordinates":[
               50.5497,
               26.1737
            ]
         }
      },
      {
         "type":"Feature",
         "id":"DYFI.UTM:(38S 073 397 10000)",
         "properties":{
            "code":"UTM:(38S 073 397 10000)",
            "name":null,
            "instrumentType":"OBSERVED",
            "source":"DYFI",
            "network":"DYFI",
            "commType":"UNK",
            "location":"",
            "intensity":3.1,
            "intensity_flag":"0",
            "intensity_stddev":0.3,
            "pga":"null",
            "pgv":"null",
            "distance":176.406,
            "elev":null,
            "vs30":524.1,
            "channels":[
               
            ],
            "nresp":-1,
            "station_type":"macroseismic",
            "predictions":[
               {
                  "name":"mmi",
                  "value":4.498,
                  "value_rock":4.1311,
                  "value_soil":5.4831,
                  "units":"intensity",
                  "tau":0.4375,
                  "phi":0.9591,
                  "sigma":1.0542,
                  "sigma_rock":0.743,
                  "sigma_soil":1.021,
                  "bias":0.3865,
                  "bias_sigma":0.2639
               },
               {
                  "name":"pga",
                  "value":3.3537,
                  "value_rock":2.8339,
                  "value_soil":5.1239,
                  "units":"%g",
                  "ln_tau":0.3202,
                  "ln_phi":0.5222,
                  "ln_sigma":0.6126,
                  "ln_sigma_rock":0.6157,
                  "ln_sigma_soil":0.5745,
                  "ln_bias":0.1721,
                  "ln_bias_sigma":0.2137
               },
               {
                  "name":"sa(0.3)",
                  "value":7.6812,
                  "value_rock":5.6413,
                  "value_soil":16.4174,
                  "units":"%g",
                  "ln_tau":0.2987,
                  "ln_phi":0.5976,
                  "ln_sigma":0.6681,
                  "ln_sigma_rock":0.6716,
                  "ln_sigma_soil":0.622,
                  "ln_bias":0.0719,
                  "ln_bias_sigma":0.2269
               },
               {
                  "name":"sa(1.0)",
                  "value":4.217,
                  "value_rock":2.8659,
                  "value_soil":11.5583,
                  "units":"%g",
                  "ln_tau":0.3335,
                  "ln_phi":0.6392,
                  "ln_sigma":0.721,
                  "ln_sigma_rock":0.7203,
                  "ln_sigma_soil":0.6984,
                  "ln_bias":0.36,
                  "ln_bias_sigma":0.2502
               },
               {
                  "name":"sa(3.0)",
                  "value":1.1259,
                  "value_rock":0.7612,
                  "value_soil":3.243,
                  "units":"%g",
                  "ln_tau":0.3633,
                  "ln_phi":0.6301,
                  "ln_sigma":0.7274,
                  "ln_sigma_rock":0.7259,
                  "ln_sigma_soil":0.7254,
                  "ln_bias":0.2281,
                  "ln_bias_sigma":0.2889
               },
               {
                  "name":"pgv",
                  "value":4.3638,
                  "value_rock":3.3147,
                  "value_soil":8.9457,
                  "units":"cm/s",
                  "ln_tau":0.3188,
                  "ln_phi":0.5269,
                  "ln_sigma":0.6159,
                  "ln_sigma_rock":0.617,
                  "ln_sigma_soil":0.5854,
                  "ln_bias":0.2148,
                  "ln_bias_sigma":0.2213
               }
            ],
            "pgm_from_mmi":[
               {
                  "name":"sa(3.0)",
                  "value":null,
                  "units":"%g",
                  "ln_sigma":null,
                  "flag":"0"
               },
               {
                  "name":"pgv",
                  "value":null,
                  "units":"cm/s",
                  "ln_sigma":null,
                  "flag":"0"
               },
               {
                  "name":"sa(1.0)",
                  "value":null,
                  "units":"%g",
                  "ln_sigma":null,
                  "flag":"0"
               },
               {
                  "name":"pga",
                  "value":null,
                  "units":"%g",
                  "ln_sigma":null,
                  "flag":"0"
               },
               {
                  "name":"sa(0.3)",
                  "value":null,
                  "units":"%g",
                  "ln_sigma":null,
                  "flag":"0"
               }
            ],
            "distance_stddev":0.0,
            "distances":{
               "repi":184.632,
               "rhypo":185.607,
               "rjb":174.59,
               "rjb_var":0.0,
               "rrup":176.406,
               "rrup_var":0.0,
               "rx":176.205,
               "ry0":76.036
            }
         },
         "geometry":{
            "type":"Point",
            "coordinates":[
               47.6035,
               35.8911
            ]
         }
      },
      {
         "type":"Feature",
         "id":"DYFI.UTM:(39R 055 280 10000)",
         "properties":{
            "code":"UTM:(39R 055 280 10000)",
            "name":null,
            "instrumentType":"OBSERVED",
            "source":"DYFI",
            "network":"DYFI",
            "commType":"UNK",
            "location":"",
            "intensity":2.1,
            "intensity_flag":"0",
            "intensity_stddev":0.3,
            "pga":"null",
            "pgv":"null",
            "distance":1167.07,
            "elev":null,
            "vs30":760.0,
            "channels":[
               
            ],
            "nresp":-1,
            "station_type":"macroseismic",
            "predictions":[
               {
                  "name":"mmi",
                  "value":1.9096,
                  "value_rock":1.9096,
                  "value_soil":2.5842,
                  "units":"intensity",
                  "tau":0.2038,
                  "phi":0.7172,
                  "sigma":0.7456,
                  "sigma_rock":0.7458,
                  "sigma_soil":0.7396,
                  "bias":0.1672,
                  "bias_sigma":0.1735
               },
               {
                  "name":"pga",
                  "value":0.0007,
                  "value_rock":0.0007,
                  "value_soil":0.0014,
                  "units":"%g",
                  "ln_tau":0.3224,
                  "ln_phi":0.536,
                  "ln_sigma":0.6255,
                  "ln_sigma_rock":0.6263,
                  "ln_sigma_soil":0.6115,
                  "ln_bias":0.1731,
                  "ln_bias_sigma":0.2143
               },
               {
                  "name":"sa(0.3)",
                  "value":0.0028,
                  "value_rock":0.0028,
                  "value_soil":0.0092,
                  "units":"%g",
                  "ln_tau":0.3001,
                  "ln_phi":0.6144,
                  "ln_sigma":0.6837,
                  "ln_sigma_rock":0.6864,
                  "ln_sigma_soil":0.6746,
                  "ln_bias":0.0723,
                  "ln_bias_sigma":0.2275
               },
               {
                  "name":"sa(1.0)",
                  "value":0.0835,
                  "value_rock":0.0835,
                  "value_soil":0.3579,
                  "units":"%g",
                  "ln_tau":0.3339,
                  "ln_phi":0.6522,
                  "ln_sigma":0.7327,
                  "ln_sigma_rock":0.7319,
                  "ln_sigma_soil":0.7275,
                  "ln_bias":0.3604,
                  "ln_bias_sigma":0.2504
               },
               {
                  "name":"sa(3.0)",
                  "value":0.0858,
                  "value_rock":0.0858,
                  "value_soil":0.3659,
                  "units":"%g",
                  "ln_tau":0.3635,
                  "ln_phi":0.6363,
                  "ln_sigma":0.7328,
                  "ln_sigma_rock":0.7313,
                  "ln_sigma_soil":0.7313,
                  "ln_bias":0.2283,
                  "ln_bias_sigma":0.289
               },
               {
                  "name":"pgv",
                  "value":0.1021,
                  "value_rock":0.1021,
                  "value_soil":0.2939,
                  "units":"cm/s",
                  "ln_tau":0.3193,
                  "ln_phi":0.5369,
                  "ln_sigma":0.6246,
                  "ln_sigma_rock":0.6253,
                  "ln_sigma_soil":0.6068,
                  "ln_bias":0.2151,
                  "ln_bias_sigma":0.2215
               }
            ],
            "pgm_from_mmi":[
               {
                  "name":"sa(3.0)",
                  "value":null,
                  "units":"%g",
                  "ln_sigma":null,
                  "flag":"0"
               },
               {
                  "name":"pgv",
                  "value":null,
                  "units":"cm/s",
                  "ln_sigma":null,
                  "flag":"0"
               },
               {
                  "name":"sa(1.0)",
                  "value":null,
                  "units":"%g",
                  "ln_sigma":null,
                  "flag":"0"
               },
               {
                  "name":"pga",
                  "value":null,
                  "units":"%g",
                  "ln_sigma":null,
                  "flag":"0"
               },
               {
                  "name":"sa(0.3)",
                  "value":null,
                  "units":"%g",
