{"type": "FeatureCollection", "features": [{"type": "Feature", "id": "BHRC.mz1752/02", "properties": {"code": "mz1752/02", "name": "Rivash", "instrumentType": "UNK", "source": "BHRC", "network": "BHRC", "commType": "UNK", "location": "", "intensity": 2.9, "intensity_flag": "", "intensity_stddev": 0.63, "pga": 1.241, "pgv": "null", "distance": 203.138, "elev": null, "vs30": 419.14, "channels": [{"name": "H2", "amplitudes": [{"name": "pgv", "value": 0.35, "units": "cm/s", "flag": "Outlier", "ln_sigma": 0.0}, {"name": "sa(3.0)", "value": "null", "units": "%g", "flag": "Glitch,0,Outlier", "ln_sigma": "null"}, {"name": "sa(1.0)", "value": "null", "units": "%g", "flag": "Glitch,0,Outlier", "ln_sigma": "null"}, {"name": "sa(0.3)", "value": "null", "units": "%g", "flag": "Glitch,0,Outlier", "ln_sigma": "null"}, {"name": "pga", "value": 0.958, "units": "%g", "flag": "0", "ln_sigma": 0.0}]}, {"name": "V", "amplitudes": [{"name": "pgv", "value": 0.28, "units": "cm/s", "flag": "UnknownOrientation,0,Outlier", "ln_sigma": 0.0}, {"name": "sa(3.0)", "value": "null", "units": "%g", "flag": "G,UnknownOrientation,0,Outlier", "ln_sigma": "null"}, {"name": "sa(1.0)", "value": "null", "units": "%g", "flag": "G,UnknownOrientation,0,Outlier", "ln_sigma": "null"}, {"name": "sa(0.3)", "value": "null", "units": "%g", "flag": "G,UnknownOrientation,0,Outlier", "ln_sigma": "null"}, {"name": "pga", "value": 0.905, "units": "%g", "flag": "UnknownOrientation,0", "ln_sigma": 0.0}]}, {"name": "H1", "amplitudes": [{"name": "pgv", "value": 0.47, "units": "cm/s", "flag": "Outlier", "ln_sigma": 0.0}, {"name": "sa(3.0)", "value": "null", "units": "%g", "flag": "Glitch,0,Outlier", "ln_sigma": "null"}, {"name": "sa(1.0)", "value": "null", "units": "%g", "flag": "Glitch,0,Outlier", "ln_sigma": "null"}, {"name": "sa(0.3)", "value": "null", "units": "%g", "flag": "Glitch,0,Outlier", "ln_sigma": "null"}, {"name": "pga", "value": 1.241, "units": "%g", "flag": "0", "ln_sigma": 0.0}]}], "station_type": "seismic", "nresp": "null", "predictions": [{"name": "pga", "value": 1.5771, "value_rock": 1.1981, "value_soil": 2.2885, "units": "%g", "ln_tau": 0.3207, "ln_phi": 0.5267, "ln_sigma": 0.6167, "ln_sigma_rock": 0.6194, "ln_sigma_soil": 0.5947, "ln_bias": 0.0258, "ln_bias_sigma": 0.1243}, {"name": "sa(1.0)", "value": 2.8194, "value_rock": 1.5303, "value_soil": 6.3586, "units": "%g", "ln_tau": 0.3339, "ln_phi": 0.6444, "ln_sigma": 0.7258, "ln_sigma_rock": 0.7274, "ln_sigma_soil": 0.7149, "ln_bias": 0.3358, "ln_bias_sigma": 0.2053}, {"name": "sa(3.0)", "value": 1.0409, "value_rock": 0.562, "value_soil": 2.3955, "units": "%g", "ln_tau": 0.362, "ln_phi": 0.6338, "ln_sigma": 0.7299, "ln_sigma_rock": 0.7368, "ln_sigma_soil": 0.7364, "ln_bias": 0.0236, "ln_bias_sigma": 0.2403}, {"name": "pgv", "value": 3.0619, "value_rock": 1.9765, "value_soil": 5.5041, "units": "cm/s", "ln_tau": 0.3181, "ln_phi": 0.5291, "ln_sigma": 0.6174, "ln_sigma_rock": 0.6213, "ln_sigma_soil": 0.5966, "ln_bias": -0.1152, "ln_bias_sigma": 0.1303}, {"name": "sa(0.3)", "value": 3.8312, "value_rock": 2.3436, "value_soil": 7.3115, "units": "%g", "ln_tau": 0.2987, "ln_phi": 0.603, "ln_sigma": 0.6729, "ln_sigma_rock": 0.677, "ln_sigma_soil": 0.6515, "ln_bias": 0.1497, "ln_bias_sigma": 0.1849}, {"name": "mmi", "value": 4.0804, "value_rock": 3.801, "value_soil": 4.8166, "units": "intensity", "tau": 0.2031, "phi": 0.7148, "sigma": 0.7431, "sigma_rock": 0.7445, "sigma_soil": 1.0331, "bias": 0.0301, "bias_sigma": 0.1527}], "mmi_from_pgm": [{"name": "pga", "value": 3.67, "sigma": 0.66, "flag": "0"}, {"name": "sa(1.0)", "value": null, "sigma": null, "flag": "0"}, {"name": "sa(3.0)", "value": null, "sigma": null, "flag": "0"}, {"name": "pgv", "value": 2.88, "sigma": 0.63, "flag": "Outlier"}, {"name": "sa(0.3)", "value": null, "sigma": null, "flag": "0"}], "distance_stddev": 0.0, "distances": {"repi": 221.053, "rhypo": 221.279, "rjb": 203.163, "rjb_var": 0.0, "rrup": 203.138, "rrup_var": 0.0, "rx": 40.337, "ry0": 190.087}}, "geometry": {"type": "Point", "coordinates": [58.47, 35.48]}}, {"type": "Feature", "id": "BHRC.mz1742", "properties": {"code": "mz1742", "name": "Gonabad", "instrumentType": "UNK", "source": "BHRC", "network": "BHRC", "commType": "UNK", "location": "", "intensity": 4.9, "intensity_flag": "", "intensity_stddev": 0.63, "pga": 3.501, "pgv": 5.65, "distance": 110.048, "elev": null, "vs30": 296.47, "channels": [{"name": "H2", "amplitudes": [{"name": "pgv", "value": 5.65, "units": "cm/s", "flag": "0", "ln_sigma": 0.0}, {"name": "sa(3.0)", "value": "null", "units": "%g", "flag": "Glitch,0,Outlier", "ln_sigma": "null"}, {"name": "sa(1.0)", "value": "null", "units": "%g", "flag": "Glitch,0,Outlier", "ln_sigma": "null"}, {"name": "sa(0.3)", "value": "null", "units": "%g", "flag": "Glitch,0,Outlier", "ln_sigma": "null"}, {"name": "pga", "value": 3.501, "units": "%g", "flag": "0", "ln_sigma": 0.0}]}, {"name": "V", "amplitudes": [{"name": "pgv", "value": 2.34, "units": "cm/s", "flag": "UnknownOrientation,0", "ln_sigma": 0.0}, {"name": "sa(3.0)", "value": "null", "units": "%g", "flag": "G,UnknownOrientation,0,Outlier", "ln_sigma": "null"}, {"name": "sa(1.0)", "value": "null", "units": "%g", "flag": "G,UnknownOrientation,0,Outlier", "ln_sigma": "null"}, {"name": "sa(0.3)", "value": "null", "units": "%g", "flag": "G,UnknownOrientation,0,Outlier", "ln_sigma": "null"}, {"name": "pga", "value": 2.365, "units": "%g", "flag": "UnknownOrientation,0", "ln_sigma": 0.0}]}, {"name": "H1", "amplitudes": [{"name": "pgv", "value": 5.12, "units": "cm/s", "flag": "0", "ln_sigma": 0.0}, {"name": "sa(3.0)", "value": "null", "units": "%g", "flag": "Glitch,0,Outlier", "ln_sigma": "null"}, {"name": "sa(1.0)", "value": "null", "units": "%g", "flag": "Glitch,0,Outlier", "ln_sigma": "null"}, {"name": "sa(0.3)", "value": "null", "units": "%g", "flag": "Glitch,0,Outlier", "ln_sigma": "null"}, {"name": "pga", "value": 3.031, "units": "%g", "flag": "0", "ln_sigma": 0.0}]}], "station_type": "seismic", "nresp": "null", "predictions": [{"name": "pga", "value": 5.1656, "value_rock": 3.462, "value_soil": 6.1788, "units": "%g", "ln_tau": 0.3128, "ln_phi": 0.5025, "ln_sigma": 0.5919, "ln_sigma_rock": 0.605, "ln_sigma_soil": 0.5652, "ln_bias": 0.0256, "ln_bias_sigma": 0.1238}, {"name": "sa(1.0)", "value": 7.4528, "value_rock": 2.9318, "value_soil": 11.6815, "units": "%g", "ln_tau": 0.3313, "ln_phi": 0.6255, "ln_sigma": 0.7078, "ln_sigma_rock": 0.7128, "ln_sigma_soil": 0.693, "ln_bias": 0.3338, "ln_bias_sigma": 0.2047}, {"name": "sa(3.0)", "value": 2.4915, "value_rock": 0.9592, "value_soil": 4.085, "units": "%g", "ln_tau": 0.3618, "ln_phi": 0.612, "ln_sigma": 0.7109, "ln_sigma_rock": 0.7174, "ln_sigma_soil": 0.7169, "ln_bias": 0.0236, "ln_bias_sigma": 0.2402}, {"name": "pgv", "value": 7.4271, "value_rock": 3.8123, "value_soil": 10.2202, "units": "cm/s", "ln_tau": 0.3156, "ln_phi": 0.5128, "ln_sigma": 0.6021, "ln_sigma_rock": 0.6101, "ln_sigma_soil": 0.5809, "ln_bias": -0.1149, "ln_bias_sigma": 0.1301}, {"name": "sa(0.3)", "value": 13.2509, "value_rock": 6.4336, "value_soil": 18.337, "units": "%g", "ln_tau": 0.2893, "ln_phi": 0.5716, "ln_sigma": 0.6407, "ln_sigma_rock": 0.6564, "ln_sigma_soil": 0.6092, "ln_bias": 0.146, "ln_bias_sigma": 0.1826}, {"name": "mmi", "value": 5.2278, "value_rock": 4.3126, "value_soil": 5.6659, "units": "intensity", "tau": 0.4331, "phi": 0.9445, "sigma": 1.0391, "sigma_rock": 1.0478, "sigma_soil": 1.0161, "bias": 0.0538, "bias_sigma": 0.2042}], "mmi_from_pgm": [{"name": "pga", "value": 4.09, "sigma": 0.66, "flag": "0"}, {"name": "sa(1.0)", "value": null, "sigma": null, "flag": "0"}, {"name": "sa(3.0)", "value": null, "sigma": null, "flag": "0"}, {"name": "pgv", "value": 4.85, "sigma": 0.63, "flag": "0"}, {"name": "sa(0.3)", "value": null, "sigma": null, "flag": "0"}], "distance_stddev": 0.0, "distances": {"repi": 120.33, "rhypo": 120.745, "rjb": 110.052, "rjb_var": 0.0, "rrup": 110.048, "rrup_var": 0.0, "rx": 72.445, "ry0": 72.039}}, "geometry": {"type": "Point", "coordinates": [58.68, 34.37]}}, {"type": "Feature", "id": "BHRC.mz1761", "properties": {"code": "mz1761", "name": "Bajestan", "instrumentType": "UNK", "source": "BHRC", "network": "BHRC", "commType": "UNK", "location": "", "intensity": 3.6, "intensity_flag": "", "intensity_stddev": 0.63, "pga": 3.112, "pgv": 1.42, "distance": 158.902, "elev": null, "vs30": 365.18, "channels": [{"name": "H2", "amplitudes": [{"name": "pgv", "value": 1.03, "units": "cm/s", "flag": "0", "ln_sigma": 0.0}, {"name": "sa(3.0)", "value": "null", "units": "%g", "flag": "Glitch,0,Outlier", "ln_sigma": "null"}, {"name": "sa(1.0)", "value": "null", "units": "%g", "flag": "Glitch,0,Outlier", "ln_sigma": "null"}, {"name": "sa(0.3)", "value": "null", "units": "%g", "flag": "Glitch,0,Outlier", "ln_sigma": "null"}, {"name": "pga", "value": 2.714, "units": "%g", "flag": "0", "ln_sigma": 0.0}]}, {"name": "V", "amplitudes": [{"name": "pgv", "value": 0.68, "units": "cm/s", "flag": "UnknownOrientation,0", "ln_sigma": 0.0}, {"name": "sa(3.0)", "value": "null", "units": "%g", "flag": "G,UnknownOrientation,0,Outlier", "ln_sigma": "null"}, {"name": "sa(1.0)", "value": "null", "units": "%g", "flag": "G,UnknownOrientation,0,Outlier", "ln_sigma": "null"}, {"name": "sa(0.3)", "value": "null", "units": "%g", "flag": "G,UnknownOrientation,0,Outlier", "ln_sigma": "null"}, {"name": "pga", "value": 1.421, "units": "%g", "flag": "UnknownOrientation,0", "ln_sigma": 0.0}]}, {"name": "H1", "amplitudes": [{"name": "pgv", "value": 1.42, "units": "cm/s", "flag": "0", "ln_sigma": 0.0}, {"name": "sa(3.0)", "value": "null", "units": "%g", "flag": "Glitch,0,Outlier", "ln_sigma": "null"}, {"name": "sa(1.0)", "value": "null", "units": "%g", "flag": "Glitch,0,Outlier", "ln_sigma": "null"}, {"name": "sa(0.3)", "value": "null", "units": "%g", "flag": "Glitch,0,Outlier", "ln_sigma": "null"}, {"name": "pga", "value": 3.112, "units": "%g", "flag": "0", "ln_sigma": 0.0}]}], "station_type": "seismic", "nresp": "null", "predictions": [{"name": "pga", "value": 2.6811, "value_rock": 1.9258, "value_soil": 3.5956, "units": "%g", "ln_tau": 0.3187, "ln_phi": 0.5183, "ln_sigma": 0.6084, "ln_sigma_rock": 0.6136, "ln_sigma_soil": 0.5837, "ln_bias": 0.0258, "ln_bias_sigma": 0.1242}, {"name": "sa(1.0)", "value": 4.2351, "value_rock": 2.0143, "value_soil": 8.2505, "units": "%g", "ln_tau": 0.3334, "ln_phi": 0.6368, "ln_sigma": 0.7188, "ln_sigma_rock": 0.7209, "ln_sigma_soil": 0.7058, "ln_bias": 0.3354, "ln_bias_sigma": 0.2051}, {"name": "sa(3.0)", "value": 1.4821, "value_rock": 0.6993, "value_soil": 2.9802, "units": "%g", "ln_tau": 0.3619, "ln_phi": 0.6227, "ln_sigma": 0.7203, "ln_sigma_rock": 0.7269, "ln_sigma_soil": 0.7265, "ln_bias": 0.0236, "ln_bias_sigma": 0.2402}, {"name": "pgv", "value": 4.4402, "value_rock": 2.6067, "value_soil": 7.1646, "units": "cm/s", "ln_tau": 0.3175, "ln_phi": 0.5233, "ln_sigma": 0.6121, "ln_sigma_rock": 0.6168, "ln_sigma_soil": 0.5905, "ln_bias": -0.1151, "ln_bias_sigma": 0.1302}, {"name": "sa(0.3)", "value": 6.6318, "value_rock": 3.6697, "value_soil": 11.1096, "units": "%g", "ln_tau": 0.2965, "ln_phi": 0.5921, "ln_sigma": 0.6622, "ln_sigma_rock": 0.6687, "ln_sigma_soil": 0.6357, "ln_bias": 0.1488, "ln_bias_sigma": 0.1844}, {"name": "mmi", "value": 4.5218, "value_rock": 3.9777, "value_soil": 5.1784, "units": "intensity", "tau": 0.4358, "phi": 0.9553, "sigma": 1.05, "sigma_rock": 0.7429, "sigma_soil": 1.0264, "bias": 0.0539, "bias_sigma": 0.2045}], "mmi_from_pgm": [{"name": "pga", "value": 4.18, "sigma": 0.66, "flag": "0"}, {"name": "sa(1.0)", "value": null, "sigma": null, "flag": "0"}, {"name": "sa(3.0)", "value": null, "sigma": null, "flag": "0"}, {"name": "pgv", "value": 3.59, "sigma": 0.63, "flag": "0"}, {"name": "sa(0.3)", "value": null, "sigma": null, "flag": "0"}], "distance_stddev": 0.0, "distances": {"repi": 168.612, "rhypo": 168.909, "rjb": 158.915, "rjb_var": 0.0, "rrup": 158.902, "rrup_var": 0.0, "rx": 105.948, "ry0": 105.588}}, "geometry": {"type": "Point", "coordinates": [58.18, 34.52]}}, {"type": "Feature", "id": "BHRC.mz1897", "properties": {"code": "mz1897", "name": "Zabol", "instrumentType": "UNK", "source": "BHRC", "network": "BHRC", "commType": "UNK", "location": "", "intensity": 5.0, "intensity_flag": "", "intensity_stddev": 0.63, "pga": 1.749, "pgv": 6.07, "distance": 258.31, "elev": null, "vs30": 190.95, "channels": [{"name": "H2", "amplitudes": [{"name": "pgv", "value": 6.07, "units": "cm/s", "flag": "0", "ln_sigma": 0.0}, {"name": "sa(3.0)", "value": "null", "units": "%g", "flag": "Glitch,0,Outlier", "ln_sigma": "null"}, {"name": "sa(1.0)", "value": "null", "units": "%g", "flag": "Glitch,0,Outlier", "ln_sigma": "null"}, {"name": "sa(0.3)", "value": "null", "units": "%g", "flag": "Glitch,0,Outlier", "ln_sigma": "null"}, {"name": "pga", "value": 1.749, "units": "%g", "flag": "0", "ln_sigma": 0.0}]}, {"name": "V", "amplitudes": [{"name": "pgv", "value": 3.07, "units": "cm/s", "flag": "UnknownOrientation,0", "ln_sigma": 0.0}, {"name": "sa(3.0)", "value": "null", "units": "%g", "flag": "G,UnknownOrientation,0,Outlier", "ln_sigma": "null"}, {"name": "sa(1.0)", "value": "null", "units": "%g", "flag": "G,UnknownOrientation,0,Outlier", "ln_sigma": "null"}, {"name": "sa(0.3)", "value": "null", "units": "%g", "flag": "G,UnknownOrientation,0,Outlier", "ln_sigma": "null"}, {"name": "pga", "value": 0.535, "units": "%g", "flag": "UnknownOrientation,0", "ln_sigma": 0.0}]}, {"name": "H1", "amplitudes": [{"name": "pgv", "value": 5.22, "units": "cm/s", "flag": "0", "ln_sigma": 0.0}, {"name": "sa(3.0)", "value": "null", "units": "%g", "flag": "Glitch,0,Outlier", "ln_sigma": "null"}, {"name": "sa(1.0)", "value": "null", "units": "%g", "flag": "Glitch,0,Outlier", "ln_sigma": "null"}, {"name": "sa(0.3)", "value": "null", "units": "%g", "flag": "Glitch,0,Outlier", "ln_sigma": "null"}, {"name": "pga", "value": 1.627, "units": "%g", "flag": "0", "ln_sigma": 0.0}]}], "station_type": "seismic", "nresp": "null", "predictions": [{"name": "pga", "value": 1.3035, "value_rock": 0.6913, "value_soil": 1.3423, "units": "%g", "ln_tau": 0.3178, "ln_phi": 0.5136, "ln_sigma": 0.6039, "ln_sigma_rock": 0.6252, "ln_sigma_soil": 0.6043, "ln_bias": 0.0257, "ln_bias_sigma": 0.1241}, {"name": "sa(1.0)", "value": 4.4962, "value_rock": 1.1398, "value_soil": 4.7877, "units": "%g", "ln_tau": 0.3305, "ln_phi": 0.6428, "ln_sigma": 0.7228, "ln_sigma_rock": 0.7338, "ln_sigma_soil": 0.7235, "ln_bias": 0.3332, "ln_bias_sigma": 0.2045}, {"name": "sa(3.0)", "value": 1.7981, "value_rock": 0.4497, "value_soil": 1.9173, "units": "%g", "ln_tau": 0.3619, "ln_phi": 0.6338, "ln_sigma": 0.7298, "ln_sigma_rock": 0.7368, "ln_sigma_soil": 0.7365, "ln_bias": 0.0236, "ln_bias_sigma": 0.2402}, {"name": "pgv", "value": 3.9545, "value_rock": 1.4711, "value_soil": 4.1386, "units": "cm/s", "ln_tau": 0.3148, "ln_phi": 0.5112, "ln_sigma": 0.6004, "ln_sigma_rock": 0.6258, "ln_sigma_soil": 0.6025, "ln_bias": -0.1148, "ln_bias_sigma": 0.13}, {"name": "sa(0.3)", "value": 4.2478, "value_rock": 1.4004, "value_soil": 4.4642, "units": "%g", "ln_tau": 0.2942, "ln_phi": 0.595, "ln_sigma": 0.6638, "ln_sigma_rock": 0.6852, "ln_sigma_soil": 0.6652, "ln_bias": 0.1479, "ln_bias_sigma": 0.1838}, {"name": "mmi", "value": 4.3628, "value_rock": 3.6124, "value_soil": 4.4253, "units": "intensity", "tau": 0.432, "phi": 0.9429, "sigma": 1.0372, "sigma_rock": 0.746, "sigma_soil": 1.0395, "bias": 0.0537, "bias_sigma": 0.2041}], "mmi_from_pgm": [{"name": "pga", "value": 4.0, "sigma": 0.66, "flag": "0"}, {"name": "sa(1.0)", "value": null, "sigma": null, "flag": "0"}, {"name": "sa(3.0)", "value": null, "sigma": null, "flag": "0"}, {"name": "pgv", "value": 4.95, "sigma": 0.63, "flag": "0"}, {"name": "sa(0.3)", "value": null, "sigma": null, "flag": "0"}], "distance_stddev": 0.0, "distances": {"repi": 348.953, "rhypo": 349.096, "rjb": 258.364, "rjb_var": 0.0, "rrup": 258.31, "rrup_var": 0.0, "rx": -12.531, "ry0": 251.778}}, "geometry": {"type": "Point", "coordinates": [61.5, 31.03]}}, {"type": "Feature", "id": "BHRC.mz1763", "properties": {"code": "mz1763", "name": "Roshtkhar", "instrumentType": "UNK", "source": "BHRC", "network": "BHRC", "commType": "UNK", "location": "", "intensity": 4.9, "intensity_flag": "", "intensity_stddev": 0.63, "pga": 4.685, "pgv": 5.66, "distance": 107.743, "elev": null, "vs30": 317.99, "channels": [{"name": "H2", "amplitudes": [{"name": "pgv", "value": 2.88, "units": "cm/s", "flag": "0", "ln_sigma": 0.0}, {"name": "sa(3.0)", "value": "null", "units": "%g", "flag": "Glitch,0,Outlier", "ln_sigma": "null"}, {"name": "sa(1.0)", "value": "null", "units": "%g", "flag": "Glitch,0,Outlier", "ln_sigma": "null"}, {"name": "sa(0.3)", "value": "null", "units": "%g", "flag": "Glitch,0,Outlier", "ln_sigma": "null"}, {"name": "pga", "value": 2.841, "units": "%g", "flag": "0", "ln_sigma": 0.0}]}, {"name": "V", "amplitudes": [{"name": "pgv", "value": 1.94, "units": "cm/s", "flag": "UnknownOrientation,0", "ln_sigma": 0.0}, {"name": "sa(3.0)", "value": "null", "units": "%g", "flag": "G,UnknownOrientation,0,Outlier", "ln_sigma": "null"}, {"name": "sa(1.0)", "value": "null", "units": "%g", "flag": "G,UnknownOrientation,0,Outlier", "ln_sigma": "null"}, {"name": "sa(0.3)", "value": "null", "units": "%g", "flag": "G,UnknownOrientation,0,Outlier", "ln_sigma": "null"}, {"name": "pga", "value": 2.52, "units": "%g", "flag": "UnknownOrientation,0", "ln_sigma": 0.0}]}, {"name": "H1", "amplitudes": [{"name": "pgv", "value": 5.66, "units": "cm/s", "flag": "0", "ln_sigma": 0.0}, {"name": "sa(3.0)", "value": "null", "units": "%g", "flag": "Glitch,0,Outlier", "ln_sigma": "null"}, {"name": "sa(1.0)", "value": "null", "units": "%g", "flag": "Glitch,0,Outlier", "ln_sigma": "null"}, {"name": "sa(0.3)", "value": "null", "units": "%g", "flag": "Glitch,0,Outlier", "ln_sigma": "null"}, {"name": "pga", "value": 4.685, "units": "%g", "flag": "0", "ln_sigma": 0.0}]}], "station_type": "seismic", "nresp": "null", "predictions": [{"name": "pga", "value": 5.177, "value_rock": 3.5682, "value_soil": 6.3493, "units": "%g", "ln_tau": 0.3138, "ln_phi": 0.504, "ln_sigma": 0.5937, "ln_sigma_rock": 0.605, "ln_sigma_soil": 0.5645, "ln_bias": 0.0256, "ln_bias_sigma": 0.1239}, {"name": "sa(1.0)", "value": 7.1308, "value_rock": 2.993, "value_soil": 11.9037, "units": "%g", "ln_tau": 0.3321, "ln_phi": 0.6264, "ln_sigma": 0.709, "ln_sigma_rock": 0.7128, "ln_sigma_soil": 0.6927, "ln_bias": 0.3344, "ln_bias_sigma": 0.2048}, {"name": "sa(3.0)", "value": 2.3685, "value_rock": 0.9765, "value_soil": 4.1589, "units": "%g", "ln_tau": 0.3618, "ln_phi": 0.612, "ln_sigma": 0.7109, "ln_sigma_rock": 0.7174, "ln_sigma_soil": 0.7169, "ln_bias": 0.0236, "ln_bias_sigma": 0.2402}, {"name": "pgv", "value": 7.2397, "value_rock": 3.8932, "value_soil": 10.4199, "units": "cm/s", "ln_tau": 0.3162, "ln_phi": 0.5137, "ln_sigma": 0.6032, "ln_sigma_rock": 0.6097, "ln_sigma_soil": 0.5803, "ln_bias": -0.115, "ln_bias_sigma": 0.1301}, {"name": "sa(0.3)", "value": 12.9858, "value_rock": 6.6242, "value_soil": 18.8044, "units": "%g", "ln_tau": 0.2908, "ln_phi": 0.5728, "ln_sigma": 0.6424, "ln_sigma_rock": 0.6557, "ln_sigma_soil": 0.6075, "ln_bias": 0.1466, "ln_bias_sigma": 0.183}, {"name": "mmi", "value": 5.1927, "value_rock": 4.3414, "value_soil": 5.6925, "units": "intensity", "tau": 0.4339, "phi": 0.9454, "sigma": 1.0402, "sigma_rock": 1.0474, "sigma_soil": 1.0155, "bias": 0.0538, "bias_sigma": 0.2043}], "mmi_from_pgm": [{"name": "pga", "value": 4.47, "sigma": 0.66, "flag": "0"}, {"name": "sa(1.0)", "value": null, "sigma": null, "flag": "0"}, {"name": "sa(3.0)", "value": null, "sigma": null, "flag": "0"}, {"name": "pgv", "value": 4.85, "sigma": 0.63, "flag": "0"}, {"name": "sa(0.3)", "value": null, "sigma": null, "flag": "0"}], "distance_stddev": 0.0, "distances": {"repi": 128.494, "rhypo": 128.882, "rjb": 107.747, "rjb_var": 0.0, "rrup": 107.743, "rrup_var": 0.0, "rx": -28.868, "ry0": 99.277}}, "geometry": {"type": "Point", "coordinates": [59.62, 34.97]}}, {"type": "F