{"type": "FeatureCollection", "features": [{"type": "Feature", "id": "G.PYR1", "properties": {"code": "PYR1", "name": "Pyrgos-Agriculture Bank", "instrumentType": "UNK", "source": "G", "network": "G", "commType": "UNK", "location": "", "intensity": 4.1, "intensity_flag": "", "intensity_stddev": 0.63, "pga": 2.9592, "pgv": 2.3, "distance": 53.063, "elev": null, "vs30": 310.56, "channels": [{"name": "E", "amplitudes": [{"name": "pgv", "value": 2.3, "units": "cm/s", "flag": "0", "ln_sigma": 0.0}, {"name": "sa(1.0)", "value": 2.1633, "units": "%g", "flag": "0", "ln_sigma": 0.0}, {"name": "pga", "value": 2.4694, "units": "%g", "flag": "0", "ln_sigma": 0.0}, {"name": "sa(0.3)", "value": 7.4184, "units": "%g", "flag": "0", "ln_sigma": 0.0}, {"name": "sa(3.0)", "value": 0.5816, "units": "%g", "flag": "0", "ln_sigma": 0.0}]}, {"name": "N", "amplitudes": [{"name": "pgv", "value": 2.28, "units": "cm/s", "flag": "0", "ln_sigma": 0.0}, {"name": "sa(1.0)", "value": 3.0102, "units": "%g", "flag": "0", "ln_sigma": 0.0}, {"name": "pga", "value": 2.9592, "units": "%g", "flag": "0", "ln_sigma": 0.0}, {"name": "sa(0.3)", "value": 8.7653, "units": "%g", "flag": "0", "ln_sigma": 0.0}, {"name": "sa(3.0)", "value": 0.7622, "units": "%g", "flag": "0", "ln_sigma": 0.0}]}, {"name": "Z", "amplitudes": [{"name": "pgv", "value": 1.46, "units": "cm/s", "flag": "0", "ln_sigma": 0.0}, {"name": "sa(1.0)", "value": 1.8469, "units": "%g", "flag": "0", "ln_sigma": 0.0}, {"name": "pga", "value": 1.6531, "units": "%g", "flag": "0", "ln_sigma": 0.0}, {"name": "sa(0.3)", "value": 4.6735, "units": "%g", "flag": "0", "ln_sigma": 0.0}, {"name": "sa(3.0)", "value": 0.4041, "units": "%g", "flag": "0", "ln_sigma": 0.0}]}], "station_type": "seismic", "nresp": "null", "predictions": [{"name": "pga", "value": 3.8061, "value_rock": 2.8176, "value_soil": 4.0579, "units": "%g", "ln_tau": 0.0, "ln_phi": 0.5693, "ln_sigma": 0.5693, "ln_sigma_rock": 0.6871, "ln_sigma_soil": 0.678, "ln_bias": 0.6677, "ln_bias_sigma": 0.1209}, {"name": "pgv", "value": 2.2171, "value_rock": 1.2853, "value_soil": 3.125, "units": "cm/s", "ln_tau": 0.0, "ln_phi": 0.684, "ln_sigma": 0.684, "ln_sigma_rock": 0.826, "ln_sigma_soil": 0.8163, "ln_bias": 0.9661, "ln_bias_sigma": 0.1507}, {"name": "sa(1.0)", "value": 2.3168, "value_rock": 1.2022, "value_soil": 3.4717, "units": "%g", "ln_tau": 0.0, "ln_phi": 0.6501, "ln_sigma": 0.6501, "ln_sigma_rock": 0.7865, "ln_sigma_soil": 0.7767, "ln_bias": 1.0243, "ln_bias_sigma": 0.1507}, {"name": "sa(0.3)", "value": 8.6461, "value_rock": 4.7935, "value_soil": 10.2138, "units": "%g", "ln_tau": 0.0, "ln_phi": 0.6207, "ln_sigma": 0.6207, "ln_sigma_rock": 0.7469, "ln_sigma_soil": 0.7389, "ln_bias": 0.5714, "ln_bias_sigma": 0.1339}, {"name": "sa(3.0)", "value": 0.3648, "value_rock": 0.217, "value_soil": 0.5433, "units": "%g", "ln_tau": 0.0, "ln_phi": 0.6422, "ln_sigma": 0.6422, "ln_sigma_rock": 0.782, "ln_sigma_soil": 0.7689, "ln_bias": 1.0637, "ln_bias_sigma": 0.1663}, {"name": "mmi", "value": 4.0632, "value_rock": 3.8607, "value_soil": 4.1662, "units": "intensity", "tau": 0.0, "phi": 1.068, "sigma": 1.068, "sigma_rock": 0.8059, "sigma_soil": 1.2738, "bias": 0.5331, "bias_sigma": 0.1393}], "mmi_from_pgm": [{"name": "pga", "value": 3.89, "sigma": 0.66, "flag": "0"}, {"name": "pgv", "value": 4.15, "sigma": 0.63, "flag": "0"}, {"name": "sa(1.0)", "value": 4.43, "sigma": 0.75, "flag": "0"}, {"name": "sa(0.3)", "value": 4.51, "sigma": 0.82, "flag": "0"}, {"name": "sa(3.0)", "value": 4.52, "sigma": 0.89, "flag": "0"}], "distance_stddev": 8.319, "distances": {"repi": 53.519, "rhypo": 59.155, "rjb": 47.716, "rjb_var": 31.416, "rrup": 53.063, "rrup_var": 69.199, "rx": 0.0, "ry0": 0.0, "rvolc": 0.0}}, "geometry": {"type": "Point", "coordinates": [21.438, 37.67]}}, {"type": "Feature", "id": "G.PAT1", "properties": {"code": "PAT1", "name": "Patra-National Bank", "instrumentType": "UNK", "source": "G", "network": "G", "commType": "UNK", "location": "", "intensity": 3.8, "intensity_flag": "", "intensity_stddev": 0.63, "pga": 1.4286, "pgv": 1.31, "distance": 76.105, "elev": null, "vs30": 399.64, "channels": [{"name": "E", "amplitudes": [{"name": "pgv", "value": 1.31, "units": "cm/s", "flag": "0", "ln_sigma": 0.0}, {"name": "sa(1.0)", "value": 1.9286, "units": "%g", "flag": "0", "ln_sigma": 0.0}, {"name": "pga", "value": 1.4286, "units": "%g", "flag": "0", "ln_sigma": 0.0}, {"name": "sa(0.3)", "value": 3.1735, "units": "%g", "flag": "0", "ln_sigma": 0.0}, {"name": "sa(3.0)", "value": 0.5469, "units": "%g", "flag": "0", "ln_sigma": 0.0}]}, {"name": "N", "amplitudes": [{"name": "pgv", "value": 0.938, "units": "cm/s", "flag": "0", "ln_sigma": 0.0}, {"name": "sa(1.0)", "value": 1.7551, "units": "%g", "flag": "0", "ln_sigma": 0.0}, {"name": "pga", "value": 1.0173, "units": "%g", "flag": "0", "ln_sigma": 0.0}, {"name": "sa(0.3)", "value": 3.3265, "units": "%g", "flag": "0", "ln_sigma": 0.0}, {"name": "sa(3.0)", "value": 0.5286, "units": "%g", "flag": "0", "ln_sigma": 0.0}]}, {"name": "Z", "amplitudes": [{"name": "pgv", "value": 0.999, "units": "cm/s", "flag": "0", "ln_sigma": 0.0}, {"name": "sa(1.0)", "value": 1.1837, "units": "%g", "flag": "0", "ln_sigma": 0.0}, {"name": "pga", "value": 0.8316, "units": "%g", "flag": "0", "ln_sigma": 0.0}, {"name": "sa(0.3)", "value": 1.7041, "units": "%g", "flag": "0", "ln_sigma": 0.0}, {"name": "sa(3.0)", "value": 0.3959, "units": "%g", "flag": "0", "ln_sigma": 0.0}]}], "station_type": "seismic", "nresp": "null", "predictions": [{"name": "pga", "value": 1.9791, "value_rock": 1.602, "value_soil": 2.3457, "units": "%g", "ln_tau": 0.0, "ln_phi": 0.5614, "ln_sigma": 0.5614, "ln_sigma_rock": 0.6727, "ln_sigma_soil": 0.6655, "ln_bias": 0.6657, "ln_bias_sigma": 0.1207}, {"name": "pgv", "value": 1.1153, "value_rock": 0.7943, "value_soil": 1.9625, "units": "cm/s", "ln_tau": 0.0, "ln_phi": 0.6817, "ln_sigma": 0.6817, "ln_sigma_rock": 0.8163, "ln_sigma_soil": 0.8075, "ln_bias": 0.9654, "ln_bias_sigma": 0.1507}, {"name": "sa(1.0)", "value": 1.1502, "value_rock": 0.7556, "value_soil": 2.2244, "units": "%g", "ln_tau": 0.0, "ln_phi": 0.6489, "ln_sigma": 0.6489, "ln_sigma_rock": 0.777, "ln_sigma_soil": 0.768, "ln_bias": 1.0239, "ln_bias_sigma": 0.1507}, {"name": "sa(0.3)", "value": 4.1808, "value_rock": 2.8004, "value_soil": 6.0958, "units": "%g", "ln_tau": 0.0, "ln_phi": 0.6133, "ln_sigma": 0.6133, "ln_sigma_rock": 0.7348, "ln_sigma_soil": 0.7292, "ln_bias": 0.5699, "ln_bias_sigma": 0.1337}, {"name": "sa(3.0)", "value": 0.1977, "value_rock": 0.1421, "value_soil": 0.3606, "units": "%g", "ln_tau": 0.0, "ln_phi": 0.6461, "ln_sigma": 0.6461, "ln_sigma_rock": 0.7737, "ln_sigma_soil": 0.7606, "ln_bias": 1.0656, "ln_bias_sigma": 0.1665}, {"name": "mmi", "value": 3.7826, "value_rock": 3.6404, "value_soil": 3.897, "units": "intensity", "tau": 0.0, "phi": 0.6683, "sigma": 0.6683, "sigma_rock": 0.8004, "sigma_soil": 0.7977, "bias": 0.5025, "bias_sigma": 0.1353}], "mmi_from_pgm": [{"name": "pga", "value": 3.56, "sigma": 0.66, "flag": "0"}, {"name": "pgv", "value": 3.79, "sigma": 0.63, "flag": "0"}, {"name": "sa(1.0)", "value": 4.07, "sigma": 0.75, "flag": "0"}, {"name": "sa(0.3)", "value": 3.9, "sigma": 0.82, "flag": "0"}, {"name": "sa(3.0)", "value": 4.26, "sigma": 0.89, "flag": "0"}], "distance_stddev": 8.024, "distances": {"repi": 78.211, "rhypo": 82.17, "rjb": 72.225, "rjb_var": 32.573, "rrup": 76.105, "rrup_var": 64.392, "rx": 0.0, "ry0": 0.0, "rvolc": 0.0}}, "geometry": {"type": "Point", "coordinates": [21.733, 38.25]}}, {"type": "Feature", "id": "G.AMA", "properties": {"code": "AMA", "name": "Amaliada-OTE Building", "instrumentType": "UNK", "source": "G", "network": "G", "commType": "UNK", "location": "", "intensity": 5.7, "intensity_flag": "", "intensity_stddev": 0.63, "pga": 15.6122, "pgv": 8.44, "distance": 40.861, "elev": null, "vs30": 353.3, "channels": [{"name": "E", "amplitudes": [{"name": "pgv", "value": 4.25, "units": "cm/s", "flag": "0", "ln_sigma": 0.0}, {"name": "sa(1.0)", "value": 4.1429, "units": "%g", "flag": "0", "ln_sigma": 0.0}, {"name": "pga", "value": 8.3061, "units": "%g", "flag": "0", "ln_sigma": 0.0}, {"name": "sa(0.3)", "value": 25.5102, "units": "%g", "flag": "0", "ln_sigma": 0.0}, {"name": "sa(3.0)", "value": 0.9153, "units": "%g", "flag": "0", "ln_sigma": 0.0}]}, {"name": "N", "amplitudes": [{"name": "pgv", "value": 8.44, "units": "cm/s", "flag": "0", "ln_sigma": 0.0}, {"name": "sa(1.0)", "value": 8.1531, "units": "%g", "flag": "0", "ln_sigma": 0.0}, {"name": "pga", "value": 15.6122, "units": "%g", "flag": "0", "ln_sigma": 0.0}, {"name": "sa(0.3)", "value": 41.5306, "units": "%g", "flag": "0", "ln_sigma": 0.0}, {"name": "sa(3.0)", "value": 0.8276, "units": "%g", "flag": "0", "ln_sigma": 0.0}]}, {"name": "Z", "amplitudes": [{"name": "pgv", "value": 1.64, "units": "cm/s", "flag": "0", "ln_sigma": 0.0}, {"name": "sa(1.0)", "value": 1.5816, "units": "%g", "flag": "0", "ln_sigma": 0.0}, {"name": "pga", "value": 4.2041, "units": "%g", "flag": "0", "ln_sigma": 0.0}, {"name": "sa(0.3)", "value": 7.602, "units": "%g", "flag": "0", "ln_sigma": 0.0}, {"name": "sa(3.0)", "value": 0.3531, "units": "%g", "flag": "0", "ln_sigma": 0.0}]}], "station_type": "seismic", "nresp": "null", "predictions": [{"name": "pga", "value": 5.4765, "value_rock": 4.1703, "value_soil": 5.9032, "units": "%g", "ln_tau": 0.0, "ln_phi": 0.5829, "ln_sigma": 0.5829, "ln_sigma_rock": 0.7038, "ln_sigma_soil": 0.6923, "ln_bias": 0.6709, "ln_bias_sigma": 0.1212}, {"name": "pgv", "value": 2.9495, "value_rock": 1.8049, "value_soil": 4.3246, "units": "cm/s", "ln_tau": 0.0, "ln_phi": 0.6939, "ln_sigma": 0.6939, "ln_sigma_rock": 0.8378, "ln_sigma_soil": 0.827, "ln_bias": 0.9692, "ln_bias_sigma": 0.151}, {"name": "sa(1.0)", "value": 2.995, "value_rock": 1.667, "value_soil": 4.7278, "units": "%g", "ln_tau": 0.0, "ln_phi": 0.6597, "ln_sigma": 0.6597, "ln_sigma_rock": 0.7981, "ln_sigma_soil": 0.7871, "ln_bias": 1.028, "ln_bias_sigma": 0.151}, {"name": "sa(0.3)", "value": 11.9517, "value_rock": 6.9603, "value_soil": 14.4748, "units": "%g", "ln_tau": 0.0, "ln_phi": 0.6322, "ln_sigma": 0.6322, "ln_sigma_rock": 0.7611, "ln_sigma_soil": 0.7498, "ln_bias": 0.5736, "ln_bias_sigma": 0.1342}, {"name": "sa(3.0)", "value": 0.4634, "value_rock": 0.2928, "value_soil": 0.7257, "units": "%g", "ln_tau": 0.0, "ln_phi": 0.6508, "ln_sigma": 0.6508, "ln_sigma_rock": 0.7923, "ln_sigma_soil": 0.7789, "ln_bias": 1.068, "ln_bias_sigma": 0.1666}, {"name": "mmi", "value": 4.5322, "value_rock": 4.0943, "value_soil": 4.6527, "units": "intensity", "tau": 0.0, "phi": 1.0868, "sigma": 1.0868, "sigma_rock": 1.3094, "sigma_soil": 1.2935, "bias": 0.5338, "bias_sigma": 0.1394}], "mmi_from_pgm": [{"name": "pga", "value": 6.22, "sigma": 0.66, "flag": "0"}, {"name": "pgv", "value": 5.66, "sigma": 0.63, "flag": "0"}, {"name": "sa(1.0)", "value": 5.49, "sigma": 0.75, "flag": "0"}, {"name": "sa(0.3)", "value": 6.57, "sigma": 0.82, "flag": "0"}, {"name": "sa(3.0)", "value": 4.68, "sigma": 0.89, "flag": "0"}], "distance_stddev": 8.458, "distances": {"repi": 39.771, "rhypo": 47.083, "rjb": 34.172, "rjb_var": 29.834, "rrup": 40.861, "rrup_var": 71.532, "rx": 0.0, "ry0": 0.0, "rvolc": 0.0}}, "geometry": {"type": "Point", "coordinates": [21.35, 37.8]}}, {"type": "Feature", "id": "G.ZAK", "properties": {"code": "ZAK", "name": "Zakynthos-OTE Building", "instrumentType": "UNK", "source": "G", "network": "G", "commType": "UNK", "location": "", "intensity": 6.0, "intensity_flag": "", "intensity_stddev": 0.63, "pga": 15.102, "pgv": 10.6, "distance": 23.956, "elev": null, "vs30": 600.0, "channels": [{"name": "E", "amplitudes": [{"name": "pgv", "value": 8.01, "units": "cm/s", "flag": "0", "ln_sigma": 0.0}, {"name": "sa(1.0)", "value": 8.0306, "units": "%g", "flag": "0", "ln_sigma": 0.0}, {"name": "pga", "value": 15.102, "units": "%g", "flag": "0", "ln_sigma": 0.0}, {"name": "sa(0.3)", "value": 31.0204, "units": "%g", "flag": "0", "ln_sigma": 0.0}, {"name": "sa(3.0)", "value": 0.9847, "units": "%g", "flag": "0", "ln_sigma": 0.0}]}, {"name": "N", "amplitudes": [{"name": "pgv", "value": 10.6, "units": "cm/s", "flag": "0", "ln_sigma": 0.0}, {"name": "sa(1.0)", "value": 12.7551, "units": "%g", "flag": "0", "ln_sigma": 0.0}, {"name": "pga", "value": 14.5918, "units": "%g", "flag": "0", "ln_sigma": 0.0}, {"name": "sa(0.3)", "value": 27.3469, "units": "%g", "flag": "0", "ln_sigma": 0.0}, {"name": "sa(3.0)", "value": 1.0306, "units": "%g", "flag": "0", "ln_sigma": 0.0}]}, {"name": "Z", "amplitudes": [{"name": "pgv", "value": 4.07, "units": "cm/s", "flag": "0", "ln_sigma": 0.0}, {"name": "sa(1.0)", "value": 3.6531, "units": "%g", "flag": "0", "ln_sigma": 0.0}, {"name": "pga", "value": 7.898, "units": "%g", "flag": "0", "ln_sigma": 0.0}, {"name": "sa(0.3)", "value": 11.8367, "units": "%g", "flag": "0", "ln_sigma": 0.0}, {"name": "sa(3.0)", "value": 1.1327, "units": "%g", "flag": "0", "ln_sigma": 0.0}]}], "station_type": "seismic", "nresp": "null", "predictions": [{"name": "pga", "value": 10.4507, "value_rock": 9.2331, "value_soil": 12.2964, "units": "%g", "ln_tau": 0.0, "ln_phi": 0.619, "ln_sigma": 0.619, "ln_sigma_rock": 0.7425, "ln_sigma_soil": 0.7217, "ln_bias": 0.6786, "ln_bias_sigma": 0.1219}, {"name": "pgv", "value": 4.3531, "value_rock": 3.6396, "value_soil": 8.3306, "units": "cm/s", "ln_tau": 0.0, "ln_phi": 0.7258, "ln_sigma": 0.7258, "ln_sigma_rock": 0.8693, "ln_sigma_soil": 0.8537, "ln_bias": 0.9784, "ln_bias_sigma": 0.1517}, {"name": "sa(1.0)", "value": 4.0168, "value_rock": 3.2612, "value_soil": 8.7248, "units": "%g", "ln_tau": 0.0, "ln_phi": 0.6917, "ln_sigma": 0.6917, "ln_sigma_rock": 0.8284, "ln_sigma_soil": 0.8125, "ln_bias": 1.0394, "ln_bias_sigma": 0.1518}, {"name": "sa(0.3)", "value": 18.9346, "value_rock": 14.917, "value_soil": 28.2679, "units": "%g", "ln_tau": 0.0, "ln_phi": 0.6646, "ln_sigma": 0.6646, "ln_sigma_rock": 0.7974, "ln_sigma_soil": 0.7722, "ln_bias": 0.5793, "ln_bias_sigma": 0.1348}, {"name": "sa(3.0)", "value": 0.629, "value_rock": 0.5389, "value_soil": 1.2991, "units": "%g", "ln_tau": 0.0, "ln_phi": 0.6811, "ln_sigma": 0.6811, "ln_sigma_rock": 0.8156, "ln_sigma_soil": 0.8011, "ln_bias": 1.0822, "ln_bias_sigma": 0.1677}, {"name": "mmi", "value": 5.334, "value_rock": 5.1349, "value_soil": 5.5953, "units": "intensity", "tau": 0.0, "phi": 1.1372, "sigma": 1.1372, "sigma_rock": 1.3635, "sigma_soil": 1.3344, "bias": 0.5356, "bias_sigma": 0.1396}], "mmi_from_pgm": [{"name": "pga", "value": 5.93, "sigma": 0.66, "flag": "0"}, {"name": "pgv", "value": 5.97, "sigma": 0.63, "flag": "0"}, {"name": "sa(1.0)", "value": 6.17, "sigma": 0.75, "flag": "0"}, {"name": "sa(0.3)", "value": 5.91, "sigma": 0.82, "flag": "0"}, {"name": "sa(3.0)", "value": 4.9, "sigma": 0.89, "flag": "0"}], "distance_stddev": 7.519, "distances": {"repi": 17.243, "rhypo": 30.535, "rjb": 12.734, "rjb_var": 18.08, "rrup": 23.956, "rrup_var": 56.538, "rx": 0.0, "ry0": 0.0, "rvolc": 0.0}}, "geometry": {"type": "Point", "coordinates": [20.9, 37.785]}}, {"type": "Feature", "id": "G.KYL", "properties": {"code": "KYL", "name": "Kyllini-Police Station", "instrumentType": "UNK", "source": "G", "network": "G", "commType": "UNK", "location": "", "intensity": "null", "intensity_flag": "", "intensity_stddev": "null", "pga": "null", "pgv": "null", "distance": 24.187, "elev": null, "vs30": 414.08, "channels": [{"name": "E", "amplitudes": [{"name": "pgv", "value": 1.06, "units": "cm/s", "flag": "Outlier,0,Outlier", "ln_sigma": 0.0}, {"name": "sa(1.0)", "value": 0.5316, "units": "%g", "flag": "Outlier,0,Outlier", "ln_sigma": 0.0}, {"name": "pga", "value": 2.9388, "units": "%g", "flag": "Outlier,0,Outlier", "ln_sigma": 0.0}, {"name": "sa(0.3)", "value": 3.6122, "units": "%g", "flag": "Outlier,0,Outlier", "ln_sigma": 0.0}, {"name": "sa(3.0)", "value": 0.2582, "units": "%g", "flag": "Outlier,0,Outlier", "ln_sigma": 0.0}]}, {"name": "N", "amplitudes": [{"name": "pgv", "value": 0.768, "units": "cm/s", "flag": "Outlier,0,Outlier", "ln_sigma": 0.0}, {"name": "sa(1.0)", "value": 0.4878, "units": "%g", "flag": "Outlier,0,Outlier", "ln_sigma": 0.0}, {"name": "pga", "value": 2.4592, "units": "%g", "flag": "Outlier,0,Outlier", "ln_sigma": 0.0}, {"name": "sa(0.3)", "value": 2.6122, "units": "%g", "flag": "Outlier,0,Outlier", "ln_sigma": 0.0}, {"name": "sa(3.0)", "value": 0.2786, "units": "%g", "flag": "Outlier,0,Outlier", "ln_sigma": 0.0}]}, {"name": "Z", "amplitudes": [{"name": "pgv", "value": 0.555, "units": "cm/s", "flag": "Outlier,0,Outlier", "ln_sigma": 0.0}, {"name": "sa(1.0)", "value": 0.3969, "units": "%g", "flag": "Outlier,0,Outlier", "ln_sigma": 0.0}, {"name": "pga", "value": 1.1837, "units": "%g", "flag": "Outlier,0,Outlier", "ln_sigma": 0.0}, {"name": "sa(0.3)", "value": 2.1122, "units": "%g", "flag": "Outlier,0,Outlier", "ln_sigma": 0.0}, {"name": "sa(3.0)", "value": 0.1378, "units": "%g", "flag": "Outlier,0,Outlier", "ln_sigma": 0.0}]}], "station_type": "seismic", "nresp": "null", "predictions": [{"name": "pga", "value": 10.9769, "value_rock": 9.0959, "value_soil": 12.1333, "units": "%g", "ln_tau": 0.0, "ln_phi": 0.6166, "ln_sigma": 0.6166, "ln_sigma_rock": 0.7423, "ln_sigma_soil": 0.7217, "ln_bias": 0.6781, "ln_bias_sigma": 0.1218}, {"name": "pgv", "value": 4.9384, "value_rock": 3.5914, "value_soil": 8.2297, "units": "cm/s", "ln_tau": 0.0, "ln_phi": 0.725, "ln_sigma": 0.725, "ln_sigma_rock": 0.8691, "ln_sigma_soil": 0.8536, "ln_bias": 0.9782, "ln_bias_sigma": 0.1517}, {"name": "sa(1.0)", "value": 4.7669, "value_rock": 3.2201, "value_soil": 8.628, "units": "%g", "ln_tau": 0.0, "ln_phi": 0.6908, "ln_sigma": 0.6908, "ln_sigma_rock": 0.8282, "ln_sigma_soil": 0.8124, "ln_bias": 1.0391, "ln_bias_sigma": 0.1518}, {"name": "sa(0.3)", "value": 21.1479, "value_rock": 14.7024, "value_soil": 27.9322, "units": "%g", "ln_tau": 0.0, "ln_phi": 0.6616, "ln_sigma": 0.6616, "ln_sigma_rock": 0.7973, "ln_sigma_soil": 0.7723, "ln_bias": 0.5788, "ln_bias_sigma": 0.1348}, {"name": "sa(3.0)", "value": 0.727, "value_rock": 0.5328, "value_soil": 1.2853, "units": "%g", "ln_tau": 0.0, "ln_phi": 0.6807, "ln_sigma": 0.6807, "ln_sigma_rock": 0.8154, "ln_sigma_soil": 0.801, "ln_bias": 1.082, "ln_bias_sigma": 0.1677}, {"name": "mmi", "value": 5.4172, "value_rock": 5.1152, "value_soil": 5.5782, "units": "intensity", "tau": 0.0, "phi": 1.1338, "sigma": 1.1338, "sigma_rock": 1.3633, "sigma_soil": 1.3344, "bias": 0.5355, "bias_sigma": 0.1396}], "mmi_from_pgm": [{"name": "pga", "value": null, "sigma": null, "flag": "0"}, {"name": "pgv", "value": null, "sigma": null, "flag": "0"}, {"name": "sa(1.0)", "value": null, "sigma": null, "flag": "0"}, {"name": "sa(0.3)", "value": null, "sigma": null, "flag": "0"}, {"name": "sa(3.0)", "value": null, "sigma": null, "flag": "0"}], "distance_stddev": 7.565, "distances": {"repi": 17.636, "rhypo": 30.758, "rjb": 13.089, "rjb_var": 18.504, "rrup": 24.187, "rrup_var": 57.225, "rx": 0.0, "ry0": 0.0, "rvolc": 0.0}}, "geometry": {"type": "Point", "coordinates": [21.133, 37.933]}}, {"type": "Feature", "id": "G.ARG", "properties": {"code": "ARG", "name": "Argostoli-OTE Building", "instrumentType": "UNK", "source": "G", "network": "G", "commType": "UNK", "location": "", "intensity": 3.6, "intensity_flag": "", "intensity_stddev": 0.63, "pga": 1.2449, "pgv": 1.05, "distance": 47.047, "elev": null, "vs30": 458.89, "channels": [{"name": "E", "amplitudes": [{"name": "pgv", "value": 0.667, "units": "cm/s", "flag": "0", "ln_sigma": 0.0}, {"name": "sa(1.0)", "value": 0.6929, "units": "%g", "flag": "Outlier,0,Outlier", "ln_sigma": 0.0}, {"name": "pga", "value": 1.1224, "units": "%g", "flag": "0", "ln_sigma": 0.0}, {"name": "sa(0.3)", "value": 2.6633, "units": "%g", "flag": "0", "ln_sigma": 0.0}, {"name": "sa(3.0)", "value": 0.2, "units": "%g", "flag": "0", "ln_sigma": 0.0}]}, {"name": "N", "amplitudes": [{"name": "pgv", "value": 1.05, "units": "cm/s", "flag": "0", "ln_sigma": 0.0}, {"name": "sa(1.0)", "value": 0.8367, "units": "%g", "flag": "Outlier,0,Outlier", "ln_sigma": 0.0}, {"name": "pga", "value": 