{"type": "FeatureCollection", "features": [{"type": "Feature", "id": "G.103", "properties": {"code": "103", "name": "Kaldarholt", "instrumentType": "UNK", "source": "G", "network": "G", "commType": "UNK", "location": "", "intensity": 6.7, "intensity_flag": "", "intensity_stddev": 0.63, "pga": 39.1837, "pgv": 20.0, "distance": 15.789, "elev": null, "vs30": 347.2, "channels": [{"name": "Z", "amplitudes": [{"name": "pgv", "value": 13.9, "units": "cm/s", "flag": "0", "ln_sigma": 0.0}, {"name": "sa(1.0)", "value": 5.2857, "units": "%g", "flag": "0", "ln_sigma": 0.0}, {"name": "pga", "value": 37.8571, "units": "%g", "flag": "0", "ln_sigma": 0.0}, {"name": "sa(3.0)", "value": 2.0408, "units": "%g", "flag": "0", "ln_sigma": 0.0}, {"name": "sa(0.3)", "value": 56.4286, "units": "%g", "flag": "0", "ln_sigma": 0.0}]}, {"name": "E", "amplitudes": [{"name": "pgv", "value": 19.9, "units": "cm/s", "flag": "0", "ln_sigma": 0.0}, {"name": "sa(1.0)", "value": 10.7143, "units": "%g", "flag": "0", "ln_sigma": 0.0}, {"name": "pga", "value": 33.2653, "units": "%g", "flag": "0", "ln_sigma": 0.0}, {"name": "sa(3.0)", "value": 6.4388, "units": "%g", "flag": "0", "ln_sigma": 0.0}, {"name": "sa(0.3)", "value": 133.6735, "units": "%g", "flag": "0", "ln_sigma": 0.0}]}, {"name": "N", "amplitudes": [{"name": "pgv", "value": 20.0, "units": "cm/s", "flag": "0", "ln_sigma": 0.0}, {"name": "sa(1.0)", "value": 19.5918, "units": "%g", "flag": "0", "ln_sigma": 0.0}, {"name": "pga", "value": 39.1837, "units": "%g", "flag": "0", "ln_sigma": 0.0}, {"name": "sa(3.0)", "value": 5.1224, "units": "%g", "flag": "0", "ln_sigma": 0.0}, {"name": "sa(0.3)", "value": 89.1837, "units": "%g", "flag": "0", "ln_sigma": 0.0}]}], "station_type": "seismic", "nresp": "null", "predictions": [{"name": "sa(0.3)", "value": 58.3961, "value_rock": 45.1639, "value_soil": 57.8197, "units": "%g", "ln_tau": 0.0, "ln_phi": 0.5718, "ln_sigma": 0.5718, "ln_sigma_rock": 0.699, "ln_sigma_soil": 0.6447, "ln_bias": -0.661, "ln_bias_sigma": 0.1697}, {"name": "pgv", "value": 27.2252, "value_rock": 17.667, "value_soil": 28.9064, "units": "cm/s", "ln_tau": 0.0, "ln_phi": 0.6067, "ln_sigma": 0.6067, "ln_sigma_rock": 0.7337, "ln_sigma_soil": 0.6697, "ln_bias": -0.4509, "ln_bias_sigma": 0.1779}, {"name": "pga", "value": 29.2321, "value_rock": 24.0706, "value_soil": 25.117, "units": "%g", "ln_tau": 0.0, "ln_phi": 0.5455, "ln_sigma": 0.5455, "ln_sigma_rock": 0.6651, "ln_sigma_soil": 0.6173, "ln_bias": -0.774, "ln_bias_sigma": 0.1673}, {"name": "sa(3.0)", "value": 10.1839, "value_rock": 5.7035, "value_soil": 12.8595, "units": "%g", "ln_tau": 0.0, "ln_phi": 0.6343, "ln_sigma": 0.6343, "ln_sigma_rock": 0.7594, "ln_sigma_soil": 0.7102, "ln_bias": -0.1547, "ln_bias_sigma": 0.1883}, {"name": "sa(1.0)", "value": 33.0652, "value_rock": 19.1077, "value_soil": 37.7548, "units": "%g", "ln_tau": 0.0, "ln_phi": 0.6143, "ln_sigma": 0.6143, "ln_sigma_rock": 0.7355, "ln_sigma_soil": 0.6786, "ln_bias": -0.8309, "ln_bias_sigma": 0.1795}, {"name": "mmi", "value": 7.1545, "value_rock": 6.561, "value_soil": 7.2367, "units": "intensity", "tau": 0.0, "phi": 0.9849, "sigma": 0.9849, "sigma_rock": 1.1878, "sigma_soil": 1.1142, "bias": -0.4321, "bias_sigma": 0.3033}], "mmi_from_pgm": [{"name": "sa(0.3)", "value": 8.43, "sigma": 0.82, "flag": "0"}, {"name": "pgv", "value": 6.73, "sigma": 0.63, "flag": "0"}, {"name": "pga", "value": 7.17, "sigma": 0.66, "flag": "0"}, {"name": "sa(3.0)", "value": 7.27, "sigma": 0.89, "flag": "0"}, {"name": "sa(1.0)", "value": 6.62, "sigma": 0.75, "flag": "0"}], "distance_stddev": 7.689, "distances": {"repi": 14.102, "rhypo": 17.288, "rjb": 8.219, "rjb_var": 18.77, "rrup": 15.789, "rrup_var": 59.114}}, "geometry": {"type": "Point", "coordinates": [-20.474, 64.004]}}, {"type": "Feature", "id": "G.305", "properties": {"code": "305", "name": "Irafoss-Hydroelectric Power Station", "instrumentType": "UNK", "source": "G", "network": "G", "commType": "UNK", "location": "", "intensity": 5.9, "intensity_flag": "", "intensity_stddev": 0.63, "pga": 10.5102, "pgv": 10.7, "distance": 17.435, "elev": null, "vs30": 600.0, "channels": [{"name": "Z", "amplitudes": [{"name": "pgv", "value": 4.07, "units": "cm/s", "flag": "0", "ln_sigma": 0.0}, {"name": "sa(1.0)", "value": 5.1837, "units": "%g", "flag": "0", "ln_sigma": 0.0}, {"name": "pga", "value": 4.0102, "units": "%g", "flag": "0", "ln_sigma": 0.0}, {"name": "sa(3.0)", "value": 1.398, "units": "%g", "flag": "0", "ln_sigma": 0.0}, {"name": "sa(0.3)", "value": 13.5714, "units": "%g", "flag": "0", "ln_sigma": 0.0}]}, {"name": "E", "amplitudes": [{"name": "pgv", "value": 8.76, "units": "cm/s", "flag": "0", "ln_sigma": 0.0}, {"name": "sa(1.0)", "value": 11.5306, "units": "%g", "flag": "0", "ln_sigma": 0.0}, {"name": "pga", "value": 5.1429, "units": "%g", "flag": "0", "ln_sigma": 0.0}, {"name": "sa(3.0)", "value": 4.0612, "units": "%g", "flag": "0", "ln_sigma": 0.0}, {"name": "sa(0.3)", "value": 10.5102, "units": "%g", "flag": "0", "ln_sigma": 0.0}]}, {"name": "N", "amplitudes": [{"name": "pgv", "value": 10.7, "units": "cm/s", "flag": "0", "ln_sigma": 0.0}, {"name": "sa(1.0)", "value": 10.8163, "units": "%g", "flag": "0", "ln_sigma": 0.0}, {"name": "pga", "value": 10.5102, "units": "%g", "flag": "0", "ln_sigma": 0.0}, {"name": "sa(3.0)", "value": 6.949, "units": "%g", "flag": "0", "ln_sigma": 0.0}, {"name": "sa(0.3)", "value": 13.8776, "units": "%g", "flag": "0", "ln_sigma": 0.0}]}], "station_type": "seismic", "nresp": "null", "predictions": [{"name": "sa(0.3)", "value": 41.3727, "value_rock": 38.1031, "value_soil": 52.317, "units": "%g", "ln_tau": 0.0, "ln_phi": 0.5707, "ln_sigma": 0.5707, "ln_sigma_rock": 0.6873, "ln_sigma_soil": 0.6398, "ln_bias": -0.6605, "ln_bias_sigma": 0.1696}, {"name": "pgv", "value": 16.4316, "value_rock": 14.392, "value_soil": 25.1872, "units": "cm/s", "ln_tau": 0.0, "ln_phi": 0.5959, "ln_sigma": 0.5959, "ln_sigma_rock": 0.7154, "ln_sigma_soil": 0.6596, "ln_bias": -0.4477, "ln_bias_sigma": 0.1772}, {"name": "pga", "value": 22.3842, "value_rock": 21.0088, "value_soil": 23.8944, "units": "%g", "ln_tau": 0.0, "ln_phi": 0.5473, "ln_sigma": 0.5473, "ln_sigma_rock": 0.6586, "ln_sigma_soil": 0.6164, "ln_bias": -0.7751, "ln_bias_sigma": 0.1674}, {"name": "sa(3.0)", "value": 5.4241, "value_rock": 4.5536, "value_soil": 10.7478, "units": "%g", "ln_tau": 0.0, "ln_phi": 0.6156, "ln_sigma": 0.6156, "ln_sigma_rock": 0.7371, "ln_sigma_soil": 0.694, "ln_bias": -0.1528, "ln_bias_sigma": 0.1871}, {"name": "sa(1.0)", "value": 18.3894, "value_rock": 15.5849, "value_soil": 32.673, "units": "%g", "ln_tau": 0.0, "ln_phi": 0.5988, "ln_sigma": 0.5988, "ln_sigma_rock": 0.717, "ln_sigma_soil": 0.6674, "ln_bias": -0.8224, "ln_bias_sigma": 0.1785}, {"name": "mmi", "value": 6.4616, "value_rock": 6.2797, "value_soil": 7.0477, "units": "intensity", "tau": 0.0, "phi": 0.9724, "sigma": 0.9724, "sigma_rock": 1.1666, "sigma_soil": 1.1028, "bias": -0.4296, "bias_sigma": 0.3024}], "mmi_from_pgm": [{"name": "sa(0.3)", "value": 4.56, "sigma": 0.82, "flag": "0"}, {"name": "pgv", "value": 5.87, "sigma": 0.63, "flag": "0"}, {"name": "pga", "value": 5.1, "sigma": 0.66, "flag": "0"}, {"name": "sa(3.0)", "value": 7.35, "sigma": 0.89, "flag": "0"}, {"name": "sa(1.0)", "value": 5.93, "sigma": 0.75, "flag": "0"}], "distance_stddev": 8.139, "distances": {"repi": 17.064, "rhypo": 19.778, "rjb": 10.651, "rjb_var": 24.431, "rrup": 17.435, "rrup_var": 66.24}}, "geometry": {"type": "Point", "coordinates": [-21.007, 64.088]}}, {"type": "Feature", "id": "G.112", "properties": {"code": "112", "name": "Selfoss-City Hall", "instrumentType": "UNK", "source": "G", "network": "G", "commType": "UNK", "location": "", "intensity": 6.5, "intensity_flag": "", "intensity_stddev": 0.63, "pga": 12.7551, "pgv": 16.6, "distance": 15.136, "elev": null, "vs30": 289.85, "channels": [{"name": "Z", "amplitudes": [{"name": "pgv", "value": 3.77, "units": "cm/s", "flag": "0", "ln_sigma": 0.0}, {"name": "sa(1.0)", "value": 6.8878, "units": "%g", "flag": "0", "ln_sigma": 0.0}, {"name": "pga", "value": 6.9184, "units": "%g", "flag": "0", "ln_sigma": 0.0}, {"name": "sa(3.0)", "value": 0.8959, "units": "%g", "flag": "0", "ln_sigma": 0.0}, {"name": "sa(0.3)", "value": 19.3878, "units": "%g", "flag": "0", "ln_sigma": 0.0}]}, {"name": "E", "amplitudes": [{"name": "pgv", "value": 16.6, "units": "cm/s", "flag": "0", "ln_sigma": 0.0}, {"name": "sa(1.0)", "value": 13.5714, "units": "%g", "flag": "0", "ln_sigma": 0.0}, {"name": "pga", "value": 12.7551, "units": "%g", "flag": "0", "ln_sigma": 0.0}, {"name": "sa(3.0)", "value": 4.2143, "units": "%g", "flag": "0", "ln_sigma": 0.0}, {"name": "sa(0.3)", "value": 52.0408, "units": "%g", "flag": "0", "ln_sigma": 0.0}]}, {"name": "N", "amplitudes": [{"name": "pgv", "value": 10.8, "units": "cm/s", "flag": "0", "ln_sigma": 0.0}, {"name": "sa(1.0)", "value": 6.7245, "units": "%g", "flag": "0", "ln_sigma": 0.0}, {"name": "pga", "value": 11.5306, "units": "%g", "flag": "0", "ln_sigma": 0.0}, {"name": "sa(3.0)", "value": 2.0408, "units": "%g", "flag": "0", "ln_sigma": 0.0}, {"name": "sa(0.3)", "value": 40.6122, "units": "%g", "flag": "0", "ln_sigma": 0.0}]}], "station_type": "seismic", "nresp": "null", "predictions": [{"name": "sa(0.3)", "value": 65.6241, "value_rock": 49.0992, "value_soil": 60.7469, "units": "%g", "ln_tau": 0.0, "ln_phi": 0.571, "ln_sigma": 0.571, "ln_sigma_rock": 0.7048, "ln_sigma_soil": 0.647, "ln_bias": -0.6606, "ln_bias_sigma": 0.1696}, {"name": "pgv", "value": 32.4211, "value_rock": 19.5504, "value_soil": 30.9544, "units": "cm/s", "ln_tau": 0.0, "ln_phi": 0.6085, "ln_sigma": 0.6085, "ln_sigma_rock": 0.7423, "ln_sigma_soil": 0.6742, "ln_bias": -0.4515, "ln_bias_sigma": 0.178}, {"name": "pga", "value": 31.6182, "value_rock": 25.7206, "value_soil": 25.7339, "units": "%g", "ln_tau": 0.0, "ln_phi": 0.5433, "ln_sigma": 0.5433, "ln_sigma_rock": 0.6685, "ln_sigma_soil": 0.6178, "ln_bias": -0.7726, "ln_bias_sigma": 0.1671}, {"name": "sa(3.0)", "value": 12.7742, "value_rock": 6.3767, "value_soil": 14.0598, "units": "%g", "ln_tau": 0.0, "ln_phi": 0.6399, "ln_sigma": 0.6399, "ln_sigma_rock": 0.77, "ln_sigma_soil": 0.7177, "ln_bias": -0.1553, "ln_bias_sigma": 0.1886}, {"name": "sa(1.0)", "value": 40.5187, "value_rock": 21.1363, "value_soil": 40.5733, "units": "%g", "ln_tau": 0.0, "ln_phi": 0.6179, "ln_sigma": 0.6179, "ln_sigma_rock": 0.7444, "ln_sigma_soil": 0.6838, "ln_bias": -0.8328, "ln_bias_sigma": 0.1797}, {"name": "mmi", "value": 7.3942, "value_rock": 6.7001, "value_soil": 7.3307, "units": "intensity", "tau": 0.0, "phi": 0.9871, "sigma": 0.9871, "sigma_rock": 1.1977, "sigma_soil": 1.1194, "bias": -0.4325, "bias_sigma": 0.3034}], "mmi_from_pgm": [{"name": "sa(0.3)", "value": 6.72, "sigma": 0.82, "flag": "0"}, {"name": "pgv", "value": 6.48, "sigma": 0.63, "flag": "0"}, {"name": "pga", "value": 5.35, "sigma": 0.66, "flag": "0"}, {"name": "sa(3.0)", "value": 6.73, "sigma": 0.89, "flag": "0"}, {"name": "sa(1.0)", "value": 6.17, "sigma": 0.75, "flag": "0"}], "distance_stddev": 7.498, "distances": {"repi": 12.835, "rhypo": 16.271, "rjb": 7.199, "rjb_var": 16.322, "rrup": 15.136, "rrup_var": 56.215}}, "geometry": {"type": "Point", "coordinates": [-21.002, 63.937]}}, {"type": "Feature", "id": "G.109", "properties": {"code": "109", "name": "Solheimar", "instrumentType": "UNK", "source": "G", "network": "G", "commType": "UNK", "location": "", "intensity": "null", "intensity_flag": "", "intensity_stddev": "null", "pga": "null", "pgv": "null", "distance": 14.347, "elev": null, "vs30": 296.24, "channels": [{"name": "Z", "amplitudes": [{"name": "pgv", "value": 23.7, "units": "cm/s", "flag": "Outlier,0,Outlier", "ln_sigma": 0.0}, {"name": "sa(1.0)", "value": 20.4082, "units": "%g", "flag": "Outlier,0,Outlier", "ln_sigma": 0.0}, {"name": "pga", "value": 42.0408, "units": "%g", "flag": "Outlier,0,Outlier", "ln_sigma": 0.0}, {"name": "sa(3.0)", "value": 6.5816, "units": "%g", "flag": "0", "ln_sigma": 0.0}, {"name": "sa(0.3)", "value": 34.6939, "units": "%g", "flag": "0", "ln_sigma": 0.0}]}, {"name": "E", "amplitudes": [{"name": "pgv", "value": 37.7, "units": "cm/s", "flag": "Outlier,0,Outlier", "ln_sigma": 0.0}, {"name": "sa(1.0)", "value": 26.1224, "units": "%g", "flag": "Outlier,0,Outlier", "ln_sigma": 0.0}, {"name": "pga", "value": 42.0408, "units": "%g", "flag": "Outlier,0,Outlier", "ln_sigma": 0.0}, {"name": "sa(3.0)", "value": 12.449, "units": "%g", "flag": "0", "ln_sigma": 0.0}, {"name": "sa(0.3)", "value": 76.9388, "units": "%g", "flag": "0", "ln_sigma": 0.0}]}, {"name": "N", "amplitudes": [{"name": "pgv", "value": 96.9, "units": "cm/s", "flag": "Outlier,0,Outlier", "ln_sigma": 0.0}, {"name": "sa(1.0)", "value": 94.6939, "units": "%g", "flag": "Outlier,0,Outlier", "ln_sigma": 0.0}, {"name": "pga", "value": 72.1429, "units": "%g", "flag": "Outlier,0,Outlier", "ln_sigma": 0.0}, {"name": "sa(3.0)", "value": 14.898, "units": "%g", "flag": "0", "ln_sigma": 0.0}, {"name": "sa(0.3)", "value": 81.0204, "units": "%g", "flag": "0", "ln_sigma": 0.0}]}], "station_type": "seismic", "nresp": "null", "predictions": [{"name": "sa(0.3)", "value": 73.8982, "value_rock": 55.9464, "value_soil": 65.6197, "units": "%g", "ln_tau": 0.0, "ln_phi": 0.5782, "ln_sigma": 0.5782, "ln_sigma_rock": 0.7131, "ln_sigma_soil": 0.65, "ln_bias": -0.6639, "ln_bias_sigma": 0.17}, {"name": "pgv", "value": 37.791, "value_rock": 22.9065, "value_soil": 34.4531, "units": "cm/s", "ln_tau": 0.0, "ln_phi": 0.6195, "ln_sigma": 0.6195, "ln_sigma_rock": 0.7534, "ln_sigma_soil": 0.6796, "ln_bias": -0.4546, "ln_bias_sigma": 0.1786}, {"name": "pga", "value": 34.8469, "value_rock": 28.5241, "value_soil": 26.7238, "units": "%g", "ln_tau": 0.0, "ln_phi": 0.5485, "ln_sigma": 0.5485, "ln_sigma_rock": 0.6742, "ln_sigma_soil": 0.6186, "ln_bias": -0.7758, "ln_bias_sigma": 0.1675}, {"name": "sa(3.0)", "value": 15.1368, "value_rock": 7.5958, "value_soil": 16.1732, "units": "%g", "ln_tau": 0.0, "ln_phi": 0.6536, "ln_sigma": 0.6536, "ln_sigma_rock": 0.784, "ln_sigma_soil": 0.7274, "ln_bias": -0.1566, "ln_bias_sigma": 0.1894}, {"name": "sa(1.0)", "value": 47.4108, "value_rock": 24.7607, "value_soil": 45.4311, "units": "%g", "ln_tau": 0.0, "ln_phi": 0.6303, "ln_sigma": 0.6303, "ln_sigma_rock": 0.7565, "ln_sigma_soil": 0.6906, "ln_bias": -0.8392, "ln_bias_sigma": 0.1804}, {"name": "mmi", "value": 7.6045, "value_rock": 6.9175, "value_soil": 7.4776, "units": "intensity", "tau": 0.0, "phi": 0.9998, "sigma": 0.9998, "sigma_rock": 1.2108, "sigma_soil": 1.1256, "bias": -0.4349, "bias_sigma": 0.3043}], "mmi_from_pgm": [{"name": "sa(0.3)", "value": 7.5, "sigma": 0.82, "flag": "0"}, {"name": "pgv", "value": null, "sigma": null, "flag": "0"}, {"name": "pga", "value": null, "sigma": null, "flag": "0"}, {"name": "sa(3.0)", "value": 8.39, "sigma": 0.89, "flag": "0"}, {"name": "sa(1.0)", "value": null, "sigma": null, "flag": "0"}], "distance_stddev": 7.269, "distances": {"repi": 11.011, "rhypo": 14.875, "rjb": 5.803, "rjb_var": 12.906, "rrup": 14.347, "rrup_var": 52.84}}, "geometry": {"type": "Point", "coordinates": [-20.642, 64.065]}}, {"type": "Feature", "id": "G.502", "properties": {"code": "502", "name": "Thjorsarbru", "instrumentType": "UNK", "source": "G", "network": "G", "commType": "UNK", "location": "", "intensity": 8.8, "intensity_flag": "", "intensity_stddev": 0.63, "pga": 83.8776, "pgv": 92.0, "distance": 13.141, "elev": null, "vs30": 268.3, "channels": [{"name": "Z", "amplitudes": [{"name": "pgv", "value": 23.9, "units": "cm/s", "flag": "0", "ln_sigma": 0.0}, {"name": "sa(1.0)", "value": 21.4286, "units": "%g", "flag": "0", "ln_sigma": 0.0}, {"name": "pga", "value": 42.2449, "units": "%g", "flag": "0", "ln_sigma": 0.0}, {"name": "sa(3.0)", "value": 6.8571, "units": "%g", "flag": "0", "ln_sigma": 0.0}, {"name": "sa(0.3)", "value": 64.6939, "units": "%g", "flag": "0", "ln_sigma": 0.0}]}, {"name": "E", "amplitudes": [{"name": "pgv", "value": 45.6, "units": "cm/s", "flag": "0", "ln_sigma": 0.0}, {"name": "sa(1.0)", "value": 26.0204, "units": "%g", "flag": "0", "ln_sigma": 0.0}, {"name": "pga", "value": 74.3878, "units": "%g", "flag": "0", "ln_sigma": 0.0}, {"name": "sa(3.0)", "value": 4.6327, "units": "%g", "flag": "0", "ln_sigma": 0.0}, {"name": "sa(0.3)", "value": 112.2449, "units": "%g", "flag": "0", "ln_sigma": 0.0}]}, {"name": "N", "amplitudes": [{"name": "pgv", "value": 92.0, "units": "cm/s", "flag": "0", "ln_sigma": 0.0}, {"name": "sa(1.0)", "value": 60.2041, "units": "%g", "flag": "0", "ln_sigma": 0.0}, {"name": "pga", "value": 83.8776, "units": "%g", "flag": "0", "ln_sigma": 0.0}, {"name": "sa(3.0)", "value": 17.9592, "units": "%g", "flag": "0", "ln_sigma": 0.0}, {"name": "sa(0.3)", "value": 128.5714, "units": "%g", "flag": "0", "ln_sigma": 0.0}]}], "station_type": "seismic", "nresp": "null", "predictions": [{"name": "sa(0.3)", "value": 91.9843, "value_rock": 75.182, "value_soil": 77.9397, "units": "%g", "ln_tau": 0.0, "ln_phi": 0.5731, "ln_sigma": 0.5731, "ln_sigma_rock": 0.72, "ln_sigma_soil": 0.6502, "ln_bias": -0.6616, "ln_bias_sigma": 0.1697}, {"name": "pgv", "value": 50.9618, "value_rock": 32.6516, "value_soil": 43.6135, "units": "cm/s", "ln_tau": 0.0, "ln_phi": 0.6081, "ln_sigma": 0.6081, "ln_sigma_rock": 0.7558, "ln_sigma_soil": 0.6759, "ln_bias": -0.4514, "ln_bias_sigma": 0.178}, {"name": "pga", "value": 39.5552, "value_rock": 36.2141, "value_soil": 29.1456, "units": "%g", "ln_tau": 0.0, "ln_phi": 0.5458, "ln_sigma": 0.5458, "ln_sigma_rock": 0.6853, "ln_sigma_soil": 0.6202, "ln_bias": -0.7742, "ln_bias_sigma": 0.1673}, {"name": "sa(3.0)", "value": 22.3727, "value_rock": 11.2772, "value_soil": 22.1497, "units": "%g", "ln_tau": 0.0, "ln_phi": 0.6505, "ln_sigma": 0.6505, "ln_sigma_rock": 0.7934, "ln_sigma_soil": 0.7308, "ln_bias": -0.1563, "ln_bias_sigma": 0.1892}, {"name": "sa(1.0)", "value": 65.7304, "value_rock": 35.4204, "value_soil": 58.5432, "units": "%g", "ln_tau": 0.0, "ln_phi": 0.624, "ln_sigma": 0.624, "ln_sigma_rock": 0.7646, "ln_sigma_soil": 0.6918, "ln_bias": -0.836, "ln_bias_sigma": 0.18}, {"name": "mmi", "value": 8.0149, "value_rock": 7.4039, "value_soil": 7.8012, "units": "intensity", "tau": 0.0, "phi": 0.9866, "sigma": 0.9866, "sigma_rock": 1.2135, "sigma_soil": 1.1213, "bias": -0.4324, "bias_sigma": 0.3034}], "mmi_from_pgm": [{"name": "sa(0.3)", "value": 8.31, "sigma": 0.82, "flag": "0"}, {"name": "pgv", "value": 8.83, "sigma": 0.63, "flag": "0"}, {"name": "pga", "value": 8.31, "sigma": 0.66, "flag": "0"}, {"name": "sa(3.0)", "value": 8.66, "sigma": 0.89, "flag": "0"}, {"name": "sa(1.0)", "value": 8.07, "sigma": 0.75, "flag": "0"}], "distance_stddev": 6.934, "distances": {"repi": 7.616, "rhypo": 12.57, "rjb": 3.353, "rjb_var": 6.945, "rrup": 13.141, "rrup_var": 48.08}}, "geometry": {"type": "Point", "coordinates": [-20.649, 63.931]}}, {"type": "Feature", "id": "G.113", "properties": {"code": "113", "name": "Hveragerdi-Retirement House", "instrumentType": "UNK", "source": "G", "network": "G", "commType": "UNK", "location": "", "intensity": 5.9, "intensity_flag": "", "intensity_stddev": 0.63, "pga": 11.3265, "pgv": 10.8, "distance": 19.998, "elev": null, "vs30": 696.25, "channels": [{"name": "Z", "amplitudes": [{"name": "pgv", "value": 2.41, "units": "cm/s", "flag": "0", "ln_sigma": 0.0}, {"name": "sa(1.0)", "value": 2.1837, "units": "%g", "flag": "0", "ln_sigma": 0.0}, {"name": "pga", "value": 6.051, "units": "%g", "flag": "0", "ln_sigma": 0.0}, {"name": "sa(3.0)", "value": 1.2245, "units": "%g", "flag": "0", "ln_sigma": 0.0}, {"name": "sa(0.3)", "value": 5.0816, "units": "%g", "flag": "0", "ln_sigma": 0.0}]}, {"name": "E", "amplitudes": [{"name": "pgv", "value": 10.8, "units": "cm/s", "flag": "0", "ln_sigma": 0.0}, {"name": "sa(1.0)", "value": 12.7551, "units": "%g", "flag": "0", "ln_sigma": 0.0}, {"name": "pga", "value": 11.3265, "units": "%g", "flag": "0", "ln_sigma": 0.0}, {"name": "sa(3.0)", "value": 5.3061, "units": "%g", "flag": "0", "ln_sigma": 0.0}, {"name": "sa(0.3)", "value": 15.4082, "units": "%g", "flag": "0", "ln_sig