{"type": "FeatureCollection", "features": [{"type": "Feature", "id": "BO.NIG015", "properties": {"code": "NIG015", "name": "", "instrumentType": "UNK", "source": "BO", "network": "BO", "commType": "UNK", "location": "", "intensity": 4.1, "intensity_flag": "", "intensity_stddev": 0.63, "pga": 3.3619, "pgv": 2.3262, "distance": 101.248, "elev": null, "vs30": 361.9, "channels": [{"name": "GREATER_OF_TWO_HORIZONTALS", "amplitudes": [{"name": "pga", "value": 3.3619, "units": "%g", "flag": "UnknownOrientation,0,UnknownOrientation,UnknownOrientation,0,UnknownOrientation,UnknownOrientation,0", "ln_sigma": 0.0}, {"name": "pgv", "value": 2.3262, "units": "cm/s", "flag": "UnknownOrientation,0,UnknownOrientation,UnknownOrientation,0,UnknownOrientation,UnknownOrientation,0", "ln_sigma": 0.0}, {"name": "sa(0.3)", "value": 8.4832, "units": "%g", "flag": "UnknownOrientation,0,UnknownOrientation,UnknownOrientation,0,UnknownOrientation,UnknownOrientation,0", "ln_sigma": 0.0}, {"name": "sa(1.0)", "value": 3.1916, "units": "%g", "flag": "UnknownOrientation,0,UnknownOrientation,UnknownOrientation,0,UnknownOrientation,UnknownOrientation,0", "ln_sigma": 0.0}, {"name": "sa(3.0)", "value": 0.6077, "units": "%g", "flag": "UnknownOrientation,0,UnknownOrientation,UnknownOrientation,0,UnknownOrientation,UnknownOrientation,0", "ln_sigma": 0.0}]}, {"name": "H1", "amplitudes": [{"name": "pga", "value": 2.2318, "units": "%g", "flag": "0", "ln_sigma": 0.0}, {"name": "pgv", "value": 2.3262, "units": "cm/s", "flag": "0", "ln_sigma": 0.0}, {"name": "sa(0.3)", "value": 4.7123, "units": "%g", "flag": "0", "ln_sigma": 0.0}, {"name": "sa(1.0)", "value": 2.8692, "units": "%g", "flag": "0", "ln_sigma": 0.0}, {"name": "sa(3.0)", "value": 0.4785, "units": "%g", "flag": "0", "ln_sigma": 0.0}]}, {"name": "H2", "amplitudes": [{"name": "pga", "value": 3.3619, "units": "%g", "flag": "0", "ln_sigma": 0.0}, {"name": "pgv", "value": 1.7748, "units": "cm/s", "flag": "0", "ln_sigma": 0.0}, {"name": "sa(0.3)", "value": 8.4832, "units": "%g", "flag": "0", "ln_sigma": 0.0}, {"name": "sa(1.0)", "value": 3.1916, "units": "%g", "flag": "0", "ln_sigma": 0.0}, {"name": "sa(3.0)", "value": 0.6077, "units": "%g", "flag": "0", "ln_sigma": 0.0}]}, {"name": "Z", "amplitudes": [{"name": "pga", "value": 1.4124, "units": "%g", "flag": "0", "ln_sigma": 0.0}, {"name": "pgv", "value": 1.0933, "units": "cm/s", "flag": "0", "ln_sigma": 0.0}, {"name": "sa(0.3)", "value": 4.5137, "units": "%g", "flag": "0", "ln_sigma": 0.0}, {"name": "sa(1.0)", "value": 1.4843, "units": "%g", "flag": "0", "ln_sigma": 0.0}, {"name": "sa(3.0)", "value": 0.3614, "units": "%g", "flag": "0", "ln_sigma": 0.0}]}], "station_type": "seismic", "nresp": "null", "predictions": [{"name": "sa(0.3)", "value": 6.4194, "value_rock": 3.6225, "value_soil": 10.2812, "units": "%g", "ln_tau": 0.3168, "ln_phi": 0.6008, "ln_sigma": 0.6792, "ln_sigma_rock": 0.6861, "ln_sigma_soil": 0.6586, "ln_bias": 0.5148, "ln_bias_sigma": 0.1159}, {"name": "pgv", "value": 2.5056, "value_rock": 1.4924, "value_soil": 4.0771, "units": "cm/s", "ln_tau": 0.3355, "ln_phi": 0.5727, "ln_sigma": 0.6637, "ln_sigma_rock": 0.6668, "ln_sigma_soil": 0.6466, "ln_bias": 0.2572, "ln_bias_sigma": 0.117}, {"name": "pga", "value": 2.4978, "value_rock": 1.8107, "value_soil": 3.2466, "units": "%g", "ln_tau": 0.3353, "ln_phi": 0.5368, "ln_sigma": 0.6329, "ln_sigma_rock": 0.6391, "ln_sigma_soil": 0.6136, "ln_bias": 0.6748, "ln_bias_sigma": 0.107}, {"name": "sa(3.0)", "value": 0.6176, "value_rock": 0.31, "value_soil": 1.2014, "units": "%g", "ln_tau": 0.3778, "ln_phi": 0.6233, "ln_sigma": 0.7289, "ln_sigma_rock": 0.7323, "ln_sigma_soil": 0.7321, "ln_bias": -0.0046, "ln_bias_sigma": 0.1329}, {"name": "sa(1.0)", "value": 2.7418, "value_rock": 1.3638, "value_soil": 5.2245, "units": "%g", "ln_tau": 0.3545, "ln_phi": 0.6378, "ln_sigma": 0.7297, "ln_sigma_rock": 0.7328, "ln_sigma_soil": 0.7227, "ln_bias": 0.2107, "ln_bias_sigma": 0.1295}, {"name": "mmi", "value": 3.9808, "value_rock": 3.7643, "value_soil": 4.1573, "units": "intensity", "tau": 0.2257, "phi": 0.7524, "sigma": 0.7856, "sigma_rock": 0.7878, "sigma_soil": 0.7786, "bias": 0.2974, "bias_sigma": 0.1506}], "mmi_from_pgm": [{"name": "sa(0.3)", "value": 4.66, "sigma": 0.82, "flag": "0"}, {"name": "pgv", "value": 4.07, "sigma": 0.63, "flag": "0"}, {"name": "pga", "value": 4.18, "sigma": 0.66, "flag": "0"}, {"name": "sa(3.0)", "value": 4.14, "sigma": 0.89, "flag": "0"}, {"name": "sa(1.0)", "value": 4.19, "sigma": 0.75, "flag": "0"}], "distance_stddev": 9.34, "distances": {"repi": 108.124, "rhypo": 108.788, "rjb": 99.446, "rjb_var": 57.763, "rrup": 101.248, "rrup_var": 87.231, "rx": 0.0, "ry0": 0.0, "rvolc": 0.0}}, "geometry": {"type": "Point", "coordinates": [139.1886, 37.6935]}}, {"type": "Feature", "id": "BO.FKS006", "properties": {"code": "FKS006", "name": "", "instrumentType": "UNK", "source": "BO", "network": "BO", "commType": "UNK", "location": "", "intensity": 4.0, "intensity_flag": "", "intensity_stddev": 0.63, "pga": 4.5368, "pgv": 2.0597, "distance": 160.957, "elev": null, "vs30": 775.5, "channels": [{"name": "GREATER_OF_TWO_HORIZONTALS", "amplitudes": [{"name": "pga", "value": 4.5368, "units": "%g", "flag": "UnknownOrientation,0,UnknownOrientation,UnknownOrientation,0,UnknownOrientation,UnknownOrientation,0", "ln_sigma": 0.0}, {"name": "pgv", "value": 2.0597, "units": "cm/s", "flag": "UnknownOrientation,0,UnknownOrientation,UnknownOrientation,0,UnknownOrientation,UnknownOrientation,0", "ln_sigma": 0.0}, {"name": "sa(0.3)", "value": 9.9348, "units": "%g", "flag": "UnknownOrientation,0,UnknownOrientation,UnknownOrientation,0,UnknownOrientation,UnknownOrientation,0", "ln_sigma": 0.0}, {"name": "sa(1.0)", "value": 0.6709, "units": "%g", "flag": "UnknownOrientation,0,UnknownOrientation,UnknownOrientation,0,UnknownOrientation,UnknownOrientation,0", "ln_sigma": 0.0}, {"name": "sa(3.0)", "value": 0.1326, "units": "%g", "flag": "UnknownOrientation,0,UnknownOrientation,UnknownOrientation,0,UnknownOrientation,UnknownOrientation,0", "ln_sigma": 0.0}]}, {"name": "H1", "amplitudes": [{"name": "pga", "value": 4.5368, "units": "%g", "flag": "0", "ln_sigma": 0.0}, {"name": "pgv", "value": 1.6631, "units": "cm/s", "flag": "0", "ln_sigma": 0.0}, {"name": "sa(0.3)", "value": 9.9348, "units": "%g", "flag": "0", "ln_sigma": 0.0}, {"name": "sa(1.0)", "value": 0.6709, "units": "%g", "flag": "0", "ln_sigma": 0.0}, {"name": "sa(3.0)", "value": 0.1259, "units": "%g", "flag": "0", "ln_sigma": 0.0}]}, {"name": "H2", "amplitudes": [{"name": "pga", "value": 3.931, "units": "%g", "flag": "0", "ln_sigma": 0.0}, {"name": "pgv", "value": 2.0597, "units": "cm/s", "flag": "0", "ln_sigma": 0.0}, {"name": "sa(0.3)", "value": 8.7566, "units": "%g", "flag": "0", "ln_sigma": 0.0}, {"name": "sa(1.0)", "value": 0.6544, "units": "%g", "flag": "0", "ln_sigma": 0.0}, {"name": "sa(3.0)", "value": 0.1326, "units": "%g", "flag": "0", "ln_sigma": 0.0}]}, {"name": "Z", "amplitudes": [{"name": "pga", "value": 1.3427, "units": "%g", "flag": "0", "ln_sigma": 0.0}, {"name": "pgv", "value": 0.9186, "units": "cm/s", "flag": "0", "ln_sigma": 0.0}, {"name": "sa(0.3)", "value": 1.4681, "units": "%g", "flag": "0", "ln_sigma": 0.0}, {"name": "sa(1.0)", "value": 0.8855, "units": "%g", "flag": "0", "ln_sigma": 0.0}, {"name": "sa(3.0)", "value": 0.2222, "units": "%g", "flag": "0", "ln_sigma": 0.0}]}], "station_type": "seismic", "nresp": "null", "predictions": [{"name": "sa(0.3)", "value": 1.5893, "value_rock": 1.629, "value_soil": 4.8048, "units": "%g", "ln_tau": 0.3196, "ln_phi": 0.6101, "ln_sigma": 0.6888, "ln_sigma_rock": 0.6923, "ln_sigma_soil": 0.6746, "ln_bias": 0.516, "ln_bias_sigma": 0.116}, {"name": "pgv", "value": 0.8022, "value_rock": 0.8189, "value_soil": 2.2764, "units": "cm/s", "ln_tau": 0.3362, "ln_phi": 0.5755, "ln_sigma": 0.6665, "ln_sigma_rock": 0.6685, "ln_sigma_soil": 0.6507, "ln_bias": 0.2574, "ln_bias_sigma": 0.117}, {"name": "pga", "value": 0.7694, "value_rock": 0.7862, "value_soil": 1.4518, "units": "%g", "ln_tau": 0.3383, "ln_phi": 0.5401, "ln_sigma": 0.6373, "ln_sigma_rock": 0.6394, "ln_sigma_soil": 0.6212, "ln_bias": 0.676, "ln_bias_sigma": 0.1071}, {"name": "sa(3.0)", "value": 0.1849, "value_rock": 0.1897, "value_soil": 0.7355, "units": "%g", "ln_tau": 0.3779, "ln_phi": 0.6288, "ln_sigma": 0.7336, "ln_sigma_rock": 0.7372, "ln_sigma_soil": 0.7371, "ln_bias": -0.0046, "ln_bias_sigma": 0.1329}, {"name": "sa(1.0)", "value": 0.7481, "value_rock": 0.7675, "value_soil": 2.9934, "units": "%g", "ln_tau": 0.3551, "ln_phi": 0.6417, "ln_sigma": 0.7334, "ln_sigma_rock": 0.7359, "ln_sigma_soil": 0.7288, "ln_bias": 0.2108, "ln_bias_sigma": 0.1295}, {"name": "mmi", "value": 3.3934, "value_rock": 3.408, "value_soil": 3.8209, "units": "intensity", "tau": 0.2277, "phi": 0.7535, "sigma": 0.7872, "sigma_rock": 0.788, "sigma_soil": 0.7813, "bias": 0.2998, "bias_sigma": 0.1512}], "mmi_from_pgm": [{"name": "sa(0.3)", "value": 4.9, "sigma": 0.82, "flag": "0"}, {"name": "pgv", "value": 3.99, "sigma": 0.63, "flag": "0"}, {"name": "pga", "value": 4.75, "sigma": 0.66, "flag": "0"}, {"name": "sa(3.0)", "value": 3.25, "sigma": 0.89, "flag": "0"}, {"name": "sa(1.0)", "value": 3.07, "sigma": 0.75, "flag": "0"}], "distance_stddev": 8.857, "distances": {"repi": 168.958, "rhypo": 169.384, "rjb": 160.095, "rjb_var": 58.823, "rrup": 160.957, "rrup_var": 78.453, "rx": 0.0, "ry0": 0.0, "rvolc": 0.0}}, "geometry": {"type": "Point", "coordinates": [140.7588, 37.5031]}}, {"type": "Feature", "id": "BO.TYM002", "properties": {"code": "TYM002", "name": "", "instrumentType": "UNK", "source": "BO", "network": "BO", "commType": "UNK", "location": "", "intensity": 3.1, "intensity_flag": "", "intensity_stddev": 0.63, "pga": 0.3988, "pgv": 0.5069, "distance": 286.375, "elev": null, "vs30": 207.5, "channels": [{"name": "GREATER_OF_TWO_HORIZONTALS", "amplitudes": [{"name": "pga", "value": 0.3988, "units": "%g", "flag": "UnknownOrientation,0,UnknownOrientation,UnknownOrientation,0,UnknownOrientation,UnknownOrientation,0", "ln_sigma": 0.0}, {"name": "pgv", "value": 0.5069, "units": "cm/s", "flag": "UnknownOrientation,0,UnknownOrientation,UnknownOrientation,0,UnknownOrientation,UnknownOrientation,0", "ln_sigma": 0.0}, {"name": "sa(0.3)", "value": 1.0052, "units": "%g", "flag": "UnknownOrientation,0,UnknownOrientation,UnknownOrientation,0,UnknownOrientation,UnknownOrientation,0", "ln_sigma": 0.0}, {"name": "sa(1.0)", "value": 1.1943, "units": "%g", "flag": "UnknownOrientation,0,UnknownOrientation,UnknownOrientation,0,UnknownOrientation,UnknownOrientation,0", "ln_sigma": 0.0}, {"name": "sa(3.0)", "value": 0.2613, "units": "%g", "flag": "UnknownOrientation,0,UnknownOrientation,UnknownOrientation,0,UnknownOrientation,UnknownOrientation,0", "ln_sigma": 0.0}]}, {"name": "H1", "amplitudes": [{"name": "pga", "value": 0.3988, "units": "%g", "flag": "0", "ln_sigma": 0.0}, {"name": "pgv", "value": 0.4573, "units": "cm/s", "flag": "0", "ln_sigma": 0.0}, {"name": "sa(0.3)", "value": 1.0052, "units": "%g", "flag": "0", "ln_sigma": 0.0}, {"name": "sa(1.0)", "value": 0.8016, "units": "%g", "flag": "0", "ln_sigma": 0.0}, {"name": "sa(3.0)", "value": 0.2181, "units": "%g", "flag": "0", "ln_sigma": 0.0}]}, {"name": "H2", "amplitudes": [{"name": "pga", "value": 0.3499, "units": "%g", "flag": "0", "ln_sigma": 0.0}, {"name": "pgv", "value": 0.5069, "units": "cm/s", "flag": "0", "ln_sigma": 0.0}, {"name": "sa(0.3)", "value": 0.7053, "units": "%g", "flag": "0", "ln_sigma": 0.0}, {"name": "sa(1.0)", "value": 1.1943, "units": "%g", "flag": "0", "ln_sigma": 0.0}, {"name": "sa(3.0)", "value": 0.2613, "units": "%g", "flag": "0", "ln_sigma": 0.0}]}, {"name": "Z", "amplitudes": [{"name": "pga", "value": 0.2742, "units": "%g", "flag": "0", "ln_sigma": 0.0}, {"name": "pgv", "value": 0.2056, "units": "cm/s", "flag": "0", "ln_sigma": 0.0}, {"name": "sa(0.3)", "value": 0.6007, "units": "%g", "flag": "0", "ln_sigma": 0.0}, {"name": "sa(1.0)", "value": 0.3385, "units": "%g", "flag": "0", "ln_sigma": 0.0}, {"name": "sa(3.0)", "value": 0.0697, "units": "%g", "flag": "0", "ln_sigma": 0.0}]}], "station_type": "seismic", "nresp": "null", "predictions": [{"name": "sa(0.3)", "value": 1.1861, "value_rock": 0.4383, "value_soil": 1.3231, "units": "%g", "ln_tau": 0.3185, "ln_phi": 0.6106, "ln_sigma": 0.6886, "ln_sigma_rock": 0.704, "ln_sigma_soil": 0.6921, "ln_bias": 0.5155, "ln_bias_sigma": 0.116}, {"name": "pgv", "value": 0.8559, "value_rock": 0.3405, "value_soil": 0.9576, "units": "cm/s", "ln_tau": 0.3353, "ln_phi": 0.5649, "ln_sigma": 0.6569, "ln_sigma_rock": 0.6747, "ln_sigma_soil": 0.6586, "ln_bias": 0.2572, "ln_bias_sigma": 0.117}, {"name": "pga", "value": 0.3438, "value_rock": 0.1974, "value_soil": 0.3711, "units": "%g", "ln_tau": 0.3374, "ln_phi": 0.5325, "ln_sigma": 0.6304, "ln_sigma_rock": 0.6463, "ln_sigma_soil": 0.6322, "ln_bias": 0.6756, "ln_bias_sigma": 0.1071}, {"name": "sa(3.0)", "value": 0.3244, "value_rock": 0.0977, "value_soil": 0.3789, "units": "%g", "ln_tau": 0.3779, "ln_phi": 0.6361, "ln_sigma": 0.7399, "ln_sigma_rock": 0.7439, "ln_sigma_soil": 0.7438, "ln_bias": -0.0046, "ln_bias_sigma": 0.1329}, {"name": "sa(1.0)", "value": 1.1294, "value_rock": 0.3311, "value_soil": 1.3066, "units": "%g", "ln_tau": 0.3543, "ln_phi": 0.6474, "ln_sigma": 0.738, "ln_sigma_rock": 0.7458, "ln_sigma_soil": 0.7409, "ln_bias": 0.2107, "ln_bias_sigma": 0.1295}, {"name": "mmi", "value": 3.1064, "value_rock": 2.7329, "value_soil": 3.1579, "units": "intensity", "tau": 0.2271, "phi": 0.7511, "sigma": 0.7847, "sigma_rock": 0.7905, "sigma_soil": 0.7853, "bias": 0.299, "bias_sigma": 0.151}], "mmi_from_pgm": [{"name": "sa(0.3)", "value": 3.36, "sigma": 0.82, "flag": "0"}, {"name": "pgv", "value": 3.09, "sigma": 0.63, "flag": "0"}, {"name": "pga", "value": 3.21, "sigma": 0.66, "flag": "0"}, {"name": "sa(3.0)", "value": 3.45, "sigma": 0.89, "flag": "0"}, {"name": "sa(1.0)", "value": 3.32, "sigma": 0.75, "flag": "0"}], "distance_stddev": 8.442, "distances": {"repi": 295.386, "rhypo": 295.629, "rjb": 286.38, "rjb_var": 59.525, "rrup": 286.375, "rrup_var": 71.273, "rx": 0.0, "ry0": 0.0, "rvolc": 0.0}}, "geometry": {"type": "Point", "coordinates": [136.9747, 36.866]}}, {"type": "Feature", "id": "BO.YMT001", "properties": {"code": "YMT001", "name": "", "instrumentType": "UNK", "source": "BO", "network": "BO", "commType": "UNK", "location": "", "intensity": 6.2, "intensity_flag": "", "intensity_stddev": 0.63, "pga": 9.7938, "pgv": 13.3942, "distance": 38.415, "elev": null, "vs30": 180.0, "channels": [{"name": "GREATER_OF_TWO_HORIZONTALS", "amplitudes": [{"name": "pga", "value": 9.7938, "units": "%g", "flag": "UnknownOrientation,0,UnknownOrientation,UnknownOrientation,0,UnknownOrientation,UnknownOrientation,0", "ln_sigma": 0.0}, {"name": "pgv", "value": 13.3942, "units": "cm/s", "flag": "UnknownOrientation,0,UnknownOrientation,UnknownOrientation,0,UnknownOrientation,UnknownOrientation,0", "ln_sigma": 0.0}, {"name": "sa(0.3)", "value": 23.2023, "units": "%g", "flag": "UnknownOrientation,0,UnknownOrientation,UnknownOrientation,0,UnknownOrientation,UnknownOrientation,0", "ln_sigma": 0.0}, {"name": "sa(1.0)", "value": 15.7086, "units": "%g", "flag": "UnknownOrientation,0,UnknownOrientation,UnknownOrientation,0,UnknownOrientation,UnknownOrientation,0", "ln_sigma": 0.0}, {"name": "sa(3.0)", "value": 3.5552, "units": "%g", "flag": "UnknownOrientation,0,UnknownOrientation,UnknownOrientation,0,UnknownOrientation,UnknownOrientation,0", "ln_sigma": 0.0}]}, {"name": "H1", "amplitudes": [{"name": "pga", "value": 8.9406, "units": "%g", "flag": "0", "ln_sigma": 0.0}, {"name": "pgv", "value": 10.8401, "units": "cm/s", "flag": "0", "ln_sigma": 0.0}, {"name": "sa(0.3)", "value": 20.2121, "units": "%g", "flag": "0", "ln_sigma": 0.0}, {"name": "sa(1.0)", "value": 10.7208, "units": "%g", "flag": "0", "ln_sigma": 0.0}, {"name": "sa(3.0)", "value": 3.5552, "units": "%g", "flag": "0", "ln_sigma": 0.0}]}, {"name": "H2", "amplitudes": [{"name": "pga", "value": 9.7938, "units": "%g", "flag": "0", "ln_sigma": 0.0}, {"name": "pgv", "value": 13.3942, "units": "cm/s", "flag": "0", "ln_sigma": 0.0}, {"name": "sa(0.3)", "value": 23.2023, "units": "%g", "flag": "0", "ln_sigma": 0.0}, {"name": "sa(1.0)", "value": 15.7086, "units": "%g", "flag": "0", "ln_sigma": 0.0}, {"name": "sa(3.0)", "value": 3.2028, "units": "%g", "flag": "0", "ln_sigma": 0.0}]}, {"name": "Z", "amplitudes": [{"name": "pga", "value": 3.9567, "units": "%g", "flag": "0", "ln_sigma": 0.0}, {"name": "pgv", "value": 4.3168, "units": "cm/s", "flag": "0", "ln_sigma": 0.0}, {"name": "sa(0.3)", "value": 10.5403, "units": "%g", "flag": "0", "ln_sigma": 0.0}, {"name": "sa(1.0)", "value": 2.5224, "units": "%g", "flag": "0", "ln_sigma": 0.0}, {"name": "sa(3.0)", "value": 3.264, "units": "%g", "flag": "0", "ln_sigma": 0.0}]}], "station_type": "seismic", "nresp": "null", "predictions": [{"name": "sa(0.3)", "value": 31.4712, "value_rock": 12.9943, "value_soil": 31.4712, "units": "%g", "ln_tau": 0.2805, "ln_phi": 0.5883, "ln_sigma": 0.6518, "ln_sigma_rock": 0.7283, "ln_sigma_soil": 0.6539, "ln_bias": 0.4965, "ln_bias_sigma": 0.1138}, {"name": "pgv", "value": 11.72, "value_rock": 4.5957, "value_soil": 11.72, "units": "cm/s", "ln_tau": 0.3255, "ln_phi": 0.5899, "ln_sigma": 0.6738, "ln_sigma_rock": 0.7108, "ln_sigma_soil": 0.6764, "ln_bias": 0.2553, "ln_bias_sigma": 0.1165}, {"name": "pga", "value": 10.6867, "value_rock": 6.7079, "value_soil": 10.6867, "units": "%g", "ln_tau": 0.307, "ln_phi": 0.54, "ln_sigma": 0.6211, "ln_sigma_rock": 0.685, "ln_sigma_soil": 0.6244, "ln_bias": 0.6618, "ln_bias_sigma": 0.106}, {"name": "sa(3.0)", "value": 3.2837, "value_rock": 0.8485, "value_soil": 3.2837, "units": "%g", "ln_tau": 0.3776, "ln_phi": 0.6634, "ln_sigma": 0.7633, "ln_sigma_rock": 0.7671, "ln_sigma_soil": 0.7667, "ln_bias": -0.0046, "ln_bias_sigma": 0.1329}, {"name": "sa(1.0)", "value": 14.4477, "value_rock": 4.052, "value_soil": 14.4477, "units": "%g", "ln_tau": 0.3432, "ln_phi": 0.6577, "ln_sigma": 0.7418, "ln_sigma_rock": 0.77, "ln_sigma_soil": 0.7444, "ln_bias": 0.2089, "ln_bias_sigma": 0.1289}, {"name": "mmi", "value": 5.4941, "value_rock": 4.7457, "value_soil": 5.4941, "units": "intensity", "tau": 0.4933, "phi": 1.0901, "sigma": 1.1966, "sigma_rock": 1.2834, "sigma_soil": 1.2009, "bias": 0.4589, "bias_sigma": 0.1871}], "mmi_from_pgm": [{"name": "sa(0.3)", "value": 5.51, "sigma": 0.82, "flag": "0"}, {"name": "pgv", "value": 6.2, "sigma": 0.63, "flag": "0"}, {"name": "pga", "value": 5.35, "sigma": 0.66, "flag": "0"}, {"name": "sa(3.0)", "value": 6.3, "sigma": 0.89, "flag": "0"}, {"name": "sa(1.0)", "value": 6.18, "sigma": 0.75, "flag": "0"}], "distance_stddev": 9.799, "distances": {"repi": 42.211, "rhypo": 43.883, "rjb": 34.321, "rjb_var": 49.9, "rrup": 38.415, "rrup_var": 96.03, "rx": 0.0, "ry0": 0.0, "rvolc": 0.0}}, "geometry": {"type": "Point", "coordinates": [139.8127, 38.914]}}, {"type": "Feature", "id": "BO.IWT005", "properties": {"code": "IWT005", "name": "", "instrumentType": "UNK", "source": "BO", "network": "BO", "commType": "UNK", "location": "", "intensity": 3.2, "intensity_flag": "", "intensity_stddev": 0.63, "pga": 0.6217, "pgv": 0.602, "distance": 231.954, "elev": null, "vs30": 775.5, "channels": [{"name": "GREATER_OF_TWO_HORIZONTALS", "amplitudes": [{"name": "pga", "value": 0.6217, "units": "%g", "flag": "UnknownOrientation,0,UnknownOrientation,UnknownOrientation,0,UnknownOrientation,UnknownOrientation,0", "ln_sigma": 0.0}, {"name": "pgv", "value": 0.602, "units": "cm/s", "flag": "UnknownOrientation,0,UnknownOrientation,UnknownOrientation,0,UnknownOrientation,UnknownOrientation,0", "ln_sigma": 0.0}, {"name": "sa(0.3)", "value": 0.8507, "units": "%g", "flag": "UnknownOrientation,0,UnknownOrientation,UnknownOrientation,0,UnknownOrientation,UnknownOrientation,0", "ln_sigma": 0.0}, {"name": "sa(1.0)", "value": 1.729, "units": "%g", "flag": "UnknownOrientation,0,UnknownOrientation,UnknownOrientation,0,UnknownOrientation,UnknownOrientation,0", 