{
   "type":"FeatureCollection",
   "features":[
      {
         "type":"Feature",
         "id":"G.BER",
         "properties":{
            "code":"BER",
            "name":"Berlin (ciudad)",
            "instrumentType":"UNK",
            "source":"G",
            "network":"G",
            "commType":"UNK",
            "location":"",
            "intensity":5.1,
            "intensity_flag":"",
            "intensity_stddev":0.63,
            "pga":7.0,
            "pgv":6.0,
            "distance":18.572,
            "elev":null,
            "vs30":587.85,
            "channels":[
               {
                  "name":"V",
                  "amplitudes":[
                     {
                        "name":"pgv",
                        "value":2.9,
                        "units":"cm/s",
                        "flag":"UnknownOrientation,0",
                        "ln_sigma":0.0
                     },
                     {
                        "name":"pga",
                        "value":3.1,
                        "units":"%g",
                        "flag":"UnknownOrientation,0",
                        "ln_sigma":0.0
                     }
                  ]
               },
               {
                  "name":"E",
                  "amplitudes":[
                     {
                        "name":"pgv",
                        "value":6.0,
                        "units":"cm/s",
                        "flag":"0",
                        "ln_sigma":0.0
                     },
                     {
                        "name":"pga",
                        "value":7.0,
                        "units":"%g",
                        "flag":"0",
                        "ln_sigma":0.0
                     }
                  ]
               },
               {
                  "name":"N",
                  "amplitudes":[
                     {
                        "name":"pgv",
                        "value":4.1,
                        "units":"cm/s",
                        "flag":"0",
                        "ln_sigma":0.0
                     },
                     {
                        "name":"pga",
                        "value":3.2,
                        "units":"%g",
                        "flag":"0",
                        "ln_sigma":0.0
                     }
                  ]
               }
            ],
            "station_type":"seismic",
            "nresp":"null",
            "predictions":[
               {
                  "name":"pga",
                  "value":17.2572,
                  "value_rock":15.5597,
                  "value_soil":21.1955,
                  "units":"%g",
                  "ln_tau":0.3234,
                  "ln_phi":0.5075,
                  "ln_sigma":0.6018,
                  "ln_sigma_rock":0.6091,
                  "ln_sigma_soil":0.5218,
                  "ln_bias":-0.6559,
                  "ln_bias_sigma":0.1879
               },
               {
                  "name":"pgv",
                  "value":14.1451,
                  "value_rock":11.7079,
                  "value_soil":27.1348,
                  "units":"cm/s",
                  "ln_tau":0.3229,
                  "ln_phi":0.5276,
                  "ln_sigma":0.6186,
                  "ln_sigma_rock":0.6207,
                  "ln_sigma_soil":0.5773,
                  "ln_bias":-0.5578,
                  "ln_bias_sigma":0.1834
               },
               {
                  "name":"mmi",
                  "value":5.9082,
                  "value_rock":5.7418,
                  "value_soil":6.2385,
                  "units":"intensity",
                  "tau":0.5197,
                  "phi":1.0491,
                  "sigma":1.1708,
                  "sigma_rock":1.1805,
                  "sigma_soil":1.067,
                  "bias":-0.3779,
                  "bias_sigma":0.3516
               }
            ],
            "mmi_from_pgm":[
               {
                  "name":"pga",
                  "value":4.46,
                  "sigma":0.66,
                  "flag":"0"
               },
               {
                  "name":"pgv",
                  "value":5.06,
                  "sigma":0.63,
                  "flag":"0"
               }
            ],
            "distance_stddev":0.0,
            "distances":{
               "repi":48.023,
               "rhypo":49.053,
               "rjb":18.572,
               "rjb_var":0.0,
               "rrup":18.572,
               "rrup_var":0.0,
               "rx":-2.009,
               "ry0":17.496,
               "rvolc":0.0
            }
         },
         "geometry":{
            "type":"Point",
            "coordinates":[
               -88.53,
               13.5
            ]
         }
      },
      {
         "type":"Feature",
         "id":"G.DUA",
         "properties":{
            "code":"DUA",
            "name":"San Salvador Viveros Direccion de Urbanismo y Arquitectura",
            "instrumentType":"UNK",
            "source":"G",
            "network":"G",
            "commType":"UNK",
            "location":"",
            "intensity":5.6,
            "intensity_flag":"",
            "intensity_stddev":0.63,
            "pga":7.7,
            "pgv":8.7,
            "distance":6.569,
            "elev":null,
            "vs30":379.46,
            "channels":[
               {
                  "name":"V",
                  "amplitudes":[
                     {
                        "name":"pgv",
                        "value":3.5,
                        "units":"cm/s",
                        "flag":"UnknownOrientation,0",
                        "ln_sigma":0.0
                     },
                     {
                        "name":"pga",
                        "value":4.6,
                        "units":"%g",
                        "flag":"UnknownOrientation,0",
                        "ln_sigma":0.0
                     }
                  ]
               },
               {
                  "name":"E",
                  "amplitudes":[
                     {
                        "name":"pgv",
                        "value":8.7,
                        "units":"cm/s",
                        "flag":"0",
                        "ln_sigma":0.0
                     },
                     {
                        "name":"pga",
                        "value":5.9,
                        "units":"%g",
                        "flag":"0",
                        "ln_sigma":0.0
                     }
                  ]
               },
               {
                  "name":"N",
                  "amplitudes":[
                     {
                        "name":"pgv",
                        "value":8.2,
                        "units":"cm/s",
                        "flag":"0",
                        "ln_sigma":0.0
                     },
                     {
                        "name":"pga",
                        "value":7.7,
                        "units":"%g",
                        "flag":"0",
                        "ln_sigma":0.0
                     }
                  ]
               }
            ],
            "station_type":"seismic",
            "nresp":"null",
            "predictions":[
               {
                  "name":"pga",
                  "value":40.5346,
                  "value_rock":34.7801,
                  "value_soil":36.096,
                  "units":"%g",
                  "ln_tau":0.2951,
                  "ln_phi":0.4858,
                  "ln_sigma":0.5685,
                  "ln_sigma_rock":0.6077,
                  "ln_sigma_soil":0.4886,
                  "ln_bias":-0.6143,
                  "ln_bias_sigma":0.1818
               },
               {
                  "name":"pgv",
                  "value":43.7199,
                  "value_rock":27.6593,
                  "value_soil":54.8451,
                  "units":"cm/s",
                  "ln_tau":0.3196,
                  "ln_phi":0.5243,
                  "ln_sigma":0.614,
                  "ln_sigma_rock":0.6207,
                  "ln_sigma_soil":0.5648,
                  "ln_bias":-0.5541,
                  "ln_bias_sigma":0.1828
               },
               {
                  "name":"mmi",
                  "value":7.0061,
                  "value_rock":6.7601,
                  "value_soil":6.8198,
                  "units":"intensity",
                  "tau":0.4742,
                  "phi":1.0223,
                  "sigma":1.1269,
                  "sigma_rock":1.1787,
                  "sigma_soil":1.0257,
                  "bias":-0.3461,
                  "bias_sigma":0.3365
               }
            ],
            "mmi_from_pgm":[
               {
                  "name":"pga",
                  "value":4.34,
                  "sigma":0.66,
                  "flag":"0"
               },
               {
                  "name":"pgv",
                  "value":5.57,
                  "sigma":0.63,
                  "flag":"0"
               }
            ],
            "distance_stddev":0.0,
            "distances":{
               "repi":30.182,
               "rhypo":31.795,
               "rjb":6.569,
               "rjb_var":0.0,
               "rrup":6.569,
               "rrup_var":0.0,
               "rx":5.623,
               "ry0":47.003,
               "rvolc":0.0
            }
         },
         "geometry":{
            "type":"Point",
            "coordinates":[
               -89.209,
               13.737
            ]
         }
      },
      {
         "type":"Feature",
         "id":"G.EX",
         "properties":{
            "code":"EX",
            "name":"San Salvador (Colegio Externado de San Jose)",
            "instrumentType":"UNK",
            "source":"G",
            "network":"G",
            "commType":"UNK",
            "location":"",
            "intensity":6.6,
            "intensity_flag":"",
            "intensity_stddev":0.63,
            "pga":12.4,
            "pgv":18.3,
            "distance":3.145,
            "elev":null,
            "vs30":394.27,
            "channels":[
               {
                  "name":"V",
                  "amplitudes":[
                     {
                        "name":"pgv",
                        "value":2.7,
                        "units":"cm/s",
                        "flag":"UnknownOrientation,0",
                        "ln_sigma":0.0
                     },
                     {
                        "name":"pga",
                        "value":5.2,
                        "units":"%g",
                        "flag":"UnknownOrientation,0",
                        "ln_sigma":0.0
                     }
                  ]
               },
               {
                  "name":"E",
                  "amplitudes":[
                     {
                        "name":"pgv",
                        "value":6.6,
                        "units":"cm/s",
                        "flag":"0",
                        "ln_sigma":0.0
                     },
                     {
                        "name":"pga",
                        "value":9.9,
                        "units":"%g",
                        "flag":"0",
                        "ln_sigma":0.0
                     }
                  ]
               },
               {
                  "name":"N",
                  "amplitudes":[
                     {
                        "name":"pgv",
                        "value":18.3,
                        "units":"cm/s",
                        "flag":"0",
                        "ln_sigma":0.0
                     },
                     {
                        "name":"pga",
                        "value":12.4,
                        "units":"%g",
                        "flag":"0",
                        "ln_sigma":0.0
                     }
                  ]
               }
            ],
            "station_type":"seismic",
            "nresp":"null",
            "predictions":[
               {
                  "name":"pga",
                  "value":53.0398,
                  "value_rock":47.2714,
                  "value_soil":43.1525,
                  "units":"%g",
                  "ln_tau":0.2923,
                  "ln_phi":0.4841,
                  "ln_sigma":0.5655,
                  "ln_sigma_rock":0.6072,
                  "ln_sigma_soil":0.4791,
                  "ln_bias":-0.6097,
                  "ln_bias_sigma":0.1812
               },
               {
                  "name":"pgv",
                  "value":59.8261,
                  "value_rock":38.8306,
                  "value_soil":71.5706,
                  "units":"cm/s",
                  "ln_tau":0.3203,
                  "ln_phi":0.525,
                  "ln_sigma":0.615,
                  "ln_sigma_rock":0.6207,
                  "ln_sigma_soil":0.5609,
                  "ln_bias":-0.5549,
                  "ln_bias_sigma":0.1829
               },
               {
                  "name":"mmi",
                  "value":7.4382,
                  "value_rock":7.2532,
                  "value_soil":7.1067,
                  "units":"intensity",
                  "tau":0.4697,
                  "phi":1.0202,
                  "sigma":1.1231,
                  "sigma_rock":1.178,
                  "sigma_soil":1.0141,
                  "bias":-0.3427,
                  "bias_sigma":0.3348
               }
            ],
            "mmi_from_pgm":[
               {
                  "name":"pga",
                  "value":5.1,
                  "sigma":0.66,
                  "flag":"0"
               },
               {
                  "name":"pgv",
                  "value":6.59,
                  "sigma":0.63,
                  "flag":"0"
               }
            ],
            "distance_stddev":0.0,
            "distances":{
               "repi":28.694,
               "rhypo":30.387,
               "rjb":3.145,
               "rjb_var":0.0,
               "rrup":3.145,
               "rrup_var":0.0,
               "rx":2.749,
               "ry0":45.731,
               "rvolc":0.0
            }
         },
         "geometry":{
            "type":"Point",
            "coordinates":[
               -89.201,
               13.707
            ]
         }
      },
      {
         "type":"Feature",
         "id":"G.RE",
         "properties":{
            "code":"RE",
            "name":"San Salvador Ministerio de Relaciones Exteriores",
            "instrumentType":"UNK",
            "source":"G",
            "network":"G",
            "commType":"UNK",
            "location":"",
            "intensity":5.5,
            "intensity_flag":"",
            "intensity_stddev":0.63,
            "pga":"null",
            "pgv":8.19,
            "distance":6.016,
            "elev":null,
            "vs30":455.77,
            "channels":[
               {
                  "name":"V",
                  "amplitudes":[
                     {
                        "name":"pgv",
                        "value":2.2,
                        "units":"cm/s",
                        "flag":"UnknownOrientation,0",
                        "ln_sigma":0.0
                     },
                     {
                        "name":"pga",
                        "value":3.4,
                        "units":"%g",
                        "flag":"UnknownOrientation,0,Outlier",
                        "ln_sigma":0.0
                     }
                  ]
               },
               {
                  "name":"E",
                  "amplitudes":[
                     {
                        "name":"pgv",
                        "value":8.19,
                        "units":"cm/s",
                        "flag":"0",
                        "ln_sigma":0.0
                     },
                     {
                        "name":"pga",
                        "value":6.34,
                        "units":"%g",
                        "flag":"Outlier",
                        "ln_sigma":0.0
                     }
                  ]
               },
               {
                  "name":"N",
                  "amplitudes":[
                     {
                        "name":"pgv",
                        "value":3.9,
                        "units":"cm/s",
                        "flag":"0",
                        "ln_sigma":0.0
                     },
                     {
                        "name":"pga",
                        "value":5.8,
                        "units":"%g",
                        "flag":"Outlier",
                        "ln_sigma":0.0
                     }
                  ]
               }
            ],
            "station_type":"seismic",
            "nresp":"null",
            "predictions":[
               {
                  "name":"pga",
                  "value":41.6687,
                  "value_rock":36.5102,
                  "value_soil":37.1571,
                  "units":"%g",
                  "ln_tau":0.3059,
                  "ln_phi":0.4938,
                  "ln_sigma":0.5809,
                  "ln_sigma_rock":0.6076,
                  "ln_sigma_soil":0.487,
                  "ln_bias":-0.6308,
                  "ln_bias_sigma":0.1843
               },
               {
                  "name":"pgv",
                  "value":41.6019,
                  "value_rock":29.1784,
                  "value_soil":57.2138,
                  "units":"cm/s",
                  "ln_tau":0.3218,
                  "ln_phi":0.5264,
                  "ln_sigma":0.617,
                  "ln_sigma_rock":0.6207,
                  "ln_sigma_soil":0.5641,
                  "ln_bias":-0.5565,
                  "ln_bias_sigma":0.1832
               },
               {
                  "name":"mmi",
                  "value":7.0505,
                  "value_rock":6.8381,
                  "value_soil":6.8663,
                  "units":"intensity",
                  "tau":0.4915,
                  "phi":1.0321,
                  "sigma":1.1432,
                  "sigma_rock":1.1786,
                  "sigma_soil":1.0237,
                  "bias":-0.3586,
                  "bias_sigma":0.3425
               }
            ],
            "mmi_from_pgm":[
               {
                  "name":"pga",
                  "value":4.02,
                  "sigma":0.66,
                  "flag":"Outlier"
               },
               {
                  "name":"pgv",
                  "value":5.49,
                  "sigma":0.63,
                  "flag":"0"
               }
            ],
            "distance_stddev":0.0,
            "distances":{
               "repi":33.789,
               "rhypo":35.238,
               "rjb":6.016,
               "rjb_var":0.0,
               "rrup":6.016,
               "rrup_var":0.0,
               "rx":0.022,
               "ry0":50.659,
               "rvolc":0.0
            }
         },
         "geometry":{
            "type":"Point",
            "coordinates":[
               -89.25,
               13.692
            ]
         }
      },
      {
         "type":"Feature",
         "id":"G.15S",
         "properties":{
            "code":"15S",
            "name":"Presa 15 de Septiembre",
            "instrumentType":"UNK",
            "source":"G",
            "network":"G",
            "commType":"UNK",
            "location":"",
            "intensity":5.1,
            "intensity_flag":"",
            "intensity_stddev":0.63,
            "pga":"null",
            "pgv":6.4,
            "distance":16.554,
            "elev":null,
            "vs30":511.49,
            "channels":[
               {
                  "name":"V",
                  "amplitudes":[
                     {
                        "name":"pgv",
