{"type": "FeatureCollection", "features": [{"type": "Feature", "id": "G.SGMB", "properties": {"code": "SGMB", "name": "Athens-Syntagma (3rd lower level)", "instrumentType": "UNK", "source": "G", "network": "G", "commType": "UNK", "location": "", "intensity": 5.9, "intensity_flag": "", "intensity_stddev": 0.63, "pga": 11.1224, "pgv": 10.5, "distance": 7.377, "elev": null, "vs30": 421.88, "channels": [{"name": "N", "amplitudes": [{"name": "pgv", "value": 10.5, "units": "cm/s", "flag": "0", "ln_sigma": 0.0}, {"name": "pga", "value": 8.5612, "units": "%g", "flag": "0", "ln_sigma": 0.0}, {"name": "sa(1.0)", "value": 7.3163, "units": "%g", "flag": "0", "ln_sigma": 0.0}, {"name": "sa(3.0)", "value": 1.4388, "units": "%g", "flag": "0", "ln_sigma": 0.0}, {"name": "sa(0.3)", "value": 22.2449, "units": "%g", "flag": "0", "ln_sigma": 0.0}]}, {"name": "E", "amplitudes": [{"name": "pgv", "value": 10.2, "units": "cm/s", "flag": "0", "ln_sigma": 0.0}, {"name": "pga", "value": 11.1224, "units": "%g", "flag": "0", "ln_sigma": 0.0}, {"name": "sa(1.0)", "value": 11.8367, "units": "%g", "flag": "0", "ln_sigma": 0.0}, {"name": "sa(3.0)", "value": 0.6816, "units": "%g", "flag": "0", "ln_sigma": 0.0}, {"name": "sa(0.3)", "value": 25.6122, "units": "%g", "flag": "0", "ln_sigma": 0.0}]}, {"name": "Z", "amplitudes": [{"name": "pgv", "value": 3.55, "units": "cm/s", "flag": "0", "ln_sigma": 0.0}, {"name": "pga", "value": 8.8469, "units": "%g", "flag": "0", "ln_sigma": 0.0}, {"name": "sa(1.0)", "value": 2.6429, "units": "%g", "flag": "0", "ln_sigma": 0.0}, {"name": "sa(3.0)", "value": 0.4939, "units": "%g", "flag": "0", "ln_sigma": 0.0}, {"name": "sa(0.3)", "value": 9.398, "units": "%g", "flag": "0", "ln_sigma": 0.0}]}], "station_type": "seismic", "nresp": "null", "predictions": [{"name": "sa(1.0)", "value": 17.9272, "value_rock": 10.7829, "value_soil": 32.2567, "units": "%g", "ln_tau": 0.0, "ln_phi": 0.6707, "ln_sigma": 0.6707, "ln_sigma_rock": 0.8058, "ln_sigma_soil": 0.7955, "ln_bias": 0.7108, "ln_bias_sigma": 0.141}, {"name": "pgv", "value": 17.7854, "value_rock": 12.3017, "value_soil": 27.413, "units": "cm/s", "ln_tau": 0.0, "ln_phi": 0.6075, "ln_sigma": 0.6075, "ln_sigma_rock": 0.7295, "ln_sigma_soil": 0.7189, "ln_bias": 0.725, "ln_bias_sigma": 0.1236}, {"name": "sa(0.3)", "value": 63.3576, "value_rock": 43.9659, "value_soil": 74.0002, "units": "%g", "ln_tau": 0.0, "ln_phi": 0.6384, "ln_sigma": 0.6384, "ln_sigma_rock": 0.7696, "ln_sigma_soil": 0.7407, "ln_bias": 0.4933, "ln_bias_sigma": 0.126}, {"name": "pga", "value": 33.3274, "value_rock": 28.1081, "value_soil": 33.7499, "units": "%g", "ln_tau": 0.0, "ln_phi": 0.5941, "ln_sigma": 0.5941, "ln_sigma_rock": 0.7168, "ln_sigma_soil": 0.6942, "ln_bias": 0.4874, "ln_bias_sigma": 0.1134}, {"name": "sa(3.0)", "value": 2.9142, "value_rock": 1.8851, "value_soil": 5.4092, "units": "%g", "ln_tau": 0.0, "ln_phi": 0.6647, "ln_sigma": 0.6647, "ln_sigma_rock": 0.7976, "ln_sigma_soil": 0.7968, "ln_bias": 0.637, "ln_bias_sigma": 0.1582}, {"name": "mmi", "value": 6.7935, "value_rock": 6.5199, "value_soil": 6.8138, "units": "intensity", "tau": 0.0, "phi": 1.1023, "sigma": 1.1023, "sigma_rock": 1.3275, "sigma_soil": 1.2962, "bias": 0.3943, "bias_sigma": 0.1275}], "mmi_from_pgm": [{"name": "sa(1.0)", "value": 6.23, "sigma": 0.75, "flag": "0"}, {"name": "pgv", "value": 5.94, "sigma": 0.63, "flag": "0"}, {"name": "sa(0.3)", "value": 5.34, "sigma": 0.82, "flag": "0"}, {"name": "pga", "value": 5.03, "sigma": 0.66, "flag": "0"}, {"name": "sa(3.0)", "value": 5.53, "sigma": 0.89, "flag": "0"}], "distance_stddev": 0.0, "distances": {"repi": 19.458, "rhypo": 21.878, "rjb": 3.19, "rjb_var": 0.0, "rrup": 7.377, "rrup_var": 0.0, "rx": 7.533, "ry0": 2.982, "rvolc": 0.0}}, "geometry": {"type": "Point", "coordinates": [23.74, 37.98]}}, {"type": "Feature", "id": "GM.KEDE", "properties": {"code": "KEDE", "name": "K.E.D.E.", "instrumentType": "UNK", "source": "GM", "network": "GM", "commType": "UNK", "location": "", "intensity": "null", "intensity_flag": "", "intensity_stddev": "null", "pga": 30.0, "pgv": "null", "distance": 7.553, "elev": null, "vs30": 396.94, "channels": [{"name": "UNK", "amplitudes": [{"name": "pga", "value": 30.0, "units": "%g", "flag": "0", "ln_sigma": 0.0}]}], "station_type": "seismic", "nresp": "null", "predictions": [{"name": "sa(1.0)", "value": 19.0884, "value_rock": 11.0232, "value_soil": 32.6218, "units": "%g", "ln_tau": 0.0, "ln_phi": 0.6705, "ln_sigma": 0.6705, "ln_sigma_rock": 0.8058, "ln_sigma_soil": 0.7955, "ln_bias": 0.7108, "ln_bias_sigma": 0.141}, {"name": "pgv", "value": 18.7514, "value_rock": 12.602, "value_soil": 27.8576, "units": "cm/s", "ln_tau": 0.0, "ln_phi": 0.6073, "ln_sigma": 0.6073, "ln_sigma_rock": 0.7295, "ln_sigma_soil": 0.7188, "ln_bias": 0.725, "ln_bias_sigma": 0.1236}, {"name": "sa(0.3)", "value": 66.6551, "value_rock": 45.4948, "value_soil": 75.2537, "units": "%g", "ln_tau": 0.0, "ln_phi": 0.6372, "ln_sigma": 0.6372, "ln_sigma_rock": 0.7696, "ln_sigma_soil": 0.7404, "ln_bias": 0.4932, "ln_bias_sigma": 0.126}, {"name": "pga", "value": 34.7812, "value_rock": 29.1804, "value_soil": 34.6303, "units": "%g", "ln_tau": 0.0, "ln_phi": 0.5933, "ln_sigma": 0.5933, "ln_sigma_rock": 0.7168, "ln_sigma_soil": 0.694, "ln_bias": 0.4873, "ln_bias_sigma": 0.1133}, {"name": "sa(3.0)", "value": 3.0807, "value_rock": 1.9162, "value_soil": 5.4783, "units": "%g", "ln_tau": 0.0, "ln_phi": 0.6647, "ln_sigma": 0.6647, "ln_sigma_rock": 0.7976, "ln_sigma_soil": 0.7968, "ln_bias": 0.637, "ln_bias_sigma": 0.1582}, {"name": "mmi", "value": 6.8621, "value_rock": 6.58, "value_soil": 6.8552, "units": "intensity", "tau": 0.0, "phi": 1.1013, "sigma": 1.1013, "sigma_rock": 1.3275, "sigma_soil": 1.2959, "bias": 0.3943, "bias_sigma": 0.1275}], "mmi_from_pgm": [{"name": "sa(1.0)", "value": null, "sigma": null, "flag": "0"}, {"name": "pgv", "value": null, "sigma": null, "flag": "0"}, {"name": "sa(0.3)", "value": null, "sigma": null, "flag": "0"}, {"name": "pga", "value": 6.62, "sigma": 0.66, "flag": "0"}, {"name": "sa(3.0)", "value": null, "sigma": null, "flag": "0"}], "distance_stddev": 0.0, "distances": {"repi": 18.024, "rhypo": 20.612, "rjb": 1.338, "rjb_var": 0.0, "rrup": 7.553, "rrup_var": 0.0, "rx": 8.356, "ry0": 1.111, "rvolc": 0.0}}, "geometry": {"type": "Point", "coordinates": [23.717, 37.983]}}, {"type": "Feature", "id": "G.PNT", "properties": {"code": "PNT", "name": "Athens-Papagos", "instrumentType": "UNK", "source": "G", "network": "G", "commType": "UNK", "location": "", "intensity": 5.5, "intensity_flag": "", "intensity_stddev": 0.63, "pga": 8.7245, "pgv": 7.4, "distance": 6.202, "elev": null, "vs30": 402.81, "channels": [{"name": "N", "amplitudes": [{"name": "pgv", "value": 5.14, "units": "cm/s", "flag": "0", "ln_sigma": 0.0}, {"name": "pga", "value": 7.7551, "units": "%g", "flag": "0", "ln_sigma": 0.0}, {"name": "sa(1.0)", "value": 4.551, "units": "%g", "flag": "0", "ln_sigma": 0.0}, {"name": "sa(3.0)", "value": 0.5275, "units": "%g", "flag": "0", "ln_sigma": 0.0}, {"name": "sa(0.3)", "value": 16.0204, "units": "%g", "flag": "0", "ln_sigma": 0.0}]}, {"name": "E", "amplitudes": [{"name": "pgv", "value": 7.4, "units": "cm/s", "flag": "0", "ln_sigma": 0.0}, {"name": "pga", "value": 8.7245, "units": "%g", "flag": "0", "ln_sigma": 0.0}, {"name": "sa(1.0)", "value": 12.6531, "units": "%g", "flag": "0", "ln_sigma": 0.0}, {"name": "sa(3.0)", "value": 1.0306, "units": "%g", "flag": "0", "ln_sigma": 0.0}, {"name": "sa(0.3)", "value": 15.3061, "units": "%g", "flag": "0", "ln_sigma": 0.0}]}, {"name": "Z", "amplitudes": [{"name": "pgv", "value": 3.55, "units": "cm/s", "flag": "0", "ln_sigma": 0.0}, {"name": "pga", "value": 5.4694, "units": "%g", "flag": "0", "ln_sigma": 0.0}, {"name": "sa(1.0)", "value": 6.8265, "units": "%g", "flag": "0", "ln_sigma": 0.0}, {"name": "sa(3.0)", "value": 0.5857, "units": "%g", "flag": "0", "ln_sigma": 0.0}, {"name": "sa(0.3)", "value": 12.0408, "units": "%g", "flag": "0", "ln_sigma": 0.0}]}], "station_type": "seismic", "nresp": "null", "predictions": [{"name": "sa(1.0)", "value": 18.8677, "value_rock": 10.9023, "value_soil": 33.1908, "units": "%g", "ln_tau": 0.0, "ln_phi": 0.6706, "ln_sigma": 0.6706, "ln_sigma_rock": 0.8058, "ln_sigma_soil": 0.7956, "ln_bias": 0.7108, "ln_bias_sigma": 0.141}, {"name": "pgv", "value": 18.4782, "value_rock": 12.4246, "value_soil": 28.0119, "units": "cm/s", "ln_tau": 0.0, "ln_phi": 0.6074, "ln_sigma": 0.6074, "ln_sigma_rock": 0.7295, "ln_sigma_soil": 0.7187, "ln_bias": 0.725, "ln_bias_sigma": 0.1236}, {"name": "sa(0.3)", "value": 63.7937, "value_rock": 43.1522, "value_soil": 74.4743, "units": "%g", "ln_tau": 0.0, "ln_phi": 0.6376, "ln_sigma": 0.6376, "ln_sigma_rock": 0.7696, "ln_sigma_soil": 0.7412, "ln_bias": 0.4932, "ln_bias_sigma": 0.126}, {"name": "pga", "value": 32.7851, "value_rock": 27.2891, "value_soil": 33.3802, "units": "%g", "ln_tau": 0.0, "ln_phi": 0.5936, "ln_sigma": 0.5936, "ln_sigma_rock": 0.7168, "ln_sigma_soil": 0.6946, "ln_bias": 0.4873, "ln_bias_sigma": 0.1133}, {"name": "sa(3.0)", "value": 3.0514, "value_rock": 1.9084, "value_soil": 5.5157, "units": "%g", "ln_tau": 0.0, "ln_phi": 0.6647, "ln_sigma": 0.6647, "ln_sigma_rock": 0.7976, "ln_sigma_soil": 0.7968, "ln_bias": 0.637, "ln_bias_sigma": 0.1582}, {"name": "mmi", "value": 6.7672, "value_rock": 6.4723, "value_soil": 6.7961, "units": "intensity", "tau": 0.0, "phi": 1.1017, "sigma": 1.1017, "sigma_rock": 1.3275, "sigma_soil": 1.2966, "bias": 0.3943, "bias_sigma": 0.1275}], "mmi_from_pgm": [{"name": "sa(1.0)", "value": 6.31, "sigma": 0.75, "flag": "0"}, {"name": "pgv", "value": 5.46, "sigma": 0.63, "flag": "0"}, {"name": "sa(0.3)", "value": 4.52, "sigma": 0.82, "flag": "0"}, {"name": "pga", "value": 4.64, "sigma": 0.66, "flag": "0"}, {"name": "sa(3.0)", "value": 5.09, "sigma": 0.89, "flag": "0"}], "distance_stddev": 0.0, "distances": {"repi": 20.915, "rhypo": 23.183, "rjb": 5.541, "rjb_var": 0.0, "rrup": 6.202, "rrup_var": 0.0, "rx": 3.275, "ry0": 5.433, "rvolc": 0.0}}, "geometry": {"type": "Point", "coordinates": [23.79, 38.0]}}, {"type": "Feature", "id": "NOA.DMKA", "properties": {"code": "DMKA", "name": "", "instrumentType": "UNK", "source": "NOA", "network": "NOA", "commType": "UNK", "location": "", "intensity": "null", "intensity_flag": "", "intensity_stddev": "null", "pga": 8.0, "pgv": "null", "distance": 8.137, "elev": null, "vs30": 749.19, "channels": [{"name": "H1", "amplitudes": [{"name": "pgv", "value": 2.41, "units": "cm/s", "flag": "Outlier,0,Outlier", "ln_sigma": 0.0}, {"name": "pga", "value": 5.0, "units": "%g", "flag": "0", "ln_sigma": 0.0}]}, {"name": "H2", "amplitudes": [{"name": "pgv", "value": 2.47, "units": "cm/s", "flag": "Outlier,0,Outlier", "ln_sigma": 0.0}, {"name": "pga", "value": 8.0, "units": "%g", "flag": "0", "ln_sigma": 0.0}]}], "station_type": "seismic", "nresp": "null", "predictions": [{"name": "sa(1.0)", "value": 9.0179, "value_rock": 8.9046, "value_soil": 27.9013, "units": "%g", "ln_tau": 0.0, "ln_phi": 0.6711, "ln_sigma": 0.6711, "ln_sigma_rock": 0.8058, "ln_sigma_soil": 0.7967, "ln_bias": 0.7109, "ln_bias_sigma": 0.141}, {"name": "pgv", "value": 10.163, "value_rock": 10.0723, "value_soil": 23.2228, "units": "cm/s", "ln_tau": 0.0, "ln_phi": 0.6079, "ln_sigma": 0.6079, "ln_sigma_rock": 0.7295, "ln_sigma_soil": 0.7194, "ln_bias": 0.7251, "ln_bias_sigma": 0.1236}, {"name": "sa(0.3)", "value": 35.2448, "value_rock": 34.9128, "value_soil": 63.9003, "units": "%g", "ln_tau": 0.0, "ln_phi": 0.6417, "ln_sigma": 0.6417, "ln_sigma_rock": 0.7696, "ln_sigma_soil": 0.7438, "ln_bias": 0.4938, "ln_bias_sigma": 0.126}, {"name": "pga", "value": 22.3443, "value_rock": 22.2394, "value_soil": 28.2046, "units": "%g", "ln_tau": 0.0, "ln_phi": 0.5983, "ln_sigma": 0.5983, "ln_sigma_rock": 0.7169, "ln_sigma_soil": 0.6965, "ln_bias": 0.488, "ln_bias_sigma": 0.1134}, {"name": "sa(3.0)", "value": 1.6359, "value_rock": 1.6187, "value_soil": 4.7187, "units": "%g", "ln_tau": 0.0, "ln_phi": 0.6647, "ln_sigma": 0.6647, "ln_sigma_rock": 0.7976, "ln_sigma_soil": 0.7968, "ln_bias": 0.637, "ln_bias_sigma": 0.1582}, {"name": "mmi", "value": 6.1511, "value_rock": 6.1435, "value_soil": 6.5254, "units": "intensity", "tau": 0.0, "phi": 1.1082, "sigma": 1.1082, "sigma_rock": 1.3276, "sigma_soil": 1.2993, "bias": 0.3944, "bias_sigma": 0.1276}], "mmi_from_pgm": [{"name": "sa(1.0)", "value": null, "sigma": null, "flag": "0"}, {"name": "pgv", "value": null, "sigma": null, "flag": "0"}, {"name": "sa(0.3)", "value": null, "sigma": null, "flag": "0"}, {"name": "pga", "value": 4.5, "sigma": 0.66, "flag": "0"}, {"name": "sa(3.0)", "value": null, "sigma": null, "flag": "0"}], "distance_stddev": 0.0, "distances": {"repi": 23.274, "rhypo": 25.331, "rjb": 7.969, "rjb_var": 0.0, "rrup": 8.137, "rrup_var": 0.0, "rx": 2.067, "ry0": 7.889, "rvolc": 0.0}}, "geometry": {"type": "Point", "coordinates": [23.821, 37.997]}}, {"type": "Feature", "id": "G.FIX", "properties": {"code": "FIX", "name": "Athens-Sygrou-Fix", "instrumentType": "UNK", "source": "G", "network": "G", "commType": "UNK", "location": "", "intensity": 5.9, "intensity_flag": "", "intensity_stddev": 0.63, "pga": 12.3469, "pgv": 10.4, "distance": 9.493, "elev": null, "vs30": 409.21, "channels": [{"name": "N", "amplitudes": [{"name": "pgv", "value": 10.4, "units": "cm/s", "flag": "0", "ln_sigma": 0.0}, {"name": "pga", "value": 12.3469, "units": "%g", "flag": "0", "ln_sigma": 0.0}, {"name": "sa(1.0)", "value": 6.3673, "units": "%g", "flag": "0", "ln_sigma": 0.0}, {"name": "sa(3.0)", "value": 1.5, "units": "%g", "flag": "0", "ln_sigma": 0.0}, {"name": "sa(0.3)", "value": 27.1429, "units": "%g", "flag": "0", "ln_sigma": 0.0}]}, {"name": "E", "amplitudes": [{"name": "pgv", "value": 7.87, "units": "cm/s", "flag": "0", "ln_sigma": 0.0}, {"name": "pga", "value": 8.5, "units": "%g", "flag": "0", "ln_sigma": 0.0}, {"name": "sa(1.0)", "value": 10.3061, "units": "%g", "flag": "0", "ln_sigma": 0.0}, {"name": "sa(3.0)", "value": 0.9959, "units": "%g", "flag": "0", "ln_sigma": 0.0}, {"name": "sa(0.3)", "value": 14.2857, "units": "%g", "flag": "0", "ln_sigma": 0.0}]}, {"name": "Z", "amplitudes": [{"name": "pgv", "value": 3.59, "units": "cm/s", "flag": "0", "ln_sigma": 0.0}, {"name": "pga", "value": 4.398, "units": "%g", "flag": "0", "ln_sigma": 0.0}, {"name": "sa(1.0)", "value": 3.0, "units": "%g", "flag": "0", "ln_sigma": 0.0}, {"name": "sa(3.0)", "value": 0.5245, "units": "%g", "flag": "0", "ln_sigma": 0.0}, {"name": "sa(0.3)", "value": 9.2959, "units": "%g", "flag": "0", "ln_sigma": 0.0}]}], "station_type": "seismic", "nresp": "null", "predictions": [{"name": "sa(1.0)", "value": 15.8702, "value_rock": 9.3178, "value_soil": 28.1802, "units": "%g", "ln_tau": 0.0, "ln_phi": 0.6707, "ln_sigma": 0.6707, "ln_sigma_rock": 0.8058, "ln_sigma_soil": 0.7966, "ln_bias": 0.7108, "ln_bias_sigma": 0.141}, {"name": "pgv", "value": 15.5964, "value_rock": 10.6033, "value_soil": 23.8487, "units": "cm/s", "ln_tau": 0.0, "ln_phi": 0.6075, "ln_sigma": 0.6075, "ln_sigma_rock": 0.7295, "ln_sigma_soil": 0.7195, "ln_bias": 0.725, "ln_bias_sigma": 0.1236}, {"name": "sa(0.3)", "value": 56.1059, "value_rock": 38.1971, "value_soil": 66.1817, "units": "%g", "ln_tau": 0.0, "ln_phi": 0.6383, "ln_sigma": 0.6383, "ln_sigma_rock": 0.7696, "ln_sigma_soil": 0.743, "ln_bias": 0.4933, "ln_bias_sigma": 0.126}, {"name": "pga", "value": 29.5204, "value_rock": 24.648, "value_soil": 30.1128, "units": "%g", "ln_tau": 0.0, "ln_phi": 0.5943, "ln_sigma": 0.5943, "ln_sigma_rock": 0.7169, "ln_sigma_soil": 0.696, "ln_bias": 0.4874, "ln_bias_sigma": 0.1134}, {"name": "sa(3.0)", "value": 2.6412, "value_rock": 1.6728, "value_soil": 4.8086, "units": "%g", "ln_tau": 0.0, "ln_phi": 0.6647, "ln_sigma": 0.6647, "ln_sigma_rock": 0.7976, "ln_sigma_soil": 0.7968, "ln_bias": 0.637, "ln_bias_sigma": 0.1582}, {"name": "mmi", "value": 6.5986, "value_rock": 6.3088, "value_soil": 6.6306, "units": "intensity", "tau": 0.0, "phi": 1.1027, "sigma": 1.1027, "sigma_rock": 1.3276, "sigma_soil": 1.2986, "bias": 0.3943, "bias_sigma": 0.1275}], "mmi_from_pgm": [{"name": "sa(1.0)", "value": 6.05, "sigma": 0.75, "flag": "0"}, {"name": "pgv", "value": 5.92, "sigma": 0.63, "flag": "0"}, {"name": "sa(0.3)", "value": 5.44, "sigma": 0.82, "flag": "0"}, {"name": "pga", "value": 5.2, "sigma": 0.66, "flag": "0"}, {"name": "sa(3.0)", "value": 5.58, "sigma": 0.89, "flag": "0"}], "distance_stddev": 0.0, "distances": {"repi": 20.795, "rhypo": 23.074, "rjb": 3.798, "rjb_var": 0.0, "rrup": 9.493, "rrup_var": 0.0, "rx": 9.874, "ry0": 3.464, "rvolc": 0.0}}, "geometry": {"type": "Point", "coordinates": [23.73, 37.96]}}, {"type": "Feature", "id": "GM.KERT", "properties": {"code": "KERT", "name": "Keratsini", "instrumentType": "UNK", "source": "GM", "network": "GM", "commType": "UNK", "location": "", "intensity": "null", "intensity_flag": "", "intensity_stddev": "null", "pga": 22.0, "pgv": "null", "distance": 13.072, "elev": null, "vs30": 527.29, "channels": [{"name": "UNK", "amplitudes": [{"name": "pga", "value": 22.0, "units": "%g", "flag": "0", "ln_sigma": 0.0}]}], "station_type": "seismic", "nresp": "null", "predictions": [{"name": "sa(1.0)", "value": 10.3214, "value_rock": 7.3535, "value_soil": 22.7541, "units": "%g", "ln_tau": 0.0, "ln_phi": 0.671, "ln_sigma": 0.671, "ln_sigma_rock": 0.8058, "ln_sigma_soil": 0.7982, "ln_bias": 0.7109, "ln_bias_sigma": 0.141}, {"name": "pgv", "value": 10.6632, "value_rock": 8.3134, "value_soil": 19.0428, "units": "cm/s", "ln_tau": 0.0, "ln_phi": 0.6078, "ln_sigma": 0.6078, "ln_sigma_rock": 0.7295, "ln_sigma_soil": 0.7205, "ln_bias": 0.7251, "ln_bias_sigma": 0.1236}, {"name": "sa(0.3)", "value": 39.4394, "value_rock": 29.9624, "value_soil": 54.6464, "units": "%g", "ln_tau": 0.0, "ln_phi": 0.6408, "ln_sigma": 0.6408, "ln_sigma_rock": 0.7696, "ln_sigma_soil": 0.7471, "ln_bias": 0.4937, "ln_bias_sigma": 0.126}, {"name": "pga", "value": 22.3154, "value_rock": 19.5123, "value_soil": 24.6301, "units": "%g", "ln_tau": 0.0, "ln_phi": 0.597, "ln_sigma": 0.597, "ln_sigma_rock": 0.717, "ln_sigma_soil": 0.699, "ln_bias": 0.4878, "ln_bias_sigma": 0.1134}, {"name": "sa(3.0)", "value": 1.8236, "value_rock": 1.3737, "value_soil": 3.9708, "units": "%g", "ln_tau": 0.0, "ln_phi": 0.6647, "ln_sigma": 0.6647, "ln_sigma_rock": 0.7976, "ln_sigma_soil": 0.7969, "ln_bias": 0.637, "ln_bias_sigma": 0.1582}, {"name": "mmi", "value": 6.2677, "value_rock": 6.052, "value_soil": 6.4263, "units": "intensity", "tau": 0.0, "phi": 1.1064, "sigma": 1.1064, "sigma_rock": 1.3277, "sigma_soil": 1.3028, "bias": 0.3944, "bias_sigma": 0.1276}], "mmi_from_pgm": [{"name": "sa(1.0)", "value": null, "sigma": null, "flag": "0"}, {"name": "pgv", "value": null, "sigma": null, "flag": "0"}, {"name": "sa(0.3)", "value": null, "sigma": null, "flag": "0"}, {"name": "pga", "value": 6.24, "sigma": 0.66, "flag": "0"}, {"name": "sa(3.0)", "value": null, "sigma": null, "flag": "0"}], "distance_stddev": 0.0, "distances": {"repi": 16.934, "rhypo": 19.666, "rjb": 5.582, "rjb_var": 0.0, "rrup": 13.072, "rrup_var": 0.0, "rx": 14.633, "ry0": 0.0, "rvolc": 0.0}}, "geometry": {"type": "Point", "coordinates": [23.617, 37.967]}}, {"type": "Feature", "id": "NOA.RFNA", "properties": {"code": "RFNA", "name": "", "instrumentType": "UNK", "source": "NOA", "network": "NOA", "commType": "UNK", "location": "", "intensity": 4.9, "intensity_flag": "", "intensity_stddev": 0.63, "pga": 10.0, "pgv": 5.11, "distance": 20.396, "elev": null, "vs30": 347.61, "channels": [{"name": "H1", "amplitudes": [{"name": "pgv", "value": 3.49, "units": "cm/s", "flag": "0", "ln_sigma": 0.0}, {"name": "pga", "value": 8.0, "units": "%g", "flag": "0", "ln_sigma": 0.0}]}, {"name": "H2", "amplitudes": [{"name": "pgv", "value": 5.11, "units": "cm/s", "flag": "0", "ln_sigma": 0.0}, {"name": "pga", "value": 10.0, "units": "%g", "flag": "0", "ln_sigma": 0.0}]}], "station_type": "seismic", "nresp": "null", "predictions": [{"name": "sa(1.0)", "value": 7.6953, "value_rock": 3.8196, "value_soil": 13.2276, "units": "%g", "ln_tau":