{"type": "FeatureCollection", "features": [{"type": "Feature", "id": "IV.T0802", "properties": {"code": "T0802", "name": "", "instrumentType": "UNK", "source": "IV", "network": "IV", "commType": "UNK", "location": "", "intensity": 7.1, "intensity_flag": "", "intensity_stddev": 0.63, "pga": 30.3085, "pgv": 24.6233, "distance": 11.061, "elev": null, "vs30": 202.64, "channels": [{"name": "HNZ", "amplitudes": [{"name": "pga", "value": 15.789, "units": "%g", "flag": "0", "ln_sigma": 0.0}, {"name": "pgv", "value": 5.2956, "units": "cm/s", "flag": "0", "ln_sigma": 0.0}, {"name": "sa(0.3)", "value": 11.7584, "units": "%g", "flag": "Outlier,0,Outlier,0,Outlier", "ln_sigma": 0.0}, {"name": "sa(1.0)", "value": 2.2176, "units": "%g", "flag": "0", "ln_sigma": 0.0}, {"name": "sa(3.0)", "value": 1.3599, "units": "%g", "flag": "0", "ln_sigma": 0.0}]}, {"name": "HNE", "amplitudes": [{"name": "pga", "value": 26.3235, "units": "%g", "flag": "0", "ln_sigma": 0.0}, {"name": "pgv", "value": 17.0095, "units": "cm/s", "flag": "0", "ln_sigma": 0.0}, {"name": "sa(0.3)", "value": 72.6754, "units": "%g", "flag": "Outlier,0,Outlier,0,Outlier", "ln_sigma": 0.0}, {"name": "sa(1.0)", "value": 22.9458, "units": "%g", "flag": "0", "ln_sigma": 0.0}, {"name": "sa(3.0)", "value": 6.5269, "units": "%g", "flag": "0", "ln_sigma": 0.0}]}, {"name": "HNN", "amplitudes": [{"name": "pga", "value": 30.3085, "units": "%g", "flag": "0", "ln_sigma": 0.0}, {"name": "pgv", "value": 24.6233, "units": "cm/s", "flag": "0", "ln_sigma": 0.0}, {"name": "sa(0.3)", "value": 67.5217, "units": "%g", "flag": "Outlier,0,Outlier,0,Outlier", "ln_sigma": 0.0}, {"name": "sa(1.0)", "value": 21.01, "units": "%g", "flag": "0", "ln_sigma": 0.0}, {"name": "sa(3.0)", "value": 6.9389, "units": "%g", "flag": "0", "ln_sigma": 0.0}]}], "station_type": "seismic", "nresp": "null", "predictions": [{"name": "sa(3.0)", "value": 2.9152, "value_rock": 1.1231, "value_soil": 3.271, "units": "%g", "ln_tau": 0.4428, "ln_phi": 0.7221, "ln_sigma": 0.847, "ln_sigma_rock": 0.8504, "ln_sigma_soil": 0.8492, "ln_bias": -0.0122, "ln_bias_sigma": 0.1463}, {"name": "pga", "value": 27.2905, "value_rock": 22.0003, "value_soil": 27.3792, "units": "%g", "ln_tau": 0.3931, "ln_phi": 0.6497, "ln_sigma": 0.7594, "ln_sigma_rock": 0.7897, "ln_sigma_soil": 0.7574, "ln_bias": -0.5627, "ln_bias_sigma": 0.126}, {"name": "sa(0.3)", "value": 52.9922, "value_rock": 30.0434, "value_soil": 53.8319, "units": "%g", "ln_tau": 0.3761, "ln_phi": 0.7134, "ln_sigma": 0.8065, "ln_sigma_rock": 0.8433, "ln_sigma_soil": 0.8014, "ln_bias": -0.2236, "ln_bias_sigma": 0.1369}, {"name": "sa(1.0)", "value": 17.5125, "value_rock": 6.2605, "value_soil": 19.3179, "units": "%g", "ln_tau": 0.431, "ln_phi": 0.7495, "ln_sigma": 0.8646, "ln_sigma_rock": 0.8784, "ln_sigma_soil": 0.8633, "ln_bias": -0.0829, "ln_bias_sigma": 0.1445}, {"name": "pgv", "value": 19.0862, "value_rock": 9.0941, "value_soil": 20.6352, "units": "cm/s", "ln_tau": 0.3909, "ln_phi": 0.6817, "ln_sigma": 0.7858, "ln_sigma_rock": 0.8038, "ln_sigma_soil": 0.7867, "ln_bias": -0.2586, "ln_bias_sigma": 0.1292}, {"name": "mmi", "value": 6.7931, "value_rock": 5.7757, "value_soil": 6.9002, "units": "intensity", "tau": 0.5364, "phi": 1.1279, "sigma": 1.2489, "sigma_rock": 1.2704, "sigma_soil": 1.25, "bias": -0.2062, "bias_sigma": 0.1693}], "mmi_from_pgm": [{"name": "sa(3.0)", "value": 7.6, "sigma": 0.89, "flag": "0"}, {"name": "pga", "value": 6.72, "sigma": 0.66, "flag": "0"}, {"name": "sa(0.3)", "value": null, "sigma": null, "flag": "0"}, {"name": "sa(1.0)", "value": 7.1, "sigma": 0.75, "flag": "0"}, {"name": "pgv", "value": 7.14, "sigma": 0.63, "flag": "0"}], "distance_stddev": 4.599, "distances": {"repi": 7.993, "rhypo": 12.959, "rjb": 5.024, "rjb_var": 5.764, "rrup": 11.061, "rrup_var": 21.15, "rx": 0.0, "ry0": 0.0, "rvolc": 0.0}}, "geometry": {"type": "Point", "coordinates": [11.1816, 44.875]}}, {"type": "Feature", "id": "IV.T0800", "properties": {"code": "T0800", "name": "", "instrumentType": "UNK", "source": "IV", "network": "IV", "commType": "UNK", "location": "", "intensity": 7.3, "intensity_flag": "", "intensity_stddev": 0.63, "pga": "null", "pgv": 27.6967, "distance": 13.804, "elev": null, "vs30": 216.97, "channels": [{"name": "HNZ", "amplitudes": [{"name": "pga", "value": 25.2978, "units": "%g", "flag": "Outlier,0,Outlier,0,Outlier", "ln_sigma": 0.0}, {"name": "pgv", "value": 4.9112, "units": "cm/s", "flag": "0", "ln_sigma": 0.0}, {"name": "sa(0.3)", "value": 17.671, "units": "%g", "flag": "Outlier,0,Outlier,0,Outlier", "ln_sigma": 0.0}, {"name": "sa(1.0)", "value": 2.5401, "units": "%g", "flag": "0", "ln_sigma": 0.0}, {"name": "sa(3.0)", "value": 0.65, "units": "%g", "flag": "0", "ln_sigma": 0.0}]}, {"name": "HNE", "amplitudes": [{"name": "pga", "value": 33.7049, "units": "%g", "flag": "Outlier,0,Outlier,0,Outlier", "ln_sigma": 0.0}, {"name": "pgv", "value": 27.6967, "units": "cm/s", "flag": "0", "ln_sigma": 0.0}, {"name": "sa(0.3)", "value": 132.6754, "units": "%g", "flag": "Outlier,0,Outlier,0,Outlier", "ln_sigma": 0.0}, {"name": "sa(1.0)", "value": 33.4341, "units": "%g", "flag": "0", "ln_sigma": 0.0}, {"name": "sa(3.0)", "value": 4.3142, "units": "%g", "flag": "0", "ln_sigma": 0.0}]}, {"name": "HNN", "amplitudes": [{"name": "pga", "value": 25.3042, "units": "%g", "flag": "Outlier,0,Outlier,0,Outlier", "ln_sigma": 0.0}, {"name": "pgv", "value": 19.287, "units": "cm/s", "flag": "0", "ln_sigma": 0.0}, {"name": "sa(0.3)", "value": 82.625, "units": "%g", "flag": "Outlier,0,Outlier,0,Outlier", "ln_sigma": 0.0}, {"name": "sa(1.0)", "value": 13.9344, "units": "%g", "flag": "0", "ln_sigma": 0.0}, {"name": "sa(3.0)", "value": 3.7252, "units": "%g", "flag": "0", "ln_sigma": 0.0}]}], "station_type": "seismic", "nresp": "null", "predictions": [{"name": "sa(3.0)", "value": 2.2691, "value_rock": 0.8998, "value_soil": 2.6601, "units": "%g", "ln_tau": 0.4428, "ln_phi": 0.7275, "ln_sigma": 0.8517, "ln_sigma_rock": 0.8561, "ln_sigma_soil": 0.8537, "ln_bias": -0.0122, "ln_bias_sigma": 0.1463}, {"name": "pga", "value": 21.415, "value_rock": 16.5357, "value_soil": 21.6033, "units": "%g", "ln_tau": 0.3959, "ln_phi": 0.6654, "ln_sigma": 0.7743, "ln_sigma_rock": 0.8042, "ln_sigma_soil": 0.7704, "ln_bias": -0.5635, "ln_bias_sigma": 0.126}, {"name": "sa(0.3)", "value": 42.0658, "value_rock": 22.5593, "value_soil": 43.5409, "units": "%g", "ln_tau": 0.3796, "ln_phi": 0.7255, "ln_sigma": 0.8188, "ln_sigma_rock": 0.855, "ln_sigma_soil": 0.8113, "ln_bias": -0.2241, "ln_bias_sigma": 0.1371}, {"name": "sa(1.0)", "value": 13.5013, "value_rock": 4.8318, "value_soil": 15.5629, "units": "%g", "ln_tau": 0.4321, "ln_phi": 0.754, "ln_sigma": 0.869, "ln_sigma_rock": 0.8835, "ln_sigma_soil": 0.8668, "ln_bias": -0.0829, "ln_bias_sigma": 0.1445}, {"name": "pgv", "value": 14.4893, "value_rock": 6.8946, "value_soil": 16.16, "units": "cm/s", "ln_tau": 0.3918, "ln_phi": 0.6903, "ln_sigma": 0.7938, "ln_sigma_rock": 0.8123, "ln_sigma_soil": 0.7936, "ln_bias": -0.2588, "ln_bias_sigma": 0.1293}, {"name": "mmi", "value": 6.4149, "value_rock": 5.3957, "value_soil": 6.5647, "units": "intensity", "tau": 0.5377, "phi": 1.1377, "sigma": 1.2584, "sigma_rock": 1.2805, "sigma_soil": 1.2582, "bias": -0.2063, "bias_sigma": 0.1693}], "mmi_from_pgm": [{"name": "sa(3.0)", "value": 6.93, "sigma": 0.89, "flag": "0"}, {"name": "pga", "value": null, "sigma": null, "flag": "0"}, {"name": "sa(0.3)", "value": null, "sigma": null, "flag": "0"}, {"name": "sa(1.0)", "value": 7.53, "sigma": 0.75, "flag": "0"}, {"name": "pgv", "value": 7.3, "sigma": 0.63, "flag": "0"}], "distance_stddev": 5.289, "distances": {"repi": 12.766, "rhypo": 16.34, "rjb": 9.094, "rjb_var": 10.685, "rrup": 13.804, "rrup_var": 27.975, "rx": 0.0, "ry0": 0.0, "rvolc": 0.0}}, "geometry": {"type": "Point", "coordinates": [11.2479, 44.8486]}}, {"type": "Feature", "id": "IV.T0819", "properties": {"code": "T0819", "name": "", "instrumentType": "UNK", "source": "IV", "network": "IV", "commType": "UNK", "location": "", "intensity": "null", "intensity_flag": "", "intensity_stddev": "null", "pga": "null", "pgv": "null", "distance": 15.543, "elev": null, "vs30": 225.98, "channels": [{"name": "HNZ", "amplitudes": [{"name": "pga", "value": 0.0156, "units": "%g", "flag": "Outlier,0,Outlier,0,Outlier", "ln_sigma": 0.0}, {"name": "pgv", "value": 0.0019, "units": "cm/s", "flag": "Outlier,0,Outlier,0,Outlier", "ln_sigma": 0.0}, {"name": "sa(0.3)", "value": 0.0035, "units": "%g", "flag": "Outlier,0,Outlier,0,Outlier", "ln_sigma": 0.0}, {"name": "sa(1.0)", "value": 0.0002, "units": "%g", "flag": "Outlier,0,Outlier,0,Outlier", "ln_sigma": 0.0}, {"name": "sa(3.0)", "value": 0.0001, "units": "%g", "flag": "Outlier,0,Outlier,0,Outlier", "ln_sigma": 0.0}]}, {"name": "HNE", "amplitudes": [{"name": "pga", "value": 0.011, "units": "%g", "flag": "Outlier,0,Outlier,0,Outlier", "ln_sigma": 0.0}, {"name": "pgv", "value": 0.0012, "units": "cm/s", "flag": "Outlier,0,Outlier,0,Outlier", "ln_sigma": 0.0}, {"name": "sa(0.3)", "value": 0.0031, "units": "%g", "flag": "Outlier,0,Outlier,0,Outlier", "ln_sigma": 0.0}, {"name": "sa(1.0)", "value": 0.0002, "units": "%g", "flag": "Outlier,0,Outlier,0,Outlier", "ln_sigma": 0.0}, {"name": "sa(3.0)", "value": 0.0001, "units": "%g", "flag": "Outlier,0,Outlier,0,Outlier", "ln_sigma": 0.0}]}, {"name": "HNN", "amplitudes": [{"name": "pga", "value": 0.0079, "units": "%g", "flag": "Outlier,0,Outlier,0,Outlier", "ln_sigma": 0.0}, {"name": "pgv", "value": 0.0009, "units": "cm/s", "flag": "Outlier,0,Outlier,0,Outlier", "ln_sigma": 0.0}, {"name": "sa(0.3)", "value": 0.0023, "units": "%g", "flag": "Outlier,0,Outlier,0,Outlier", "ln_sigma": 0.0}, {"name": "sa(1.0)", "value": 0.0003, "units": "%g", "flag": "Outlier,0,Outlier,0,Outlier", "ln_sigma": 0.0}, {"name": "sa(3.0)", "value": 0.0001, "units": "%g", "flag": "Outlier,0,Outlier,0,Outlier", "ln_sigma": 0.0}]}], "station_type": "seismic", "nresp": "null", "predictions": [{"name": "sa(3.0)", "value": 1.9684, "value_rock": 0.7956, "value_soil": 2.3707, "units": "%g", "ln_tau": 0.4428, "ln_phi": 0.7262, "ln_sigma": 0.8505, "ln_sigma_rock": 0.8549, "ln_sigma_soil": 0.8523, "ln_bias": -0.0122, "ln_bias_sigma": 0.1463}, {"name": "pga", "value": 18.643, "value_rock": 14.1291, "value_soil": 18.919, "units": "%g", "ln_tau": 0.3973, "ln_phi": 0.6677, "ln_sigma": 0.7769, "ln_sigma_rock": 0.8041, "ln_sigma_soil": 0.772, "ln_bias": -0.5639, "ln_bias_sigma": 0.1261}, {"name": "sa(0.3)", "value": 36.7532, "value_rock": 19.2721, "value_soil": 38.6204, "units": "%g", "ln_tau": 0.3814, "ln_phi": 0.7275, "ln_sigma": 0.8214, "ln_sigma_rock": 0.8539, "ln_sigma_soil": 0.8128, "ln_bias": -0.2244, "ln_bias_sigma": 0.1372}, {"name": "sa(1.0)", "value": 11.6335, "value_rock": 4.1923, "value_soil": 13.7998, "units": "%g", "ln_tau": 0.4326, "ln_phi": 0.752, "ln_sigma": 0.8676, "ln_sigma_rock": 0.8807, "ln_sigma_soil": 0.8649, "ln_bias": -0.0829, "ln_bias_sigma": 0.1445}, {"name": "pgv", "value": 12.3992, "value_rock": 5.924, "value_soil": 14.1133, "units": "cm/s", "ln_tau": 0.3923, "ln_phi": 0.6888, "ln_sigma": 0.7926, "ln_sigma_rock": 0.8099, "ln_sigma_soil": 0.792, "ln_bias": -0.2588, "ln_bias_sigma": 0.1293}, {"name": "mmi", "value": 6.2011, "value_rock": 5.1875, "value_soil": 6.3788, "units": "intensity", "tau": 0.5383, "phi": 1.1359, "sigma": 1.257, "sigma_rock": 1.2776, "sigma_soil": 1.2563, "bias": -0.2063, "bias_sigma": 0.1693}], "mmi_from_pgm": [{"name": "sa(3.0)", "value": null, "sigma": null, "flag": "0"}, {"name": "pga", "value": null, "sigma": null, "flag": "0"}, {"name": "sa(0.3)", "value": null, "sigma": null, "flag": "0"}, {"name": "sa(1.0)", "value": null, "sigma": null, "flag": "0"}, {"name": "pgv", "value": null, "sigma": null, "flag": "0"}], "distance_stddev": 5.6, "distances": {"repi": 15.302, "rhypo": 18.39, "rjb": 11.36, "rjb_var": 12.933, "rrup": 15.543, "rrup_var": 31.359, "rx": 0.0, "ry0": 0.0, "rvolc": 0.0}}, "geometry": {"type": "Point", "coordinates": [10.8987, 44.8873]}}, {"type": "Feature", "id": "IV.T0805", "properties": {"code": "T0805", "name": "", "instrumentType": "UNK", "source": "IV", "network": "IV", "commType": "UNK", "location": "", "intensity": 6.3, "intensity_flag": "", "intensity_stddev": 0.63, "pga": "null", "pgv": 13.3809, "distance": 19.316, "elev": null, "vs30": 180.0, "channels": [{"name": "HNZ", "amplitudes": [{"name": "pga", "value": 6.6607, "units": "%g", "flag": "Outlier,0,Outlier,0,Outlier", "ln_sigma": 0.0}, {"name": "pgv", "value": 1.5403, "units": "cm/s", "flag": "0", "ln_sigma": 0.0}, {"name": "sa(0.3)", "value": 6.5632, "units": "%g", "flag": "Outlier,0,Outlier,0,Outlier", "ln_sigma": 0.0}, {"name": "sa(1.0)", "value": 1.5499, "units": "%g", "flag": "0", "ln_sigma": 0.0}, {"name": "sa(3.0)", "value": 0.7018, "units": "%g", "flag": "0", "ln_sigma": 0.0}]}, {"name": "HNE", "amplitudes": [{"name": "pga", "value": 24.6495, "units": "%g", "flag": "Outlier,0,Outlier,0,Outlier", "ln_sigma": 0.0}, {"name": "pgv", "value": 13.3809, "units": "cm/s", "flag": "0", "ln_sigma": 0.0}, {"name": "sa(0.3)", "value": 57.9807, "units": "%g", "flag": "Outlier,0,Outlier,0,Outlier", "ln_sigma": 0.0}, {"name": "sa(1.0)", "value": 6.6603, "units": "%g", "flag": "0", "ln_sigma": 0.0}, {"name": "sa(3.0)", "value": 2.8149, "units": "%g", "flag": "0", "ln_sigma": 0.0}]}, {"name": "HNN", "amplitudes": [{"name": "pga", "value": 16.7365, "units": "%g", "flag": "Outlier,0,Outlier,0,Outlier", "ln_sigma": 0.0}, {"name": "pgv", "value": 8.4863, "units": "cm/s", "flag": "0", "ln_sigma": 0.0}, {"name": "sa(0.3)", "value": 21.0027, "units": "%g", "flag": "Outlier,0,Outlier,0,Outlier", "ln_sigma": 0.0}, {"name": "sa(1.0)", "value": 6.99, "units": "%g", "flag": "0", "ln_sigma": 0.0}, {"name": "sa(3.0)", "value": 2.0103, "units": "%g", "flag": "0", "ln_sigma": 0.0}]}], "station_type": "seismic", "nresp": "null", "predictions": [{"name": "sa(3.0)", "value": 1.9136, "value_rock": 0.6337, "value_soil": 1.9136, "units": "%g", "ln_tau": 0.4428, "ln_phi": 0.7163, "ln_sigma": 0.8421, "ln_sigma_rock": 0.8464, "ln_sigma_soil": 0.8443, "ln_bias": -0.0122, "ln_bias_sigma": 0.1463}, {"name": "pga", "value": 14.7562, "value_rock": 10.5804, "value_soil": 14.7562, "units": "%g", "ln_tau": 0.3961, "ln_phi": 0.6543, "ln_sigma": 0.7648, "ln_sigma_rock": 0.7933, "ln_sigma_soil": 0.7669, "ln_bias": -0.5635, "ln_bias_sigma": 0.126}, {"name": "sa(0.3)", "value": 30.7817, "value_rock": 14.4371, "value_soil": 30.7817, "units": "%g", "ln_tau": 0.3795, "ln_phi": 0.713, "ln_sigma": 0.8077, "ln_sigma_rock": 0.8422, "ln_sigma_soil": 0.8088, "ln_bias": -0.2241, "ln_bias_sigma": 0.1371}, {"name": "sa(1.0)", "value": 11.0299, "value_rock": 3.2326, "value_soil": 11.0299, "units": "%g", "ln_tau": 0.4318, "ln_phi": 0.7369, "ln_sigma": 0.8541, "ln_sigma_rock": 0.8683, "ln_sigma_soil": 0.8555, "ln_bias": -0.0829, "ln_bias_sigma": 0.1445}, {"name": "pgv", "value": 10.9828, "value_rock": 4.4879, "value_soil": 10.9828, "units": "cm/s", "ln_tau": 0.3916, "ln_phi": 0.6719, "ln_sigma": 0.7777, "ln_sigma_rock": 0.7961, "ln_sigma_soil": 0.7811, "ln_bias": -0.2587, "ln_bias_sigma": 0.1292}, {"name": "mmi", "value": 6.0347, "value_rock": 4.8065, "value_soil": 6.0347, "units": "intensity", "tau": 0.5374, "phi": 1.1167, "sigma": 1.2393, "sigma_rock": 1.2612, "sigma_soil": 1.2434, "bias": -0.2063, "bias_sigma": 0.1693}], "mmi_from_pgm": [{"name": "sa(3.0)", "value": 6.29, "sigma": 0.89, "flag": "0"}, {"name": "pga", "value": null, "sigma": null, "flag": "0"}, {"name": "sa(0.3)", "value": null, "sigma": null, "flag": "0"}, {"name": "sa(1.0)", "value": 5.48, "sigma": 0.75, "flag": "0"}, {"name": "pgv", "value": 6.31, "sigma": 0.63, "flag": "0"}], "distance_stddev": 5.948, "distances": {"repi": 20.103, "rhypo": 22.543, "rjb": 15.82, "rjb_var": 16.009, "rrup": 19.316, "rrup_var": 35.384, "rx": 0.0, "ry0": 0.0, "rvolc": 0.0}}, "geometry": {"type": "Point", "coordinates": [11.3226, 44.9187]}}, {"type": "Feature", "id": "IV.T0803", "properties": {"code": "T0803", "name": "", "instrumentType": "UNK", "source": "IV", "network": "IV", "commType": "UNK", "location": "", "intensity": 5.7, "intensity_flag": "", "intensity_stddev": 0.63, "pga": 12.0901, "pgv": 8.5784, "distance": 21.742, "elev": null, "vs30": 186.69, "channels": [{"name": "HNZ", "amplitudes": [{"name": "pga", "value": 6.6539, "units": "%g", "flag": "0", "ln_sigma": 0.0}, {"name": "pgv", "value": 1.9634, "units": "cm/s", "flag": "0", "ln_sigma": 0.0}, {"name": "sa(0.3)", "value": 9.1097, "units": "%g", "flag": "Outlier,0,Outlier,0,Outlier", "ln_sigma": 0.0}, {"name": "sa(1.0)", "value": 1.3585, "units": "%g", "flag": "0", "ln_sigma": 0.0}, {"name": "sa(3.0)", "value": 0.3802, "units": "%g", "flag": "0", "ln_sigma": 0.0}]}, {"name": "HNE", "amplitudes": [{"name": "pga", "value": 12.0901, "units": "%g", "flag": "0", "ln_sigma": 0.0}, {"name": "pgv", "value": 8.5784, "units": "cm/s", "flag": "0", "ln_sigma": 0.0}, {"name": "sa(0.3)", "value": 46.2291, "units": "%g", "flag": "Outlier,0,Outlier,0,Outlier", "ln_sigma": 0.0}, {"name": "sa(1.0)", "value": 5.5614, "units": "%g", "flag": "0", "ln_sigma": 0.0}, {"name": "sa(3.0)", "value": 1.403, "units": "%g", "flag": "0", "ln_sigma": 0.0}]}, {"name": "HNN", "amplitudes": [{"name": "pga", "value": 6.9269, "units": "%g", "flag": "0", "ln_sigma": 0.0}, {"name": "pgv", "value": 7.5446, "units": "cm/s", "flag": "0", "ln_sigma": 0.0}, {"name": "sa(0.3)", "value": 21.1544, "units": "%g", "flag": "Outlier,0,Outlier,0,Outlier", "ln_sigma": 0.0}, {"name": "sa(1.0)", "value": 7.6762, "units": "%g", "flag": "0", "ln_sigma": 0.0}, {"name": "sa(3.0)", "value": 1.5459, "units": "%g", "flag": "0", "ln_sigma": 0.0}]}], "station_type": "seismic", "nresp": "null", "predictions": [{"name": "sa(3.0)", "value": 1.659, "value_rock": 0.5593, "value_soil": 1.6999, "units": "%g", "ln_tau": 0.4428, "ln_phi": 0.709, "ln_sigma": 0.8359, "ln_sigma_rock": 0.8397, "ln_sigma_soil": 0.838, "ln_bias": -0.0122, "ln_bias_sigma": 0.1463}, {"name": "pga", "value": 12.8108, "value_rock": 9.029, "value_soil": 12.8454, "units": "%g", "ln_tau": 0.3975, "ln_phi": 0.6475, "ln_sigma": 0.7598, "ln_sigma_rock": 0.7839, "ln_sigma_soil": 0.761, "ln_bias": -0.564, "ln_bias_sigma": 0.1261}, {"name": "sa(0.3)", "value": 26.8454, "value_rock": 12.3294, "value_soil": 27.0934, "units": "%g", "ln_tau": 0.3813, "ln_phi": 0.708, "ln_sigma": 0.8042, "ln_sigma_rock": 0.8328, "ln_sigma_soil": 0.804, "ln_bias": -0.2244, "ln_bias_sigma": 0.1372}, {"name": "sa(1.0)", "value": 9.5134, "value_rock": 2.8059, "value_soil": 9.7429, "units": "%g", "ln_tau": 0.4324, "ln_phi": 0.7289, "ln_sigma": 0.8475, "ln_sigma_rock": 0.8593, "ln_sigma_soil": 0.8484, "ln_bias": -0.0829, "ln_bias_sigma": 0.1445}, {"name": "pgv", "value": 9.4066, "value_rock": 3.8583, "value_soil": 9.566, "units": "cm/s", "ln_tau": 0.3921, "ln_phi": 0.6622, "ln_sigma": 0.7696, "ln_sigma_rock": 0.7858, "ln_sigma_soil": 0.7727, "ln_bias": -0.2588, "ln_bias_sigma": 0.1293}, {"name": "mmi", "value": 5.822, "value_rock": 4.599, "value_soil": 5.8451, "units": "intensity", "tau": 0.5381, "phi": 1.1058, "sigma": 1.2298, "sigma_rock": 1.2489, "sigma_soil": 1.2334, "bias": -0.2063, "bias_sigma": 0.1693}], "mmi_from_pgm": [{"name": "sa(3.0)", "value": 5.47, "sigma": 0.89, "flag": "0"}, {"name": "pga", "value": 5.54, "sigma": 0.66, "flag": "0"}, {"name": "sa(0.3)", "value": null, "sigma": null, "flag": "0"}, {"name": "sa(1.0)", "value": 5.58, "sigma": 0.75, "flag": "0"}, {"name": "pgv", "value": 5.7, "sigma": 0.63, "flag": "0"}], "distance_stddev": 5.994, "distances": {"repi": 22.892, "rhypo": 25.061, "rjb": 18.5, "rjb_var": 16.928, "rrup": 21.742, "rrup_var": 35.93, "rx": 0.0, "ry0": 0.0, "rvolc": 0.0}}, "geometry": {"type": "Point", "coordinates": [11.3508, 44.7668]}}, {"type": "Feature", "id": "IV.SERM", "properties": {"code": "SERM", "name": "", "instrumentType": "UNK", "source": "IV", "network": "IV", "commType": "UNK", "location": "", "intensity": 4.0, "intensity_flag": "", "intensity_stddev": 0.63, "pga": 1.5387, "