{"type": "FeatureCollection", "features": [{"type": "Feature", "id": "NOA.AMIA", "properties": {"code": "AMIA", "name": "", "instrumentType": "UNK", "source": "NOA", "network": "NOA", "commType": "UNK", "location": "", "intensity": 5.7, "intensity_flag": "", "intensity_stddev": 0.63, "pga": 18.0, "pgv": 9.4, "distance": 23.873, "elev": null, "vs30": 900.0, "channels": [{"name": "H1", "amplitudes": [{"name": "pga", "value": 12.0, "units": "%g", "flag": "0", "ln_sigma": 0.0}, {"name": "pgv", "value": 7.79, "units": "cm/s", "flag": "0", "ln_sigma": 0.0}]}, {"name": "H2", "amplitudes": [{"name": "pga", "value": 18.0, "units": "%g", "flag": "0", "ln_sigma": 0.0}, {"name": "pgv", "value": 9.4, "units": "cm/s", "flag": "0", "ln_sigma": 0.0}]}], "station_type": "seismic", "nresp": "null", "predictions": [{"name": "pga", "value": 11.4191, "value_rock": 12.1257, "value_soil": 16.666, "units": "%g", "ln_tau": 0.0, "ln_phi": 0.596, "ln_sigma": 0.596, "ln_sigma_rock": 0.7142, "ln_sigma_soil": 0.6985, "ln_bias": 0.0665, "ln_bias_sigma": 0.094}, {"name": "pgv", "value": 6.0037, "value_rock": 6.6837, "value_soil": 16.216, "units": "cm/s", "ln_tau": 0.0, "ln_phi": 0.6068, "ln_sigma": 0.6068, "ln_sigma_rock": 0.7298, "ln_sigma_soil": 0.7215, "ln_bias": 0.0751, "ln_bias_sigma": 0.1029}, {"name": "mmi", "value": 5.3729, "value_rock": 5.4694, "value_soil": 5.9804, "units": "intensity", "tau": 0.0, "phi": 1.105, "sigma": 1.105, "sigma_rock": 1.3239, "sigma_soil": 1.3021, "bias": 0.089, "bias_sigma": 0.1092}], "mmi_from_pgm": [{"name": "pga", "value": 6.1, "sigma": 0.66, "flag": "0"}, {"name": "pgv", "value": 5.7, "sigma": 0.63, "flag": "0"}], "distance_stddev": 0.0, "distances": {"repi": 16.379, "rhypo": 21.677, "rjb": 21.83, "rjb_var": 0.0, "rrup": 23.873, "rrup_var": 0.0, "rx": 28.85, "ry0": 1.681, "rvolc": 0.0}}, "geometry": {"type": "Point", "coordinates": [22.3784, 38.52795]}}, {"type": "Feature", "id": "NOA.LEF1", "properties": {"code": "LEF1", "name": "", "instrumentType": "UNK", "source": "NOA", "network": "NOA", "commType": "UNK", "location": "", "intensity": 4.0, "intensity_flag": "", "intensity_stddev": 0.63, "pga": 1.3, "pgv": 2.09, "distance": 136.91, "elev": null, "vs30": 255.39, "channels": [{"name": "H1", "amplitudes": [{"name": "pga", "value": 1.3, "units": "%g", "flag": "0", "ln_sigma": 0.0}, {"name": "pgv", "value": 1.74, "units": "cm/s", "flag": "0", "ln_sigma": 0.0}]}, {"name": "H2", "amplitudes": [{"name": "pga", "value": 1.3, "units": "%g", "flag": "0", "ln_sigma": 0.0}, {"name": "pgv", "value": 2.09, "units": "cm/s", "flag": "0", "ln_sigma": 0.0}]}], "station_type": "seismic", "nresp": "null", "predictions": [{"name": "pga", "value": 1.7873, "value_rock": 1.2312, "value_soil": 1.997, "units": "%g", "ln_tau": 0.0, "ln_phi": 0.5945, "ln_sigma": 0.5945, "ln_sigma_rock": 0.7154, "ln_sigma_soil": 0.7105, "ln_bias": 0.0665, "ln_bias_sigma": 0.094}, {"name": "pgv", "value": 2.0045, "value_rock": 0.9443, "value_soil": 2.5505, "units": "cm/s", "ln_tau": 0.0, "ln_phi": 0.6054, "ln_sigma": 0.6054, "ln_sigma_rock": 0.7307, "ln_sigma_soil": 0.7261, "ln_bias": 0.0751, "ln_bias_sigma": 0.1029}, {"name": "mmi", "value": 3.8722, "value_rock": 3.6213, "value_soil": 3.9468, "units": "intensity", "tau": 0.0, "phi": 0.6812, "sigma": 0.6812, "sigma_rock": 0.817, "sigma_soil": 0.8151, "bias": 0.0859, "bias_sigma": 0.1073}], "mmi_from_pgm": [{"name": "pga", "value": 3.66, "sigma": 0.66, "flag": "0"}, {"name": "pgv", "value": 3.98, "sigma": 0.63, "flag": "0"}], "distance_stddev": 0.0, "distances": {"repi": 145.57, "rhypo": 146.261, "rjb": 136.67, "rjb_var": 0.0, "rrup": 136.91, "rrup_var": 0.0, "rx": 43.492, "ry0": 131.482, "rvolc": 0.0}}, "geometry": {"type": "Point", "coordinates": [20.7, 38.83]}}, {"type": "Feature", "id": "NOA.KRP1", "properties": {"code": "KRP1", "name": "", "instrumentType": "UNK", "source": "NOA", "network": "NOA", "commType": "UNK", "location": "", "intensity": 2.9, "intensity_flag": "", "intensity_stddev": 0.63, "pga": 1.0, "pgv": 0.41, "distance": 70.252, "elev": null, "vs30": 900.0, "channels": [{"name": "H1", "amplitudes": [{"name": "pga", "value": 0.8, "units": "%g", "flag": "0", "ln_sigma": 0.0}, {"name": "pgv", "value": 0.36, "units": "cm/s", "flag": "0", "ln_sigma": 0.0}]}, {"name": "H2", "amplitudes": [{"name": "pga", "value": 1.0, "units": "%g", "flag": "0", "ln_sigma": 0.0}, {"name": "pgv", "value": 0.41, "units": "cm/s", "flag": "0", "ln_sigma": 0.0}]}], "station_type": "seismic", "nresp": "null", "predictions": [{"name": "pga", "value": 3.0041, "value_rock": 3.1916, "value_soil": 4.9703, "units": "%g", "ln_tau": 0.0, "ln_phi": 0.596, "ln_sigma": 0.596, "ln_sigma_rock": 0.7144, "ln_sigma_soil": 0.7065, "ln_bias": 0.0665, "ln_bias_sigma": 0.094}, {"name": "pgv", "value": 1.8178, "value_rock": 2.0238, "value_soil": 5.3211, "units": "cm/s", "ln_tau": 0.0, "ln_phi": 0.6068, "ln_sigma": 0.6068, "ln_sigma_rock": 0.7298, "ln_sigma_soil": 0.7242, "ln_bias": 0.0751, "ln_bias_sigma": 0.1029}, {"name": "mmi", "value": 3.9261, "value_rock": 3.9669, "value_soil": 4.5144, "units": "intensity", "tau": 0.0, "phi": 0.6818, "sigma": 0.6818, "sigma_rock": 0.8166, "sigma_soil": 1.3132, "bias": 0.0859, "bias_sigma": 0.1073}], "mmi_from_pgm": [{"name": "pga", "value": 3.19, "sigma": 0.66, "flag": "0"}, {"name": "pgv", "value": 2.94, "sigma": 0.63, "flag": "0"}], "distance_stddev": 0.0, "distances": {"repi": 71.339, "rhypo": 72.738, "rjb": 69.632, "rjb_var": 0.0, "rrup": 70.252, "rrup_var": 0.0, "rx": 65.324, "ry0": 38.266, "rvolc": 0.0}}, "geometry": {"type": "Point", "coordinates": [21.8, 38.92]}}, {"type": "Feature", "id": "NOA.PATA", "properties": {"code": "PATA", "name": "", "instrumentType": "UNK", "source": "NOA", "network": "NOA", "commType": "UNK", "location": "", "intensity": 5.4, "intensity_flag": "", "intensity_stddev": 0.63, "pga": 4.0, "pgv": 7.68, "distance": 36.188, "elev": null, "vs30": 399.64, "channels": [{"name": "H1", "amplitudes": [{"name": "pga", "value": 3.0, "units": "%g", "flag": "0", "ln_sigma": 0.0}, {"name": "pgv", "value": 6.93, "units": "cm/s", "flag": "0", "ln_sigma": 0.0}]}, {"name": "H2", "amplitudes": [{"name": "pga", "value": 4.0, "units": "%g", "flag": "0", "ln_sigma": 0.0}, {"name": "pgv", "value": 7.68, "units": "cm/s", "flag": "0", "ln_sigma": 0.0}]}], "station_type": "seismic", "nresp": "null", "predictions": [{"name": "pga", "value": 9.1062, "value_rock": 7.2246, "value_soil": 10.5563, "units": "%g", "ln_tau": 0.0, "ln_phi": 0.5941, "ln_sigma": 0.5941, "ln_sigma_rock": 0.7143, "ln_sigma_soil": 0.7022, "ln_bias": 0.0665, "ln_bias_sigma": 0.0939}, {"name": "pgv", "value": 6.347, "value_rock": 4.1597, "value_soil": 10.4984, "units": "cm/s", "ln_tau": 0.0, "ln_phi": 0.6066, "ln_sigma": 0.6066, "ln_sigma_rock": 0.7298, "ln_sigma_soil": 0.7228, "ln_bias": 0.0751, "ln_bias_sigma": 0.1029}, {"name": "mmi", "value": 5.1935, "value_rock": 4.8215, "value_soil": 5.4309, "units": "intensity", "tau": 0.0, "phi": 1.1023, "sigma": 1.1023, "sigma_rock": 1.324, "sigma_soil": 1.3072, "bias": 0.089, "bias_sigma": 0.1092}], "mmi_from_pgm": [{"name": "pga", "value": 3.87, "sigma": 0.66, "flag": "0"}, {"name": "pgv", "value": 5.42, "sigma": 0.63, "flag": "0"}], "distance_stddev": 0.0, "distances": {"repi": 51.078, "rhypo": 53.015, "rjb": 35.92, "rjb_var": 0.0, "rrup": 36.188, "rrup_var": 0.0, "rx": -9.332, "ry0": 34.574, "rvolc": 0.0}}, "geometry": {"type": "Point", "coordinates": [21.73, 38.25]}}, {"type": "Feature", "id": "ITSAK.ZAK1", "properties": {"code": "ZAK1", "name": "", "instrumentType": "UNK", "source": "ITSAK", "network": "ITSAK", "commType": "UNK", "location": "", "intensity": "null", "intensity_flag": "", "intensity_stddev": "null", "pga": "null", "pgv": "null", "distance": 60.145, "elev": null, "vs30": 852.48, "channels": [{"name": "H1", "amplitudes": [{"name": "pga", "value": 0.1015, "units": "%g", "flag": "Outlier,0,Outlier", "ln_sigma": 0.0}, {"name": "pgv", "value": 0.016, "units": "cm/s", "flag": "Outlier,0,Outlier", "ln_sigma": 0.0}]}, {"name": "H2", "amplitudes": [{"name": "pga", "value": 0.1183, "units": "%g", "flag": "Outlier,0,Outlier", "ln_sigma": 0.0}, {"name": "pgv", "value": 0.0181, "units": "cm/s", "flag": "Outlier,0,Outlier", "ln_sigma": 0.0}]}], "station_type": "seismic", "nresp": "null", "predictions": [{"name": "pga", "value": 3.7162, "value_rock": 3.8759, "value_soil": 5.9629, "units": "%g", "ln_tau": 0.0, "ln_phi": 0.596, "ln_sigma": 0.596, "ln_sigma_rock": 0.7144, "ln_sigma_soil": 0.7057, "ln_bias": 0.0665, "ln_bias_sigma": 0.094}, {"name": "pgv", "value": 2.2236, "value_rock": 2.393, "value_soil": 6.2436, "units": "cm/s", "ln_tau": 0.0, "ln_phi": 0.6068, "ln_sigma": 0.6068, "ln_sigma_rock": 0.7298, "ln_sigma_soil": 0.7239, "ln_bias": 0.0751, "ln_bias_sigma": 0.1029}, {"name": "mmi", "value": 4.0005, "value_rock": 4.0459, "value_soil": 4.7381, "units": "intensity", "tau": 0.0, "phi": 0.6818, "sigma": 0.6818, "sigma_rock": 1.3241, "sigma_soil": 1.312, "bias": 0.0859, "bias_sigma": 0.1073}], "mmi_from_pgm": [{"name": "pga", "value": null, "sigma": null, "flag": "0"}, {"name": "pgv", "value": null, "sigma": null, "flag": "0"}], "distance_stddev": 0.0, "distances": {"repi": 76.257, "rhypo": 77.567, "rjb": 59.998, "rjb_var": 0.0, "rrup": 60.145, "rrup_var": 0.0, "rx": -58.638, "ry0": 13.031, "rvolc": 0.0}}, "geometry": {"type": "Point", "coordinates": [21.9, 37.785]}}, {"type": "Feature", "id": "NOA.PAT1", "properties": {"code": "PAT1", "name": "", "instrumentType": "UNK", "source": "NOA", "network": "NOA", "commType": "UNK", "location": "", "intensity": 5.5, "intensity_flag": "", "intensity_stddev": 0.63, "pga": 3.3, "pgv": 7.93, "distance": 36.188, "elev": null, "vs30": 399.64, "channels": [{"name": "H1", "amplitudes": [{"name": "pga", "value": 3.3, "units": "%g", "flag": "0", "ln_sigma": 0.0}, {"name": "pgv", "value": 7.93, "units": "cm/s", "flag": "0", "ln_sigma": 0.0}]}, {"name": "H2", "amplitudes": [{"name": "pga", "value": 3.2, "units": "%g", "flag": "0", "ln_sigma": 0.0}, {"name": "pgv", "value": 5.76, "units": "cm/s", "flag": "0", "ln_sigma": 0.0}]}], "station_type": "seismic", "nresp": "null", "predictions": [{"name": "pga", "value": 9.1062, "value_rock": 7.2246, "value_soil": 10.5563, "units": "%g", "ln_tau": 0.0, "ln_phi": 0.5941, "ln_sigma": 0.5941, "ln_sigma_rock": 0.7143, "ln_sigma_soil": 0.7022, "ln_bias": 0.0665, "ln_bias_sigma": 0.0939}, {"name": "pgv", "value": 6.347, "value_rock": 4.1597, "value_soil": 10.4984, "units": "cm/s", "ln_tau": 0.0, "ln_phi": 0.6066, "ln_sigma": 0.6066, "ln_sigma_rock": 0.7298, "ln_sigma_soil": 0.7228, "ln_bias": 0.0751, "ln_bias_sigma": 0.1029}, {"name": "mmi", "value": 5.1935, "value_rock": 4.8215, "value_soil": 5.4309, "units": "intensity", "tau": 0.0, "phi": 1.1023, "sigma": 1.1023, "sigma_rock": 1.324, "sigma_soil": 1.3072, "bias": 0.089, "bias_sigma": 0.1092}], "mmi_from_pgm": [{"name": "pga", "value": 3.7, "sigma": 0.66, "flag": "0"}, {"name": "pgv", "value": 5.46, "sigma": 0.63, "flag": "0"}], "distance_stddev": 0.0, "distances": {"repi": 51.078, "rhypo": 53.015, "rjb": 35.92, "rjb_var": 0.0, "rrup": 36.188, "rrup_var": 0.0, "rx": -9.332, "ry0": 34.574, "rvolc": 0.0}}, "geometry": {"type": "Point", "coordinates": [21.73, 38.25]}}, {"type": "Feature", "id": "ITSAK.PYR1", "properties": {"code": "PYR1", "name": "", "instrumentType": "UNK", "source": "ITSAK", "network": "ITSAK", "commType": "UNK", "location": "", "intensity": "null", "intensity_flag": "", "intensity_stddev": "null", "pga": "null", "pgv": "null", "distance": 92.475, "elev": null, "vs30": 310.56, "channels": [{"name": "H1", "amplitudes": [{"name": "pga", "value": 0.555, "units": "%g", "flag": "Outlier,0,Outlier", "ln_sigma": 0.0}, {"name": "pgv", "value": 0.0549, "units": "cm/s", "flag": "Outlier,0,Outlier", "ln_sigma": 0.0}]}, {"name": "H2", "amplitudes": [{"name": "pga", "value": 0.4969, "units": "%g", "flag": "Outlier,0,Outlier", "ln_sigma": 0.0}, {"name": "pgv", "value": 0.0431, "units": "cm/s", "flag": "Outlier,0,Outlier", "ln_sigma": 0.0}]}], "station_type": "seismic", "nresp": "null", "predictions": [{"name": "pga", "value": 3.0292, "value_rock": 2.185, "value_soil": 3.471, "units": "%g", "ln_tau": 0.0, "ln_phi": 0.5946, "ln_sigma": 0.5946, "ln_sigma_rock": 0.7144, "ln_sigma_soil": 0.708, "ln_bias": 0.0665, "ln_bias_sigma": 0.094}, {"name": "pgv", "value": 2.6693, "value_rock": 1.4792, "value_soil": 3.941, "units": "cm/s", "ln_tau": 0.0, "ln_phi": 0.6061, "ln_sigma": 0.6061, "ln_sigma_rock": 0.7298, "ln_sigma_soil": 0.7247, "ln_bias": 0.0751, "ln_bias_sigma": 0.1029}, {"name": "mmi", "value": 4.0535, "value_rock": 3.8336, "value_soil": 4.1451, "units": "intensity", "tau": 0.0, "phi": 0.6812, "sigma": 0.6812, "sigma_rock": 0.8166, "sigma_soil": 0.8141, "bias": 0.0859, "bias_sigma": 0.1073}], "mmi_from_pgm": [{"name": "pga", "value": null, "sigma": null, "flag": "0"}, {"name": "pgv", "value": null, "sigma": null, "flag": "0"}], "distance_stddev": 0.0, "distances": {"repi": 109.925, "rhypo": 110.839, "rjb": 92.398, "rjb_var": 0.0, "rrup": 92.475, "rrup_var": 0.0, "rx": -76.58, "ry0": 51.662, "rvolc": 0.0}}, "geometry": {"type": "Point", "coordinates": [21.438, 37.67]}}, {"type": "Feature", "id": "NOA.MRNA", "properties": {"code": "MRNA", "name": "", "instrumentType": "UNK", "source": "NOA", "network": "NOA", "commType": "UNK", "location": "", "intensity": 4.4, "intensity_flag": "", "intensity_stddev": 0.63, "pga": 7.0, "pgv": 3.59, "distance": 21.343, "elev": null, "vs30": 493.4, "channels": [{"name": "H1", "amplitudes": [{"name": "pga", "value": 7.0, "units": "%g", "flag": "0", "ln_sigma": 0.0}, {"name": "pgv", "value": 3.59, "units": "cm/s", "flag": "0", "ln_sigma": 0.0}]}, {"name": "H2", "amplitudes": [{"name": "pga", "value": 7.0, "units": "%g", "flag": "0", "ln_sigma": 0.0}, {"name": "pgv", "value": 3.34, "units": "cm/s", "flag": "0", "ln_sigma": 0.0}]}], "station_type": "seismic", "nresp": "null", "predictions": [{"name": "pga", "value": 16.2227, "value_rock": 13.8171, "value_soil": 18.6471, "units": "%g", "ln_tau": 0.0, "ln_phi": 0.5941, "ln_sigma": 0.5941, "ln_sigma_rock": 0.7142, "ln_sigma_soil": 0.6974, "ln_bias": 0.0665, "ln_bias_sigma": 0.0939}, {"name": "pgv", "value": 10.1291, "value_rock": 7.5576, "value_soil": 18.1283, "units": "cm/s", "ln_tau": 0.0, "ln_phi": 0.6067, "ln_sigma": 0.6067, "ln_sigma_rock": 0.7298, "ln_sigma_soil": 0.7211, "ln_bias": 0.0751, "ln_bias_sigma": 0.1029}, {"name": "mmi", "value": 5.8875, "value_rock": 5.6296, "value_soil": 6.1113, "units": "intensity", "tau": 0.0, "phi": 1.1024, "sigma": 1.1024, "sigma_rock": 1.3238, "sigma_soil": 1.3006, "bias": 0.089, "bias_sigma": 0.1092}], "mmi_from_pgm": [{"name": "pga", "value": 4.54, "sigma": 0.66, "flag": "0"}, {"name": "pgv", "value": 4.37, "sigma": 0.63, "flag": "0"}], "distance_stddev": 0.0, "distances": {"repi": 19.952, "rhypo": 24.489, "rjb": 19.026, "rjb_var": 0.0, "rrup": 21.343, "rrup_var": 0.0, "rx": 25.406, "ry0": 5.18, "rvolc": 0.0}}, "geometry": {"type": "Point", "coordinates": [22.117, 38.5247]}}, {"type": "Feature", "id": "NOA.ATH3", "properties": {"code": "ATH3", "name": "", "instrumentType": "UNK", "source": "NOA", "network": "NOA", "commType": "UNK", "location": "", "intensity": 3.4, "intensity_flag": "", "intensity_stddev": 0.63, "pga": 1.0, "pgv": 0.87, "distance": 128.376, "elev": null, "vs30": 471.38, "channels": [{"name": "H1", "amplitudes": [{"name": "pga", "value": 0.9, "units": "%g", "flag": "0", "ln_sigma": 0.0}, {"name": "pgv", "value": 0.85, "units": "cm/s", "flag": "0", "ln_sigma": 0.0}]}, {"name": "H2", "amplitudes": [{"name": "pga", "value": 1.0, "units": "%g", "flag": "0", "ln_sigma": 0.0}, {"name": "pgv", "value": 0.87, "units": "cm/s", "flag": "0", "ln_sigma": 0.0}]}], "station_type": "seismic", "nresp": "null", "predictions": [{"name": "pga", "value": 1.6451, "value_rock": 1.3565, "value_soil": 2.194, "units": "%g", "ln_tau": 0.0, "ln_phi": 0.5963, "ln_sigma": 0.5963, "ln_sigma_rock": 0.7151, "ln_sigma_soil": 0.71, "ln_bias": 0.0665, "ln_bias_sigma": 0.094}, {"name": "pgv", "value": 1.4125, "value_rock": 1.0168, "value_soil": 2.7409, "units": "cm/s", "ln_tau": 0.0, "ln_phi": 0.6074, "ln_sigma": 0.6074, "ln_sigma_rock": 0.7305, "ln_sigma_soil": 0.7258, "ln_bias": 0.0751, "ln_bias_sigma": 0.103}, {"name": "mmi", "value": 3.7879, "value_rock": 3.658, "value_soil": 3.9817, "units": "intensity", "tau": 0.0, "phi": 0.6819, "sigma": 0.6819, "sigma_rock": 0.8169, "sigma_soil": 0.8149, "bias": 0.0859, "bias_sigma": 0.1073}], "mmi_from_pgm": [{"name": "pga", "value": 3.45, "sigma": 0.66, "flag": "0"}, {"name": "pgv", "value": 3.42, "sigma": 0.63, "flag": "0"}], "distance_stddev": 0.0, "distances": {"repi": 134.845, "rhypo": 135.59, "rjb": 128.342, "rjb_var": 0.0, "rrup": 128.376, "rrup_var": 0.0, "rx": -14.403, "ry0": 127.248, "rvolc": 0.0}}, "geometry": {"type": "Point", "coordinates": [23.73, 37.98]}}, {"type": "Feature", "id": "NOA.KOR1", "properties": {"code": "KOR1", "name": "", "instrumentType": "UNK", "source": "NOA", "network": "NOA", "commType": "UNK", "location": "", "intensity": 4.5, "intensity_flag": "", "intensity_stddev": 0.63, "pga": 2.1, "pgv": 4.08, "distance": 65.591, "elev": null, "vs30": 347.15, "channels": [{"name": "H1", "amplitudes": [{"name": "pga", "value": 1.8, "units": "%g", "flag": "0", "ln_sigma": 0.0}, {"name": "pgv", "value": 4.08, "units": "cm/s", "flag": "0", "ln_sigma": 0.0}]}, {"name": "H2", "amplitudes": [{"name": "pga", "value": 2.1, "units": "%g", "flag": "0", "ln_sigma": 0.0}, {"name": "pgv", "value": 0.44, "units": "cm/s", "flag": "0", "ln_sigma": 0.0}]}], "station_type": "seismic", "nresp": "null", "predictions": [{"name": "pga", "value": 4.6235, "value_rock": 3.47, "value_soil": 5.3773, "units": "%g", "ln_tau": 0.0, "ln_phi": 0.5944, "ln_sigma": 0.5944, "ln_sigma_rock": 0.7144, "ln_sigma_soil": 0.7062, "ln_bias": 0.0665, "ln_bias_sigma": 0.094}, {"name": "pgv", "value": 3.6596, "value_rock": 2.1752, "value_soil": 5.7017, "units": "cm/s", "ln_tau": 0.0, "ln_phi": 0.6062, "ln_sigma": 0.6062, "ln_sigma_rock": 0.7298, "ln_sigma_soil": 0.7241, "ln_bias": 0.0751, "ln_bias_sigma": 0.1029}, {"name": "mmi", "value": 4.3677, "value_rock": 3.9928, "value_soil": 4.6104, "units": "intensity", "tau": 0.0, "phi": 1.1027, "sigma": 1.1027, "sigma_rock": 0.8166, "sigma_soil": 1.3127, "bias": 0.089, "bias_sigma": 0.1092}], "mmi_from_pgm": [{"name": "pga", "value": 3.65, "sigma": 0.66, "flag": "0"}, {"name": "pgv", "value": 4.55, "sigma": 0.63, "flag": "0"}], "distance_stddev": 0.0, "distances": {"repi": 76.332, "rhypo": 77.642, "rjb": 65.46, "rjb_var": 0.0, "rrup": 65.591, "rrup_var": 0.0, "rx": -29.133, "ry0": 58.541, "rvolc": 0.0}}, "geometry": {"type": "Point", "coordinates": [22.93, 37.94]}}, {"type": "Feature", "id": "NOA.NAUA", "properties": {"code": "NAUA", "name": "", "instrumentType": "UNK", "source": "NOA", "network": "NOA", "commType": "UNK", "location": "", "intensity": 4.3, "intensity_flag": "", "intensity_stddev": 0.63, "pga": 5.0, "pgv": 3.22, "distance": 28.956, "elev": null, "vs30": 542.4, "channels": [{"name": "H1", "amplitudes": [{"name": "pga", "value": 4.0, "units": "%g", "flag": "0", "ln_sigma": 0.0}, {"name": "pgv", "value": 3.22, "units": "cm/s", "flag": "0", "ln_sigma": 0.0}]}, {"name": "H2", "amplitudes": [{"name": "pga", "value": 5.0, "units": "%g", "flag": "0", "ln_sigma": 0.0}, {"name": "pgv", "value": 3.16, "units": "cm/s", "flag": "0", "ln_sigma": 0.0}]}], "station_type": "seismic", "nresp": "null", "predictions": [{"name": "pga", "value": 10.9245, "value_rock": 9.5124, "value_soil": 13.4796, "units": "%g", "ln_tau": 0.0, "ln_phi": 0.595, "ln_sigma": 0.595, "ln_sigma_rock": 0.7143, "ln_sigma_soil": 0.7003, "ln_bias": 0.0665, "ln_bias_sigma": 0.094}, {"name": "pgv", "value": 6.7768, "value_rock": 5.34, "value_soil": 13.2146, "units": "cm/s", "ln_tau": 0.0, "ln_phi": 0.6068, "ln_sigma": 0.6068, "ln_sigma_rock": 0.7298, "ln_sigma_soil": 0.7221, "ln_bias": 0.0751, "ln_bias_sigma": 0.1029}, {"name"