{
    "type": "FeatureCollection",
    "features": [
        {
            "type": "Feature",
            "id": "KNET.EHM007",
            "properties": {
                "code": "EHM007",
                "name": "",
                "instrumentType": "UNK",
                "source": "KNET",
                "network": "KNET",
                "commType": "UNK",
                "location": "",
                "intensity": 2.6,
                "intensity_flag": "",
                "intensity_stddev": 0.63,
                "pga": 0.155,
                "pgv": 0.1882,
                "distance": 275.765,
                "elev": null,
                "vs30": 760.0,
                "channels": [
                    {
                        "name": "Z",
                        "amplitudes": [
                            {
                                "name": "sa(0.3)",
                                "value": 0.0972,
                                "units": "%g",
                                "flag": "0",
                                "ln_sigma": 0.0
                            },
                            {
                                "name": "pgv",
                                "value": 0.0926,
                                "units": "cm/s",
                                "flag": "0",
                                "ln_sigma": 0.0
                            },
                            {
                                "name": "pga",
                                "value": 0.0505,
                                "units": "%g",
                                "flag": "0",
                                "ln_sigma": 0.0
                            },
                            {
                                "name": "sa(3.0)",
                                "value": 0.0235,
                                "units": "%g",
                                "flag": "0",
                                "ln_sigma": 0.0
                            },
                            {
                                "name": "sa(1.0)",
                                "value": 0.0684,
                                "units": "%g",
                                "flag": "0",
                                "ln_sigma": 0.0
                            }
                        ]
                    },
                    {
                        "name": "H1",
                        "amplitudes": [
                            {
                                "name": "sa(0.3)",
                                "value": 0.2788,
                                "units": "%g",
                                "flag": "0",
                                "ln_sigma": 0.0
                            },
                            {
                                "name": "pgv",
                                "value": 0.1882,
                                "units": "cm/s",
                                "flag": "0",
                                "ln_sigma": 0.0
                            },
                            {
                                "name": "pga",
                                "value": 0.1408,
                                "units": "%g",
                                "flag": "0",
                                "ln_sigma": 0.0
                            },
                            {
                                "name": "sa(3.0)",
                                "value": 0.029,
                                "units": "%g",
                                "flag": "0",
                                "ln_sigma": 0.0
                            },
                            {
                                "name": "sa(1.0)",
                                "value": 0.1967,
                                "units": "%g",
                                "flag": "0",
                                "ln_sigma": 0.0
                            }
                        ]
                    },
                    {
                        "name": "H2",
                        "amplitudes": [
                            {
                                "name": "sa(0.3)",
                                "value": 0.3016,
                                "units": "%g",
                                "flag": "0",
                                "ln_sigma": 0.0
                            },
                            {
                                "name": "pgv",
                                "value": 0.1431,
                                "units": "cm/s",
                                "flag": "0",
                                "ln_sigma": 0.0
                            },
                            {
                                "name": "pga",
                                "value": 0.155,
                                "units": "%g",
                                "flag": "0",
                                "ln_sigma": 0.0
                            },
                            {
                                "name": "sa(3.0)",
                                "value": 0.0125,
                                "units": "%g",
                                "flag": "0",
                                "ln_sigma": 0.0
                            },
                            {
                                "name": "sa(1.0)",
                                "value": 0.1369,
                                "units": "%g",
                                "flag": "0",
                                "ln_sigma": 0.0
                            }
                        ]
                    }
                ],
                "station_type": "seismic",
                "nresp": "null",
                "predictions": [
                    {
                        "name": "pgv",
                        "value": 0.0747,
                        "value_rock": 0.0747,
                        "value_soil": 0.2141,
                        "units": "cm/s",
                        "ln_tau": 0.3447,
                        "ln_phi": 0.5819,
                        "ln_sigma": 0.6764,
                        "ln_sigma_rock": 0.6769,
                        "ln_sigma_soil": 0.6598,
                        "ln_bias": 0.4546,
                        "ln_bias_sigma": 0.0935
                    },
                    {
                        "name": "sa(3.0)",
                        "value": 0.0146,
                        "value_rock": 0.0146,
                        "value_soil": 0.0607,
                        "units": "%g",
                        "ln_tau": 0.4046,
                        "ln_phi": 0.633,
                        "ln_sigma": 0.7512,
                        "ln_sigma_rock": 0.7534,
                        "ln_sigma_soil": 0.7534,
                        "ln_bias": 0.2677,
                        "ln_bias_sigma": 0.1076
                    },
                    {
                        "name": "sa(1.0)",
                        "value": 0.0791,
                        "value_rock": 0.0791,
                        "value_soil": 0.3318,
                        "units": "%g",
                        "ln_tau": 0.3768,
                        "ln_phi": 0.663,
                        "ln_sigma": 0.7626,
                        "ln_sigma_rock": 0.7652,
                        "ln_sigma_soil": 0.7606,
                        "ln_bias": 0.2981,
                        "ln_bias_sigma": 0.1061
                    },
                    {
                        "name": "sa(0.3)",
                        "value": 0.1355,
                        "value_rock": 0.1355,
                        "value_soil": 0.4352,
                        "units": "%g",
                        "ln_tau": 0.3427,
                        "ln_phi": 0.648,
                        "ln_sigma": 0.7331,
                        "ln_sigma_rock": 0.7375,
                        "ln_sigma_soil": 0.7254,
                        "ln_bias": 0.4259,
                        "ln_bias_sigma": 0.095
                    },
                    {
                        "name": "pga",
                        "value": 0.0617,
                        "value_rock": 0.0617,
                        "value_soil": 0.1208,
                        "units": "%g",
                        "ln_tau": 0.3665,
                        "ln_phi": 0.577,
                        "ln_sigma": 0.6836,
                        "ln_sigma_rock": 0.6846,
                        "ln_sigma_soil": 0.6699,
                        "ln_bias": 0.7389,
                        "ln_bias_sigma": 0.0875
                    },
                    {
                        "name": "mmi",
                        "value": 1.9006,
                        "value_rock": 1.9006,
                        "value_soil": 2.5078,
                        "units": "intensity",
                        "tau": 0.3311,
                        "phi": 0.841,
                        "sigma": 0.9038,
                        "sigma_rock": 0.9045,
                        "sigma_soil": 0.8954,
                        "bias": 0.2454,
                        "bias_sigma": 0.1336
                    }
                ],
                "mmi_from_pgm": [
                    {
                        "name": "pgv",
                        "value": 2.62,
                        "sigma": 0.63,
                        "flag": "0"
                    },
                    {
                        "name": "sa(3.0)",
                        "value": 2.54,
                        "sigma": 0.89,
                        "flag": "0"
                    },
                    {
                        "name": "sa(1.0)",
                        "value": 2.41,
                        "sigma": 0.75,
                        "flag": "0"
                    },
                    {
                        "name": "sa(0.3)",
                        "value": 2.47,
                        "sigma": 0.82,
                        "flag": "0"
                    },
                    {
                        "name": "pga",
                        "value": 2.71,
                        "sigma": 0.66,
                        "flag": "0"
                    }
                ],
                "distance_stddev": 3.917,
                "distances": {
                    "repi": 279.961,
                    "rhypo": 280.15,
                    "rjb": 276.013,
                    "rjb_var": 12.617,
                    "rrup": 275.765,
                    "rrup_var": 15.34,
                    "rx": 0.0,
                    "ry0": 0.0,
                    "rvolc": 0.0
                }
            },
            "geometry": {
                "type": "Point",
                "coordinates": [
                    132.7722,
                    33.9621
                ]
            }
        },
        {
            "type": "Feature",
            "id": "KNET.WKY009",
            "properties": {
                "code": "WKY009",
                "name": "",
                "instrumentType": "UNK",
                "source": "KNET",
                "network": "KNET",
                "commType": "UNK",
                "location": "",
                "intensity": 3.5,
                "intensity_flag": "",
                "intensity_stddev": 0.63,
                "pga": 0.7186,
                "pgv": 0.7298,
                "distance": 123.058,
                "elev": null,
                "vs30": 760.0,
                "channels": [
                    {
                        "name": "Z",
                        "amplitudes": [
                            {
                                "name": "sa(0.3)",
                                "value": 1.1931,
                                "units": "%g",
                                "flag": "0",
                                "ln_sigma": 0.0
                            },
                            {
                                "name": "pgv",
                                "value": 0.3042,
                                "units": "cm/s",
                                "flag": "0",
                                "ln_sigma": 0.0
                            },
                            {
                                "name": "pga",
                                "value": 0.4192,
                                "units": "%g",
                                "flag": "0",
                                "ln_sigma": 0.0
                            },
                            {
                                "name": "sa(3.0)",
                                "value": 0.0966,
                                "units": "%g",
                                "flag": "0",
                                "ln_sigma": 0.0
                            },
                            {
                                "name": "sa(1.0)",
                                "value": 0.4766,
                                "units": "%g",
                                "flag": "0",
                                "ln_sigma": 0.0
                            }
                        ]
                    },
                    {
                        "name": "H1",
                        "amplitudes": [
                            {
                                "name": "sa(0.3)",
                                "value": 1.4323,
                                "units": "%g",
                                "flag": "0",
                                "ln_sigma": 0.0
                            },
                            {
                                "name": "pgv",
                                "value": 0.3095,
                                "units": "cm/s",
                                "flag": "0",
                                "ln_sigma": 0.0
                            },
                            {
                                "name": "pga",
                                "value": 0.5293,
                                "units": "%g",
                                "flag": "0",
                                "ln_sigma": 0.0
                            },
                            {
                                "name": "sa(3.0)",
                                "value": 0.0792,
                                "units": "%g",
                                "flag": "0",
                                "ln_sigma": 0.0
                            },
                            {
                                "name": "sa(1.0)",
                                "value": 0.4229,
                                "units": "%g",
                                "flag": "0",
                                "ln_sigma": 0.0
                            }
                        ]
                    },
                    {
                        "name": "H2",
                        "amplitudes": [
                            {
                                "name": "sa(0.3)",
                                "value": 1.6745,
                                "units": "%g",
                                "flag": "0",
                                "ln_sigma": 0.0
                            },
                            {
                                "name": "pgv",
                                "value": 0.7298,
                                "units": "cm/s",
                                "flag": "0",
                                "ln_sigma": 0.0
                            },
                            {
                                "name": "pga",
                                "value": 0.7186,
                                "units": "%g",
                                "flag": "0",
                                "ln_sigma": 0.0
                            },
                            {
                                "name": "sa(3.0)",
                                "value": 0.1244,
                                "units": "%g",
                                "flag": "0",
                                "ln_sigma": 0.0
                            },
                            {
                                "name": "sa(1.0)",
                                "value": 0.7972,
                                "units": "%g",
                                "flag": "0",
                                "ln_sigma": 0.0
                            }
                        ]
                    }
                ],
                "station_type": "seismic",
                "nresp": "null",
                "predictions": [
                    {
                        "name": "pgv",
                        "value": 0.2803,
                        "value_rock": 0.2803,
                        "value_soil": 0.7954,
                        "units": "cm/s",
                        "ln_tau": 0.3447,
                        "ln_phi": 0.567,
                        "ln_sigma": 0.6636,
                        "ln_sigma_rock": 0.6639,
                        "ln_sigma_soil": 0.6461,
                        "ln_bias": 0.4546,
                        "ln_bias_sigma": 0.0935
                    },
                    {
                        "name": "sa(3.0)",
                        "value": 0.039,
                        "value_rock": 0.039,
                        "value_soil": 0.1624,
                        "units": "%g",
                        "ln_tau": 0.4046,
                        "ln_phi": 0.6129,
                        "ln_sigma": 0.7344,
                        "ln_sigma_rock": 0.7355,
                        "ln_sigma_soil": 0.7355,
                        "ln_bias": 0.2677,
                        "ln_bias_sigma": 0.1076
                    },
                    {
                        "name": "sa(1.0)",
                        "value": 0.2565,
                        "value_rock": 0.2565,
                        "value_soil": 1.0663,
                        "units": "%g",
                        "ln_tau": 0.3768,
                        "ln_phi": 0.6421,
                        "ln_sigma": 0.7445,
                        "ln_sigma_rock": 0.746,
                        "ln_sigma_soil": 0.7402,
                        "ln_bias": 0.2981,
                        "ln_bias_sigma": 0.1061
                    },
                    {
                        "name": "sa(0.3)",
                        "value": 0.8376,
                        "value_rock": 0.8376,
                        "value_soil": 2.6394,
                        "units": "%g",
                        "ln_tau": 0.3427,
                        "ln_phi": 0.6227,
                        "ln_sigma": 0.7108,
                        "ln_sigma_rock": 0.7135,
                        "ln_sigma_soil": 0.6972,
                        "ln_bias": 0.4259,
                        "ln_bias_sigma": 0.095
                    },
                    {
                        "name": "pga",
                        "value": 0.4589,
                        "value_rock": 0.4589,
                        "value_soil": 0.8859,
                        "units": "%g",
                        "ln_tau": 0.3665,
                        "ln_phi": 0.5582,
                        "ln_sigma": 0.6677,
                        "ln_sigma_rock": 0.6686,
                        "ln_sigma_soil": 0.6511,
                        "ln_bias": 0.7389,
                        "ln_bias_sigma": 0.0875
                    },
                    {
                        "name": "mmi",
                        "value": 3.0797,
                        "value_rock": 3.0797,
                        "value_soil": 3.5225,
                        "units": "intensity",
                        "tau": 0.2467,
                        "phi": 0.7595,
                        "sigma": 0.7985,
                        "sigma_rock": 0.7988,
                        "sigma_soil": 0.7923,
                        "bias": 0.2171,
