{"type": "FeatureCollection", "features": [{"type": "Feature", "id": "DYFI.UTM:(27W 0422 7098 2000)", "properties": {"code": "UTM:(27W 0422 7098 2000)", "name": null, "instrumentType": "OBSERVED", "source": "DYFI", "network": "DYFI", "commType": "UNK", "location": "", "intensity": 4.5, "intensity_flag": "0", "intensity_stddev": 0.3, "pga": 4.8201, "pgv": 3.833, "distance": 70.398, "elev": null, "vs30": 240.55, "channels": [], "nresp": -1, "station_type": "macroseismic", "predictions": [{"name": "mmi", "value": 4.803, "value_rock": 4.0233, "value_soil": 5.2151, "units": "intensity", "tau": 0.0, "phi": 0.8835, "sigma": 0.8835, "sigma_rock": 0.7439, "sigma_soil": 1.0576, "bias": -0.3817, "bias_sigma": 0.4318}, {"name": "pga", "value": 7.3852, "value_rock": 4.0763, "value_soil": 9.4629, "units": "%g", "ln_tau": 0.0, "ln_phi": 0.518, "ln_sigma": 0.518, "ln_sigma_rock": 0.6206, "ln_sigma_soil": 0.6198, "ln_bias": -0.048, "ln_bias_sigma": 0.3213}, {"name": "sa(0.3)", "value": 12.8997, "value_rock": 6.6668, "value_soil": 16.344, "units": "%g", "ln_tau": 0.0, "ln_phi": 0.5201, "ln_sigma": 0.5201, "ln_sigma_rock": 0.6231, "ln_sigma_soil": 0.6225, "ln_bias": -0.042, "ln_bias_sigma": 0.328}, {"name": "sa(1.0)", "value": 5.6251, "value_rock": 2.2836, "value_soil": 7.8186, "units": "%g", "ln_tau": 0.0, "ln_phi": 0.5199, "ln_sigma": 0.5199, "ln_sigma_rock": 0.6227, "ln_sigma_soil": 0.6222, "ln_bias": -0.0192, "ln_bias_sigma": 0.3292}, {"name": "sa(3.0)", "value": 1.4545, "value_rock": 0.5764, "value_soil": 1.9874, "units": "%g", "ln_tau": 0.0, "ln_phi": 0.5195, "ln_sigma": 0.5195, "ln_sigma_rock": 0.6222, "ln_sigma_soil": 0.6218, "ln_bias": -0.0174, "ln_bias_sigma": 0.3342}, {"name": "pgv", "value": 4.7802, "value_rock": 2.1121, "value_soil": 6.4543, "units": "cm/s", "ln_tau": 0.0, "ln_phi": 0.5172, "ln_sigma": 0.5172, "ln_sigma_rock": 0.6195, "ln_sigma_soil": 0.619, "ln_bias": -0.0223, "ln_bias_sigma": 0.3229}], "pgm_from_mmi": [{"name": "sa(0.3)", "value": 7.7778, "units": "%g", "ln_sigma": 1.0131, "flag": "0"}, {"name": "pgv", "value": 3.833, "units": "cm/s", "ln_sigma": 0.875, "flag": "0"}, {"name": "sa(1.0)", "value": 4.3551, "units": "%g", "ln_sigma": 1.0822, "flag": "0"}, {"name": "sa(3.0)", "value": 0.9933, "units": "%g", "ln_sigma": 1.4737, "flag": "0"}, {"name": "pga", "value": 4.8201, "units": "%g", "ln_sigma": 0.8059, "flag": "0"}], "distance_stddev": 7.956, "distances": {"repi": 76.11, "rhypo": 76.64, "rjb": 68.653, "rjb_var": 40.929, "rrup": 70.398, "rrup_var": 63.299}}, "geometry": {"type": "Point", "coordinates": [-22.5748, 64.0093]}}, {"type": "Feature", "id": "DYFI.UTM:(27W 0454 7112 2000)", "properties": {"code": "UTM:(27W 0454 7112 2000)", "name": null, "instrumentType": "OBSERVED", "source": "DYFI", "network": "DYFI", "commType": "UNK", "location": "", "intensity": 3.9, "intensity_flag": "0", "intensity_stddev": 0.3, "pga": "null", "pgv": "null", "distance": 42.345, "elev": null, "vs30": 328.73, "channels": [], "nresp": -1, "station_type": "macroseismic", "predictions": [{"name": "mmi", "value": 5.1597, "value_rock": 4.4433, "value_soil": 5.8724, "units": "intensity", "tau": 0.0, "phi": 0.8922, "sigma": 0.8922, "sigma_rock": 1.0694, "sigma_soil": 1.0607, "bias": -0.3859, "bias_sigma": 0.4342}, {"name": "pga", "value": 10.3481, "value_rock": 7.3184, "value_soil": 15.4184, "units": "%g", "ln_tau": 0.0, "ln_phi": 0.5211, "ln_sigma": 0.5211, "ln_sigma_rock": 0.626, "ln_sigma_soil": 0.6169, "ln_bias": -0.0485, "ln_bias_sigma": 0.3231}, {"name": "sa(0.3)", "value": 17.662, "value_rock": 11.681, "value_soil": 26.4661, "units": "%g", "ln_tau": 0.0, "ln_phi": 0.5248, "ln_sigma": 0.5248, "ln_sigma_rock": 0.6305, "ln_sigma_soil": 0.6228, "ln_bias": -0.0427, "ln_bias_sigma": 0.3307}, {"name": "sa(1.0)", "value": 7.1144, "value_rock": 3.9569, "value_soil": 12.6738, "units": "%g", "ln_tau": 0.0, "ln_phi": 0.5283, "ln_sigma": 0.5283, "ln_sigma_rock": 0.6326, "ln_sigma_soil": 0.6256, "ln_bias": -0.0198, "ln_bias_sigma": 0.3342}, {"name": "sa(3.0)", "value": 1.8828, "value_rock": 1.0127, "value_soil": 3.3163, "units": "%g", "ln_tau": 0.0, "ln_phi": 0.5292, "ln_sigma": 0.5292, "ln_sigma_rock": 0.6337, "ln_sigma_soil": 0.6279, "ln_bias": -0.0181, "ln_bias_sigma": 0.3402}, {"name": "pgv", "value": 6.1989, "value_rock": 3.678, "value_soil": 10.4192, "units": "cm/s", "ln_tau": 0.0, "ln_phi": 0.5251, "ln_sigma": 0.5251, "ln_sigma_rock": 0.6297, "ln_sigma_soil": 0.6218, "ln_bias": -0.0229, "ln_bias_sigma": 0.3274}], "pgm_from_mmi": [{"name": "sa(0.3)", "value": null, "units": "%g", "ln_sigma": null, "flag": "0"}, {"name": "pgv", "value": null, "units": "cm/s", "ln_sigma": null, "flag": "0"}, {"name": "sa(1.0)", "value": null, "units": "%g", "ln_sigma": null, "flag": "0"}, {"name": "sa(3.0)", "value": null, "units": "%g", "ln_sigma": null, "flag": "0"}, {"name": "pga", "value": null, "units": "%g", "ln_sigma": null, "flag": "0"}], "distance_stddev": 8.21, "distances": {"repi": 46.81, "rhypo": 47.668, "rjb": 39.653, "rjb_var": 38.717, "rrup": 42.345, "rrup_var": 67.404}}, "geometry": {"type": "Point", "coordinates": [-21.9246, 64.1405]}}, {"type": "Feature", "id": "DYFI.UTM:(27W 0454 7110 2000)", "properties": {"code": "UTM:(27W 0454 7110 2000)", "name": null, "instrumentType": "OBSERVED", "source": "DYFI", "network": "DYFI", "commType": "UNK", "location": "", "intensity": 3.8, "intensity_flag": "0", "intensity_stddev": 0.3, "pga": "null", "pgv": "null", "distance": 41.77, "elev": null, "vs30": 374.09, "channels": [], "nresp": -1, "station_type": "macroseismic", "predictions": [{"name": "mmi", "value": 5.069, "value_rock": 4.4636, "value_soil": 5.8875, "units": "intensity", "tau": 0.0, "phi": 0.8927, "sigma": 0.8927, "sigma_rock": 1.0699, "sigma_soil": 1.0608, "bias": -0.3861, "bias_sigma": 0.4343}, {"name": "pga", "value": 9.9394, "value_rock": 7.421, "value_soil": 15.56, "units": "%g", "ln_tau": 0.0, "ln_phi": 0.5215, "ln_sigma": 0.5215, "ln_sigma_rock": 0.6262, "ln_sigma_soil": 0.6168, "ln_bias": -0.0486, "ln_bias_sigma": 0.3233}, {"name": "sa(0.3)", "value": 16.7922, "value_rock": 11.8464, "value_soil": 26.7368, "units": "%g", "ln_tau": 0.0, "ln_phi": 0.5252, "ln_sigma": 0.5252, "ln_sigma_rock": 0.6308, "ln_sigma_soil": 0.6227, "ln_bias": -0.0427, "ln_bias_sigma": 0.331}, {"name": "sa(1.0)", "value": 6.5946, "value_rock": 4.0151, "value_soil": 12.818, "units": "%g", "ln_tau": 0.0, "ln_phi": 0.5287, "ln_sigma": 0.5287, "ln_sigma_rock": 0.633, "ln_sigma_soil": 0.6257, "ln_bias": -0.0199, "ln_bias_sigma": 0.3344}, {"name": "sa(3.0)", "value": 1.7374, "value_rock": 1.0282, "value_soil": 3.3588, "units": "%g", "ln_tau": 0.0, "ln_phi": 0.5297, "ln_sigma": 0.5297, "ln_sigma_rock": 0.6342, "ln_sigma_soil": 0.6281, "ln_bias": -0.0181, "ln_bias_sigma": 0.3404}, {"name": "pgv", "value": 5.8024, "value_rock": 3.7326, "value_soil": 10.5345, "units": "cm/s", "ln_tau": 0.0, "ln_phi": 0.5255, "ln_sigma": 0.5255, "ln_sigma_rock": 0.6301, "ln_sigma_soil": 0.6218, "ln_bias": -0.0229, "ln_bias_sigma": 0.3276}], "pgm_from_mmi": [{"name": "sa(0.3)", "value": null, "units": "%g", "ln_sigma": null, "flag": "0"}, {"name": "pgv", "value": null, "units": "cm/s", "ln_sigma": null, "flag": "0"}, {"name": "sa(1.0)", "value": null, "units": "%g", "ln_sigma": null, "flag": "0"}, {"name": "sa(3.0)", "value": null, "units": "%g", "ln_sigma": null, "flag": "0"}, {"name": "pga", "value": null, "units": "%g", "ln_sigma": null, "flag": "0"}], "distance_stddev": 8.213, "distances": {"repi": 46.199, "rhypo": 47.067, "rjb": 39.051, "rjb_var": 38.632, "rrup": 41.77, "rrup_var": 67.455}}, "geometry": {"type": "Point", "coordinates": [-21.9241, 64.1226]}}], "metadata": {"eventid": "usp000g826"}}