{"type": "FeatureCollection", "features": [{"type": "Feature", "id": "IV.ASOL", "properties": {"code": "ASOL", "name": "", "instrumentType": "UNK", "source": "IV", "network": "IV", "commType": "UNK", "location": "", "intensity": 3.5, "intensity_flag": "", "intensity_stddev": 0.63, "pga": 2.0107, "pgv": 0.8432, "distance": 108.798, "elev": null, "vs30": 481.8, "channels": [{"name": "HNZ", "amplitudes": [{"name": "pga", "value": 0.6156, "units": "%g", "flag": "0", "ln_sigma": 0.0}, {"name": "pgv", "value": 0.3284, "units": "cm/s", "flag": "0", "ln_sigma": 0.0}, {"name": "sa(0.3)", "value": 1.4685, "units": "%g", "flag": "0", "ln_sigma": 0.0}, {"name": "sa(1.0)", "value": 0.3516, "units": "%g", "flag": "0", "ln_sigma": 0.0}, {"name": "sa(3.0)", "value": 0.022, "units": "%g", "flag": "0", "ln_sigma": 0.0}]}, {"name": "HNE", "amplitudes": [{"name": "pga", "value": 2.0107, "units": "%g", "flag": "0", "ln_sigma": 0.0}, {"name": "pgv", "value": 0.8432, "units": "cm/s", "flag": "0", "ln_sigma": 0.0}, {"name": "sa(0.3)", "value": 4.5188, "units": "%g", "flag": "0", "ln_sigma": 0.0}, {"name": "sa(1.0)", "value": 1.041, "units": "%g", "flag": "0", "ln_sigma": 0.0}, {"name": "sa(3.0)", "value": 0.0432, "units": "%g", "flag": "0", "ln_sigma": 0.0}]}, {"name": "HNN", "amplitudes": [{"name": "pga", "value": 1.4722, "units": "%g", "flag": "0", "ln_sigma": 0.0}, {"name": "pgv", "value": 0.6458, "units": "cm/s", "flag": "0", "ln_sigma": 0.0}, {"name": "sa(0.3)", "value": 4.1174, "units": "%g", "flag": "0", "ln_sigma": 0.0}, {"name": "sa(1.0)", "value": 0.7872, "units": "%g", "flag": "0", "ln_sigma": 0.0}, {"name": "sa(3.0)", "value": 0.043, "units": "%g", "flag": "0", "ln_sigma": 0.0}]}], "station_type": "seismic", "nresp": "null", "predictions": [{"name": "pga", "value": 1.308, "value_rock": 1.085, "value_soil": 1.7805, "units": "%g", "ln_tau": 0.4043, "ln_phi": 0.5981, "ln_sigma": 0.7219, "ln_sigma_rock": 0.7254, "ln_sigma_soil": 0.721, "ln_bias": -0.4403, "ln_bias_sigma": 0.1179}, {"name": "sa(0.3)", "value": 2.49, "value_rock": 1.7257, "value_soil": 4.7059, "units": "%g", "ln_tau": 0.3899, "ln_phi": 0.6696, "ln_sigma": 0.7748, "ln_sigma_rock": 0.7772, "ln_sigma_soil": 0.7727, "ln_bias": -0.3316, "ln_bias_sigma": 0.1285}, {"name": "sa(3.0)", "value": 0.2012, "value_rock": 0.14, "value_soil": 0.4464, "units": "%g", "ln_tau": 0.4405, "ln_phi": 0.665, "ln_sigma": 0.7976, "ln_sigma_rock": 0.8027, "ln_sigma_soil": 0.8027, "ln_bias": -0.4192, "ln_bias_sigma": 0.1462}, {"name": "sa(1.0)", "value": 0.8993, "value_rock": 0.5791, "value_soil": 2.2819, "units": "%g", "ln_tau": 0.4334, "ln_phi": 0.6827, "ln_sigma": 0.8086, "ln_sigma_rock": 0.8119, "ln_sigma_soil": 0.8101, "ln_bias": -0.0883, "ln_bias_sigma": 0.1382}, {"name": "pgv", "value": 0.9217, "value_rock": 0.6699, "value_soil": 1.8242, "units": "cm/s", "ln_tau": 0.394, "ln_phi": 0.6071, "ln_sigma": 0.7237, "ln_sigma_rock": 0.7288, "ln_sigma_soil": 0.7247, "ln_bias": -0.2061, "ln_bias_sigma": 0.1226}, {"name": "mmi", "value": 3.548, "value_rock": 3.3442, "value_soil": 3.9838, "units": "intensity", "tau": 0.2515, "phi": 0.7397, "sigma": 0.7813, "sigma_rock": 0.7832, "sigma_soil": 0.7816, "bias": -0.1136, "bias_sigma": 0.1313}], "mmi_from_pgm": [{"name": "pga", "value": 3.93, "sigma": 0.66, "flag": "0"}, {"name": "sa(0.3)", "value": 4.21, "sigma": 0.82, "flag": "0"}, {"name": "sa(3.0)", "value": 2.86, "sigma": 0.89, "flag": "0"}, {"name": "sa(1.0)", "value": 3.56, "sigma": 0.75, "flag": "0"}, {"name": "pgv", "value": 3.49, "sigma": 0.63, "flag": "0"}], "distance_stddev": 5.246, "distances": {"repi": 114.044, "rhypo": 114.218, "rjb": 108.461, "rjb_var": 21.843, "rrup": 108.798, "rrup_var": 27.522, "rx": 0.0, "ry0": 0.0, "rvolc": 0.0}}, "geometry": {"type": "Point", "coordinates": [11.9023, 45.8003]}}, {"type": "Feature", "id": "IV.BAG8", "properties": {"code": "BAG8", "name": "", "instrumentType": "UNK", "source": "IV", "network": "IV", "commType": "UNK", "location": "", "intensity": 3.0, "intensity_flag": "", "intensity_stddev": 0.63, "pga": 0.6861, "pgv": 0.3745, "distance": 114.36, "elev": null, "vs30": 900.0, "channels": [{"name": "HNZ", "amplitudes": [{"name": "pga", "value": 0.4806, "units": "%g", "flag": "0", "ln_sigma": 0.0}, {"name": "pgv", "value": 0.1947, "units": "cm/s", "flag": "0", "ln_sigma": 0.0}, {"name": "sa(0.3)", "value": 0.7119, "units": "%g", "flag": "0", "ln_sigma": 0.0}, {"name": "sa(1.0)", "value": 0.1788, "units": "%g", "flag": "0", "ln_sigma": 0.0}, {"name": "sa(3.0)", "value": 0.0197, "units": "%g", "flag": "0", "ln_sigma": 0.0}]}, {"name": "HNE", "amplitudes": [{"name": "pga", "value": 0.6861, "units": "%g", "flag": "0", "ln_sigma": 0.0}, {"name": "pgv", "value": 0.3745, "units": "cm/s", "flag": "0", "ln_sigma": 0.0}, {"name": "sa(0.3)", "value": 1.5011, "units": "%g", "flag": "0", "ln_sigma": 0.0}, {"name": "sa(1.0)", "value": 0.2444, "units": "%g", "flag": "0", "ln_sigma": 0.0}, {"name": "sa(3.0)", "value": 0.0155, "units": "%g", "flag": "0", "ln_sigma": 0.0}]}, {"name": "HNN", "amplitudes": [{"name": "pga", "value": 0.5888, "units": "%g", "flag": "0", "ln_sigma": 0.0}, {"name": "pgv", "value": 0.2873, "units": "cm/s", "flag": "0", "ln_sigma": 0.0}, {"name": "sa(0.3)", "value": 1.3838, "units": "%g", "flag": "0", "ln_sigma": 0.0}, {"name": "sa(1.0)", "value": 0.2284, "units": "%g", "flag": "0", "ln_sigma": 0.0}, {"name": "sa(3.0)", "value": 0.0198, "units": "%g", "flag": "0", "ln_sigma": 0.0}]}], "station_type": "seismic", "nresp": "null", "predictions": [{"name": "pga", "value": 0.9448, "value_rock": 1.0024, "value_soil": 1.6483, "units": "%g", "ln_tau": 0.4045, "ln_phi": 0.5981, "ln_sigma": 0.722, "ln_sigma_rock": 0.7252, "ln_sigma_soil": 0.721, "ln_bias": -0.4403, "ln_bias_sigma": 0.1179}, {"name": "sa(0.3)", "value": 1.4283, "value_rock": 1.6039, "value_soil": 4.3875, "units": "%g", "ln_tau": 0.39, "ln_phi": 0.6698, "ln_sigma": 0.7751, "ln_sigma_rock": 0.7773, "ln_sigma_soil": 0.773, "ln_bias": -0.3316, "ln_bias_sigma": 0.1285}, {"name": "sa(3.0)", "value": 0.1172, "value_rock": 0.1324, "value_soil": 0.4226, "units": "%g", "ln_tau": 0.4405, "ln_phi": 0.6648, "ln_sigma": 0.7975, "ln_sigma_rock": 0.8026, "ln_sigma_soil": 0.8026, "ln_bias": -0.4192, "ln_bias_sigma": 0.1462}, {"name": "sa(1.0)", "value": 0.4686, "value_rock": 0.5463, "value_soil": 2.1565, "units": "%g", "ln_tau": 0.4335, "ln_phi": 0.6825, "ln_sigma": 0.8085, "ln_sigma_rock": 0.8117, "ln_sigma_soil": 0.81, "ln_bias": -0.0883, "ln_bias_sigma": 0.1382}, {"name": "pgv", "value": 0.5646, "value_rock": 0.6293, "value_soil": 1.7161, "units": "cm/s", "ln_tau": 0.394, "ln_phi": 0.6071, "ln_sigma": 0.7237, "ln_sigma_rock": 0.7288, "ln_sigma_soil": 0.7247, "ln_bias": -0.2061, "ln_bias_sigma": 0.1226}, {"name": "mmi", "value": 3.235, "value_rock": 3.3044, "value_soil": 3.9448, "units": "intensity", "tau": 0.2515, "phi": 0.7397, "sigma": 0.7813, "sigma_rock": 0.7832, "sigma_soil": 0.7816, "bias": -0.1136, "bias_sigma": 0.1313}], "mmi_from_pgm": [{"name": "pga", "value": 3.23, "sigma": 0.66, "flag": "0"}, {"name": "sa(0.3)", "value": 3.42, "sigma": 0.82, "flag": "0"}, {"name": "sa(3.0)", "value": 2.45, "sigma": 0.89, "flag": "0"}, {"name": "sa(1.0)", "value": 2.59, "sigma": 0.75, "flag": "0"}, {"name": "pgv", "value": 2.97, "sigma": 0.63, "flag": "0"}], "distance_stddev": 5.224, "distances": {"repi": 119.657, "rhypo": 119.823, "rjb": 114.067, "rjb_var": 21.865, "rrup": 114.36, "rrup_var": 27.295, "rx": 0.0, "ry0": 0.0, "rvolc": 0.0}}, "geometry": {"type": "Point", "coordinates": [10.4664, 45.8228]}}, {"type": "Feature", "id": "IV.BORM", "properties": {"code": "BORM", "name": "", "instrumentType": "UNK", "source": "IV", "network": "IV", "commType": "UNK", "location": "", "intensity": 2.3, "intensity_flag": "", "intensity_stddev": 0.63, "pga": 0.2556, "pgv": 0.1316, "distance": 181.988, "elev": null, "vs30": 760.0, "channels": [{"name": "HNZ", "amplitudes": [{"name": "pga", "value": 0.1904, "units": "%g", "flag": "0", "ln_sigma": 0.0}, {"name": "pgv", "value": 0.117, "units": "cm/s", "flag": "0", "ln_sigma": 0.0}, {"name": "sa(0.3)", "value": 0.3843, "units": "%g", "flag": "0", "ln_sigma": 0.0}, {"name": "sa(1.0)", "value": 0.1187, "units": "%g", "flag": "0", "ln_sigma": 0.0}, {"name": "sa(3.0)", "value": 0.0094, "units": "%g", "flag": "0", "ln_sigma": 0.0}]}, {"name": "HNE", "amplitudes": [{"name": "pga", "value": 0.2556, "units": "%g", "flag": "0", "ln_sigma": 0.0}, {"name": "pgv", "value": 0.1316, "units": "cm/s", "flag": "0", "ln_sigma": 0.0}, {"name": "sa(0.3)", "value": 0.5706, "units": "%g", "flag": "0", "ln_sigma": 0.0}, {"name": "sa(1.0)", "value": 0.1103, "units": "%g", "flag": "0", "ln_sigma": 0.0}, {"name": "sa(3.0)", "value": 0.0071, "units": "%g", "flag": "0", "ln_sigma": 0.0}]}, {"name": "HNN", "amplitudes": [{"name": "pga", "value": 0.1586, "units": "%g", "flag": "0", "ln_sigma": 0.0}, {"name": "pgv", "value": 0.0771, "units": "cm/s", "flag": "0", "ln_sigma": 0.0}, {"name": "sa(0.3)", "value": 0.468, "units": "%g", "flag": "0", "ln_sigma": 0.0}, {"name": "sa(1.0)", "value": 0.0617, "units": "%g", "flag": "0", "ln_sigma": 0.0}, {"name": "sa(3.0)", "value": 0.0041, "units": "%g", "flag": "0", "ln_sigma": 0.0}]}], "station_type": "seismic", "nresp": "null", "predictions": [{"name": "pga", "value": 0.4594, "value_rock": 0.4594, "value_soil": 0.7662, "units": "%g", "ln_tau": 0.4045, "ln_phi": 0.5985, "ln_sigma": 0.7224, "ln_sigma_rock": 0.7257, "ln_sigma_soil": 0.7223, "ln_bias": -0.4403, "ln_bias_sigma": 0.1179}, {"name": "sa(0.3)", "value": 0.7827, "value_rock": 0.7827, "value_soil": 2.1874, "units": "%g", "ln_tau": 0.39, "ln_phi": 0.6715, "ln_sigma": 0.7765, "ln_sigma_rock": 0.779, "ln_sigma_soil": 0.776, "ln_bias": -0.3316, "ln_bias_sigma": 0.1285}, {"name": "sa(3.0)", "value": 0.0787, "value_rock": 0.0787, "value_soil": 0.2523, "units": "%g", "ln_tau": 0.4405, "ln_phi": 0.6672, "ln_sigma": 0.7995, "ln_sigma_rock": 0.8048, "ln_sigma_soil": 0.8048, "ln_bias": -0.4192, "ln_bias_sigma": 0.1462}, {"name": "sa(1.0)", "value": 0.3146, "value_rock": 0.3146, "value_soil": 1.2579, "units": "%g", "ln_tau": 0.4334, "ln_phi": 0.6839, "ln_sigma": 0.8097, "ln_sigma_rock": 0.8131, "ln_sigma_soil": 0.8118, "ln_bias": -0.0883, "ln_bias_sigma": 0.1382}, {"name": "pgv", "value": 0.3493, "value_rock": 0.3493, "value_soil": 0.9616, "units": "cm/s", "ln_tau": 0.394, "ln_phi": 0.6075, "ln_sigma": 0.7241, "ln_sigma_rock": 0.7292, "ln_sigma_soil": 0.7255, "ln_bias": -0.2061, "ln_bias_sigma": 0.1226}, {"name": "mmi", "value": 2.9286, "value_rock": 2.9286, "value_soil": 3.575, "units": "intensity", "tau": 0.2515, "phi": 0.7398, "sigma": 0.7814, "sigma_rock": 0.7834, "sigma_soil": 0.7819, "bias": -0.1136, "bias_sigma": 0.1313}], "mmi_from_pgm": [{"name": "pga", "value": 2.77, "sigma": 0.66, "flag": "0"}, {"name": "sa(0.3)", "value": 2.83, "sigma": 0.82, "flag": "0"}, {"name": "sa(3.0)", "value": 1.82, "sigma": 0.89, "flag": "0"}, {"name": "sa(1.0)", "value": 1.97, "sigma": 0.75, "flag": "0"}, {"name": "pgv", "value": 2.31, "sigma": 0.63, "flag": "0"}], "distance_stddev": 5.055, "distances": {"repi": 187.711, "rhypo": 187.817, "rjb": 182.06, "rjb_var": 22.042, "rrup": 181.988, "rrup_var": 25.556, "rx": 0.0, "ry0": 0.0, "rvolc": 0.0}}, "geometry": {"type": "Point", "coordinates": [10.3764, 46.4693]}}, {"type": "Feature", "id": "IV.BOTT", "properties": {"code": "BOTT", "name": "", "instrumentType": "UNK", "source": "IV", "network": "IV", "commType": "UNK", "location": "", "intensity": 2.8, "intensity_flag": "", "intensity_stddev": 0.63, "pga": 0.7679, "pgv": 0.3072, "distance": 97.715, "elev": null, "vs30": 766.02, "channels": [{"name": "HNZ", "amplitudes": [{"name": "pga", "value": 0.319, "units": "%g", "flag": "0", "ln_sigma": 0.0}, {"name": "pgv", "value": 0.1541, "units": "cm/s", "flag": "0", "ln_sigma": 0.0}, {"name": "sa(0.3)", "value": 0.6827, "units": "%g", "flag": "0", "ln_sigma": 0.0}, {"name": "sa(1.0)", "value": 0.2325, "units": "%g", "flag": "0", "ln_sigma": 0.0}, {"name": "sa(3.0)", "value": 0.0118, "units": "%g", "flag": "0", "ln_sigma": 0.0}]}, {"name": "HNE", "amplitudes": [{"name": "pga", "value": 0.7679, "units": "%g", "flag": "0", "ln_sigma": 0.0}, {"name": "pgv", "value": 0.3072, "units": "cm/s", "flag": "0", "ln_sigma": 0.0}, {"name": "sa(0.3)", "value": 1.6401, "units": "%g", "flag": "0", "ln_sigma": 0.0}, {"name": "sa(1.0)", "value": 0.2287, "units": "%g", "flag": "0", "ln_sigma": 0.0}, {"name": "sa(3.0)", "value": 0.0261, "units": "%g", "flag": "0", "ln_sigma": 0.0}]}, {"name": "HNN", "amplitudes": [{"name": "pga", "value": 0.5818, "units": "%g", "flag": "0", "ln_sigma": 0.0}, {"name": "pgv", "value": 0.2799, "units": "cm/s", "flag": "0", "ln_sigma": 0.0}, {"name": "sa(0.3)", "value": 1.3472, "units": "%g", "flag": "0", "ln_sigma": 0.0}, {"name": "sa(1.0)", "value": 0.4347, "units": "%g", "flag": "0", "ln_sigma": 0.0}, {"name": "sa(3.0)", "value": 0.0185, "units": "%g", "flag": "0", "ln_sigma": 0.0}]}], "station_type": "seismic", "nresp": "null", "predictions": [{"name": "pga", "value": 1.2804, "value_rock": 1.2839, "value_soil": 2.0965, "units": "%g", "ln_tau": 0.4045, "ln_phi": 0.5991, "ln_sigma": 0.7229, "ln_sigma_rock": 0.7261, "ln_sigma_soil": 0.7213, "ln_bias": -0.4403, "ln_bias_sigma": 0.1179}, {"name": "sa(0.3)", "value": 2.0058, "value_rock": 2.0167, "value_soil": 5.4588, "units": "%g", "ln_tau": 0.39, "ln_phi": 0.67, "ln_sigma": 0.7753, "ln_sigma_rock": 0.7774, "ln_sigma_soil": 0.7725, "ln_bias": -0.3316, "ln_bias_sigma": 0.1285}, {"name": "sa(3.0)", "value": 0.1568, "value_rock": 0.1577, "value_soil": 0.5022, "units": "%g", "ln_tau": 0.4405, "ln_phi": 0.6655, "ln_sigma": 0.7981, "ln_sigma_rock": 0.8032, "ln_sigma_soil": 0.8031, "ln_bias": -0.4192, "ln_bias_sigma": 0.1462}, {"name": "sa(1.0)", "value": 0.6517, "value_rock": 0.6564, "value_soil": 2.5754, "units": "%g", "ln_tau": 0.4334, "ln_phi": 0.6832, "ln_sigma": 0.8091, "ln_sigma_rock": 0.8123, "ln_sigma_soil": 0.8104, "ln_bias": -0.0883, "ln_bias_sigma": 0.1382}, {"name": "pgv", "value": 0.7624, "value_rock": 0.7662, "value_soil": 2.0798, "units": "cm/s", "ln_tau": 0.394, "ln_phi": 0.6077, "ln_sigma": 0.7242, "ln_sigma_rock": 0.7292, "ln_sigma_soil": 0.725, "ln_bias": -0.2061, "ln_bias_sigma": 0.1226}, {"name": "mmi", "value": 3.4268, "value_rock": 3.43, "value_soil": 4.0675, "units": "intensity", "tau": 0.2515, "phi": 0.7399, "sigma": 0.7814, "sigma_rock": 0.7834, "sigma_soil": 0.7817, "bias": -0.1136, "bias_sigma": 0.1313}], "mmi_from_pgm": [{"name": "pga", "value": 3.24, "sigma": 0.66, "flag": "0"}, {"name": "sa(0.3)", "value": 3.44, "sigma": 0.82, "flag": "0"}, {"name": "sa(3.0)", "value": 2.63, "sigma": 0.89, "flag": "0"}, {"name": "sa(1.0)", "value": 3.01, "sigma": 0.75, "flag": "0"}, {"name": "pgv", "value": 2.85, "sigma": 0.63, "flag": "0"}], "distance_stddev": 5.302, "distances": {"repi": 102.83, "rhypo": 103.022, "rjb": 97.267, "rjb_var": 21.785, "rrup": 97.715, "rrup_var": 28.11, "rx": 0.0, "ry0": 0.0, "rvolc": 0.0}}, "geometry": {"type": "Point", "coordinates": [10.3095, 45.5494]}}, {"type": "Feature", "id": "IV.CAPR", "properties": {"code": "CAPR", "name": "", "instrumentType": "UNK", "source": "IV", "network": "IV", "commType": "UNK", "location": "", "intensity": 2.8, "intensity_flag": "", "intensity_stddev": 0.63, "pga": 0.2635, "pgv": 0.2877, "distance": 125.68, "elev": null, "vs30": 302.27, "channels": [{"name": "HNZ", "amplitudes": [{"name": "pga", "value": 0.1631, "units": "%g", "flag": "0", "ln_sigma": 0.0}, {"name": "pgv", "value": 0.1296, "units": "cm/s", "flag": "0", "ln_sigma": 0.0}, {"name": "sa(0.3)", "value": 0.3067, "units": "%g", "flag": "0", "ln_sigma": 0.0}, {"name": "sa(1.0)", "value": 0.2187, "units": "%g", "flag": "0", "ln_sigma": 0.0}, {"name": "sa(3.0)", "value": 0.016, "units": "%g", "flag": "0", "ln_sigma": 0.0}]}, {"name": "HNE", "amplitudes": [{"name": "pga", "value": 0.2635, "units": "%g", "flag": "0", "ln_sigma": 0.0}, {"name": "pgv", "value": 0.2877, "units": "cm/s", "flag": "0", "ln_sigma": 0.0}, {"name": "sa(0.3)", "value": 0.3866, "units": "%g", "flag": "0", "ln_sigma": 0.0}, {"name": "sa(1.0)", "value": 0.4669, "units": "%g", "flag": "0", "ln_sigma": 0.0}, {"name": "sa(3.0)", "value": 0.0287, "units": "%g", "flag": "0", "ln_sigma": 0.0}]}, {"name": "HNN", "amplitudes": [{"name": "pga", "value": 0.2555, "units": "%g", "flag": "0", "ln_sigma": 0.0}, {"name": "pgv", "value": 0.2257, "units": "cm/s", "flag": "0", "ln_sigma": 0.0}, {"name": "sa(0.3)", "value": 0.5049, "units": "%g", "flag": "0", "ln_sigma": 0.0}, {"name": "sa(1.0)", "value": 0.3584, "units": "%g", "flag": "0", "ln_sigma": 0.0}, {"name": "sa(3.0)", "value": 0.022, "units": "%g", "flag": "0", "ln_sigma": 0.0}]}], "station_type": "seismic", "nresp": "null", "predictions": [{"name": "pga", "value": 1.2169, "value_rock": 0.861, "value_soil": 1.4208, "units": "%g", "ln_tau": 0.4041, "ln_phi": 0.5976, "ln_sigma": 0.7214, "ln_sigma_rock": 0.7252, "ln_sigma_soil": 0.7212, "ln_bias": -0.4402, "ln_bias_sigma": 0.1179}, {"name": "sa(0.3)", "value": 2.7442, "value_rock": 1.3938, "value_soil": 3.8336, "units": "%g", "ln_tau": 0.3896, "ln_phi": 0.6695, "ln_sigma": 0.7746, "ln_sigma_rock": 0.7775, "ln_sigma_soil": 0.7736, "ln_bias": -0.3315, "ln_bias_sigma": 0.1285}, {"name": "sa(3.0)", "value": 0.2422, "value_rock": 0.1192, "value_soil": 0.3808, "units": "%g", "ln_tau": 0.4405, "ln_phi": 0.6644, "ln_sigma": 0.7972, "ln_sigma_rock": 0.8023, "ln_sigma_soil": 0.8023, "ln_bias": -0.4192, "ln_bias_sigma": 0.1462}, {"name": "sa(1.0)", "value": 1.1499, "value_rock": 0.4889, "value_soil": 1.9365, "units": "%g", "ln_tau": 0.4333, "ln_phi": 0.6824, "ln_sigma": 0.8084, "ln_sigma_rock": 0.8118, "ln_sigma_soil": 0.8102, "ln_bias": -0.0882, "ln_bias_sigma": 0.1382}, {"name": "pgv", "value": 1.0328, "value_rock": 0.559, "value_soil": 1.5278, "units": "cm/s", "ln_tau": 0.3938, "ln_phi": 0.6069, "ln_sigma": 0.7235, "ln_sigma_rock": 0.7288, "ln_sigma_soil": 0.7247, "ln_bias": -0.206, "ln_bias_sigma": 0.1226}, {"name": "mmi", "value": 3.6206, "value_rock": 3.2287, "value_soil": 3.8706, "units": "intensity", "tau": 0.2514, "phi": 0.7396, "sigma": 0.7812, "sigma_rock": 0.7832, "sigma_soil": 0.7817, "bias": -0.1136, "bias_sigma": 0.1313}], "mmi_from_pgm": [{"name": "pga", "value": 2.63, "sigma": 0.66, "flag": "0"}, {"name": "sa(0.3)", "value": 2.64, "sigma": 0.82, "flag": "0"}, {"name": "sa(3.0)", "value": 2.62, "sigma": 0.89, "flag": "0"}, {"name": "sa(1.0)", "value": 3.0, "sigma": 0.75, "flag": "0"}, {"name": "pgv", "value": 2.8, "sigma": 0.63, "flag": "0"}], "distance_stddev": 5.181, "distances": {"repi": 131.082, "rhypo": 131.233, "rjb": 125.476, "rjb_var": 21.909, "rrup": 125.68, "rrup_var": 26.841, "rx": 0.0, "ry0": 0.0, "rvolc": 0.0}}, "geometry": {"type": "Point", "coordinates": [9.9345, 45.6372]}}, {"type": "Feature", "id": "IV.CNCS", "properties": {"code": "CNCS", "name": "", "instrumentType": "UNK", "source": "IV", "network": "IV", "commType": "UNK", "location": "", "intensity": 3.3, "intensity_flag": "", "intensity_stddev": 0.63, "pga": 1.2767, "pgv": 0.6102, "distance": 107.143, "elev": null, "vs30": 686.4, "channels": [{"name": "HNZ", "amplitudes": [{"name": "pga", "value": 0.4808, "units": "%g", "flag": "0", "ln_sigma": 0.0}, {"name": "pgv", "value": 0.2268, "units": "cm/s", "flag": "0", "ln_sigma": 0.0}, {"name": "sa(0.3)", "value": 1.2925, "units": "%g", "flag": "0", "ln_sigma": 0.0}, {"name": "sa(1.0)", "value": 0.1592, "units": "%g", "flag": "0", "ln_sigma": 0.0}, {"name": "sa(3.0)", "value": 0.0123, "units": "%g", "flag": "0", "ln_sigma": 0.0}]}, {"name": "HNE", "amplitudes": [{"name": "pga", "value": 1.1395, "units": "%g", "flag": "0", "ln_sigma": 0.0}, {"name": "pgv", "value": 0.6102, "units": "cm/s", "flag": "0", "ln_sigma": 0.0}, {"name": "sa(0.3)", "value": 4.2359, "units": "%g", "flag": "0", "ln_sigma": 0.0}, {"name": "sa(1.0)", "value": 0.5413, "units": "%g", "flag": "0", "ln_sigma": 0.0}, {"name": "sa(3.0)", "value": 0.0406, "units": 