{"type": "FeatureCollection", "features": [{"type": "Feature", "id": "GU.GORR", "properties": {"code": "GORR", "name": "", "instrumentType": "UNK", "source": "GU", "network": "GU", "commType": "UNK", "location": "", "intensity": 1.9, "intensity_flag": "", "intensity_stddev": 0.63, "pga": "null", "pgv": 0.0893, "distance": 351.75, "elev": null, "vs30": 760.0, "channels": [{"name": "HHE", "amplitudes": [{"name": "sa(1.0)", "value": 0.0369, "units": "%g", "flag": "0", "ln_sigma": 0.0}, {"name": "sa(0.3)", "value": 0.0551, "units": "%g", "flag": "0", "ln_sigma": 0.0}, {"name": "pga", "value": 0.0798, "units": "%g", "flag": "Outlier,0,Outlier", "ln_sigma": 0.0}, {"name": "sa(3.0)", "value": 0.0119, "units": "%g", "flag": "0", "ln_sigma": 0.0}, {"name": "pgv", "value": 0.0428, "units": "cm/s", "flag": "0", "ln_sigma": 0.0}]}, {"name": "HHN", "amplitudes": [{"name": "sa(1.0)", "value": 0.046, "units": "%g", "flag": "0", "ln_sigma": 0.0}, {"name": "sa(0.3)", "value": 0.1656, "units": "%g", "flag": "0", "ln_sigma": 0.0}, {"name": "pga", "value": 0.8684, "units": "%g", "flag": "Outlier,0,Outlier", "ln_sigma": 0.0}, {"name": "sa(3.0)", "value": 0.0362, "units": "%g", "flag": "0", "ln_sigma": 0.0}, {"name": "pgv", "value": 0.0893, "units": "cm/s", "flag": "0", "ln_sigma": 0.0}]}, {"name": "HHZ", "amplitudes": [{"name": "sa(1.0)", "value": 0.0431, "units": "%g", "flag": "0", "ln_sigma": 0.0}, {"name": "sa(0.3)", "value": 0.0439, "units": "%g", "flag": "0", "ln_sigma": 0.0}, {"name": "pga", "value": 0.0197, "units": "%g", "flag": "Outlier,0,Outlier", "ln_sigma": 0.0}, {"name": "sa(3.0)", "value": 0.0422, "units": "%g", "flag": "0", "ln_sigma": 0.0}, {"name": "pgv", "value": 0.0355, "units": "cm/s", "flag": "0", "ln_sigma": 0.0}]}], "station_type": "seismic", "nresp": "null", "predictions": [{"name": "sa(1.0)", "value": 0.4222, "value_rock": 0.4222, "value_soil": 1.693, "units": "%g", "ln_tau": 0.4292, "ln_phi": 0.6837, "ln_sigma": 0.8073, "ln_sigma_rock": 0.8104, "ln_sigma_soil": 0.8094, "ln_bias": -0.376, "ln_bias_sigma": 0.1296}, {"name": "pga", "value": 0.2606, "value_rock": 0.2606, "value_soil": 0.4362, "units": "%g", "ln_tau": 0.399, "ln_phi": 0.5959, "ln_sigma": 0.7172, "ln_sigma_rock": 0.7193, "ln_sigma_soil": 0.7166, "ln_bias": -0.1355, "ln_bias_sigma": 0.1097}, {"name": "sa(3.0)", "value": 0.1338, "value_rock": 0.1338, "value_soil": 0.4294, "units": "%g", "ln_tau": 0.4367, "ln_phi": 0.6673, "ln_sigma": 0.7975, "ln_sigma_rock": 0.8027, "ln_sigma_soil": 0.803, "ln_bias": -0.2165, "ln_bias_sigma": 0.1346}, {"name": "sa(0.3)", "value": 0.5491, "value_rock": 0.5491, "value_soil": 1.5424, "units": "%g", "ln_tau": 0.385, "ln_phi": 0.6697, "ln_sigma": 0.7725, "ln_sigma_rock": 0.7735, "ln_sigma_soil": 0.7716, "ln_bias": -0.37, "ln_bias_sigma": 0.12}, {"name": "pgv", "value": 0.3569, "value_rock": 0.3569, "value_soil": 0.9843, "units": "cm/s", "ln_tau": 0.3914, "ln_phi": 0.6058, "ln_sigma": 0.7213, "ln_sigma_rock": 0.7261, "ln_sigma_soil": 0.7224, "ln_bias": -0.3084, "ln_bias_sigma": 0.116}, {"name": "mmi", "value": 2.8342, "value_rock": 2.8342, "value_soil": 3.4819, "units": "intensity", "tau": 0.2499, "phi": 0.7392, "sigma": 0.7803, "sigma_rock": 0.7822, "sigma_soil": 0.7808, "bias": -0.0401, "bias_sigma": 0.1298}], "mmi_from_pgm": [{"name": "sa(1.0)", "value": 1.1, "sigma": 0.75, "flag": "0"}, {"name": "pga", "value": null, "sigma": null, "flag": "0"}, {"name": "sa(3.0)", "value": 2.4, "sigma": 0.89, "flag": "0"}, {"name": "sa(0.3)", "value": 1.99, "sigma": 0.82, "flag": "0"}, {"name": "pgv", "value": 1.95, "sigma": 0.63, "flag": "0"}], "distance_stddev": 8.239, "distances": {"repi": 361.926, "rhypo": 362.014, "rjb": 352.032, "rjb_var": 61.634, "rrup": 351.75, "rrup_var": 67.879, "rx": 0.0, "ry0": 0.0, "rvolc": 0.0}}, "geometry": {"type": "Point", "coordinates": [9.2926, 44.6071]}}, {"type": "Feature", "id": "MN.TUE", "properties": {"code": "TUE", "name": "", "instrumentType": "UNK", "source": "MN", "network": "MN", "commType": "UNK", "location": "", "intensity": "null", "intensity_flag": "", "intensity_stddev": "null", "pga": "null", "pgv": "null", "distance": 488.441, "elev": null, "vs30": 760.0, "channels": [{"name": "HNZ", "amplitudes": [{"name": "sa(1.0)", "value": 0.0179, "units": "%g", "flag": "Outlier", "ln_sigma": 0.0}, {"name": "sa(0.3)", "value": 0.0242, "units": "%g", "flag": "Outlier", "ln_sigma": 0.0}, {"name": "pga", "value": 0.0141, "units": "%g", "flag": "Outlier", "ln_sigma": 0.0}, {"name": "sa(3.0)", "value": 0.0065, "units": "%g", "flag": "Outlier", "ln_sigma": 0.0}, {"name": "pgv", "value": 0.0174, "units": "cm/s", "flag": "Outlier", "ln_sigma": 0.0}]}, {"name": "HHZ", "amplitudes": [{"name": "sa(1.0)", "value": 0.0219, "units": "%g", "flag": "Outlier", "ln_sigma": 0.0}, {"name": "sa(0.3)", "value": 0.0427, "units": "%g", "flag": "Outlier", "ln_sigma": 0.0}, {"name": "pga", "value": 0.0174, "units": "%g", "flag": "Outlier", "ln_sigma": 0.0}, {"name": "sa(3.0)", "value": 0.0092, "units": "%g", "flag": "Outlier", "ln_sigma": 0.0}, {"name": "pgv", "value": 0.0212, "units": "cm/s", "flag": "Outlier", "ln_sigma": 0.0}]}], "station_type": "seismic", "nresp": "null", "predictions": [{"name": "sa(1.0)", "value": 0.2811, "value_rock": 0.2811, "value_soil": 1.1318, "units": "%g", "ln_tau": 0.4292, "ln_phi": 0.6835, "ln_sigma": 0.8071, "ln_sigma_rock": 0.8102, "ln_sigma_soil": 0.8094, "ln_bias": -0.376, "ln_bias_sigma": 0.1296}, {"name": "pga", "value": 0.1264, "value_rock": 0.1264, "value_soil": 0.2123, "units": "%g", "ln_tau": 0.399, "ln_phi": 0.5954, "ln_sigma": 0.7167, "ln_sigma_rock": 0.7188, "ln_sigma_soil": 0.7163, "ln_bias": -0.1355, "ln_bias_sigma": 0.1097}, {"name": "sa(3.0)", "value": 0.0947, "value_rock": 0.0947, "value_soil": 0.3046, "units": "%g", "ln_tau": 0.4367, "ln_phi": 0.6671, "ln_sigma": 0.7973, "ln_sigma_rock": 0.8025, "ln_sigma_soil": 0.8028, "ln_bias": -0.2165, "ln_bias_sigma": 0.1346}, {"name": "sa(0.3)", "value": 0.2826, "value_rock": 0.2826, "value_soil": 0.7988, "units": "%g", "ln_tau": 0.385, "ln_phi": 0.6693, "ln_sigma": 0.7722, "ln_sigma_rock": 0.7731, "ln_sigma_soil": 0.7714, "ln_bias": -0.37, "ln_bias_sigma": 0.12}, {"name": "pgv", "value": 0.2359, "value_rock": 0.2359, "value_soil": 0.6524, "units": "cm/s", "ln_tau": 0.3914, "ln_phi": 0.6055, "ln_sigma": 0.721, "ln_sigma_rock": 0.7259, "ln_sigma_soil": 0.7223, "ln_bias": -0.3084, "ln_bias_sigma": 0.116}, {"name": "mmi", "value": 2.5698, "value_rock": 2.5698, "value_soil": 3.2193, "units": "intensity", "tau": 0.2499, "phi": 0.7391, "sigma": 0.7803, "sigma_rock": 0.7821, "sigma_soil": 0.7807, "bias": -0.0401, "bias_sigma": 0.1298}], "mmi_from_pgm": [{"name": "sa(1.0)", "value": null, "sigma": null, "flag": "0"}, {"name": "pga", "value": null, "sigma": null, "flag": "0"}, {"name": "sa(3.0)", "value": null, "sigma": null, "flag": "0"}, {"name": "sa(0.3)", "value": null, "sigma": null, "flag": "0"}, {"name": "pgv", "value": null, "sigma": null, "flag": "0"}], "distance_stddev": 8.138, "distances": {"repi": 498.903, "rhypo": 498.967, "rjb": 488.97, "rjb_var": 61.846, "rrup": 488.441, "rrup_var": 66.235, "rx": 0.0, "ry0": 0.0, "rvolc": 0.0}}, "geometry": {"type": "Point", "coordinates": [9.34732, 46.47223]}}, {"type": "Feature", "id": "IV.RM33", "properties": {"code": "RM33", "name": "", "instrumentType": "UNK", "source": "IV", "network": "IV", "commType": "UNK", "location": "", "intensity": 6.1, "intensity_flag": "", "intensity_stddev": 0.63, "pga": 13.2268, "pgv": 13.0832, "distance": 35.427, "elev": null, "vs30": 580.46, "channels": [{"name": "HNN", "amplitudes": [{"name": "sa(1.0)", "value": 10.3009, "units": "%g", "flag": "0", "ln_sigma": 0.0}, {"name": "sa(0.3)", "value": 31.2158, "units": "%g", "flag": "0", "ln_sigma": 0.0}, {"name": "pga", "value": 12.2699, "units": "%g", "flag": "0", "ln_sigma": 0.0}, {"name": "sa(3.0)", "value": 4.1493, "units": "%g", "flag": "0", "ln_sigma": 0.0}, {"name": "pgv", "value": 11.3316, "units": "cm/s", "flag": "0", "ln_sigma": 0.0}]}, {"name": "HNZ", "amplitudes": [{"name": "sa(1.0)", "value": 3.0603, "units": "%g", "flag": "0", "ln_sigma": 0.0}, {"name": "sa(0.3)", "value": 8.6747, "units": "%g", "flag": "0", "ln_sigma": 0.0}, {"name": "pga", "value": 7.4192, "units": "%g", "flag": "0", "ln_sigma": 0.0}, {"name": "sa(3.0)", "value": 3.1586, "units": "%g", "flag": "0", "ln_sigma": 0.0}, {"name": "pgv", "value": 4.7179, "units": "cm/s", "flag": "0", "ln_sigma": 0.0}]}, {"name": "HNE", "amplitudes": [{"name": "sa(1.0)", "value": 14.6183, "units": "%g", "flag": "0", "ln_sigma": 0.0}, {"name": "sa(0.3)", "value": 29.0594, "units": "%g", "flag": "0", "ln_sigma": 0.0}, {"name": "pga", "value": 13.2268, "units": "%g", "flag": "0", "ln_sigma": 0.0}, {"name": "sa(3.0)", "value": 2.0909, "units": "%g", "flag": "0", "ln_sigma": 0.0}, {"name": "pgv", "value": 13.0832, "units": "cm/s", "flag": "0", "ln_sigma": 0.0}]}], "station_type": "seismic", "nresp": "null", "predictions": [{"name": "sa(1.0)", "value": 6.3222, "value_rock": 4.8348, "value_soil": 16.9958, "units": "%g", "ln_tau": 0.4291, "ln_phi": 0.72, "ln_sigma": 0.8382, "ln_sigma_rock": 0.8411, "ln_sigma_soil": 0.8314, "ln_bias": -0.376, "ln_bias_sigma": 0.1296}, {"name": "pga", "value": 9.1122, "value_rock": 8.0994, "value_soil": 11.7012, "units": "%g", "ln_tau": 0.3984, "ln_phi": 0.6508, "ln_sigma": 0.7631, "ln_sigma_rock": 0.7659, "ln_sigma_soil": 0.7465, "ln_bias": -0.1354, "ln_bias_sigma": 0.1097}, {"name": "sa(3.0)", "value": 1.6332, "value_rock": 1.3106, "value_soil": 3.9981, "units": "%g", "ln_tau": 0.4367, "ln_phi": 0.7032, "ln_sigma": 0.8277, "ln_sigma_rock": 0.8326, "ln_sigma_soil": 0.8312, "ln_bias": -0.2165, "ln_bias_sigma": 0.1346}, {"name": "sa(0.3)", "value": 17.0816, "value_rock": 13.521, "value_soil": 30.3669, "units": "%g", "ln_tau": 0.3848, "ln_phi": 0.7131, "ln_sigma": 0.8103, "ln_sigma_rock": 0.8114, "ln_sigma_soil": 0.7869, "ln_bias": -0.3699, "ln_bias_sigma": 0.12}, {"name": "pgv", "value": 5.9197, "value_rock": 4.8589, "value_soil": 12.1657, "units": "cm/s", "ln_tau": 0.3914, "ln_phi": 0.6555, "ln_sigma": 0.7635, "ln_sigma_rock": 0.7676, "ln_sigma_soil": 0.7561, "ln_bias": -0.3084, "ln_bias_sigma": 0.116}, {"name": "mmi", "value": 5.0425, "value_rock": 4.7715, "value_soil": 6.031, "units": "intensity", "tau": 0.5371, "phi": 1.0983, "sigma": 1.2226, "sigma_rock": 1.2275, "sigma_soil": 1.2139, "bias": -0.0508, "bias_sigma": 0.1462}], "mmi_from_pgm": [{"name": "sa(1.0)", "value": 6.05, "sigma": 0.75, "flag": "0"}, {"name": "pga", "value": 5.77, "sigma": 0.66, "flag": "0"}, {"name": "sa(3.0)", "value": 6.48, "sigma": 0.89, "flag": "0"}, {"name": "sa(0.3)", "value": 6.02, "sigma": 0.82, "flag": "0"}, {"name": "pgv", "value": 6.13, "sigma": 0.63, "flag": "0"}], "distance_stddev": 9.577, "distances": {"repi": 40.441, "rhypo": 41.224, "rjb": 31.706, "rjb_var": 51.206, "rrup": 35.427, "rrup_var": 91.725, "rx": 0.0, "ry0": 0.0, "rvolc": 0.0}}, "geometry": {"type": "Point", "coordinates": [13.21452, 42.50898]}}, {"type": "Feature", "id": "IV.SEI", "properties": {"code": "SEI", "name": "", "instrumentType": "UNK", "source": "IV", "network": "IV", "commType": "UNK", "location": "", "intensity": 3.1, "intensity_flag": "", "intensity_stddev": 0.63, "pga": 1.8252, "pgv": 0.5507, "distance": 183.637, "elev": null, "vs30": 900.0, "channels": [{"name": "HHE", "amplitudes": [{"name": "sa(1.0)", "value": 0.3153, "units": "%g", "flag": "0", "ln_sigma": 0.0}, {"name": "sa(0.3)", "value": 1.3886, "units": "%g", "flag": "0", "ln_sigma": 0.0}, {"name": "pga", "value": 1.8252, "units": "%g", "flag": "0", "ln_sigma": 0.0}, {"name": "sa(3.0)", "value": 0.0725, "units": "%g", "flag": "0", "ln_sigma": 0.0}, {"name": "pgv", "value": 0.3862, "units": "cm/s", "flag": "0", "ln_sigma": 0.0}]}, {"name": "HHN", "amplitudes": [{"name": "sa(1.0)", "value": 0.3837, "units": "%g", "flag": "0", "ln_sigma": 0.0}, {"name": "sa(0.3)", "value": 1.3269, "units": "%g", "flag": "0", "ln_sigma": 0.0}, {"name": "pga", "value": 1.7344, "units": "%g", "flag": "0", "ln_sigma": 0.0}, {"name": "sa(3.0)", "value": 0.1537, "units": "%g", "flag": "0", "ln_sigma": 0.0}, {"name": "pgv", "value": 0.5507, "units": "cm/s", "flag": "0", "ln_sigma": 0.0}]}, {"name": "HHZ", "amplitudes": [{"name": "sa(1.0)", "value": 0.2796, "units": "%g", "flag": "0", "ln_sigma": 0.0}, {"name": "sa(0.3)", "value": 1.238, "units": "%g", "flag": "0", "ln_sigma": 0.0}, {"name": "pga", "value": 3.2386, "units": "%g", "flag": "0", "ln_sigma": 0.0}, {"name": "sa(3.0)", "value": 0.09, "units": "%g", "flag": "0", "ln_sigma": 0.0}, {"name": "pgv", "value": 0.3302, "units": "cm/s", "flag": "0", "ln_sigma": 0.0}]}], "station_type": "seismic", "nresp": "null", "predictions": [{"name": "sa(1.0)", "value": 0.7555, "value_rock": 0.8807, "value_soil": 3.4815, "units": "%g", "ln_tau": 0.4292, "ln_phi": 0.6827, "ln_sigma": 0.8064, "ln_sigma_rock": 0.8093, "ln_sigma_soil": 0.8078, "ln_bias": -0.376, "ln_bias_sigma": 0.1296}, {"name": "pga", "value": 0.7985, "value_rock": 0.8472, "value_soil": 1.3964, "units": "%g", "ln_tau": 0.399, "ln_phi": 0.5963, "ln_sigma": 0.7175, "ln_sigma_rock": 0.7195, "ln_sigma_soil": 0.7161, "ln_bias": -0.1355, "ln_bias_sigma": 0.1097}, {"name": "sa(3.0)", "value": 0.2295, "value_rock": 0.2594, "value_soil": 0.8279, "units": "%g", "ln_tau": 0.4367, "ln_phi": 0.6678, "ln_sigma": 0.7979, "ln_sigma_rock": 0.803, "ln_sigma_soil": 0.8033, "ln_bias": -0.2165, "ln_bias_sigma": 0.1346}, {"name": "sa(0.3)", "value": 1.4457, "value_rock": 1.6234, "value_soil": 4.4549, "units": "%g", "ln_tau": 0.385, "ln_phi": 0.6689, "ln_sigma": 0.7718, "ln_sigma_rock": 0.7725, "ln_sigma_soil": 0.7695, "ln_bias": -0.37, "ln_bias_sigma": 0.12}, {"name": "pgv", "value": 0.6915, "value_rock": 0.7708, "value_soil": 2.1038, "units": "cm/s", "ln_tau": 0.3914, "ln_phi": 0.6057, "ln_sigma": 0.7212, "ln_sigma_rock": 0.7259, "ln_sigma_soil": 0.7218, "ln_bias": -0.3084, "ln_bias_sigma": 0.116}, {"name": "mmi", "value": 3.2565, "value_rock": 3.3258, "value_soil": 3.9668, "units": "intensity", "tau": 0.2499, "phi": 0.7392, "sigma": 0.7803, "sigma_rock": 0.7821, "sigma_soil": 0.7805, "bias": -0.0401, "bias_sigma": 0.1298}], "mmi_from_pgm": [{"name": "sa(1.0)", "value": 2.62, "sigma": 0.75, "flag": "0"}, {"name": "pga", "value": 4.0, "sigma": 0.66, "flag": "0"}, {"name": "sa(3.0)", "value": 3.25, "sigma": 0.89, "flag": "0"}, {"name": "sa(0.3)", "value": 3.49, "sigma": 0.82, "flag": "0"}, {"name": "pgv", "value": 3.11, "sigma": 0.63, "flag": "0"}], "distance_stddev": 8.557, "distances": {"repi": 192.973, "rhypo": 193.138, "rjb": 183.205, "rjb_var": 60.985, "rrup": 183.637, "rrup_var": 73.217, "rx": 0.0, "ry0": 0.0, "rvolc": 0.0}}, "geometry": {"type": "Point", "coordinates": [11.35855, 44.05428]}}, {"type": "Feature", "id": "IV.CIGN", "properties": {"code": "CIGN", "name": "", "instrumentType": "UNK", "source": "IV", "network": "IV", "commType": "UNK", "location": "", "intensity": 3.2, "intensity_flag": "", "intensity_stddev": 0.63, "pga": 0.3702, "pgv": 0.6222, "distance": 191.074, "elev": null, "vs30": 543.84, "channels": [{"name": "HHE", "amplitudes": [{"name": "sa(1.0)", "value": 0.3776, "units": "%g", "flag": "0", "ln_sigma": 0.0}, {"name": "sa(0.3)", "value": 0.3953, "units": "%g", "flag": "0", "ln_sigma": 0.0}, {"name": "pga", "value": 0.3702, "units": "%g", "flag": "0", "ln_sigma": 0.0}, {"name": "sa(3.0)", "value": 0.2485, "units": "%g", "flag": "0", "ln_sigma": 0.0}, {"name": "pgv", "value": 0.6222, "units": "cm/s", "flag": "0", "ln_sigma": 0.0}]}, {"name": "HHN", "amplitudes": [{"name": "sa(1.0)", "value": 0.3733, "units": "%g", "flag": "0", "ln_sigma": 0.0}, {"name": "sa(0.3)", "value": 0.8234, "units": "%g", "flag": "0", "ln_sigma": 0.0}, {"name": "pga", "value": 0.1743, "units": "%g", "flag": "0", "ln_sigma": 0.0}, {"name": "sa(3.0)", "value": 0.2192, "units": "%g", "flag": "0", "ln_sigma": 0.0}, {"name": "pgv", "value": 0.509, "units": "cm/s", "flag": "0", "ln_sigma": 0.0}]}, {"name": "HHZ", "amplitudes": [{"name": "sa(1.0)", "value": 0.3808, "units": "%g", "flag": "0", "ln_sigma": 0.0}, {"name": "sa(0.3)", "value": 0.218, "units": "%g", "flag": "0", "ln_sigma": 0.0}, {"name": "pga", "value": 0.46, "units": "%g", "flag": "0", "ln_sigma": 0.0}, {"name": "sa(3.0)", "value": 0.2071, "units": "%g", "flag": "0", "ln_sigma": 0.0}, {"name": "pgv", "value": 0.5184, "units": "cm/s", "flag": "0", "ln_sigma": 0.0}]}], "station_type": "seismic", "nresp": "null", "predictions": [{"name": "sa(1.0)", "value": 1.174, "value_rock": 0.8436, "value_soil": 3.3388, "units": "%g", "ln_tau": 0.4292, "ln_phi": 0.6828, "ln_sigma": 0.8065, "ln_sigma_rock": 0.8094, "ln_sigma_soil": 0.808, "ln_bias": -0.376, "ln_bias_sigma": 0.1296}, {"name": "pga", "value": 0.9182, "value_rock": 0.7939, "value_soil": 1.3104, "units": "%g", "ln_tau": 0.3989, "ln_phi": 0.5962, "ln_sigma": 0.7174, "ln_sigma_rock": 0.7195, "ln_sigma_soil": 0.7161, "ln_bias": -0.1355, "ln_bias_sigma": 0.1097}, {"name": "sa(3.0)", "value": 0.3269, "value_rock": 0.2493, "value_soil": 0.7959, "units": "%g", "ln_tau": 0.4367, "ln_phi": 0.6681, "ln_sigma": 0.7981, "ln_sigma_rock": 0.8033, "ln_sigma_soil": 0.8036, "ln_bias": -0.2165, "ln_bias_sigma": 0.1346}, {"name": "sa(0.3)", "value": 2.0324, "value_rock": 1.5291, "value_soil": 4.2046, "units": "%g", "ln_tau": 0.385, "ln_phi": 0.6689, "ln_sigma": 0.7718, "ln_sigma_rock": 0.7726, "ln_sigma_soil": 0.7697, "ln_bias": -0.37, "ln_bias_sigma": 0.12}, {"name": "pgv", "value": 0.9376, "value_rock": 0.7363, "value_soil": 2.0115, "units": "cm/s", "ln_tau": 0.3914, "ln_phi": 0.6057, "ln_sigma": 0.7212, "ln_sigma_rock": 0.7259, "ln_sigma_soil": 0.7218, "ln_bias": -0.3084, "ln_bias_sigma": 0.116}, {"name": "mmi", "value": 3.4508, "value_rock": 3.2966, "value_soil": 3.9382, "units": "intensity", "tau": 0.2499, "phi": 0.7392, "sigma": 0.7803, "sigma_rock": 0.7821, "sigma_soil": 0.7806, "bias": -0.0401, "bias_sigma": 0.1298}], "mmi_from_pgm": [{"name": "sa(1.0)", "value": 2.6, "sigma": 0.75, "flag": "0"}, {"name": "pga", "value": 2.94, "sigma": 0.66, "flag": "0"}, {"name": "sa(3.0)", "value": 3.49, "sigma": 0.89, "flag": "0"}, {"name": "sa(0.3)", "value": 3.11, "sigma": 0.82, "flag": "0"}, {"name": "pgv", "value": 3.19, "sigma": 0.63, "flag": "0"}], "distance_stddev": 8.52, "distances": {"repi": 200.497, "rhypo": 200.657, "rjb": 190.715, "rjb_var": 61.058, "rrup": 191.074, "rrup_var": 72.591, "rx": 0.0, "ry0": 0.0, "rvolc": 0.0}}, "geometry": {"type": "Point", "coordinates": [14.90502, 41.65418]}}, {"type": "Feature", "id": "GU.BURY", "properties": {"code": "BURY", "name": "", "instrumentType": "UNK", "source": "GU", "network": "GU", "commType": "UNK", "location": "", "intensity": 1.0, "intensity_flag": "", "intensity_stddev": 0.63, "pga": "null", "pgv": "null", "distance": 449.131, "elev": null, "vs30": 760.0, "channels": [{"name": "HHE", "amplitudes": [{"name": "sa(1.0)", "value": 0.0087, "units": "%g", "flag": "Outlier", "ln_sigma": 0.0}, {"name": "sa(0.3)", "value": 0.0229, "units": "%g", "flag": "Outlier", "ln_sigma": 0.0}, {"name": "pga", "value": 0.0027, "units": "%g", "flag": "Outlier", "ln_sigma": 0.0}, {"name": "sa(3.0)", "value": 0.0032, "units": "%g", "flag": "Outlier", "ln_sigma": 0.0}, {"name": "pgv", "value": 0.0076, "units": "cm/s", "flag": "Outlier", "ln_sigma": 0.0}]}], "station_type": "seismic", "nresp": "null", "predictions": [{"name": "sa(1.0)", "value": 0.3129, "value_rock": 0.3129, "value_soil": 1.2584, "units": "%g", "ln_tau": 0.4292, "ln_phi": 0.6836, "ln_sigma": 0.8071, "ln_sigma_rock": 0.8103, "ln_sigma_soil": 0.8094, "ln_bias": -0.376, "ln_bias_sigma": 0.1296}, {"name": "pga", "value": 0.1537, "value_rock": 0.1537, "value_soil": 0.258, "units": "%g", "ln_tau": 0.399, "ln_phi": 0.5955, "ln_sigma": 0.7168, "ln_sigma_rock": 0.7189, "ln_sigma_soil": 0.7164, "ln_bias": -0.1355, "ln_bias_sigma": 0.1097}, {"name": "sa(3.0)", "value": 0.1035, "value_rock": 0.1035, "value_soil": 0.3328, "units": "%g", "ln_tau": 0.4367, "ln_phi": 0.6671, "ln_sigma":