{"type": "FeatureCollection", "features": [{"type": "Feature", "id": "INTENSITY.MSOBS_156", "properties": {"code": "MSOBS_156", "name": "Anandpur Sahib (Intensity V)", "instrumentType": "OBSERVED", "source": "INTENSITY", "network": "INTENSITY", "commType": "UNK", "location": "", "intensity": 5.0, "intensity_flag": "0", "intensity_stddev": 0.3, "pga": 4.9044, "pgv": 6.2912, "distance": 397.998, "elev": null, "vs30": 343.31, "channels": [], "nresp": -1, "station_type": "macroseismic", "predictions": [{"name": "mmi", "value": 3.9031, "value_rock": 3.5318, "value_soil": 4.259, "units": "intensity", "tau": 0.2007, "phi": 0.715, "sigma": 0.7426, "sigma_rock": 0.743, "sigma_soil": 1.029, "bias": 0.0773, "bias_sigma": 0.1459}, {"name": "pga", "value": 0.4362, "value_rock": 0.3002, "value_soil": 0.5905, "units": "%g", "ln_tau": 0.3215, "ln_phi": 0.5353, "ln_sigma": 0.6244, "ln_sigma_rock": 0.6262, "ln_sigma_soil": 0.6084, "ln_bias": 0.2886, "ln_bias_sigma": 0.1438}, {"name": "sa(0.3)", "value": 1.3183, "value_rock": 0.6832, "value_soil": 2.2151, "units": "%g", "ln_tau": 0.2993, "ln_phi": 0.6136, "ln_sigma": 0.6827, "ln_sigma_rock": 0.6864, "ln_sigma_soil": 0.6708, "ln_bias": 0.0733, "ln_bias_sigma": 0.1618}, {"name": "sa(1.0)", "value": 2.1731, "value_rock": 0.9677, "value_soil": 4.0972, "units": "%g", "ln_tau": 0.3284, "ln_phi": 0.6424, "ln_sigma": 0.7215, "ln_sigma_rock": 0.7205, "ln_sigma_soil": 0.7143, "ln_bias": 0.3567, "ln_bias_sigma": 0.1781}, {"name": "sa(3.0)", "value": 1.0229, "value_rock": 0.4542, "value_soil": 1.9367, "units": "%g", "ln_tau": 0.3482, "ln_phi": 0.6096, "ln_sigma": 0.702, "ln_sigma_rock": 0.6951, "ln_sigma_soil": 0.6947, "ln_bias": 0.0371, "ln_bias_sigma": 0.2064}, {"name": "pgv", "value": 2.3194, "value_rock": 1.2965, "value_soil": 3.6664, "units": "cm/s", "ln_tau": 0.3143, "ln_phi": 0.5297, "ln_sigma": 0.6159, "ln_sigma_rock": 0.6169, "ln_sigma_soil": 0.5928, "ln_bias": 0.0655, "ln_bias_sigma": 0.1515}], "pgm_from_mmi": [{"name": "sa(3.0)", "value": 2.2499, "units": "%g", "ln_sigma": 1.4737, "flag": "0"}, {"name": "pgv", "value": 6.2912, "units": "cm/s", "ln_sigma": 0.875, "flag": "0"}, {"name": "pga", "value": 4.9044, "units": "%g", "ln_sigma": 0.8059, "flag": "0"}, {"name": "sa(1.0)", "value": 10.6978, "units": "%g", "ln_sigma": 1.0822, "flag": "0"}, {"name": "sa(0.3)", "value": 9.1875, "units": "%g", "ln_sigma": 1.0131, "flag": "0"}], "distance_stddev": 0.0, "distances": {"repi": 455.656, "rhypo": 456.397, "rjb": 397.998, "rjb_var": 0.0, "rrup": 397.998, "rrup_var": 0.0, "rx": 56.983, "ry0": 339.032}}, "geometry": {"type": "Point", "coordinates": [76.5, 31.25]}}, {"type": "Feature", "id": "INTENSITY.MSOBS_208", "properties": {"code": "MSOBS_208", "name": "Vaishno Devi (Intensity V)", "instrumentType": "OBSERVED", "source": "INTENSITY", "network": "INTENSITY", "commType": "UNK", "location": "", "intensity": 5.0, "intensity_flag": "0", "intensity_stddev": 0.3, "pga": 5.8616, "pgv": 6.2912, "distance": 157.118, "elev": null, "vs30": 613.94, "channels": [], "nresp": -1, "station_type": "macroseismic", "predictions": [{"name": "mmi", "value": 4.6139, "value_rock": 4.397, "value_soil": 5.7556, "units": "intensity", "tau": 0.4324, "phi": 0.9508, "sigma": 1.0445, "sigma_rock": 1.0442, "sigma_soil": 1.01, "bias": 0.1321, "bias_sigma": 0.1907}, {"name": "pga", "value": 3.1697, "value_rock": 2.8748, "value_soil": 5.2158, "units": "%g", "ln_tau": 0.3212, "ln_phi": 0.5201, "ln_sigma": 0.6113, "ln_sigma_rock": 0.6131, "ln_sigma_soil": 0.5751, "ln_bias": 0.2885, "ln_bias_sigma": 0.1438}, {"name": "sa(0.3)", "value": 6.7568, "value_rock": 5.6568, "value_soil": 16.4986, "units": "%g", "ln_tau": 0.2996, "ln_phi": 0.5947, "ln_sigma": 0.6659, "ln_sigma_rock": 0.6681, "ln_sigma_soil": 0.6243, "ln_bias": 0.0733, "ln_bias_sigma": 0.1619}, {"name": "sa(1.0)", "value": 3.838, "value_rock": 3.0768, "value_soil": 12.3554, "units": "%g", "ln_tau": 0.3287, "ln_phi": 0.6271, "ln_sigma": 0.7081, "ln_sigma_rock": 0.7062, "ln_sigma_soil": 0.6887, "ln_bias": 0.3569, "ln_bias_sigma": 0.1782}, {"name": "sa(3.0)", "value": 1.3161, "value_rock": 1.0527, "value_soil": 4.4837, "units": "%g", "ln_tau": 0.3482, "ln_phi": 0.5985, "ln_sigma": 0.6924, "ln_sigma_rock": 0.6851, "ln_sigma_soil": 0.6846, "ln_bias": 0.0371, "ln_bias_sigma": 0.2065}, {"name": "pgv", "value": 4.7484, "value_rock": 4.0544, "value_soil": 10.9108, "units": "cm/s", "ln_tau": 0.3151, "ln_phi": 0.5189, "ln_sigma": 0.6071, "ln_sigma_rock": 0.6068, "ln_sigma_soil": 0.5752, "ln_bias": 0.0656, "ln_bias_sigma": 0.1515}], "pgm_from_mmi": [{"name": "sa(3.0)", "value": 1.9906, "units": "%g", "ln_sigma": 1.4737, "flag": "0"}, {"name": "pgv", "value": 6.2912, "units": "cm/s", "ln_sigma": 0.875, "flag": "0"}, {"name": "pga", "value": 5.8616, "units": "%g", "ln_sigma": 0.8059, "flag": "0"}, {"name": "sa(1.0)", "value": 9.5903, "units": "%g", "ln_sigma": 1.0822, "flag": "0"}, {"name": "sa(0.3)", "value": 11.5591, "units": "%g", "ln_sigma": 1.0131, "flag": "0"}], "distance_stddev": 0.0, "distances": {"repi": 214.248, "rhypo": 215.819, "rjb": 157.126, "rjb_var": 0.0, "rrup": 157.118, "rrup_var": 0.0, "rx": 28.921, "ry0": 128.342}}, "geometry": {"type": "Point", "coordinates": [74.95, 32.98]}}, {"type": "Feature", "id": "INTENSITY.MSOBS_186", "properties": {"code": "MSOBS_186", "name": "Makhu (Intensity V)", "instrumentType": "OBSERVED", "source": "INTENSITY", "network": "INTENSITY", "commType": "UNK", "location": "", "intensity": 5.0, "intensity_flag": "0", "intensity_stddev": 0.3, "pga": 4.9044, "pgv": 6.2912, "distance": 342.262, "elev": null, "vs30": 220.8, "channels": [], "nresp": -1, "station_type": "macroseismic", "predictions": [{"name": "mmi", "value": 4.3526, "value_rock": 3.6716, "value_soil": 4.5524, "units": "intensity", "tau": 0.428, "phi": 0.9394, "sigma": 1.0323, "sigma_rock": 0.743, "sigma_soil": 1.0278, "bias": 0.1315, "bias_sigma": 0.1903}, {"name": "pga", "value": 0.8665, "value_rock": 0.4879, "value_soil": 0.9536, "units": "%g", "ln_tau": 0.3195, "ln_phi": 0.5162, "ln_sigma": 0.6071, "ln_sigma_rock": 0.6261, "ln_sigma_soil": 0.6066, "ln_bias": 0.2878, "ln_bias_sigma": 0.1436}, {"name": "sa(0.3)", "value": 2.9214, "value_rock": 1.0704, "value_soil": 3.4428, "units": "%g", "ln_tau": 0.2966, "ln_phi": 0.5987, "ln_sigma": 0.6682, "ln_sigma_rock": 0.6864, "ln_sigma_soil": 0.6684, "ln_bias": 0.0729, "ln_bias_sigma": 0.1614}, {"name": "sa(1.0)", "value": 4.1653, "value_rock": 1.2106, "value_soil": 5.1003, "units": "%g", "ln_tau": 0.3261, "ln_phi": 0.6351, "ln_sigma": 0.7139, "ln_sigma_rock": 0.7205, "ln_sigma_soil": 0.7129, "ln_bias": 0.3552, "ln_bias_sigma": 0.1778}, {"name": "sa(3.0)", "value": 1.8292, "value_rock": 0.5274, "value_soil": 2.2484, "units": "%g", "ln_tau": 0.3481, "ln_phi": 0.6095, "ln_sigma": 0.7019, "ln_sigma_rock": 0.6951, "ln_sigma_soil": 0.6947, "ln_bias": 0.0371, "ln_bias_sigma": 0.2064}, {"name": "pgv", "value": 3.9252, "value_rock": 1.614, "value_soil": 4.5405, "units": "cm/s", "ln_tau": 0.3118, "ln_phi": 0.5077, "ln_sigma": 0.5958, "ln_sigma_rock": 0.6169, "ln_sigma_soil": 0.5918, "ln_bias": 0.0653, "ln_bias_sigma": 0.1512}], "pgm_from_mmi": [{"name": "sa(3.0)", "value": 2.2499, "units": "%g", "ln_sigma": 1.4737, "flag": "0"}, {"name": "pgv", "value": 6.2912, "units": "cm/s", "ln_sigma": 0.875, "flag": "0"}, {"name": "pga", "value": 4.9044, "units": "%g", "ln_sigma": 0.8059, "flag": "0"}, {"name": "sa(1.0)", "value": 10.6978, "units": "%g", "ln_sigma": 1.0822, "flag": "0"}, {"name": "sa(0.3)", "value": 9.1875, "units": "%g", "ln_sigma": 1.0131, "flag": "0"}], "distance_stddev": 0.0, "distances": {"repi": 403.903, "rhypo": 404.739, "rjb": 342.262, "rjb_var": 0.0, "rrup": 342.262, "rrup_var": 0.0, "rx": -68.249, "ry0": 268.468}}, "geometry": {"type": "Point", "coordinates": [74.98, 31.1]}}, {"type": "Feature", "id": "INTENSITY.MSOBS_286", "properties": {"code": "MSOBS_286", "name": "Hill (Intensity VIII)", "instrumentType": "OBSERVED", "source": "INTENSITY", "network": "INTENSITY", "commType": "UNK", "location": "", "intensity": 8.0, "intensity_flag": "0", "intensity_stddev": 0.3, "pga": 66.7852, "pgv": 55.9888, "distance": 20.157, "elev": null, "vs30": 900.0, "channels": [], "nresp": -1, "station_type": "macroseismic", "predictions": [{"name": "mmi", "value": 6.6773, "value_rock": 6.8485, "value_soil": 7.8712, "units": "intensity", "tau": 0.4326, "phi": 0.9423, "sigma": 1.0369, "sigma_rock": 1.0362, "sigma_soil": 0.9765, "bias": 0.1321, "bias_sigma": 0.1907}, {"name": "pga", "value": 22.8837, "value_rock": 24.6096, "value_soil": 28.9095, "units": "%g", "ln_tau": 0.3222, "ln_phi": 0.5113, "ln_sigma": 0.6044, "ln_sigma_rock": 0.6027, "ln_sigma_soil": 0.4921, "ln_bias": 0.2888, "ln_bias_sigma": 0.1439}, {"name": "sa(0.3)", "value": 42.2169, "value_rock": 48.5177, "value_soil": 76.4755, "units": "%g", "ln_tau": 0.2998, "ln_phi": 0.58, "ln_sigma": 0.6529, "ln_sigma_rock": 0.6533, "ln_sigma_soil": 0.5064, "ln_bias": 0.0733, "ln_bias_sigma": 0.1619}, {"name": "sa(1.0)", "value": 15.3451, "value_rock": 18.2546, "value_soil": 55.5511, "units": "%g", "ln_tau": 0.3288, "ln_phi": 0.6186, "ln_sigma": 0.7006, "ln_sigma_rock": 0.6982, "ln_sigma_soil": 0.6415, "ln_bias": 0.3569, "ln_bias_sigma": 0.1782}, {"name": "sa(3.0)", "value": 4.7232, "value_rock": 5.468, "value_soil": 23.169, "units": "%g", "ln_tau": 0.3483, "ln_phi": 0.5889, "ln_sigma": 0.6842, "ln_sigma_rock": 0.6766, "ln_sigma_soil": 0.6756, "ln_bias": 0.0371, "ln_bias_sigma": 0.2065}, {"name": "pgv", "value": 21.3556, "value_rock": 24.1933, "value_soil": 50.9722, "units": "cm/s", "ln_tau": 0.3152, "ln_phi": 0.5106, "ln_sigma": 0.6001, "ln_sigma_rock": 0.5995, "ln_sigma_soil": 0.5437, "ln_bias": 0.0656, "ln_bias_sigma": 0.1516}], "pgm_from_mmi": [{"name": "sa(3.0)", "value": 13.3899, "units": "%g", "ln_sigma": 1.4737, "flag": "0"}, {"name": "pgv", "value": 55.9888, "units": "cm/s", "ln_sigma": 0.875, "flag": "0"}, {"name": "pga", "value": 66.7852, "units": "%g", "ln_sigma": 0.8059, "flag": "0"}, {"name": "sa(1.0)", "value": 73.3888, "units": "%g", "ln_sigma": 1.0822, "flag": "0"}, {"name": "sa(0.3)", "value": 101.7865, "units": "%g", "ln_sigma": 1.0131, "flag": "0"}], "distance_stddev": 0.0, "distances": {"repi": 44.845, "rhypo": 51.837, "rjb": 20.157, "rjb_var": 0.0, "rrup": 20.157, "rrup_var": 0.0, "rx": -8.257, "ry0": 0.0}}, "geometry": {"type": "Point", "coordinates": [73.15, 34.72]}}, {"type": "Feature", "id": "INTENSITY.MSOBS_52", "properties": {"code": "MSOBS_52", "name": "Abohar (Intensity IV)", "instrumentType": "OBSERVED", "source": "INTENSITY", "network": "INTENSITY", "commType": "UNK", "location": "", "intensity": 4.0, "intensity_flag": "0", "intensity_stddev": 0.3, "pga": 1.5784, "pgv": 2.6996, "distance": 431.965, "elev": null, "vs30": 229.05, "channels": [], "nresp": -1, "station_type": "macroseismic", "predictions": [{"name": "mmi", "value": 4.0057, "value_rock": 3.4514, "value_soil": 4.1166, "units": "intensity", "tau": 0.1997, "phi": 0.7091, "sigma": 0.7367, "sigma_rock": 0.743, "sigma_soil": 0.7351, "bias": 0.0769, "bias_sigma": 0.1455}, {"name": "pga", "value": 0.3947, "value_rock": 0.2246, "value_soil": 0.4429, "units": "%g", "ln_tau": 0.3211, "ln_phi": 0.5187, "ln_sigma": 0.61, "ln_sigma_rock": 0.6262, "ln_sigma_soil": 0.6092, "ln_bias": 0.2884, "ln_bias_sigma": 0.1438}, {"name": "sa(0.3)", "value": 1.397, "value_rock": 0.5229, "value_soil": 1.7008, "units": "%g", "ln_tau": 0.2985, "ln_phi": 0.6013, "ln_sigma": 0.6713, "ln_sigma_rock": 0.6864, "ln_sigma_soil": 0.6718, "ln_bias": 0.0731, "ln_bias_sigma": 0.1617}, {"name": "sa(1.0)", "value": 2.8355, "value_rock": 0.8499, "value_soil": 3.6068, "units": "%g", "ln_tau": 0.3272, "ln_phi": 0.6365, "ln_sigma": 0.7157, "ln_sigma_rock": 0.7205, "ln_sigma_soil": 0.7149, "ln_bias": 0.3559, "ln_bias_sigma": 0.178}, {"name": "sa(3.0)", "value": 1.3982, "value_rock": 0.4178, "value_soil": 1.7816, "units": "%g", "ln_tau": 0.3481, "ln_phi": 0.6096, "ln_sigma": 0.702, "ln_sigma_rock": 0.6951, "ln_sigma_soil": 0.6947, "ln_bias": 0.0371, "ln_bias_sigma": 0.2064}, {"name": "pgv", "value": 2.7237, "value_rock": 1.143, "value_soil": 3.2404, "units": "cm/s", "ln_tau": 0.3129, "ln_phi": 0.5099, "ln_sigma": 0.5983, "ln_sigma_rock": 0.6169, "ln_sigma_soil": 0.5934, "ln_bias": 0.0654, "ln_bias_sigma": 0.1513}], "pgm_from_mmi": [{"name": "sa(3.0)", "value": 1.047, "units": "%g", "ln_sigma": 1.4737, "flag": "0"}, {"name": "pgv", "value": 2.6996, "units": "cm/s", "ln_sigma": 0.875, "flag": "0"}, {"name": "pga", "value": 1.5784, "units": "%g", "ln_sigma": 0.8059, "flag": "0"}, {"name": "sa(1.0)", "value": 4.8358, "units": "%g", "ln_sigma": 1.0822, "flag": "0"}, {"name": "sa(0.3)", "value": 2.3522, "units": "%g", "ln_sigma": 1.0131, "flag": "0"}], "distance_stddev": 0.0, "distances": {"repi": 492.51, "rhypo": 493.196, "rjb": 431.965, "rjb_var": 0.0, "rrup": 431.965, "rrup_var": 0.0, "rx": -177.639, "ry0": 294.772}}, "geometry": {"type": "Point", "coordinates": [74.2, 30.14]}}, {"type": "Feature", "id": "INTENSITY.MSOBS_256", "properties": {"code": "MSOBS_256", "name": "Sarkaghat (Intensity VI)", "instrumentType": "OBSERVED", "source": "INTENSITY", "network": "INTENSITY", "commType": "UNK", "location": "", "intensity": "null", "intensity_flag": "0", "intensity_stddev": "null", "pga": "null", "pgv": "null", "distance": 376.358, "elev": null, "vs30": 518.15, "channels": [], "nresp": "null", "station_type": "macroseismic", "predictions": [{"name": "mmi", "value": 3.7669, "value_rock": 3.5848, "value_soil": 4.3704, "units": "intensity", "tau": 0.2011, "phi": 0.7153, "sigma": 0.743, "sigma_rock": 0.743, "sigma_soil": 1.0286, "bias": 0.0775, "bias_sigma": 0.1461}, {"name": "pga", "value": 0.4334, "value_rock": 0.3619, "value_soil": 0.7103, "units": "%g", "ln_tau": 0.322, "ln_phi": 0.5357, "ln_sigma": 0.6251, "ln_sigma_rock": 0.6262, "ln_sigma_soil": 0.6078, "ln_bias": 0.2887, "ln_bias_sigma": 0.1439}, {"name": "sa(0.3)", "value": 1.1218, "value_rock": 0.8118, "value_soil": 2.6252, "units": "%g", "ln_tau": 0.2999, "ln_phi": 0.6142, "ln_sigma": 0.6835, "ln_sigma_rock": 0.6864, "ln_sigma_soil": 0.67, "ln_bias": 0.0733, "ln_bias_sigma": 0.1619}, {"name": "sa(1.0)", "value": 1.5715, "value_rock": 1.0536, "value_soil": 4.4534, "units": "%g", "ln_tau": 0.3287, "ln_phi": 0.6427, "ln_sigma": 0.7219, "ln_sigma_rock": 0.7205, "ln_sigma_soil": 0.7138, "ln_bias": 0.3569, "ln_bias_sigma": 0.1782}, {"name": "sa(3.0)", "value": 0.7194, "value_rock": 0.4804, "value_soil": 2.0482, "units": "%g", "ln_tau": 0.3483, "ln_phi": 0.6097, "ln_sigma": 0.7021, "ln_sigma_rock": 0.6951, "ln_sigma_soil": 0.6947, "ln_bias": 0.0371, "ln_bias_sigma": 0.2065}, {"name": "pgv", "value": 1.8739, "value_rock": 1.4087, "value_soil": 3.9765, "units": "cm/s", "ln_tau": 0.315, "ln_phi": 0.5305, "ln_sigma": 0.6169, "ln_sigma_rock": 0.6169, "ln_sigma_soil": 0.5924, "ln_bias": 0.0656, "ln_bias_sigma": 0.1515}], "pgm_from_mmi": [{"name": "sa(3.0)", "value": 4.835, "units": "%g", "ln_sigma": 1.4737, "flag": "Outlier"}, {"name": "pgv", "value": 13.0374, "units": "cm/s", "ln_sigma": 0.875, "flag": "Outlier"}, {"name": "pga", "value": 9.1381, "units": "%g", "ln_sigma": 0.8059, "flag": "Outlier"}, {"name": "sa(1.0)", "value": 23.6658, "units": "%g", "ln_sigma": 1.0822, "flag": "Outlier"}, {"name": "sa(0.3)", "value": 22.6278, "units": "%g", "ln_sigma": 1.0131, "flag": "Outlier"}], "distance_stddev": 0.0, "distances": {"repi": 432.478, "rhypo": 433.258, "rjb": 376.503, "rjb_var": 0.0, "rrup": 376.358, "rrup_var": 0.0, "rx": 99.156, "ry0": 319.909}}, "geometry": {"type": "Point", "coordinates": [76.75, 31.69]}}, {"type": "Feature", "id": "INTENSITY.MSOBS_49", "properties": {"code": "MSOBS_49", "name": "Sadiqabad (Intensity III)", "instrumentType": "OBSERVED", "source": "INTENSITY", "network": "INTENSITY", "commType": "UNK", "location": "", "intensity": 3.0, "intensity_flag": "0", "intensity_stddev": 0.3, "pga": "null", "pgv": "null", "distance": 724.101, "elev": null, "vs30": 228.16, "channels": [], "nresp": -1, "station_type": "macroseismic", "predictions": [{"name": "mmi", "value": 3.4039, "value_rock": 2.8434, "value_soil": 3.5154, "units": "intensity", "tau": 0.2006, "phi": 0.7095, "sigma": 0.7373, "sigma_rock": 0.743, "sigma_soil": 0.7361, "bias": 0.0773, "bias_sigma": 0.1459}, {"name": "pga", "value": 0.0367, "value_rock": 0.0207, "value_soil": 0.0411, "units": "%g", "ln_tau": 0.3222, "ln_phi": 0.5195, "ln_sigma": 0.6113, "ln_sigma_rock": 0.6262, "ln_sigma_soil": 0.6113, "ln_bias": 0.2888, "ln_bias_sigma": 0.1439}, {"name": "sa(0.3)", "value": 0.1594, "value_rock": 0.0591, "value_soil": 0.194, "units": "%g", "ln_tau": 0.2999, "ln_phi": 0.6024, "ln_sigma": 0.6729, "ln_sigma_rock": 0.6864, "ln_sigma_soil": 0.6745, "ln_bias": 0.0733, "ln_bias_sigma": 0.1619}, {"name": "sa(1.0)", "value": 1.0665, "value_rock": 0.3169, "value_soil": 1.3556, "units": "%g", "ln_tau": 0.3284, "ln_phi": 0.6377, "ln_sigma": 0.7173, "ln_sigma_rock": 0.7205, "ln_sigma_soil": 0.7177, "ln_bias": 0.3567, "ln_bias_sigma": 0.1781}, {"name": "sa(3.0)", "value": 0.7809, "value_rock": 0.2324, "value_soil": 0.9912, "units": "%g", "ln_tau": 0.3482, "ln_phi": 0.6097, "ln_sigma": 0.7021, "ln_sigma_rock": 0.6951, "ln_sigma_soil": 0.6949, "ln_bias": 0.0371, "ln_bias_sigma": 0.2065}, {"name": "pgv", "value": 1.0611, "value_rock": 0.4411, "value_soil": 1.2636, "units": "cm/s", "ln_tau": 0.3142, "ln_phi": 0.5111, "ln_sigma": 0.5999, "ln_sigma_rock": 0.6169, "ln_sigma_soil": 0.5962, "ln_bias": 0.0655, "ln_bias_sigma": 0.1514}], "pgm_from_mmi": [{"name": "sa(3.0)", "value": null, "units": "%g", "ln_sigma": null, "flag": "0"}, {"name": "pgv", "value": null, "units": "cm/s", "ln_sigma": null, "flag": "0"}, {"name": "pga", "value": null, "units": "%g", "ln_sigma": null, "flag": "0"}, {"name": "sa(1.0)", "value": null, "units": "%g", "ln_sigma": null, "flag": "0"}, {"name": "sa(0.3)", "value": null, "units": "%g", "ln_sigma": null, "flag": "0"}], "distance_stddev": 0.0, "distances": {"repi": 767.28, "rhypo": 767.72, "rjb": 724.101, "rjb_var": 0.0, "rrup": 724.101, "rrup_var": 0.0, "rx": -579.976, "ry0": 188.01}}, "geometry": {"type": "Point", "coordinates": [70.13, 28.3]}}, {"type": "Feature", "id": "INTENSITY.MSOBS_247", "properties": {"code": "MSOBS_247", "name": "Nurpur (Intensity VI)", "instrumentType": "OBSERVED", "source": "INTENSITY", "network": "INTENSITY", "commType": "UNK", "location": "", "intensity": 6.0, "intensity_flag": "0", "intensity_stddev": 0.3, "pga": 9.386, "pgv": 13.0374, "distance": 272.238, "elev": null, "vs30": 628.46, "channels": [], "nresp": -1, "station_type": "macroseismic", "predictions": [{"name": "mmi", "value": 3.955, "value_rock": 3.8649, "value_soil": 4.9544, "units": "intensity", "tau": 0.2012, "phi": 0.7153, "sigma": 0.743, "sigma_rock": 0.743, "sigma_soil": 1.0259, "bias": 0.0775, "bias_sigma": 0.1461}, {"name": "pga", "value": 1.0051, "value_rock": 0.9194, "value_soil": 1.7716, "units": "%g", "ln_tau": 0.322, "ln_phi": 0.5357, "ln_sigma": 0.625, "ln_sigma_rock": 0.6261, "ln_sigma_soil": 0.6026, "ln_bias": 0.2887, "ln_bias_sigma": 0.1439}, {"name": "sa(0.3)", "value": 2.2639, "value_rock": 1.9301, "value_soil": 6.0949, "units": "%g", "ln_tau": 0.2999, "ln_phi": 0.6142, "ln_sigma": 0.6835, "ln_sigma_rock": 0.6863, "ln_sigma_soil": 0.6632, "ln_bias": 0.0733, "ln_bias_sigma": 0.1619}, {"name": "sa(1.0)", "value": 2.0075, "value_rock": 1.6483, "value_soil": 6.8747, "units": "%g", "ln_tau": 0.3288, "ln_phi": 0.6428, "ln_sigma": 0.722, "ln_sigma_rock": 0.7205, "ln_sigma_soil": 0.7104, "ln_bias": 0.3569, "ln_bias_sigma": 0.1782}, {"name": "sa(3.0)", "value": 0.7979, "value_rock": 0.6541, "value_soil": 2.788, "units": "%g", "ln_tau": 0.3483, "ln_phi": 0.6097, "ln_sigma": 0.7022, "ln_sigma_rock": 0.695, "ln_sigma_soil": 0.6946, "ln_bias": 0.0371, "ln_bias_sigma": 0.2065}, {"name": "pgv", "value": 2.5157, "value_rock": 2.1846, "value_soil": 6.0857, "units": "cm/s", "ln_tau": 0.3151, "ln_phi": 0.5306, "ln_sigma": 0.6171, "ln_sigma_rock"