{
   "type":"FeatureCollection",
   "features":[
      {
         "type":"Feature",
         "id":"G.MAY",
         "properties":{
            "code":"MAY",
            "name":"Mayorazgo",
            "instrumentType":"UNK",
            "source":"G",
            "network":"G",
            "commType":"UNK",
            "location":"",
            "intensity":4.6,
            "intensity_flag":"",
            "intensity_stddev":0.63,
            "pga":6.085,
            "pgv":4.67,
            "distance":113.748,
            "elev":null,
            "vs30":348.21,
            "channels":[
               {
                  "name":"Mayorazgo",
                  "amplitudes":[
                     {
                        "name":"pgv",
                        "value":4.67,
                        "units":"cm/s",
                        "flag":"0",
                        "ln_sigma":0.0
                     },
                     {
                        "name":"pga",
                        "value":6.085,
                        "units":"%g",
                        "flag":"0",
                        "ln_sigma":0.0
                     }
                  ]
               }
            ],
            "station_type":"seismic",
            "nresp":"null",
            "predictions":[
               {
                  "name":"pgv",
                  "value":12.9506,
                  "value_rock":8.3208,
                  "value_soil":17.2906,
                  "units":"cm/s",
                  "ln_tau":0.4157,
                  "ln_phi":0.766,
                  "ln_sigma":0.8715,
                  "ln_sigma_rock":0.9428,
                  "ln_sigma_soil":0.9432,
                  "ln_bias":-0.0441,
                  "ln_bias_sigma":0.2065
               },
               {
                  "name":"pga",
                  "value":14.3234,
                  "value_rock":11.6151,
                  "value_soil":14.3446,
                  "units":"%g",
                  "ln_tau":0.3585,
                  "ln_phi":0.5626,
                  "ln_sigma":0.6672,
                  "ln_sigma_rock":0.6895,
                  "ln_sigma_soil":0.6898,
                  "ln_bias":-0.2343,
                  "ln_bias_sigma":0.1577
               },
               {
                  "name":"mmi",
                  "value":6.2926,
                  "value_rock":5.9558,
                  "value_soil":6.295,
                  "units":"intensity",
                  "tau":0.5761,
                  "phi":1.1194,
                  "sigma":1.2589,
                  "sigma_rock":1.2897,
                  "sigma_soil":1.29,
                  "bias":-0.3625,
                  "bias_sigma":0.2642
               }
            ],
            "mmi_from_pgm":[
               {
                  "name":"pgv",
                  "value":4.59,
                  "sigma":0.63,
                  "flag":"0"
               },
               {
                  "name":"pga",
                  "value":4.92,
                  "sigma":0.66,
                  "flag":"0"
               }
            ],
            "distance_stddev":0.0,
            "distances":{
               "repi":152.552,
               "rhypo":157.458,
               "rjb":106.062,
               "rjb_var":0.0,
               "rrup":113.748,
               "rrup_var":0.0,
               "rvolc":0.0
            }
         },
         "geometry":{
            "type":"Point",
            "coordinates":[
               -76.944,
               -12.055
            ]
         }
      },
      {
         "type":"Feature",
         "id":"G.ICA2",
         "properties":{
            "code":"ICA2",
            "name":"Ica 2",
            "instrumentType":"UNK",
            "source":"G",
            "network":"G",
            "commType":"UNK",
            "location":"",
            "intensity":8.3,
            "intensity_flag":"",
            "intensity_stddev":0.63,
            "pga":34.057,
            "pgv":67.27,
            "distance":57.18,
            "elev":null,
            "vs30":235.38,
            "channels":[
               {
                  "name":"Ica 2",
                  "amplitudes":[
                     {
                        "name":"pgv",
                        "value":67.27,
                        "units":"cm/s",
                        "flag":"0",
                        "ln_sigma":0.0
                     },
                     {
                        "name":"pga",
                        "value":34.057,
                        "units":"%g",
                        "flag":"0",
                        "ln_sigma":0.0
                     }
                  ]
               }
            ],
            "station_type":"seismic",
            "nresp":"null",
            "predictions":[
               {
                  "name":"pgv",
                  "value":27.7006,
                  "value_rock":15.5653,
                  "value_soil":30.4512,
                  "units":"cm/s",
                  "ln_tau":0.4157,
                  "ln_phi":0.766,
                  "ln_sigma":0.8715,
                  "ln_sigma_rock":0.9428,
                  "ln_sigma_soil":0.9432,
                  "ln_bias":-0.0441,
                  "ln_bias_sigma":0.2065
               },
               {
                  "name":"pga",
                  "value":27.5336,
                  "value_rock":26.1407,
                  "value_soil":29.0825,
                  "units":"%g",
                  "ln_tau":0.3585,
                  "ln_phi":0.5626,
                  "ln_sigma":0.6672,
                  "ln_sigma_rock":0.6895,
                  "ln_sigma_soil":0.6898,
                  "ln_bias":-0.2343,
                  "ln_bias_sigma":0.1577
               },
               {
                  "name":"mmi",
                  "value":7.0381,
                  "value_rock":6.9546,
                  "value_soil":7.126,
                  "units":"intensity",
                  "tau":0.5761,
                  "phi":1.1194,
                  "sigma":1.2589,
                  "sigma_rock":1.2897,
                  "sigma_soil":1.29,
                  "bias":-0.3625,
                  "bias_sigma":0.2642
               }
            ],
            "mmi_from_pgm":[
               {
                  "name":"pgv",
                  "value":8.25,
                  "sigma":0.63,
                  "flag":"0"
               },
               {
                  "name":"pga",
                  "value":7.38,
                  "sigma":0.66,
                  "flag":"0"
               }
            ],
            "distance_stddev":0.0,
            "distances":{
               "repi":122.554,
               "rhypo":128.61,
               "rjb":42.693,
               "rjb_var":0.0,
               "rrup":57.18,
               "rrup_var":0.0,
               "rvolc":0.0
            }
         },
         "geometry":{
            "type":"Point",
            "coordinates":[
               -75.73,
               -14.09
            ]
         }
      },
      {
         "type":"Feature",
         "id":"G.PCN",
         "properties":{
            "code":"PCN",
            "name":"Parcona",
            "instrumentType":"UNK",
            "source":"G",
            "network":"G",
            "commType":"UNK",
            "location":"",
            "intensity":7.1,
            "intensity_flag":"",
            "intensity_stddev":0.63,
            "pga":49.786,
            "pgv":28.03,
            "distance":60.291,
            "elev":null,
            "vs30":543.72,
            "channels":[
               {
                  "name":"Parcona",
                  "amplitudes":[
                     {
                        "name":"pgv",
                        "value":28.03,
                        "units":"cm/s",
                        "flag":"0",
                        "ln_sigma":0.0
                     },
                     {
                        "name":"pga",
                        "value":49.786,
                        "units":"%g",
                        "flag":"0",
                        "ln_sigma":0.0
                     }
                  ]
               }
            ],
            "station_type":"seismic",
            "nresp":"null",
            "predictions":[
               {
                  "name":"pgv",
                  "value":18.1277,
                  "value_rock":14.9279,
                  "value_soil":29.3743,
                  "units":"cm/s",
                  "ln_tau":0.4157,
                  "ln_phi":0.766,
                  "ln_sigma":0.8715,
                  "ln_sigma_rock":0.9428,
                  "ln_sigma_soil":0.9432,
                  "ln_bias":-0.0441,
                  "ln_bias_sigma":0.2065
               },
               {
                  "name":"pga",
                  "value":27.9642,
                  "value_rock":24.7751,
                  "value_soil":27.83,
                  "units":"%g",
                  "ln_tau":0.3585,
                  "ln_phi":0.5626,
                  "ln_sigma":0.6672,
                  "ln_sigma_rock":0.6895,
                  "ln_sigma_soil":0.6898,
                  "ln_bias":-0.2343,
                  "ln_bias_sigma":0.1577
               },
               {
                  "name":"mmi",
                  "value":7.0865,
                  "value_rock":6.8919,
                  "value_soil":7.0787,
                  "units":"intensity",
                  "tau":0.5761,
                  "phi":1.1194,
                  "sigma":1.2589,
                  "sigma_rock":1.2897,
                  "sigma_soil":1.29,
                  "bias":-0.3625,
                  "bias_sigma":0.2642
               }
            ],
            "mmi_from_pgm":[
               {
                  "name":"pgv",
                  "value":7.05,
                  "sigma":0.63,
                  "flag":"0"
               },
               {
                  "name":"pga",
                  "value":8.01,
                  "sigma":0.66,
                  "flag":"0"
               }
            ],
            "distance_stddev":0.0,
            "distances":{
               "repi":121.89,
               "rhypo":127.977,
               "rjb":42.296,
               "rjb_var":0.0,
               "rrup":60.291,
               "rrup_var":0.0,
               "rvolc":0.0
            }
         },
         "geometry":{
            "type":"Point",
            "coordinates":[
               -75.699,
               -14.042
            ]
         }
      },
      {
         "type":"Feature",
         "id":"G.ANC",
         "properties":{
            "code":"ANC",
            "name":"Ancon",
            "instrumentType":"UNK",
            "source":"G",
            "network":"G",
            "commType":"UNK",
            "location":"",
            "intensity":4.2,
            "intensity_flag":"",
            "intensity_stddev":0.63,
            "pga":5.987,
            "pgv":3.54,
            "distance":147.857,
            "elev":null,
            "vs30":310.66,
            "channels":[
               {
                  "name":"Ancon",
                  "amplitudes":[
                     {
                        "name":"pgv",
                        "value":3.54,
                        "units":"cm/s",
                        "flag":"0",
                        "ln_sigma":0.0
                     },
                     {
                        "name":"pga",
                        "value":5.987,
                        "units":"%g",
                        "flag":"0",
                        "ln_sigma":0.0
                     }
                  ]
               }
            ],
            "station_type":"seismic",
            "nresp":"null",
            "predictions":[
               {
                  "name":"pgv",
                  "value":9.9169,
                  "value_rock":6.2199,
                  "value_soil":13.1146,
                  "units":"cm/s",
                  "ln_tau":0.4157,
                  "ln_phi":0.766,
                  "ln_sigma":0.8715,
                  "ln_sigma_rock":0.9428,
                  "ln_sigma_soil":0.9432,
                  "ln_bias":-0.0441,
                  "ln_bias_sigma":0.2065
               },
               {
                  "name":"pga",
                  "value":9.9171,
                  "value_rock":7.8788,
                  "value_soil":9.9931,
                  "units":"%g",
                  "ln_tau":0.3585,
                  "ln_phi":0.5626,
                  "ln_sigma":0.6672,
                  "ln_sigma_rock":0.6895,
                  "ln_sigma_soil":0.6898,
                  "ln_bias":-0.2343,
                  "ln_bias_sigma":0.1577
               },
               {
                  "name":"mmi",
                  "value":5.818,
                  "value_rock":5.4483,
                  "value_soil":5.8303,
                  "units":"intensity",
                  "tau":0.5761,
                  "phi":1.1194,
                  "sigma":1.2589,
                  "sigma_rock":1.2897,
                  "sigma_soil":1.29,
                  "bias":-0.3625,
                  "bias_sigma":0.2642
               }
            ],
            "mmi_from_pgm":[
               {
                  "name":"pgv",
                  "value":4.21,
                  "sigma":0.63,
                  "flag":"0"
               },
               {
                  "name":"pga",
                  "value":5.01,
                  "sigma":0.66,
                  "flag":"0"
               }
            ],
            "distance_stddev":0.0,
            "distances":{
               "repi":188.609,
               "rhypo":192.599,
               "rjb":142.238,
               "rjb_var":0.0,
               "rrup":147.857,
               "rrup_var":0.0,
               "rvolc":0.0
            }
         },
         "geometry":{
            "type":"Point",
            "coordinates":[
               -77.15,
               -11.776
            ]
         }
      },
      {
         "type":"Feature",
         "id":"G.CDL-CIP",
         "properties":{
            "code":"CDL-CIP",
            "name":"CDL-CIP",
            "instrumentType":"UNK",
            "source":"G",
            "network":"G",
            "commType":"UNK",
            "location":"",
            "intensity":5.4,
            "intensity_flag":"",
            "intensity_stddev":0.63,
            "pga":5.594,
            "pgv":8.54,
            "distance":113.361,
            "elev":null,
            "vs30":337.57,
            "channels":[
               {
                  "name":"CDL-CIP",
                  "amplitudes":[
                     {
                        "name":"pgv",
                        "value":8.54,
                        "units":"cm/s",
                        "flag":"0",
                        "ln_sigma":0.0
                     },
                     {
                        "name":"pga",
                        "value":5.594,
                        "units":"%g",
                        "flag":"0",
                        "ln_sigma":0.0
                     }
                  ]
               }
            ],
            "station_type":"seismic",
            "nresp":"null",
            "predictions":[
               {
                  "name":"pgv",
                  "value":13.0713,
                  "value_rock":8.3507,
                  "value_soil":17.349,
                  "units":"cm/s",
                  "ln_tau":0.4157,
                  "ln_phi":0.766,
                  "ln_sigma":0.8715,
                  "ln_sigma_rock":0.9428,
                  "ln_sigma_soil":0.9432,
                  "ln_bias":-0.0441,
                  "ln_bias_sigma":0.2065
               },
               {
                  "name":"pga",
                  "value":14.4191,
                  "value_rock":11.6699,
                  "value_soil":14.4063,
                  "units":"%g",
                  "ln_tau":0.3585,
                  "ln_phi":0.5626,
                  "ln_sigma":0.6672,
                  "ln_sigma_rock":0.6895,
                  "ln_sigma_soil":0.6898,
                  "ln_bias":-0.2343,
                  "ln_bias_sigma":0.1577
               },
               {
                  "name":"mmi",
                  "value":6.3018,
                  "value_rock":5.9619,
                  "value_soil":6.3004,
                  "units":"intensity",
                  "tau":0.5761,
                  "phi":1.1194,
                  "sigma":1.2589,
                  "sigma_rock":1.2897,
                  "sigma_soil":1.29,
                  "bias":-0.3625,
                  "bias_sigma":0.2642
               }
            ],
            "mmi_from_pgm":[
               {
                  "name":"pgv",
                  "value":5.42,
                  "sigma":0.63,
                  "flag":"0"
               },
               {
                  "name":"pga",
                  "value":4.78,
                  "sigma":0.66,
                  "flag":"0"
               }
            ],
            "distance_stddev":0.0,
            "distances":{
               "repi":151.799,
               "rhypo":156.729,
               "rjb":105.644,
               "rjb_var":0.0,
               "rrup":113.361,
               "rrup_var":0.0,
               "rvolc":0.0
            }
         },
         "geometry":{
            "type":"Point",
            "coordinates":[
               -77.049,
               -12.092
            ]
         }
      },
      {
         "type":"Feature",
         "id":"G.ANR",
         "properties":{
            "code":"ANR",
            "name":"Asamblea Nacional de Rectores",
            "instrumentType":"UNK",
            "source":"G",
            "network":"G",
            "commType":"UNK",
            "location":"",
            "intensity":5.4,
            "intensity_flag":"",
            "intensity_stddev":0.63,
            "pga":8.757,
            "pgv":8.3,
            "distance":107.959,
            "elev":null,
            "vs30":354.1,
            "channels":[
               {
                  "name":"Asamblea Nacional de Rectores",
                  "amplitudes":[
                     {
                        "name":"pgv",
                        "value":8.3,
                        "units":"cm/s",
                        "flag":"0",
                        "ln_sigma":0.0
                     },
                     {
                        "name":"pga",
                        "value":8.757,
                        "units":"%g",
                        "flag":"0",
                        "ln_sigma":0.0
                     }
                  ]
               }
            ],
            "station_type":"seismic",
            "nresp":"null",
            "predictions":[
               {
                  "name":"pgv",
                  "value":13.626,
                  "value_rock":8.7851,
                  "value_soil":18.1929,
                  "units":"cm/s",
                  "ln_tau":0.4157,
                  "ln_phi":0.766,
                  "ln_sigma":0.8715,
                  "ln_sigma_rock":0.9428,
                  "ln_sigma_soil":0.9432,
                  "ln_bias":-0.0441,
                  "ln_bias_sigma":0.2065
               },
               {
                  "name":"pga",
                  "value":15.3186,
                  "value_rock":12.4703,
                  "value_soil":15.3034,
                  "units":"%g",
                  "ln_tau":0.3585,
                  "ln_phi":0.5626,
                  "ln_sigma":0.6672,
                  "ln_sigma_rock":0.6895,
                  "ln_sigma_soil":0.6898,
                  "ln_bias":-0.2343,
                  "ln_bias_sigma":0.1577
               },
               {
                  "name":"mmi",
                  "value":6.3774,
                  "value_rock":6.0469,
