{"type": "FeatureCollection", "features": [{"type": "Feature", "id": "ITACA.VZZ", "properties": {"code": "VZZ", "name": "VZZ", "instrumentType": "UNK", "source": "ITACA", "network": "ITACA", "commType": "UNK", "location": "", "intensity": 4.5, "intensity_flag": "", "intensity_stddev": 0.63, "pga": "null", "pgv": 3.3957, "distance": 59.448, "elev": null, "vs30": 599.57, "channels": [{"name": "UP", "amplitudes": [{"name": "sa(1.0)", "value": 1.598, "units": "%g", "flag": "UnknownOrientation,0", "ln_sigma": 0.0}, {"name": "pgv", "value": 1.5857, "units": "cm/s", "flag": "UnknownOrientation,0", "ln_sigma": 0.0}, {"name": "sa(3.0)", "value": 0.29, "units": "%g", "flag": "UnknownOrientation,0", "ln_sigma": 0.0}, {"name": "pga", "value": "null", "units": "%g", "flag": "G,UnknownOrientation,0,Outlier", "ln_sigma": "null"}, {"name": "sa(0.3)", "value": 3.789, "units": "%g", "flag": "UnknownOrientation,0", "ln_sigma": 0.0}]}, {"name": "WE", "amplitudes": [{"name": "sa(1.0)", "value": 6.87, "units": "%g", "flag": "0", "ln_sigma": 0.0}, {"name": "pgv", "value": 3.3957, "units": "cm/s", "flag": "0", "ln_sigma": 0.0}, {"name": "sa(3.0)", "value": 0.41, "units": "%g", "flag": "0", "ln_sigma": 0.0}, {"name": "pga", "value": "null", "units": "%g", "flag": "Glitch,0,Outlier", "ln_sigma": "null"}, {"name": "sa(0.3)", "value": 11.28, "units": "%g", "flag": "0", "ln_sigma": 0.0}]}, {"name": "NS", "amplitudes": [{"name": "sa(1.0)", "value": 5.561, "units": "%g", "flag": "UnknownOrientation,0", "ln_sigma": 0.0}, {"name": "pgv", "value": "null", "units": "cm/s", "flag": "G,UnknownOrientation,0", "ln_sigma": "null"}, {"name": "sa(3.0)", "value": 0.638, "units": "%g", "flag": "UnknownOrientation,0", "ln_sigma": 0.0}, {"name": "pga", "value": 7.231, "units": "%g", "flag": "UnknownOrientation,0,Outlier", "ln_sigma": 0.0}, {"name": "sa(0.3)", "value": 13.253, "units": "%g", "flag": "UnknownOrientation,0", "ln_sigma": 0.0}]}], "station_type": "seismic", "nresp": "null", "predictions": [{"name": "sa(3.0)", "value": 0.1172, "value_rock": 0.1004, "value_soil": 0.2514, "units": "%g", "ln_tau": 0.0, "ln_phi": 0.639, "ln_sigma": 0.639, "ln_sigma_rock": 0.7651, "ln_sigma_soil": 0.7522, "ln_bias": 1.6418, "ln_bias_sigma": 0.174}, {"name": "sa(0.3)", "value": 3.2851, "value_rock": 2.5921, "value_soil": 5.6561, "units": "%g", "ln_tau": 0.0, "ln_phi": 0.6125, "ln_sigma": 0.6125, "ln_sigma_rock": 0.7335, "ln_sigma_soil": 0.7288, "ln_bias": 1.271, "ln_bias_sigma": 0.143}, {"name": "pgv", "value": 0.732, "value_rock": 0.6139, "value_soil": 1.5092, "units": "cm/s", "ln_tau": 0.0, "ln_phi": 0.6775, "ln_sigma": 0.6775, "ln_sigma_rock": 0.8112, "ln_sigma_soil": 0.8027, "ln_bias": 1.7426, "ln_bias_sigma": 0.161}, {"name": "sa(1.0)", "value": 0.7637, "value_rock": 0.6217, "value_soil": 1.819, "units": "%g", "ln_tau": 0.0, "ln_phi": 0.6439, "ln_sigma": 0.6439, "ln_sigma_rock": 0.771, "ln_sigma_soil": 0.7623, "ln_bias": 1.6864, "ln_bias_sigma": 0.1592}, {"name": "pga", "value": 1.771, "value_rock": 1.5688, "value_soil": 2.3109, "units": "%g", "ln_tau": 0.0, "ln_phi": 0.5662, "ln_sigma": 0.5662, "ln_sigma_rock": 0.678, "ln_sigma_soil": 0.6715, "ln_bias": 1.2879, "ln_bias_sigma": 0.1319}, {"name": "mmi", "value": 3.6495, "value_rock": 3.5678, "value_soil": 3.8286, "units": "intensity", "tau": 0.0, "phi": 0.6702, "sigma": 0.6702, "sigma_rock": 0.8024, "sigma_soil": 0.8, "bias": 0.7483, "bias_sigma": 0.1391}], "mmi_from_pgm": [{"name": "sa(3.0)", "value": 4.24, "sigma": 0.89, "flag": "0"}, {"name": "sa(0.3)", "value": 4.73, "sigma": 0.82, "flag": "0"}, {"name": "pgv", "value": 4.46, "sigma": 0.63, "flag": "0"}, {"name": "sa(1.0)", "value": 5.28, "sigma": 0.75, "flag": "0"}, {"name": "pga", "value": null, "sigma": null, "flag": "0"}], "distance_stddev": 4.937, "distances": {"repi": 62.367, "rhypo": 63.347, "rjb": 58.182, "rjb_var": 14.923, "rrup": 59.448, "rrup_var": 24.378, "rx": 0.0, "ry0": 0.0, "rvolc": 0.0}}, "geometry": {"type": "Point", "coordinates": [14.7547, 37.1636]}}, {"type": "Feature", "id": "ITACA.NOT", "properties": {"code": "NOT", "name": "NOT", "instrumentType": "UNK", "source": "ITACA", "network": "ITACA", "commType": "UNK", "location": "", "intensity": "null", "intensity_flag": "", "intensity_stddev": "null", "pga": 9.05, "pgv": "null", "distance": 52.557, "elev": null, "vs30": 503.95, "channels": [{"name": "UP", "amplitudes": [{"name": "sa(1.0)", "value": 3.809, "units": "%g", "flag": "UnknownOrientation,0", "ln_sigma": 0.0}, {"name": "pgv", "value": 2.3624, "units": "cm/s", "flag": "UnknownOrientation,0,Outlier", "ln_sigma": 0.0}, {"name": "sa(3.0)", "value": 0.246, "units": "%g", "flag": "UnknownOrientation,0", "ln_sigma": 0.0}, {"name": "pga", "value": "null", "units": "%g", "flag": "G,UnknownOrientation,0", "ln_sigma": "null"}, {"name": "sa(0.3)", "value": 7.032, "units": "%g", "flag": "UnknownOrientation,0", "ln_sigma": 0.0}]}, {"name": "WE", "amplitudes": [{"name": "sa(1.0)", "value": 6.972, "units": "%g", "flag": "0", "ln_sigma": 0.0}, {"name": "pgv", "value": "null", "units": "cm/s", "flag": "Glitch,0,Outlier", "ln_sigma": "null"}, {"name": "sa(3.0)", "value": 0.587, "units": "%g", "flag": "0", "ln_sigma": 0.0}, {"name": "pga", "value": 9.05, "units": "%g", "flag": "0", "ln_sigma": 0.0}, {"name": "sa(0.3)", "value": 16.156, "units": "%g", "flag": "0", "ln_sigma": 0.0}]}, {"name": "NS", "amplitudes": [{"name": "sa(1.0)", "value": 10.36, "units": "%g", "flag": "UnknownOrientation,0", "ln_sigma": 0.0}, {"name": "pgv", "value": 3.3535, "units": "cm/s", "flag": "UnknownOrientation,0,Outlier", "ln_sigma": 0.0}, {"name": "sa(3.0)", "value": 0.513, "units": "%g", "flag": "UnknownOrientation,0", "ln_sigma": 0.0}, {"name": "pga", "value": "null", "units": "%g", "flag": "G,UnknownOrientation,0", "ln_sigma": "null"}, {"name": "sa(0.3)", "value": 10.685, "units": "%g", "flag": "UnknownOrientation,0", "ln_sigma": 0.0}]}], "station_type": "seismic", "nresp": "null", "predictions": [{"name": "sa(3.0)", "value": 0.1476, "value_rock": 0.1173, "value_soil": 0.2925, "units": "%g", "ln_tau": 0.0, "ln_phi": 0.6405, "ln_sigma": 0.6405, "ln_sigma_rock": 0.7669, "ln_sigma_soil": 0.7539, "ln_bias": 1.6431, "ln_bias_sigma": 0.1741}, {"name": "sa(0.3)", "value": 4.2341, "value_rock": 3.1256, "value_soil": 6.7833, "units": "%g", "ln_tau": 0.0, "ln_phi": 0.6143, "ln_sigma": 0.6143, "ln_sigma_rock": 0.7357, "ln_sigma_soil": 0.7306, "ln_bias": 1.2719, "ln_bias_sigma": 0.1431}, {"name": "pgv", "value": 0.9321, "value_rock": 0.7304, "value_soil": 1.7867, "units": "cm/s", "ln_tau": 0.0, "ln_phi": 0.6791, "ln_sigma": 0.6791, "ln_sigma_rock": 0.8131, "ln_sigma_soil": 0.8045, "ln_bias": 1.7436, "ln_bias_sigma": 0.1611}, {"name": "sa(1.0)", "value": 0.9886, "value_rock": 0.7357, "value_soil": 2.1403, "units": "%g", "ln_tau": 0.0, "ln_phi": 0.6456, "ln_sigma": 0.6456, "ln_sigma_rock": 0.773, "ln_sigma_soil": 0.7642, "ln_bias": 1.6877, "ln_bias_sigma": 0.1593}, {"name": "pga", "value": 2.2371, "value_rock": 1.9128, "value_soil": 2.8046, "units": "%g", "ln_tau": 0.0, "ln_phi": 0.5683, "ln_sigma": 0.5683, "ln_sigma_rock": 0.6806, "ln_sigma_soil": 0.6738, "ln_bias": 1.2891, "ln_bias_sigma": 0.1319}, {"name": "mmi", "value": 3.7521, "value_rock": 3.6467, "value_soil": 3.9043, "units": "intensity", "tau": 0.0, "phi": 0.6709, "sigma": 0.6709, "sigma_rock": 0.8034, "sigma_soil": 0.8008, "bias": 0.7485, "bias_sigma": 0.1391}], "mmi_from_pgm": [{"name": "sa(3.0)", "value": 4.45, "sigma": 0.89, "flag": "0"}, {"name": "sa(0.3)", "value": 4.96, "sigma": 0.82, "flag": "0"}, {"name": "pgv", "value": null, "sigma": null, "flag": "0"}, {"name": "sa(1.0)", "value": 5.32, "sigma": 0.75, "flag": "0"}, {"name": "pga", "value": 5.5, "sigma": 0.66, "flag": "0"}], "distance_stddev": 5.014, "distances": {"repi": 55.257, "rhypo": 56.361, "rjb": 51.102, "rjb_var": 14.826, "rrup": 52.557, "rrup_var": 25.137, "rx": 0.0, "ry0": 0.0, "rvolc": 0.0}}, "geometry": {"type": "Point", "coordinates": [15.0683, 36.9]}}, {"type": "Feature", "id": "G.LCT", "properties": {"code": "LCT", "name": "Licata", "instrumentType": "UNK", "source": "G", "network": "G", "commType": "UNK", "location": "", "intensity": 4.4, "intensity_flag": "", "intensity_stddev": 0.63, "pga": "null", "pgv": "null", "distance": 131.368, "elev": null, "vs30": 425.09, "channels": [{"name": "N", "amplitudes": [{"name": "sa(1.0)", "value": 1.2245, "units": "%g", "flag": "0", "ln_sigma": 0.0}, {"name": "pgv", "value": 1.69, "units": "cm/s", "flag": "Outlier", "ln_sigma": 0.0}, {"name": "sa(3.0)", "value": 0.15, "units": "%g", "flag": "0", "ln_sigma": 0.0}, {"name": "pga", "value": 2.5408, "units": "%g", "flag": "Outlier", "ln_sigma": 0.0}, {"name": "sa(0.3)", "value": 7.4796, "units": "%g", "flag": "Outlier", "ln_sigma": 0.0}]}, {"name": "Z", "amplitudes": [{"name": "sa(1.0)", "value": 0.5469, "units": "%g", "flag": "0", "ln_sigma": 0.0}, {"name": "pgv", "value": 0.527, "units": "cm/s", "flag": "Outlier", "ln_sigma": 0.0}, {"name": "sa(3.0)", "value": 0.1459, "units": "%g", "flag": "0", "ln_sigma": 0.0}, {"name": "pga", "value": 0.9582, "units": "%g", "flag": "Outlier", "ln_sigma": 0.0}, {"name": "sa(0.3)", "value": 3.1531, "units": "%g", "flag": "Outlier", "ln_sigma": 0.0}]}, {"name": "E", "amplitudes": [{"name": "sa(1.0)", "value": 1.9592, "units": "%g", "flag": "0", "ln_sigma": 0.0}, {"name": "pgv", "value": 3.05, "units": "cm/s", "flag": "Outlier", "ln_sigma": 0.0}, {"name": "sa(3.0)", "value": 0.3531, "units": "%g", "flag": "0", "ln_sigma": 0.0}, {"name": "pga", "value": 4.0306, "units": "%g", "flag": "Outlier", "ln_sigma": 0.0}, {"name": "sa(0.3)", "value": 9.8673, "units": "%g", "flag": "Outlier", "ln_sigma": 0.0}]}], "station_type": "seismic", "nresp": "null", "predictions": [{"name": "sa(3.0)", "value": 0.0484, "value_rock": 0.0358, "value_soil": 0.092, "units": "%g", "ln_tau": 0.0, "ln_phi": 0.635, "ln_sigma": 0.635, "ln_sigma_rock": 0.7603, "ln_sigma_soil": 0.7474, "ln_bias": 1.6382, "ln_bias_sigma": 0.1738}, {"name": "sa(0.3)", "value": 1.018, "value_rock": 0.7026, "value_soil": 1.5586, "units": "%g", "ln_tau": 0.0, "ln_phi": 0.6079, "ln_sigma": 0.6079, "ln_sigma_rock": 0.7279, "ln_sigma_soil": 0.7246, "ln_bias": 1.2685, "ln_bias_sigma": 0.1429}, {"name": "pgv", "value": 0.2608, "value_rock": 0.1911, "value_soil": 0.482, "units": "cm/s", "ln_tau": 0.0, "ln_phi": 0.6733, "ln_sigma": 0.6733, "ln_sigma_rock": 0.8062, "ln_sigma_soil": 0.7981, "ln_bias": 1.7398, "ln_bias_sigma": 0.1609}, {"name": "sa(1.0)", "value": 0.2939, "value_rock": 0.2003, "value_soil": 0.6029, "units": "%g", "ln_tau": 0.0, "ln_phi": 0.6396, "ln_sigma": 0.6396, "ln_sigma_rock": 0.7659, "ln_sigma_soil": 0.7576, "ln_bias": 1.6833, "ln_bias_sigma": 0.1591}, {"name": "pga", "value": 0.4782, "value_rock": 0.394, "value_soil": 0.5908, "units": "%g", "ln_tau": 0.0, "ln_phi": 0.5603, "ln_sigma": 0.5603, "ln_sigma_rock": 0.6709, "ln_sigma_soil": 0.6655, "ln_bias": 1.2845, "ln_bias_sigma": 0.1317}, {"name": "mmi", "value": 3.1193, "value_rock": 2.989, "value_soil": 3.2617, "units": "intensity", "tau": 0.0, "phi": 0.6679, "sigma": 0.6679, "sigma_rock": 0.7997, "sigma_soil": 0.7977, "bias": 0.7478, "bias_sigma": 0.139}], "mmi_from_pgm": [{"name": "sa(3.0)", "value": 3.97, "sigma": 0.89, "flag": "0"}, {"name": "sa(0.3)", "value": 4.84, "sigma": 0.82, "flag": "Outlier"}, {"name": "pgv", "value": 4.38, "sigma": 0.63, "flag": "Outlier"}, {"name": "sa(1.0)", "value": 4.05, "sigma": 0.75, "flag": "0"}, {"name": "pga", "value": 4.61, "sigma": 0.66, "flag": "Outlier"}], "distance_stddev": 4.511, "distances": {"repi": 135.407, "rhypo": 135.861, "rjb": 131.095, "rjb_var": 15.27, "rrup": 131.368, "rrup_var": 20.353, "rx": 0.0, "ry0": 0.0, "rvolc": 0.0}}, "geometry": {"type": "Point", "coordinates": [13.928, 37.109]}}, {"type": "Feature", "id": "ITACA.CAT", "properties": {"code": "CAT", "name": "CAT", "instrumentType": "UNK", "source": "ITACA", "network": "ITACA", "commType": "UNK", "location": "", "intensity": 6.2, "intensity_flag": "", "intensity_stddev": 0.63, "pga": "null", "pgv": 11.9057, "distance": 36.256, "elev": null, "vs30": 262.87, "channels": [{"name": "UP", "amplitudes": [{"name": "sa(1.0)", "value": 2.67, "units": "%g", "flag": "UnknownOrientation,0", "ln_sigma": 0.0}, {"name": "pgv", "value": "null", "units": "cm/s", "flag": "G,UnknownOrientation,0", "ln_sigma": "null"}, {"name": "sa(3.0)", "value": 0.892, "units": "%g", "flag": "UnknownOrientation,0", "ln_sigma": 0.0}, {"name": "pga", "value": "null", "units": "%g", "flag": "G,UnknownOrientation,0,Outlier", "ln_sigma": "null"}, {"name": "sa(0.3)", "value": 8.875, "units": "%g", "flag": "UnknownOrientation,0", "ln_sigma": 0.0}]}, {"name": "WE", "amplitudes": [{"name": "sa(1.0)", "value": 8.936, "units": "%g", "flag": "0", "ln_sigma": 0.0}, {"name": "pgv", "value": 11.9057, "units": "cm/s", "flag": "0", "ln_sigma": 0.0}, {"name": "sa(3.0)", "value": 1.097, "units": "%g", "flag": "0", "ln_sigma": 0.0}, {"name": "pga", "value": "null", "units": "%g", "flag": "Glitch,0,Outlier", "ln_sigma": "null"}, {"name": "sa(0.3)", "value": 28.417, "units": "%g", "flag": "0", "ln_sigma": 0.0}]}, {"name": "NS", "amplitudes": [{"name": "sa(1.0)", "value": 7.733, "units": "%g", "flag": "UnknownOrientation,0", "ln_sigma": 0.0}, {"name": "pgv", "value": 9.2452, "units": "cm/s", "flag": "UnknownOrientation,0", "ln_sigma": 0.0}, {"name": "sa(3.0)", "value": 0.827, "units": "%g", "flag": "UnknownOrientation,0", "ln_sigma": 0.0}, {"name": "pga", "value": "null", "units": "%g", "flag": "G,UnknownOrientation,0,Outlier", "ln_sigma": "null"}, {"name": "sa(0.3)", "value": 39.695, "units": "%g", "flag": "UnknownOrientation,0", "ln_sigma": 0.0}]}], "station_type": "seismic", "nresp": "null", "predictions": [{"name": "sa(3.0)", "value": 0.3564, "value_rock": 0.1858, "value_soil": 0.457, "units": "%g", "ln_tau": 0.0, "ln_phi": 0.637, "ln_sigma": 0.637, "ln_sigma_rock": 0.7757, "ln_sigma_soil": 0.7626, "ln_bias": 1.64, "ln_bias_sigma": 0.1739}, {"name": "sa(0.3)", "value": 10.1623, "value_rock": 5.3877, "value_soil": 11.4219, "units": "%g", "ln_tau": 0.0, "ln_phi": 0.6193, "ln_sigma": 0.6193, "ln_sigma_rock": 0.746, "ln_sigma_soil": 0.7388, "ln_bias": 1.2745, "ln_bias_sigma": 0.1432}, {"name": "pgv", "value": 2.4369, "value_rock": 1.219, "value_soil": 2.9315, "units": "cm/s", "ln_tau": 0.0, "ln_phi": 0.6806, "ln_sigma": 0.6806, "ln_sigma_rock": 0.8226, "ln_sigma_soil": 0.8133, "ln_bias": 1.7446, "ln_bias_sigma": 0.1611}, {"name": "sa(1.0)", "value": 2.7484, "value_rock": 1.2085, "value_soil": 3.4452, "units": "%g", "ln_tau": 0.0, "ln_phi": 0.6466, "ln_sigma": 0.6466, "ln_sigma_rock": 0.7826, "ln_sigma_soil": 0.7732, "ln_bias": 1.6884, "ln_bias_sigma": 0.1593}, {"name": "pga", "value": 4.4894, "value_rock": 3.4011, "value_soil": 4.8962, "units": "%g", "ln_tau": 0.0, "ln_phi": 0.5732, "ln_sigma": 0.5732, "ln_sigma_rock": 0.6925, "ln_sigma_soil": 0.6841, "ln_bias": 1.2918, "ln_bias_sigma": 0.1321}, {"name": "mmi", "value": 4.2108, "value_rock": 3.8697, "value_soil": 4.3502, "units": "intensity", "tau": 0.0, "phi": 1.0734, "sigma": 1.0734, "sigma_rock": 0.808, "sigma_soil": 1.2822, "bias": 0.7966, "bias_sigma": 0.1435}], "mmi_from_pgm": [{"name": "sa(3.0)", "value": 4.94, "sigma": 0.89, "flag": "0"}, {"name": "sa(0.3)", "value": 5.86, "sigma": 0.82, "flag": "0"}, {"name": "pgv", "value": 6.18, "sigma": 0.63, "flag": "0"}, {"name": "sa(1.0)", "value": 5.72, "sigma": 0.75, "flag": "0"}, {"name": "pga", "value": null, "sigma": null, "flag": "0"}], "distance_stddev": 5.189, "distances": {"repi": 38.242, "rhypo": 39.82, "rjb": 34.198, "rjb_var": 14.379, "rrup": 36.256, "rrup_var": 26.931, "rx": 0.0, "ry0": 0.0, "rvolc": 0.0}}, "geometry": {"type": "Point", "coordinates": [15.0467, 37.4469]}}, {"type": "Feature", "id": "ITACA.GRR", "properties": {"code": "GRR", "name": "GRR", "instrumentType": "UNK", "source": "ITACA", "network": "ITACA", "commType": "UNK", "location": "", "intensity": "null", "intensity_flag": "", "intensity_stddev": "null", "pga": 3.561, "pgv": "null", "distance": 50.602, "elev": null, "vs30": 537.47, "channels": [{"name": "UP", "amplitudes": [{"name": "sa(1.0)", "value": 0.603, "units": "%g", "flag": "UnknownOrientation,0", "ln_sigma": 0.0}, {"name": "pgv", "value": "null", "units": "cm/s", "flag": "G,UnknownOrientation,0,Outlier", "ln_sigma": "null"}, {"name": "sa(3.0)", "value": 0.101, "units": "%g", "flag": "UnknownOrientation,0", "ln_sigma": 0.0}, {"name": "pga", "value": 1.496, "units": "%g", "flag": "UnknownOrientation,0", "ln_sigma": 0.0}, {"name": "sa(0.3)", "value": 4.985, "units": "%g", "flag": "UnknownOrientation,0", "ln_sigma": 0.0}]}, {"name": "WE", "amplitudes": [{"name": "sa(1.0)", "value": 1.763, "units": "%g", "flag": "0", "ln_sigma": 0.0}, {"name": "pgv", "value": "null", "units": "cm/s", "flag": "Glitch,0,Outlier", "ln_sigma": "null"}, {"name": "sa(3.0)", "value": 0.321, "units": "%g", "flag": "0", "ln_sigma": 0.0}, {"name": "pga", "value": 3.561, "units": "%g", "flag": "0", "ln_sigma": 0.0}, {"name": "sa(0.3)", "value": 7.184, "units": "%g", "flag": "0", "ln_sigma": 0.0}]}, {"name": "NS", "amplitudes": [{"name": "sa(1.0)", "value": 2.098, "units": "%g", "flag": "UnknownOrientation,0", "ln_sigma": 0.0}, {"name": "pgv", "value": 2.0719, "units": "cm/s", "flag": "UnknownOrientation,0,Outlier", "ln_sigma": 0.0}, {"name": "sa(3.0)", "value": 0.249, "units": "%g", "flag": "UnknownOrientation,0", "ln_sigma": 0.0}, {"name": "pga", "value": 3.871, "units": "%g", "flag": "UnknownOrientation,0", "ln_sigma": 0.0}, {"name": "sa(0.3)", "value": 7.129, "units": "%g", "flag": "UnknownOrientation,0", "ln_sigma": 0.0}]}], "station_type": "seismic", "nresp": "null", "predictions": [{"name": "sa(3.0)", "value": 0.1506, "value_rock": 0.123, "value_soil": 0.3063, "units": "%g", "ln_tau": 0.0, "ln_phi": 0.641, "ln_sigma": 0.641, "ln_sigma_rock": 0.7676, "ln_sigma_soil": 0.7546, "ln_bias": 1.6436, "ln_bias_sigma": 0.1741}, {"name": "sa(0.3)", "value": 4.3722, "value_rock": 3.3085, "value_soil": 7.1668, "units": "%g", "ln_tau": 0.0, "ln_phi": 0.615, "ln_sigma": 0.615, "ln_sigma_rock": 0.7365, "ln_sigma_soil": 0.7312, "ln_bias": 1.2722, "ln_bias_sigma": 0.1431}, {"name": "pgv", "value": 0.9584, "value_rock": 0.7702, "value_soil": 1.8811, "units": "cm/s", "ln_tau": 0.0, "ln_phi": 0.6797, "ln_sigma": 0.6797, "ln_sigma_rock": 0.8138, "ln_sigma_soil": 0.8052, "ln_bias": 1.744, "ln_bias_sigma": 0.1611}, {"name": "sa(1.0)", "value": 1.0067, "value_rock": 0.7745, "value_soil": 2.249, "units": "%g", "ln_tau": 0.0, "ln_phi": 0.6462, "ln_sigma": 0.6462, "ln_sigma_rock": 0.7737, "ln_sigma_soil": 0.7649, "ln_bias": 1.6881, "ln_bias_sigma": 0.1593}, {"name": "pga", "value": 2.3448, "value_rock": 2.0315, "value_soil": 2.9741, "units": "%g", "ln_tau": 0.0, "ln_phi": 0.5691, "ln_sigma": 0.5691, "ln_sigma_rock": 0.6815, "ln_sigma_soil": 0.6746, "ln_bias": 1.2895, "ln_bias_sigma": 0.1319}, {"name": "mmi", "value": 3.767, "value_rock": 3.6705, "value_soil": 3.927, "units": "intensity", "tau": 0.0, "phi": 0.6712, "sigma": 0.6712, "sigma_rock": 0.8038, "sigma_soil": 0.8011, "bias": 0.7486, "bias_sigma": 0.1391}], "mmi_from_pgm": [{"name": "sa(3.0)", "value": 4.16, "sigma": 0.89, "flag": "0"}, {"name": "sa(0.3)", "value": 4.36, "sigma": 0.82, "flag": "0"}, {"name": "pgv", "value": null, "sigma": null, "flag": "0"}, {"name": "sa(1.0)", "value": 4.18, "sigma": 0.75, "flag": "0"}, {"name": "pga", "value": 4.05, "sigma": 0.66, "flag": "0"}], "distance_stddev": 5.036, "distances": {"repi": 53.236, "rhypo": 54.381, "rjb": 49.09, "rjb_var": 14.793, "rrup": 50.602, "rrup_var": 25.359, "rx": 0.0, "ry0": 0.0, "rvolc": 0.0}}, "geometry": {"type": "Point", "coordinates": [15.1628, 37.7261]}}, {"type": "Feature", "id": "ITACA.SRT", "properties": {"code": "SRT", "name": "SRT", "instrumentType": "UNK", "source": "ITACA", "network": "ITACA", "commType": "UNK", "location": "", "intensity": 5.4, "intensity_flag": "", "intensity_stddev": 0.63, "pga": 10.783, "pgv": 6.9099, "distance": 37.153, "elev": null,