{
    "type": "FeatureCollection",
    "features": [
        {
            "type": "Feature",
            "id": "INTENSITY.OBS_13",
            "properties": {
                "code": "OBS_13",
                "name": "El (Intensity VI)",
                "instrumentType": "OBSERVED",
                "source": "INTENSITY",
                "network": "INTENSITY",
                "commType": "UNK",
                "location": "",
                "intensity": 6.0,
                "intensity_flag": "0",
                "intensity_stddev": 0.3,
                "pga": 12.8263,
                "pgv": 10.7089,
                "distance": 49.316,
                "elev": null,
                "vs30": 240.87,
                "channels": [],
                "nresp": -1,
                "station_type": "macroseismic",
                "predictions": [
                    {
                        "name": "mmi",
                        "value": 4.5524,
                        "value_rock": 4.0911,
                        "value_soil": 4.7002,
                        "units": "intensity",
                        "tau": 0.46,
                        "phi": 0.9597,
                        "sigma": 1.0642,
                        "sigma_rock": 0.7527,
                        "sigma_soil": 1.0666,
                        "bias": 0.9482,
                        "bias_sigma": 0.2581
                    },
                    {
                        "name": "pga",
                        "value": 6.6265,
                        "value_rock": 4.7489,
                        "value_soil": 7.0302,
                        "units": "%g",
                        "ln_tau": 0.3494,
                        "ln_phi": 0.5258,
                        "ln_sigma": 0.6313,
                        "ln_sigma_rock": 0.6569,
                        "ln_sigma_soil": 0.6256,
                        "ln_bias": 0.3911,
                        "ln_bias_sigma": 0.2042
                    },
                    {
                        "name": "sa(0.3)",
                        "value": 13.3742,
                        "value_rock": 6.4587,
                        "value_soil": 14.8868,
                        "units": "%g",
                        "ln_tau": 0.3263,
                        "ln_phi": 0.585,
                        "ln_sigma": 0.6699,
                        "ln_sigma_rock": 0.6971,
                        "ln_sigma_soil": 0.6625,
                        "ln_bias": 0.4001,
                        "ln_bias_sigma": 0.2194
                    },
                    {
                        "name": "sa(1.0)",
                        "value": 3.9482,
                        "value_rock": 1.4571,
                        "value_soil": 4.6402,
                        "units": "%g",
                        "ln_tau": 0.3692,
                        "ln_phi": 0.624,
                        "ln_sigma": 0.725,
                        "ln_sigma_rock": 0.7357,
                        "ln_sigma_soil": 0.7261,
                        "ln_bias": 0.6102,
                        "ln_bias_sigma": 0.2444
                    },
                    {
                        "name": "sa(3.0)",
                        "value": 0.5691,
                        "value_rock": 0.2162,
                        "value_soil": 0.6849,
                        "units": "%g",
                        "ln_tau": 0.3965,
                        "ln_phi": 0.6013,
                        "ln_sigma": 0.7202,
                        "ln_sigma_rock": 0.7302,
                        "ln_sigma_soil": 0.7301,
                        "ln_bias": 0.7385,
                        "ln_bias_sigma": 0.2796
                    },
                    {
                        "name": "pgv",
                        "value": 3.7294,
                        "value_rock": 2.0399,
                        "value_soil": 4.1534,
                        "units": "cm/s",
                        "ln_tau": 0.3352,
                        "ln_phi": 0.5275,
                        "ln_sigma": 0.625,
                        "ln_sigma_rock": 0.6452,
                        "ln_sigma_soil": 0.6272,
                        "ln_bias": 0.5793,
                        "ln_bias_sigma": 0.2104
                    }
                ],
                "pgm_from_mmi": [
                    {
                        "name": "sa(1.0)",
                        "value": 12.3489,
                        "units": "%g",
                        "ln_sigma": 1.0822,
                        "flag": "0"
                    },
                    {
                        "name": "pgv",
                        "value": 10.7089,
                        "units": "cm/s",
                        "ln_sigma": 0.875,
                        "flag": "0"
                    },
                    {
                        "name": "sa(0.3)",
                        "value": 29.3957,
                        "units": "%g",
                        "ln_sigma": 1.0131,
                        "flag": "0"
                    },
                    {
                        "name": "sa(3.0)",
                        "value": 2.6993,
                        "units": "%g",
                        "ln_sigma": 1.4737,
                        "flag": "0"
                    },
                    {
                        "name": "pga",
                        "value": 12.8263,
                        "units": "%g",
                        "ln_sigma": 0.8059,
                        "flag": "0"
                    }
                ],
                "distance_stddev": 0.0,
                "distances": {
                    "repi": 48.201,
                    "rhypo": 52.778,
                    "rjb": 44.214,
                    "rjb_var": 0.0,
                    "rrup": 49.316,
                    "rrup_var": 0.0,
                    "rx": 55.245,
                    "ry0": 11.724
                }
            },
            "geometry": {
                "type": "Point",
                "coordinates": [
                    30.9,
                    29.4
                ]
            }
        },
        {
            "type": "Feature",
            "id": "INTENSITY.BMOBS_6",
            "properties": {
                "code": "BMOBS_6",
                "name": "Unknown",
                "instrumentType": "OBSERVED",
                "source": "INTENSITY",
                "network": "INTENSITY",
                "commType": "UNK",
                "location": "",
                "intensity": 7.0,
                "intensity_flag": "0",
                "intensity_stddev": 0.3,
                "pga": 26.7647,
                "pgv": 22.1923,
                "distance": 32.7,
                "elev": null,
                "vs30": 295.12,
                "channels": [],
                "nresp": -1,
                "station_type": "macroseismic",
                "predictions": [
                    {
                        "name": "mmi",
                        "value": 5.1759,
                        "value_rock": 4.4856,
                        "value_soil": 5.3794,
                        "units": "intensity",
                        "tau": 0.4604,
                        "phi": 0.9694,
                        "sigma": 1.0732,
                        "sigma_rock": 1.0867,
                        "sigma_soil": 1.062,
                        "bias": 0.9488,
                        "bias_sigma": 0.2581
                    },
                    {
                        "name": "pga",
                        "value": 11.1041,
                        "value_rock": 8.6918,
                        "value_soil": 11.8346,
                        "units": "%g",
                        "ln_tau": 0.3476,
                        "ln_phi": 0.5323,
                        "ln_sigma": 0.6358,
                        "ln_sigma_rock": 0.6566,
                        "ln_sigma_soil": 0.6126,
                        "ln_bias": 0.3897,
                        "ln_bias_sigma": 0.2038
                    },
                    {
                        "name": "sa(0.3)",
                        "value": 20.1354,
                        "value_rock": 11.3417,
                        "value_soil": 23.125,
                        "units": "%g",
                        "ln_tau": 0.3254,
                        "ln_phi": 0.5898,
                        "ln_sigma": 0.6736,
                        "ln_sigma_rock": 0.6969,
                        "ln_sigma_soil": 0.6461,
                        "ln_bias": 0.3991,
                        "ln_bias_sigma": 0.2192
                    },
                    {
                        "name": "sa(1.0)",
                        "value": 5.7182,
                        "value_rock": 2.4699,
                        "value_soil": 7.5073,
                        "units": "%g",
                        "ln_tau": 0.3695,
                        "ln_phi": 0.6266,
                        "ln_sigma": 0.7275,
                        "ln_sigma_rock": 0.7357,
                        "ln_sigma_soil": 0.7219,
                        "ln_bias": 0.6107,
                        "ln_bias_sigma": 0.2446
                    },
                    {
                        "name": "sa(3.0)",
                        "value": 0.8282,
                        "value_rock": 0.3581,
                        "value_soil": 1.1258,
                        "units": "%g",
                        "ln_tau": 0.3964,
                        "ln_phi": 0.6012,
                        "ln_sigma": 0.7202,
                        "ln_sigma_rock": 0.7302,
                        "ln_sigma_soil": 0.73,
                        "ln_bias": 0.7385,
                        "ln_bias_sigma": 0.2796
                    },
                    {
                        "name": "pgv",
                        "value": 5.8744,
                        "value_rock": 3.5523,
                        "value_soil": 6.8132,
                        "units": "cm/s",
                        "ln_tau": 0.3355,
                        "ln_phi": 0.5368,
                        "ln_sigma": 0.633,
                        "ln_sigma_rock": 0.6452,
                        "ln_sigma_soil": 0.623,
                        "ln_bias": 0.5797,
                        "ln_bias_sigma": 0.2105
                    }
                ],
                "pgm_from_mmi": [
                    {
                        "name": "sa(1.0)",
                        "value": 25.4863,
                        "units": "%g",
                        "ln_sigma": 1.0822,
                        "flag": "0"
                    },
                    {
                        "name": "pgv",
                        "value": 22.1923,
                        "units": "cm/s",
                        "ln_sigma": 0.875,
                        "flag": "0"
                    },
                    {
                        "name": "sa(0.3)",
                        "value": 54.4115,
                        "units": "%g",
                        "ln_sigma": 1.0131,
                        "flag": "0"
                    },
                    {
                        "name": "sa(3.0)",
                        "value": 5.3665,
                        "units": "%g",
                        "ln_sigma": 1.4737,
                        "flag": "0"
                    },
                    {
                        "name": "pga",
                        "value": 26.7647,
                        "units": "%g",
                        "ln_sigma": 0.8059,
                        "flag": "0"
                    }
                ],
                "distance_stddev": 0.0,
                "distances": {
                    "repi": 30.59,
                    "rhypo": 37.39,
                    "rjb": 24.235,
                    "rjb_var": 0.0,
                    "rrup": 32.7,
                    "rrup_var": 0.0,
                    "rx": 36.55,
                    "ry0": 0.0
                }
            },
            "geometry": {
                "type": "Point",
                "coordinates": [
                    31.13565,
                    29.50299
                ]
            }
        },
        {
            "type": "Feature",
            "id": "INTENSITY.OBS_2",
            "properties": {
                "code": "OBS_2",
                "name": "El (Intensity VII)",
                "instrumentType": "OBSERVED",
                "source": "INTENSITY",
                "network": "INTENSITY",
                "commType": "UNK",
                "location": "",
                "intensity": 7.0,
                "intensity_flag": "0",
                "intensity_stddev": 0.3,
                "pga": 34.5435,
                "pgv": 22.1923,
                "distance": 12.96,
                "elev": null,
                "vs30": 236.17,
                "channels": [],
                "nresp": -1,
                "station_type": "macroseismic",
                "predictions": [
                    {
                        "name": "mmi",
                        "value": 6.7435,
                        "value_rock": 6.1391,
                        "value_soil": 6.7464,
                        "units": "intensity",
                        "tau": 0.4489,
                        "phi": 0.9511,
                        "sigma": 1.0517,
                        "sigma_rock": 1.0867,
                        "sigma_soil": 1.0492,
                        "bias": 0.9336,
                        "bias_sigma": 0.2561
                    },
                    {
                        "name": "pga",
                        "value": 30.9942,
                        "value_rock": 29.1202,
                        "value_soil": 29.6697,
                        "units": "%g",
                        "ln_tau": 0.3185,
                        "ln_phi": 0.5026,
                        "ln_sigma": 0.595,
                        "ln_sigma_rock": 0.6556,
                        "ln_sigma_soil": 0.5796,
                        "ln_bias": 0.3657,
                        "ln_bias_sigma": 0.1974
                    },
                    {
                        "name": "sa(0.3)",
                        "value": 50.7725,
                        "value_rock": 35.596,
                        "value_soil": 46.3317,
                        "units": "%g",
                        "ln_tau": 0.2914,
                        "ln_phi": 0.5545,
                        "ln_sigma": 0.6264,
                        "ln_sigma_rock": 0.6967,
                        "ln_sigma_soil": 0.6038,
                        "ln_bias": 0.3589,
                        "ln_bias_sigma": 0.2078
                    },
                    {
                        "name": "sa(1.0)",
                        "value": 18.3427,
                        "value_rock": 7.5155,
                        "value_soil": 19.2709,
                        "units": "%g",
                        "ln_tau": 0.3612,
                        "ln_phi": 0.6161,
                        "ln_sigma": 0.7142,
                        "ln_sigma_rock": 0.7357,
                        "ln_sigma_soil": 0.7087,
                        "ln_bias": 0.5985,
                        "ln_bias_sigma": 0.2421
                    },
                    {
                        "name": "sa(3.0)",
                        "value": 2.7474,
                        "value_rock": 1.046,
                        "value_soil": 3.231,
                        "units": "%g",
                        "ln_tau": 0.3963,
                        "ln_phi": 0.6011,
                        "ln_sigma": 0.7199,
                        "ln_sigma_rock": 0.7301,
                        "ln_sigma_soil": 0.7298,
                        "ln_bias": 0.7381,
                        "ln_bias_sigma": 0.2795
                    },
                    {
                        "name": "pgv",
                        "value": 18.4084,
                        "value_rock": 11.8515,
                        "value_soil": 18.4486,
                        "units": "cm/s",
                        "ln_tau": 0.3271,
                        "ln_phi": 0.5192,
                        "ln_sigma": 0.6136,
                        "ln_sigma_rock": 0.6452,
                        "ln_sigma_soil": 0.6113,
                        "ln_bias": 0.5681,
                        "ln_bias_sigma": 0.2084
                    }
                ],
                "pgm_from_mmi": [
                    {
                        "name": "sa(1.0)",
                        "value": 21.7968,
                        "units": "%g",
                        "ln_sigma": 1.0822,
                        "flag": "0"
                    },
                    {
                        "name": "pgv",
                        "value": 22.1923,
                        "units": "cm/s",
                        "ln_sigma": 0.875,
                        "flag": "0"
                    },
                    {
                        "name": "sa(0.3)",
                        "value": 62.2218,
                        "units": "%g",
                        "ln_sigma": 1.0131,
                        "flag": "0"
                    },
                    {
                        "name": "sa(3.0)",
                        "value": 4.5038,
                        "units": "%g",
                        "ln_sigma": 1.4737,
                        "flag": "0"
                    },
                    {
                        "name": "pga",
                        "value": 34.5435,
                        "units": "%g",
                        "ln_sigma": 0.8059,
                        "flag": "0"
                    }
                ],
                "distance_stddev": 0.0,
                "distances": {
                    "repi": 15.252,
                    "rhypo": 26.36,
                    "rjb": 2.254,
                    "rjb_var": 0.0,
                    "rrup": 12.96,
                    "rrup_var": 0.0,
                    "rx": 0.052,
                    "ry0": 2.255
                }
            },
            "geometry": {
                "type": "Point",
                "coordinates": [
                    31.3,
                    29.8
                ]
            }
        },
        {
            "type": "Feature",
            "id": "INTENSITY.BMOBS_12",
            "properties": {
                "code": "BMOBS_12",
                "name": "Unknown",
                "instrumentType": "OBSERVED",
                "source": "INTENSITY",
                "network": "INTENSITY",
                "commType": "UNK",
                "location": "",
                "intensity": 6.0,
                "intensity_flag": "0",
                "intensity_stddev": 0.3,
                "pga": 14.3355,
                "pgv": 10.7089,
                "distance": 32.942,
                "elev": null,
                "vs30": 324.63,
                "channels": [],
                "nresp": -1,
                "station_type": "macroseismic",
                "predictions": [
                    {
                        "name": "mmi",
                        "value": 5.1172,
                        "value_rock": 4.4704,
                        "value_soil": 5.3661,
                        "units": "intensity",
                        "tau": 0.4616,
                        "phi": 0.971,
                        "sigma": 1.0751,
                        "sigma_rock": 1.0867,
                        "sigma_soil": 1.0621,
                        "bias": 0.9504,
                        "bias_sigma": 0.2584
                    },
                    {
                        "name": "pga",
                        "value": 10.8039,
                        "value_rock": 8.5881,
                        "value_soil": 11.717,
                        "units": "%g",
