{"type": "FeatureCollection", "features": [{"type": "Feature", "id": "G.FSM", "properties": {"code": "FSM", "name": "Foligno Santa Maria Infraportas-Base", "instrumentType": "UNK", "source": "G", "network": "G", "commType": "UNK", "location": "", "intensity": 3.9, "intensity_flag": "", "intensity_stddev": 0.63, "pga": 7.2347, "pgv": 1.3, "distance": 16.849, "elev": null, "vs30": 289.58, "channels": [{"name": "E", "amplitudes": [{"name": "sa(3.0)", "value": 0.2041, "units": "%g", "flag": "Outlier,0,Outlier", "ln_sigma": 0.0}, {"name": "sa(1.0)", "value": 1.449, "units": "%g", "flag": "0", "ln_sigma": 0.0}, {"name": "sa(0.3)", "value": 3.9184, "units": "%g", "flag": "0", "ln_sigma": 0.0}, {"name": "pgv", "value": 1.28, "units": "cm/s", "flag": "0", "ln_sigma": 0.0}, {"name": "pga", "value": 7.2347, "units": "%g", "flag": "0", "ln_sigma": 0.0}]}, {"name": "N", "amplitudes": [{"name": "sa(3.0)", "value": 0.2316, "units": "%g", "flag": "Outlier,0,Outlier", "ln_sigma": 0.0}, {"name": "sa(1.0)", "value": 1.3878, "units": "%g", "flag": "0", "ln_sigma": 0.0}, {"name": "sa(0.3)", "value": 3.449, "units": "%g", "flag": "0", "ln_sigma": 0.0}, {"name": "pgv", "value": 1.3, "units": "cm/s", "flag": "0", "ln_sigma": 0.0}, {"name": "pga", "value": 3.8265, "units": "%g", "flag": "0", "ln_sigma": 0.0}]}, {"name": "Z", "amplitudes": [{"name": "sa(3.0)", "value": 0.0669, "units": "%g", "flag": "Outlier,0,Outlier", "ln_sigma": 0.0}, {"name": "sa(1.0)", "value": 1.9082, "units": "%g", "flag": "0", "ln_sigma": 0.0}, {"name": "sa(0.3)", "value": 1.9082, "units": "%g", "flag": "0", "ln_sigma": 0.0}, {"name": "pgv", "value": 0.832, "units": "cm/s", "flag": "0", "ln_sigma": 0.0}, {"name": "pga", "value": 4.4082, "units": "%g", "flag": "0", "ln_sigma": 0.0}]}], "station_type": "seismic", "nresp": "null", "predictions": [{"name": "sa(3.0)", "value": 0.8205, "value_rock": 0.3846, "value_soil": 1.1782, "units": "%g", "ln_tau": 0.4397, "ln_phi": 0.6554, "ln_sigma": 0.7893, "ln_sigma_rock": 0.8011, "ln_sigma_soil": 0.8012, "ln_bias": 0.4113, "ln_bias_sigma": 0.229}, {"name": "sa(0.3)", "value": 21.1951, "value_rock": 11.2181, "value_soil": 25.3881, "units": "%g", "ln_tau": 0.3882, "ln_phi": 0.6645, "ln_sigma": 0.7696, "ln_sigma_rock": 0.7788, "ln_sigma_soil": 0.7621, "ln_bias": -0.2345, "ln_bias_sigma": 0.2025}, {"name": "sa(1.0)", "value": 5.8554, "value_rock": 2.3976, "value_soil": 8.4917, "units": "%g", "ln_tau": 0.4332, "ln_phi": 0.6757, "ln_sigma": 0.8026, "ln_sigma_rock": 0.812, "ln_sigma_soil": 0.807, "ln_bias": 0.1603, "ln_bias_sigma": 0.2187}, {"name": "pgv", "value": 5.4773, "value_rock": 2.859, "value_soil": 7.1885, "units": "cm/s", "ln_tau": 0.3943, "ln_phi": 0.6054, "ln_sigma": 0.7224, "ln_sigma_rock": 0.7303, "ln_sigma_soil": 0.7232, "ln_bias": 0.1837, "ln_bias_sigma": 0.1966}, {"name": "pga", "value": 10.7987, "value_rock": 8.0445, "value_soil": 11.6565, "units": "%g", "ln_tau": 0.4035, "ln_phi": 0.5946, "ln_sigma": 0.7186, "ln_sigma_rock": 0.728, "ln_sigma_soil": 0.7144, "ln_bias": -0.1218, "ln_bias_sigma": 0.1893}, {"name": "mmi", "value": 5.1339, "value_rock": 4.3606, "value_soil": 5.507, "units": "intensity", "tau": 0.5411, "phi": 1.0427, "sigma": 1.1747, "sigma_rock": 0.7838, "sigma_soil": 1.1755, "bias": 0.1461, "bias_sigma": 0.2944}], "mmi_from_pgm": [{"name": "sa(3.0)", "value": null, "sigma": null, "flag": "0"}, {"name": "sa(0.3)", "value": 3.62, "sigma": 0.82, "flag": "0"}, {"name": "sa(1.0)", "value": 4.31, "sigma": 0.75, "flag": "0"}, {"name": "pgv", "value": 3.86, "sigma": 0.63, "flag": "0"}, {"name": "pga", "value": 4.66, "sigma": 0.66, "flag": "0"}], "distance_stddev": 0.0, "distances": {"repi": 15.319, "rhypo": 18.294, "rjb": 15.492, "rjb_var": 0.0, "rrup": 16.849, "rrup_var": 0.0, "rx": 13.091, "ry0": 12.69, "rvolc": 0.0}}, "geometry": {"type": "Point", "coordinates": [12.704, 42.955]}}, {"type": "Feature", "id": "G.MTL", "properties": {"code": "MTL", "name": "Matelica", "instrumentType": "UNK", "source": "G", "network": "G", "commType": "UNK", "location": "", "intensity": 4.0, "intensity_flag": "", "intensity_stddev": 0.63, "pga": 2.5714, "pgv": 1.65, "distance": 33.043, "elev": null, "vs30": 383.74, "channels": [{"name": "E", "amplitudes": [{"name": "sa(3.0)", "value": 0.3133, "units": "%g", "flag": "0", "ln_sigma": 0.0}, {"name": "sa(1.0)", "value": 1.5612, "units": "%g", "flag": "0", "ln_sigma": 0.0}, {"name": "sa(0.3)", "value": 5.2653, "units": "%g", "flag": "0", "ln_sigma": 0.0}, {"name": "pgv", "value": 1.65, "units": "cm/s", "flag": "0", "ln_sigma": 0.0}, {"name": "pga", "value": 2.5714, "units": "%g", "flag": "0", "ln_sigma": 0.0}]}, {"name": "N", "amplitudes": [{"name": "sa(3.0)", "value": 0.4786, "units": "%g", "flag": "0", "ln_sigma": 0.0}, {"name": "sa(1.0)", "value": 1.551, "units": "%g", "flag": "0", "ln_sigma": 0.0}, {"name": "sa(0.3)", "value": 2.8265, "units": "%g", "flag": "0", "ln_sigma": 0.0}, {"name": "pgv", "value": 1.37, "units": "cm/s", "flag": "0", "ln_sigma": 0.0}, {"name": "pga", "value": 1.8878, "units": "%g", "flag": "0", "ln_sigma": 0.0}]}, {"name": "Z", "amplitudes": [{"name": "sa(3.0)", "value": 0.3286, "units": "%g", "flag": "0", "ln_sigma": 0.0}, {"name": "sa(1.0)", "value": 0.8724, "units": "%g", "flag": "0", "ln_sigma": 0.0}, {"name": "sa(0.3)", "value": 2.051, "units": "%g", "flag": "0", "ln_sigma": 0.0}, {"name": "pgv", "value": 1.0, "units": "cm/s", "flag": "0", "ln_sigma": 0.0}, {"name": "pga", "value": 1.4796, "units": "%g", "flag": "0", "ln_sigma": 0.0}]}], "station_type": "seismic", "nresp": "null", "predictions": [{"name": "sa(3.0)", "value": 0.3122, "value_rock": 0.1837, "value_soil": 0.5777, "units": "%g", "ln_tau": 0.4398, "ln_phi": 0.6554, "ln_sigma": 0.7893, "ln_sigma_rock": 0.8011, "ln_sigma_soil": 0.8012, "ln_bias": 0.4114, "ln_bias_sigma": 0.229}, {"name": "sa(0.3)", "value": 7.4784, "value_rock": 4.4927, "value_soil": 11.4853, "units": "%g", "ln_tau": 0.3919, "ln_phi": 0.6682, "ln_sigma": 0.7747, "ln_sigma_rock": 0.7789, "ln_sigma_soil": 0.7696, "ln_bias": -0.2357, "ln_bias_sigma": 0.203}, {"name": "sa(1.0)", "value": 1.9862, "value_rock": 1.0486, "value_soil": 3.9824, "units": "%g", "ln_tau": 0.4339, "ln_phi": 0.6765, "ln_sigma": 0.8037, "ln_sigma_rock": 0.812, "ln_sigma_soil": 0.8089, "ln_bias": 0.1605, "ln_bias_sigma": 0.2188}, {"name": "pgv", "value": 1.8832, "value_rock": 1.1889, "value_soil": 3.149, "units": "cm/s", "ln_tau": 0.3951, "ln_phi": 0.6067, "ln_sigma": 0.724, "ln_sigma_rock": 0.7303, "ln_sigma_soil": 0.7251, "ln_bias": 0.1839, "ln_bias_sigma": 0.1968}, {"name": "pga", "value": 4.107, "value_rock": 3.1732, "value_soil": 4.9861, "units": "%g", "ln_tau": 0.4068, "ln_phi": 0.5977, "ln_sigma": 0.723, "ln_sigma_rock": 0.7282, "ln_sigma_soil": 0.7203, "ln_bias": -0.1222, "ln_bias_sigma": 0.1897}, {"name": "mmi", "value": 4.0941, "value_rock": 3.8004, "value_soil": 4.4223, "units": "intensity", "tau": 0.2523, "phi": 0.7395, "sigma": 0.7814, "sigma_rock": 0.7838, "sigma_soil": 0.7818, "bias": 0.0707, "bias_sigma": 0.2048}], "mmi_from_pgm": [{"name": "sa(3.0)", "value": 4.48, "sigma": 0.89, "flag": "0"}, {"name": "sa(0.3)", "value": 4.02, "sigma": 0.82, "flag": "0"}, {"name": "sa(1.0)", "value": 4.22, "sigma": 0.75, "flag": "0"}, {"name": "pgv", "value": 4.01, "sigma": 0.63, "flag": "0"}, {"name": "pga", "value": 3.66, "sigma": 0.66, "flag": "0"}], "distance_stddev": 0.0, "distances": {"repi": 33.251, "rhypo": 34.722, "rjb": 32.962, "rjb_var": 0.0, "rrup": 33.043, "rrup_var": 0.0, "rx": -27.433, "ry0": 18.318, "rvolc": 0.0}}, "geometry": {"type": "Point", "coordinates": [13.007, 43.249]}}, {"type": "Feature", "id": "G.CAG", "properties": {"code": "CAG", "name": "Cassignano", "instrumentType": "UNK", "source": "G", "network": "G", "commType": "UNK", "location": "", "intensity": 4.3, "intensity_flag": "", "intensity_stddev": 0.63, "pga": 7.6327, "pgv": 2.43, "distance": 13.586, "elev": null, "vs30": 713.99, "channels": [{"name": "E", "amplitudes": [{"name": "sa(3.0)", "value": 0.2286, "units": "%g", "flag": "0", "ln_sigma": 0.0}, {"name": "sa(1.0)", "value": 1.1429, "units": "%g", "flag": "0", "ln_sigma": 0.0}, {"name": "sa(0.3)", "value": 8.1633, "units": "%g", "flag": "0", "ln_sigma": 0.0}, {"name": "pgv", "value": 2.43, "units": "cm/s", "flag": "0", "ln_sigma": 0.0}, {"name": "pga", "value": 7.2551, "units": "%g", "flag": "0", "ln_sigma": 0.0}]}, {"name": "N", "amplitudes": [{"name": "sa(3.0)", "value": 0.3337, "units": "%g", "flag": "0", "ln_sigma": 0.0}, {"name": "sa(1.0)", "value": 1.3163, "units": "%g", "flag": "0", "ln_sigma": 0.0}, {"name": "sa(0.3)", "value": 5.4388, "units": "%g", "flag": "0", "ln_sigma": 0.0}, {"name": "pgv", "value": 1.84, "units": "cm/s", "flag": "0", "ln_sigma": 0.0}, {"name": "pga", "value": 7.6327, "units": "%g", "flag": "0", "ln_sigma": 0.0}]}, {"name": "Z", "amplitudes": [{"name": "sa(3.0)", "value": 0.2225, "units": "%g", "flag": "0", "ln_sigma": 0.0}, {"name": "sa(1.0)", "value": 1.9898, "units": "%g", "flag": "0", "ln_sigma": 0.0}, {"name": "sa(0.3)", "value": 4.898, "units": "%g", "flag": "0", "ln_sigma": 0.0}, {"name": "pgv", "value": 1.23, "units": "cm/s", "flag": "0", "ln_sigma": 0.0}, {"name": "pga", "value": 3.7347, "units": "%g", "flag": "0", "ln_sigma": 0.0}]}], "station_type": "seismic", "nresp": "null", "predictions": [{"name": "sa(3.0)", "value": 0.4817, "value_rock": 0.4595, "value_soil": 1.3999, "units": "%g", "ln_tau": 0.4398, "ln_phi": 0.6554, "ln_sigma": 0.7893, "ln_sigma_rock": 0.8011, "ln_sigma_soil": 0.8012, "ln_bias": 0.4114, "ln_bias_sigma": 0.229}, {"name": "sa(0.3)", "value": 14.4679, "value_rock": 13.8741, "value_soil": 30.4421, "units": "%g", "ln_tau": 0.3928, "ln_phi": 0.669, "ln_sigma": 0.7758, "ln_sigma_rock": 0.7788, "ln_sigma_soil": 0.7595, "ln_bias": -0.236, "ln_bias_sigma": 0.2032}, {"name": "sa(1.0)", "value": 3.1091, "value_rock": 2.9392, "value_soil": 10.2401, "units": "%g", "ln_tau": 0.4341, "ln_phi": 0.6766, "ln_sigma": 0.8039, "ln_sigma_rock": 0.812, "ln_sigma_soil": 0.8063, "ln_bias": 0.1605, "ln_bias_sigma": 0.2188}, {"name": "pgv", "value": 3.6841, "value_rock": 3.5405, "value_soil": 8.7888, "units": "cm/s", "ln_tau": 0.3953, "ln_phi": 0.6068, "ln_sigma": 0.7242, "ln_sigma_rock": 0.7303, "ln_sigma_soil": 0.7224, "ln_bias": 0.1839, "ln_bias_sigma": 0.1968}, {"name": "pga", "value": 10.1334, "value_rock": 9.9228, "value_soil": 14.082, "units": "%g", "ln_tau": 0.4077, "ln_phi": 0.5984, "ln_sigma": 0.7241, "ln_sigma_rock": 0.728, "ln_sigma_soil": 0.7123, "ln_bias": -0.1223, "ln_bias_sigma": 0.1898}, {"name": "mmi", "value": 4.5896, "value_rock": 4.535, "value_soil": 5.7828, "units": "intensity", "tau": 0.5424, "phi": 1.0442, "sigma": 1.1767, "sigma_rock": 1.1838, "sigma_soil": 1.1747, "bias": 0.1463, "bias_sigma": 0.2946}], "mmi_from_pgm": [{"name": "sa(3.0)", "value": 4.52, "sigma": 0.89, "flag": "0"}, {"name": "sa(0.3)", "value": 4.11, "sigma": 0.82, "flag": "0"}, {"name": "sa(1.0)", "value": 4.3, "sigma": 0.75, "flag": "0"}, {"name": "pgv", "value": 4.26, "sigma": 0.63, "flag": "0"}, {"name": "pga", "value": 4.65, "sigma": 0.66, "flag": "0"}], "distance_stddev": 0.0, "distances": {"repi": 11.441, "rhypo": 15.195, "rjb": 13.375, "rjb_var": 0.0, "rrup": 13.586, "rrup_var": 0.0, "rx": -1.883, "ry0": 13.236, "rvolc": 0.0}}, "geometry": {"type": "Point", "coordinates": [12.829, 43.054]}}, {"type": "Feature", "id": "G.NCR", "properties": {"code": "NCR", "name": "Nocera Umbra", "instrumentType": "UNK", "source": "G", "network": "G", "commType": "UNK", "location": "", "intensity": 4.6, "intensity_flag": "", "intensity_stddev": 0.63, "pga": 13.9796, "pgv": 3.63, "distance": 20.926, "elev": null, "vs30": 409.09, "channels": [{"name": "E", "amplitudes": [{"name": "sa(3.0)", "value": 0.2326, "units": "%g", "flag": "0", "ln_sigma": 0.0}, {"name": "sa(1.0)", "value": 0.6735, "units": "%g", "flag": "0", "ln_sigma": 0.0}, {"name": "sa(0.3)", "value": 5.4796, "units": "%g", "flag": "0", "ln_sigma": 0.0}, {"name": "pgv", "value": 3.13, "units": "cm/s", "flag": "0", "ln_sigma": 0.0}, {"name": "pga", "value": 12.8571, "units": "%g", "flag": "0", "ln_sigma": 0.0}]}, {"name": "N", "amplitudes": [{"name": "sa(3.0)", "value": 0.1949, "units": "%g", "flag": "0", "ln_sigma": 0.0}, {"name": "sa(1.0)", "value": 0.7439, "units": "%g", "flag": "0", "ln_sigma": 0.0}, {"name": "sa(0.3)", "value": 8.1939, "units": "%g", "flag": "0", "ln_sigma": 0.0}, {"name": "pgv", "value": 3.63, "units": "cm/s", "flag": "0", "ln_sigma": 0.0}, {"name": "pga", "value": 13.9796, "units": "%g", "flag": "0", "ln_sigma": 0.0}]}, {"name": "Z", "amplitudes": [{"name": "sa(3.0)", "value": 0.3041, "units": "%g", "flag": "0", "ln_sigma": 0.0}, {"name": "sa(1.0)", "value": 0.6622, "units": "%g", "flag": "0", "ln_sigma": 0.0}, {"name": "sa(0.3)", "value": 2.8878, "units": "%g", "flag": "0", "ln_sigma": 0.0}, {"name": "pgv", "value": 0.974, "units": "cm/s", "flag": "0", "ln_sigma": 0.0}, {"name": "pga", "value": 3.0, "units": "%g", "flag": "0", "ln_sigma": 0.0}]}], "station_type": "seismic", "nresp": "null", "predictions": [{"name": "sa(3.0)", "value": 0.4877, "value_rock": 0.3013, "value_soil": 0.9335, "units": "%g", "ln_tau": 0.4397, "ln_phi": 0.6554, "ln_sigma": 0.7893, "ln_sigma_rock": 0.8011, "ln_sigma_soil": 0.8012, "ln_bias": 0.4113, "ln_bias_sigma": 0.229}, {"name": "sa(0.3)", "value": 13.0397, "value_rock": 8.2357, "value_soil": 19.626, "units": "%g", "ln_tau": 0.3916, "ln_phi": 0.6679, "ln_sigma": 0.7742, "ln_sigma_rock": 0.7788, "ln_sigma_soil": 0.7651, "ln_bias": -0.2356, "ln_bias_sigma": 0.203}, {"name": "sa(1.0)", "value": 3.2348, "value_rock": 1.8144, "value_soil": 6.6189, "units": "%g", "ln_tau": 0.4339, "ln_phi": 0.6765, "ln_sigma": 0.8037, "ln_sigma_rock": 0.812, "ln_sigma_soil": 0.8078, "ln_bias": 0.1605, "ln_bias_sigma": 0.2188}, {"name": "pgv", "value": 3.2291, "value_rock": 2.1284, "value_soil": 5.4704, "units": "cm/s", "ln_tau": 0.3951, "ln_phi": 0.6067, "ln_sigma": 0.724, "ln_sigma_rock": 0.7303, "ln_sigma_soil": 0.7239, "ln_bias": 0.1839, "ln_bias_sigma": 0.1967}, {"name": "pga", "value": 7.4177, "value_rock": 5.8907, "value_soil": 8.8326, "units": "%g", "ln_tau": 0.4063, "ln_phi": 0.5973, "ln_sigma": 0.7223, "ln_sigma_rock": 0.7281, "ln_sigma_soil": 0.7167, "ln_bias": -0.1221, "ln_bias_sigma": 0.1896}, {"name": "mmi", "value": 4.4383, "value_rock": 4.1722, "value_soil": 5.1321, "units": "intensity", "tau": 0.2522, "phi": 0.7395, "sigma": 0.7814, "sigma_rock": 0.7838, "sigma_soil": 1.1764, "bias": 0.0707, "bias_sigma": 0.2048}], "mmi_from_pgm": [{"name": "sa(3.0)", "value": 4.23, "sigma": 0.89, "flag": "0"}, {"name": "sa(0.3)", "value": 4.22, "sigma": 0.82, "flag": "0"}, {"name": "sa(1.0)", "value": 3.83, "sigma": 0.75, "flag": "0"}, {"name": "pgv", "value": 4.57, "sigma": 0.63, "flag": "0"}, {"name": "pga", "value": 5.81, "sigma": 0.66, "flag": "0"}], "distance_stddev": 0.0, "distances": {"repi": 18.909, "rhypo": 21.39, "rjb": 20.792, "rjb_var": 0.0, "rrup": 20.926, "rrup_var": 0.0, "rx": -4.015, "ry0": 20.396, "rvolc": 0.0}}, "geometry": {"type": "Point", "coordinates": [12.785, 43.113]}}, {"type": "Feature", "id": "G.NRC", "properties": {"code": "NRC", "name": "Norcia", "instrumentType": "UNK", "source": "G", "network": "G", "commType": "UNK", "location": "", "intensity": 6.3, "intensity_flag": "", "intensity_stddev": 0.63, "pga": 13.4694, "pgv": 12.4, "distance": 14.444, "elev": null, "vs30": 507.93, "channels": [{"name": "E", "amplitudes": [{"name": "sa(3.0)", "value": 1.2551, "units": "%g", "flag": "0", "ln_sigma": 0.0}, {"name": "sa(1.0)", "value": 9.1939, "units": "%g", "flag": "0", "ln_sigma": 0.0}, {"name": "sa(0.3)", "value": 14.6939, "units": "%g", "flag": "0", "ln_sigma": 0.0}, {"name": "pgv", "value": 6.43, "units": "cm/s", "flag": "0", "ln_sigma": 0.0}, {"name": "pga", "value": 9.7959, "units": "%g", "flag": "0", "ln_sigma": 0.0}]}, {"name": "N", "amplitudes": [{"name": "sa(3.0)", "value": 0.9531, "units": "%g", "flag": "0", "ln_sigma": 0.0}, {"name": "sa(1.0)", "value": 14.5918, "units": "%g", "flag": "0", "ln_sigma": 0.0}, {"name": "sa(0.3)", "value": 18.5714, "units": "%g", "flag": "0", "ln_sigma": 0.0}, {"name": "pgv", "value": 12.4, "units": "cm/s", "flag": "0", "ln_sigma": 0.0}, {"name": "pga", "value": 13.4694, "units": "%g", "flag": "0", "ln_sigma": 0.0}]}, {"name": "Z", "amplitudes": [{"name": "sa(3.0)", "value": 0.7786, "units": "%g", "flag": "0", "ln_sigma": 0.0}, {"name": "sa(1.0)", "value": 4.1939, "units": "%g", "flag": "0", "ln_sigma": 0.0}, {"name": "sa(0.3)", "value": 9.1327, "units": "%g", "flag": "0", "ln_sigma": 0.0}, {"name": "pgv", "value": 4.38, "units": "cm/s", "flag": "0", "ln_sigma": 0.0}, {"name": "pga", "value": 7.3061, "units": "%g", "flag": "0", "ln_sigma": 0.0}]}], "station_type": "seismic", "nresp": "null", "predictions": [{"name": "sa(3.0)", "value": 0.6039, "value_rock": 0.4383, "value_soil": 1.337, "units": "%g", "ln_tau": 0.4397, "ln_phi": 0.6554, "ln_sigma": 0.7893, "ln_sigma_rock": 0.8011, "ln_sigma_soil": 0.8012, "ln_bias": 0.4113, "ln_bias_sigma": 0.229}, {"name": "sa(0.3)", "value": 18.0358, "value_rock": 13.1225, "value_soil": 29.022, "units": "%g", "ln_tau": 0.3921, "ln_phi": 0.6684, "ln_sigma": 0.7749, "ln_sigma_rock": 0.7788, "ln_sigma_soil": 0.7602, "ln_bias": -0.2358, "ln_bias_sigma": 0.2031}, {"name": "sa(1.0)", "value": 4.0975, "value_rock": 2.784, "value_soil": 9.7393, "units": "%g", "ln_tau": 0.434, "ln_phi": 0.6765, "ln_sigma": 0.8038, "ln_sigma_rock": 0.812, "ln_sigma_soil": 0.8065, "ln_bias": 0.1605, "ln_bias_sigma": 0.2188}, {"name": "pgv", "value": 4.4294, "value_rock": 3.3448, "value_soil": 8.33, "units": "cm/s", "ln_tau": 0.3952, "ln_phi": 0.6067, "ln_sigma": 0.7241, "ln_sigma_rock": 0.7303, "ln_sigma_soil": 0.7226, "ln_bias": 0.1839, "ln_bias_sigma": 0.1968}, {"name": "pga", "value": 11.0092, "value_rock": 9.3953, "value_soil": 13.4048, "units": "%g", "ln_tau": 0.4066, "ln_phi": 0.5975, "ln_sigma": 0.7227, "ln_sigma_rock": 0.728, "ln_sigma_soil": 0.7129, "ln_bias": -0.1222, "ln_bias_sigma": 0.1897}, {"name": "mmi", "value": 4.8425, "value_rock": 4.4608, "value_soil": 5.7092, "units": "intensity", "tau": 0.5423, "phi": 1.0441, "sigma": 1.1766, "sigma_rock": 0.7838, "sigma_soil": 1.1749, "bias": 0.1463, "bias_sigma": 0.2946}], "mmi_from_pgm": [{"name": "sa(3.0)", "value": 5.37, "sigma": 0.89, "flag": "0"}, {"name": "sa(0.3)", "value": 4.85, "sigma": 0.82, "flag": "0"}, {"name": "sa(1.0)", "value": 6.56, "sigma": 0.75, "flag": "0"}, {"name": "pgv", "value": 6.26, "sigma": 0.63, "flag": "0"}, {"name": "pga", "value": 5.59, "sigma": 0.66, "flag": "0"}], "distance_stddev": 0.0, "distances": {"repi": 25.256, "rhypo": 27.164, "rjb": 13.859, "rjb_var": 0.0, "rrup": 14.444, "rrup_var": 0.0, "rx": 3.46, "ry0": 13.833, "rvolc": 0.0}}, "geometry": {"type": "Point", "coordinates": [13.096, 42.791]}}, {"type": "Feature", "id": "G.NCM", "properties": {"code": "NCM", "name": "Nocera Umbra-Salmata", "instrumentType": "UNK", "source": "G", "network": "G", "commType": "UNK", "location": "", "intensity": 3.9, "intensity_flag": "", "intensity_stddev": 0.63, "pga": 2.6327, "pgv": 1.36, "distance": 23.868, "elev": null, "vs30": 830.73, "channels": [{"name": "E", "amplitudes": [{"name": "sa(3.0)", "value": 0.2102, "units": "%g", "flag": "0", "ln_sigma": 0.0}, {"name": "sa(1.0)", "value": 1.2551, "units": "%g", "flag": "0", "ln_sigma": 0.0}, {"name": "sa(0.3)", "value": 4.0612, "units": "%g", "flag": "0", "ln_sigma": 0.0}, {"name": "pgv", "value": 1.05, "units": "cm/s", "flag": "0", "ln_sigma": 0.0}, {"name": "pga", "value": 2.1735, "units": "%g", "flag": "0", "ln_sigma": 0.0}]}, {"name": "N", "amplitudes": [{"name": "sa(3.0)", "value": 0.2796, "units": "%g", "flag": "0", "ln_sigma": 0.0}, {"name": "sa(1.0)", "value": 0.9765, "units": "%g", "flag": "0", "ln_sigma": 0.0}, {"name": "sa(0.3)", "value": 2.7755, "units": "%g", "flag": "0", "ln_sigma": 0.0}, {"name": "pgv", "value": 1.36, "units": "cm/s", "flag": "0", "ln_sigma": 0.0}, {"name": "pga", "value": 2.6327, "uni