{"type": "FeatureCollection", "features": [{"type": "Feature", "id": "DYFI.1", "properties": {"code": "1", "name": "Alacant, Spain (Intensity II, 5 responses)", "instrumentType": "OBSERVED", "source": "DYFI", "network": "DYFI", "commType": "UNK", "location": "", "intensity": 2.0, "intensity_flag": "0", "intensity_stddev": 0.3, "pga": "null", "pgv": "null", "distance": 124.96, "elev": null, "vs30": 760.0, "channels": [], "nresp": -1, "station_type": "macroseismic", "predictions": [{"name": "mmi", "value": 2.3664, "value_rock": 2.3664, "value_soil": 3.0164, "units": "intensity", "tau": 0.2544, "phi": 0.7427, "sigma": 0.7851, "sigma_rock": 0.7868, "sigma_soil": 0.7852, "bias": 0.383, "bias_sigma": 0.1518}, {"name": "pga", "value": 0.2205, "value_rock": 0.2205, "value_soil": 0.3705, "units": "%g", "ln_tau": 0.4138, "ln_phi": 0.613, "ln_sigma": 0.7396, "ln_sigma_rock": 0.7417, "ln_sigma_soil": 0.7383, "ln_bias": 0.6925, "ln_bias_sigma": 0.1266}, {"name": "sa(0.3)", "value": 0.3381, "value_rock": 0.3381, "value_soil": 0.9562, "units": "%g", "ln_tau": 0.3996, "ln_phi": 0.6805, "ln_sigma": 0.7892, "ln_sigma_rock": 0.7898, "ln_sigma_soil": 0.7863, "ln_bias": 0.0261, "ln_bias_sigma": 0.3719}, {"name": "sa(1.0)", "value": 0.0861, "value_rock": 0.0861, "value_soil": 0.3468, "units": "%g", "ln_tau": 0.445, "ln_phi": 0.6788, "ln_sigma": 0.8116, "ln_sigma_rock": 0.8139, "ln_sigma_soil": 0.8118, "ln_bias": -0.2405, "ln_bias_sigma": 0.3596}, {"name": "sa(3.0)", "value": 0.0148, "value_rock": 0.0148, "value_soil": 0.0477, "units": "%g", "ln_tau": 0.4524, "ln_phi": 0.659, "ln_sigma": 0.7993, "ln_sigma_rock": 0.802, "ln_sigma_soil": 0.8019, "ln_bias": 0.4683, "ln_bias_sigma": 0.365}, {"name": "pgv", "value": 0.1124, "value_rock": 0.1124, "value_soil": 0.311, "units": "cm/s", "ln_tau": 0.3985, "ln_phi": 0.6161, "ln_sigma": 0.7337, "ln_sigma_rock": 0.7382, "ln_sigma_soil": 0.7342, "ln_bias": 1.0651, "ln_bias_sigma": 0.135}], "pgm_from_mmi": [{"name": "sa(0.3)", "value": null, "units": "%g", "ln_sigma": null, "flag": "0"}, {"name": "sa(3.0)", "value": null, "units": "%g", "ln_sigma": null, "flag": "0"}, {"name": "pgv", "value": null, "units": "cm/s", "ln_sigma": null, "flag": "0"}, {"name": "pga", "value": null, "units": "%g", "ln_sigma": null, "flag": "0"}, {"name": "sa(1.0)", "value": null, "units": "%g", "ln_sigma": null, "flag": "0"}], "distance_stddev": 1.498, "distances": {"repi": 127.048, "rhypo": 127.052, "rjb": 125.087, "rjb_var": 2.201, "rrup": 124.96, "rrup_var": 2.243, "rx": 0.0, "ry0": 0.0, "rvolc": 0.0}}, "geometry": {"type": "Point", "coordinates": [-0.48, 38.35]}}, {"type": "Feature", "id": "DYFI.2", "properties": {"code": "2", "name": "Albacete, Spain (Intensity III, 8 responses)", "instrumentType": "OBSERVED", "source": "DYFI", "network": "DYFI", "commType": "UNK", "location": "", "intensity": 3.0, "intensity_flag": "0", "intensity_stddev": 0.3, "pga": "null", "pgv": "null", "distance": 143.591, "elev": null, "vs30": 760.0, "channels": [], "nresp": -1, "station_type": "macroseismic", "predictions": [{"name": "mmi", "value": 2.2365, "value_rock": 2.2365, "value_soil": 2.8871, "units": "intensity", "tau": 0.2544, "phi": 0.7429, "sigma": 0.7852, "sigma_rock": 0.787, "sigma_soil": 0.7854, "bias": 0.383, "bias_sigma": 0.1518}, {"name": "pga", "value": 0.1697, "value_rock": 0.1697, "value_soil": 0.2856, "units": "%g", "ln_tau": 0.4138, "ln_phi": 0.6136, "ln_sigma": 0.7401, "ln_sigma_rock": 0.7422, "ln_sigma_soil": 0.739, "ln_bias": 0.6925, "ln_bias_sigma": 0.1266}, {"name": "sa(0.3)", "value": 0.2666, "value_rock": 0.2666, "value_soil": 0.7557, "units": "%g", "ln_tau": 0.3996, "ln_phi": 0.6814, "ln_sigma": 0.79, "ln_sigma_rock": 0.7907, "ln_sigma_soil": 0.7873, "ln_bias": 0.0261, "ln_bias_sigma": 0.3719}, {"name": "sa(1.0)", "value": 0.0712, "value_rock": 0.0712, "value_soil": 0.2871, "units": "%g", "ln_tau": 0.445, "ln_phi": 0.6796, "ln_sigma": 0.8123, "ln_sigma_rock": 0.8145, "ln_sigma_soil": 0.8124, "ln_bias": -0.2405, "ln_bias_sigma": 0.3596}, {"name": "sa(3.0)", "value": 0.0124, "value_rock": 0.0124, "value_soil": 0.0398, "units": "%g", "ln_tau": 0.4524, "ln_phi": 0.66, "ln_sigma": 0.8001, "ln_sigma_rock": 0.8028, "ln_sigma_soil": 0.8027, "ln_bias": 0.4683, "ln_bias_sigma": 0.365}, {"name": "pgv", "value": 0.0917, "value_rock": 0.0917, "value_soil": 0.254, "units": "cm/s", "ln_tau": 0.3985, "ln_phi": 0.6166, "ln_sigma": 0.7342, "ln_sigma_rock": 0.7387, "ln_sigma_soil": 0.7347, "ln_bias": 1.0651, "ln_bias_sigma": 0.135}], "pgm_from_mmi": [{"name": "sa(0.3)", "value": null, "units": "%g", "ln_sigma": null, "flag": "0"}, {"name": "sa(3.0)", "value": null, "units": "%g", "ln_sigma": null, "flag": "0"}, {"name": "pgv", "value": null, "units": "cm/s", "ln_sigma": null, "flag": "0"}, {"name": "pga", "value": null, "units": "%g", "ln_sigma": null, "flag": "0"}, {"name": "sa(1.0)", "value": null, "units": "%g", "ln_sigma": null, "flag": "0"}], "distance_stddev": 1.494, "distances": {"repi": 145.691, "rhypo": 145.695, "rjb": 143.728, "rjb_var": 2.203, "rrup": 143.591, "rrup_var": 2.231, "rx": 0.0, "ry0": 0.0, "rvolc": 0.0}}, "geometry": {"type": "Point", "coordinates": [-1.87, 39.0]}}, {"type": "Feature", "id": "DYFI.3", "properties": {"code": "3", "name": "Almera, Spain (Intensity II, 3 responses)", "instrumentType": "OBSERVED", "source": "DYFI", "network": "DYFI", "commType": "UNK", "location": "", "intensity": 2.0, "intensity_flag": "0", "intensity_stddev": 0.3, "pga": "null", "pgv": "null", "distance": 115.546, "elev": null, "vs30": 296.76, "channels": [], "nresp": -1, "station_type": "macroseismic", "predictions": [{"name": "mmi", "value": 2.8649, "value_rock": 2.4393, "value_soil": 3.0888, "units": "intensity", "tau": 0.2544, "phi": 0.7425, "sigma": 0.7849, "sigma_rock": 0.7867, "sigma_soil": 0.7851, "bias": 0.3829, "bias_sigma": 0.1518}, {"name": "pga", "value": 0.3578, "value_rock": 0.2547, "value_soil": 0.4277, "units": "%g", "ln_tau": 0.4137, "ln_phi": 0.6123, "ln_sigma": 0.7389, "ln_sigma_rock": 0.7413, "ln_sigma_soil": 0.738, "ln_bias": 0.6924, "ln_bias_sigma": 0.1266}, {"name": "sa(0.3)", "value": 0.7749, "value_rock": 0.3856, "value_soil": 1.0889, "units": "%g", "ln_tau": 0.3995, "ln_phi": 0.6797, "ln_sigma": 0.7884, "ln_sigma_rock": 0.7893, "ln_sigma_soil": 0.7858, "ln_bias": 0.0261, "ln_bias_sigma": 0.3717}, {"name": "sa(1.0)", "value": 0.2387, "value_rock": 0.0958, "value_soil": 0.3855, "units": "%g", "ln_tau": 0.4449, "ln_phi": 0.6783, "ln_sigma": 0.8112, "ln_sigma_rock": 0.8136, "ln_sigma_soil": 0.8114, "ln_bias": -0.2405, "ln_bias_sigma": 0.3595}, {"name": "sa(3.0)", "value": 0.0349, "value_rock": 0.0164, "value_soil": 0.0528, "units": "%g", "ln_tau": 0.4524, "ln_phi": 0.659, "ln_sigma": 0.7993, "ln_sigma_rock": 0.802, "ln_sigma_soil": 0.8019, "ln_bias": 0.4683, "ln_bias_sigma": 0.365}, {"name": "pgv", "value": 0.2453, "value_rock": 0.1259, "value_soil": 0.3484, "units": "cm/s", "ln_tau": 0.3985, "ln_phi": 0.6156, "ln_sigma": 0.7333, "ln_sigma_rock": 0.738, "ln_sigma_soil": 0.7339, "ln_bias": 1.0651, "ln_bias_sigma": 0.135}], "pgm_from_mmi": [{"name": "sa(0.3)", "value": null, "units": "%g", "ln_sigma": null, "flag": "0"}, {"name": "sa(3.0)", "value": null, "units": "%g", "ln_sigma": null, "flag": "0"}, {"name": "pgv", "value": null, "units": "cm/s", "ln_sigma": null, "flag": "0"}, {"name": "pga", "value": null, "units": "%g", "ln_sigma": null, "flag": "0"}, {"name": "sa(1.0)", "value": null, "units": "%g", "ln_sigma": null, "flag": "0"}], "distance_stddev": 1.499, "distances": {"repi": 117.628, "rhypo": 117.632, "rjb": 115.668, "rjb_var": 2.2, "rrup": 115.546, "rrup_var": 2.248, "rx": 0.0, "ry0": 0.0, "rvolc": 0.0}}, "geometry": {"type": "Point", "coordinates": [-2.43, 36.83]}}, {"type": "Feature", "id": "DYFI.4", "properties": {"code": "4", "name": "Cartagena, Spain (Intensity III, 9 responses)", "instrumentType": "OBSERVED", "source": "DYFI", "network": "DYFI", "commType": "UNK", "location": "", "intensity": 3.0, "intensity_flag": "0", "intensity_stddev": 0.3, "pga": "null", "pgv": "null", "distance": 59.728, "elev": null, "vs30": 240.65, "channels": [], "nresp": -1, "station_type": "macroseismic", "predictions": [{"name": "mmi", "value": 3.5496, "value_rock": 3.042, "value_soil": 3.6852, "units": "intensity", "tau": 0.2543, "phi": 0.7416, "sigma": 0.784, "sigma_rock": 0.7868, "sigma_soil": 0.7851, "bias": 0.3828, "bias_sigma": 0.1518}, {"name": "pga", "value": 1.1863, "value_rock": 0.7916, "value_soil": 1.3089, "units": "%g", "ln_tau": 0.4131, "ln_phi": 0.6098, "ln_sigma": 0.7366, "ln_sigma_rock": 0.7418, "ln_sigma_soil": 0.7373, "ln_bias": 0.6922, "ln_bias_sigma": 0.1266}, {"name": "sa(0.3)", "value": 2.5011, "value_rock": 1.0933, "value_soil": 3.0167, "units": "%g", "ln_tau": 0.3988, "ln_phi": 0.6772, "ln_sigma": 0.7859, "ln_sigma_rock": 0.7892, "ln_sigma_soil": 0.7843, "ln_bias": 0.026, "ln_bias_sigma": 0.3712}, {"name": "sa(1.0)", "value": 0.6914, "value_rock": 0.2315, "value_soil": 0.9192, "units": "%g", "ln_tau": 0.4448, "ln_phi": 0.6781, "ln_sigma": 0.8109, "ln_sigma_rock": 0.814, "ln_sigma_soil": 0.8116, "ln_bias": -0.2404, "ln_bias_sigma": 0.3595}, {"name": "sa(3.0)", "value": 0.0951, "value_rock": 0.0383, "value_soil": 0.1226, "units": "%g", "ln_tau": 0.4524, "ln_phi": 0.6595, "ln_sigma": 0.7998, "ln_sigma_rock": 0.8025, "ln_sigma_soil": 0.8024, "ln_bias": 0.4683, "ln_bias_sigma": 0.365}, {"name": "pgv", "value": 0.717, "value_rock": 0.3237, "value_soil": 0.8867, "units": "cm/s", "ln_tau": 0.3983, "ln_phi": 0.6129, "ln_sigma": 0.7309, "ln_sigma_rock": 0.7382, "ln_sigma_soil": 0.7339, "ln_bias": 1.065, "ln_bias_sigma": 0.135}], "pgm_from_mmi": [{"name": "sa(0.3)", "value": null, "units": "%g", "ln_sigma": null, "flag": "0"}, {"name": "sa(3.0)", "value": null, "units": "%g", "ln_sigma": null, "flag": "0"}, {"name": "pgv", "value": null, "units": "cm/s", "ln_sigma": null, "flag": "0"}, {"name": "pga", "value": null, "units": "%g", "ln_sigma": null, "flag": "0"}, {"name": "sa(1.0)", "value": null, "units": "%g", "ln_sigma": null, "flag": "0"}], "distance_stddev": 1.529, "distances": {"repi": 61.718, "rhypo": 61.726, "rjb": 59.771, "rjb_var": 2.185, "rrup": 59.728, "rrup_var": 2.338, "rx": 0.0, "ry0": 0.0, "rvolc": 0.0}}, "geometry": {"type": "Point", "coordinates": [-0.98, 37.61]}}, {"type": "Feature", "id": "DYFI.5", "properties": {"code": "5", "name": "Elx, Spain (Intensity III, 6 responses)", "instrumentType": "OBSERVED", "source": "DYFI", "network": "DYFI", "commType": "UNK", "location": "", "intensity": 3.4, "intensity_flag": "0", "intensity_stddev": 0.3, "pga": "null", "pgv": "null", "distance": 105.581, "elev": null, "vs30": 335.44, "channels": [], "nresp": -1, "station_type": "macroseismic", "predictions": [{"name": "mmi", "value": 2.8741, "value_rock": 2.5228, "value_soil": 3.1718, "units": "intensity", "tau": 0.2544, "phi": 0.7425, "sigma": 0.7848, "sigma_rock": 0.7866, "sigma_soil": 0.785, "bias": 0.383, "bias_sigma": 0.1518}, {"name": "pga", "value": 0.4106, "value_rock": 0.3, "value_soil": 0.503, "units": "%g", "ln_tau": 0.4137, "ln_phi": 0.6122, "ln_sigma": 0.7389, "ln_sigma_rock": 0.7412, "ln_sigma_soil": 0.7377, "ln_bias": 0.6924, "ln_bias_sigma": 0.1266}, {"name": "sa(0.3)", "value": 0.8264, "value_rock": 0.4477, "value_soil": 1.2616, "units": "%g", "ln_tau": 0.3995, "ln_phi": 0.6793, "ln_sigma": 0.788, "ln_sigma_rock": 0.7888, "ln_sigma_soil": 0.7851, "ln_bias": 0.0261, "ln_bias_sigma": 0.3718}, {"name": "sa(1.0)", "value": 0.2327, "value_rock": 0.1082, "value_soil": 0.4352, "units": "%g", "ln_tau": 0.4449, "ln_phi": 0.6784, "ln_sigma": 0.8113, "ln_sigma_rock": 0.8136, "ln_sigma_soil": 0.8115, "ln_bias": -0.2405, "ln_bias_sigma": 0.3595}, {"name": "sa(3.0)", "value": 0.0347, "value_rock": 0.0184, "value_soil": 0.0593, "units": "%g", "ln_tau": 0.4524, "ln_phi": 0.659, "ln_sigma": 0.7993, "ln_sigma_rock": 0.8021, "ln_sigma_soil": 0.802, "ln_bias": 0.4683, "ln_bias_sigma": 0.365}, {"name": "pgv", "value": 0.2489, "value_rock": 0.1435, "value_soil": 0.3967, "units": "cm/s", "ln_tau": 0.3985, "ln_phi": 0.6154, "ln_sigma": 0.7331, "ln_sigma_rock": 0.7377, "ln_sigma_soil": 0.7336, "ln_bias": 1.0651, "ln_bias_sigma": 0.135}], "pgm_from_mmi": [{"name": "sa(0.3)", "value": null, "units": "%g", "ln_sigma": null, "flag": "0"}, {"name": "sa(3.0)", "value": null, "units": "%g", "ln_sigma": null, "flag": "0"}, {"name": "pgv", "value": null, "units": "cm/s", "ln_sigma": null, "flag": "0"}, {"name": "pga", "value": null, "units": "%g", "ln_sigma": null, "flag": "0"}, {"name": "sa(1.0)", "value": null, "units": "%g", "ln_sigma": null, "flag": "0"}], "distance_stddev": 1.502, "distances": {"repi": 107.655, "rhypo": 107.66, "rjb": 105.696, "rjb_var": 2.199, "rrup": 105.581, "rrup_var": 2.255, "rx": 0.0, "ry0": 0.0, "rvolc": 0.0}}, "geometry": {"type": "Point", "coordinates": [-0.68, 38.27]}}, {"type": "Feature", "id": "DYFI.6", "properties": {"code": "6", "name": "Getafe, Spain (Intensity II, 3 responses)", "instrumentType": "OBSERVED", "source": "DYFI", "network": "DYFI", "commType": "UNK", "location": "", "intensity": 2.0, "intensity_flag": "0", "intensity_stddev": 0.3, "pga": "null", "pgv": "null", "distance": 337.348, "elev": null, "vs30": 760.0, "channels": [], "nresp": -1, "station_type": "macroseismic", "predictions": [{"name": "mmi", "value": 1.1219, "value_rock": 1.1219, "value_soil": 2.057, "units": "intensity", "tau": 0.3756, "phi": 0.8587, "sigma": 0.9372, "sigma_rock": 0.9405, "sigma_soil": 0.7863, "bias": 0.4744, "bias_sigma": 0.169}, {"name": "pga", "value": 0.0272, "value_rock": 0.0272, "value_soil": 0.046, "units": "%g", "ln_tau": 0.4138, "ln_phi": 0.6168, "ln_sigma": 0.7428, "ln_sigma_rock": 0.7451, "ln_sigma_soil": 0.742, "ln_bias": 0.6925, "ln_bias_sigma": 0.1266}, {"name": "sa(0.3)", "value": 0.0514, "value_rock": 0.0514, "value_soil": 0.1467, "units": "%g", "ln_tau": 0.3996, "ln_phi": 0.6857, "ln_sigma": 0.7937, "ln_sigma_rock": 0.7946, "ln_sigma_soil": 0.7915, "ln_bias": 0.0261, "ln_bias_sigma": 0.3719}, {"name": "sa(1.0)", "value": 0.021, "value_rock": 0.021, "value_soil": 0.0849, "units": "%g", "ln_tau": 0.445, "ln_phi": 0.6831, "ln_sigma": 0.8152, "ln_sigma_rock": 0.8176, "ln_sigma_soil": 0.8156, "ln_bias": -0.2405, "ln_bias_sigma": 0.3596}, {"name": "sa(3.0)", "value": 0.004, "value_rock": 0.004, "value_soil": 0.0128, "units": "%g", "ln_tau": 0.4524, "ln_phi": 0.6631, "ln_sigma": 0.8027, "ln_sigma_rock": 0.8055, "ln_sigma_soil": 0.8054, "ln_bias": 0.4683, "ln_bias_sigma": 0.365}, {"name": "pgv", "value": 0.0249, "value_rock": 0.0249, "value_soil": 0.0692, "units": "cm/s", "ln_tau": 0.3985, "ln_phi": 0.6191, "ln_sigma": 0.7363, "ln_sigma_rock": 0.7409, "ln_sigma_soil": 0.7369, "ln_bias": 1.0651, "ln_bias_sigma": 0.135}], "pgm_from_mmi": [{"name": "sa(0.3)", "value": null, "units": "%g", "ln_sigma": null, "flag": "0"}, {"name": "sa(3.0)", "value": null, "units": "%g", "ln_sigma": null, "flag": "0"}, {"name": "pgv", "value": null, "units": "cm/s", "ln_sigma": null, "flag": "0"}, {"name": "pga", "value": null, "units": "%g", "ln_sigma": null, "flag": "0"}, {"name": "sa(1.0)", "value": null, "units": "%g", "ln_sigma": null, "flag": "0"}], "distance_stddev": 1.48, "distances": {"repi": 339.496, "rhypo": 339.498, "rjb": 337.527, "rjb_var": 2.21, "rrup": 337.348, "rrup_var": 2.191, "rx": 0.0, "ry0": 0.0, "rvolc": 0.0}}, "geometry": {"type": "Point", "coordinates": [-3.73, 40.3]}}, {"type": "Feature", "id": "DYFI.7", "properties": {"code": "7", "name": "Granada, Spain (Intensity II, 7 responses)", "instrumentType": "OBSERVED", "source": "DYFI", "network": "DYFI", "commType": "UNK", "location": "", "intensity": 2.4, "intensity_flag": "0", "intensity_stddev": 0.3, "pga": "null", "pgv": "null", "distance": 177.153, "elev": null, "vs30": 760.0, "channels": [], "nresp": -1, "station_type": "macroseismic", "predictions": [{"name": "mmi", "value": 2.038, "value_rock": 2.038, "value_soil": 2.6893, "units": "intensity", "tau": 0.2544, "phi": 0.7431, "sigma": 0.7855, "sigma_rock": 0.7872, "sigma_soil": 0.7857, "bias": 0.383, "bias_sigma": 0.1518}, {"name": "pga", "value": 0.1125, "value_rock": 0.1125, "value_soil": 0.1897, "units": "%g", "ln_tau": 0.4138, "ln_phi": 0.6147, "ln_sigma": 0.741, "ln_sigma_rock": 0.7432, "ln_sigma_soil": 0.74, "ln_bias": 0.6925, "ln_bias_sigma": 0.1266}, {"name": "sa(0.3)", "value": 0.1838, "value_rock": 0.1838, "value_soil": 0.5224, "units": "%g", "ln_tau": 0.3996, "ln_phi": 0.6829, "ln_sigma": 0.7912, "ln_sigma_rock": 0.792, "ln_sigma_soil": 0.7887, "ln_bias": 0.0261, "ln_bias_sigma": 0.3719}, {"name": "sa(1.0)", "value": 0.0532, "value_rock": 0.0532, "value_soil": 0.2149, "units": "%g", "ln_tau": 0.445, "ln_phi": 0.6807, "ln_sigma": 0.8132, "ln_sigma_rock": 0.8155, "ln_sigma_soil": 0.8135, "ln_bias": -0.2405, "ln_bias_sigma": 0.3596}, {"name": "sa(3.0)", "value": 0.0094, "value_rock": 0.0094, "value_soil": 0.0302, "units": "%g", "ln_tau": 0.4524, "ln_phi": 0.6622, "ln_sigma": 0.8019, "ln_sigma_rock": 0.8047, "ln_sigma_soil": 0.8046, "ln_bias": 0.4683, "ln_bias_sigma": 0.365}, {"name": "pgv", "value": 0.0672, "value_rock": 0.0672, "value_soil": 0.1863, "units": "cm/s", "ln_tau": 0.3985, "ln_phi": 0.6174, "ln_sigma": 0.7348, "ln_sigma_rock": 0.7394, "ln_sigma_soil": 0.7354, "ln_bias": 1.0651, "ln_bias_sigma": 0.135}], "pgm_from_mmi": [{"name": "sa(0.3)", "value": null, "units": "%g", "ln_sigma": null, "flag": "0"}, {"name": "sa(3.0)", "value": null, "units": "%g", "ln_sigma": null, "flag": "0"}, {"name": "pgv", "value": null, "units": "cm/s", "ln_sigma": null, "flag": "0"}, {"name": "pga", "value": null, "units": "%g", "ln_sigma": null, "flag": "0"}, {"name": "sa(1.0)", "value": null, "units": "%g", "ln_sigma": null, "flag": "0"}], "distance_stddev": 1.489, "distances": {"repi": 179.269, "rhypo": 179.272, "rjb": 177.304, "rjb_var": 2.205, "rrup": 177.153, "rrup_var": 2.217, "rx": 0.0, "ry0": 0.0, "rvolc": 0.0}}, "geometry": {"type": "Point", "coordinates": [-3.59, 37.17]}}, {"type": "Feature", "id": "DYFI.8", "properties": {"code": "8", "name": "Hurcal-Overa, Spain (Intensity IV, 3 responses)", "instrumentType": "OBSERVED", "source": "DYFI", "network": "DYFI", "commType": "UNK", "location": "", "intensity": 3.6, "intensity_flag": "0", "intensity_stddev": 0.3, "pga": "null", "pgv": "null", "distance": 40.299, "elev": null, "vs30": 371.56, "channels": [], "nresp": -1, "station_type": "macroseismic", "predictions": [{"name": "mmi", "value": 3.7015, "value_rock": 3.3932, "value_soil": 4.029, "units": "intensity", "tau": 0.2544, "phi": 0.7431, "sigma": 0.7854, "sigma_rock": 0.7871, "sigma_soil": 0.7853, "bias": 0.3829, "bias_sigma": 0.1518}, {"name": "pga", "value": 1.9369, "value_rock": 1.4727, "value_soil": 2.3919, "units": "%g", "ln_tau": 0.4132, "ln_phi": 0.6139, "ln_sigma": 0.7401, "ln_sigma_rock": 0.7429, "ln_sigma_soil": 0.737, "ln_bias": 0.6923, "ln_bias_sigma": 0.1266}, {"name": "sa(0.3)", "value": 3.3428, "value_rock": 1.9523, "value_soil": 5.2432, "units": "%g", "ln_tau": 0.3991, "ln_phi": 0.6804, "ln_sigma": 0.7889, "ln_sigma_rock": 0.7901, "ln_sigma_soil": 0.7836, "ln_bias": 0.0261, "ln_bias_sigma": 0.3715}, {"name": "sa(1.0)", "value": 0.7578, "value_rock": 0.3875, "value_soil": 1.5142, "units": "%g", "ln_tau": 0.4449, "ln_phi": 0.6799, "ln_sigma": 0.8125, "ln_sigma_rock": 0.8148, "ln_sigma_soil": 0.8121, "ln_bias": -0.2405, "ln_bias_sigma": 0.3595}, {"name": "sa(3.0)", "value": 0.1094, "value_rock": 0.0628, "value_soil": 0.1995, "units": "%g", "ln_tau": 0.4524, "ln_phi": 0.6604, "ln_sigma": 0.8005, "ln_sigma_rock": 0.8032, "ln_sigma_soil": 0.8031, "ln_bias": 0.4683, "ln_bias_sigma": 0.365}, {"name": "pgv", "value": 0.9096, "value_rock": 0.5612, "value_soil": 1.5193, "units": "cm/s", "ln_tau": 0.3984, "ln_phi": 0.6172, "ln_sigma": 0.7346, "ln_sigma_rock": 0.7392, "ln_sigma_soil": 0.7345, "ln_bias": 1.065, "ln_bias_sigma": 0.135}], "pgm_from_mmi": [{"name": "sa(0.3)", "value": null, "units": "%g", "ln_sigma": null, "flag": "0"}, {"name": "sa(3.0)", "value"