{"type": "FeatureCollection", "features": [{"type": "Feature", "id": "G.CLF", "properties": {"code": "CLF", "name": "Colfiorito", "instrumentType": "UNK", "source": "G", "network": "G", "commType": "UNK", "location": "", "intensity": 7.1, "intensity_flag": "", "intensity_stddev": 0.63, "pga": 34.4898, "pgv": 23.2, "distance": 1.614, "elev": null, "vs30": 500.17, "channels": [{"name": "N", "amplitudes": [{"name": "sa(1.0)", "value": 26.3265, "units": "%g", "flag": "0", "ln_sigma": 0.0}, {"name": "sa(3.0)", "value": 1.7041, "units": "%g", "flag": "0", "ln_sigma": 0.0}, {"name": "sa(0.3)", "value": 72.8571, "units": "%g", "flag": "0", "ln_sigma": 0.0}, {"name": "pgv", "value": 23.2, "units": "cm/s", "flag": "0", "ln_sigma": 0.0}, {"name": "pga", "value": 26.1224, "units": "%g", "flag": "0", "ln_sigma": 0.0}]}, {"name": "Z", "amplitudes": [{"name": "sa(1.0)", "value": 12.0408, "units": "%g", "flag": "0", "ln_sigma": 0.0}, {"name": "sa(3.0)", "value": 0.8133, "units": "%g", "flag": "0", "ln_sigma": 0.0}, {"name": "sa(0.3)", "value": 39.4898, "units": "%g", "flag": "0", "ln_sigma": 0.0}, {"name": "pgv", "value": 10.5, "units": "cm/s", "flag": "0", "ln_sigma": 0.0}, {"name": "pga", "value": 37.3469, "units": "%g", "flag": "0", "ln_sigma": 0.0}]}, {"name": "E", "amplitudes": [{"name": "sa(1.0)", "value": 40.3061, "units": "%g", "flag": "0", "ln_sigma": 0.0}, {"name": "sa(3.0)", "value": 1.5714, "units": "%g", "flag": "0", "ln_sigma": 0.0}, {"name": "sa(0.3)", "value": 81.9388, "units": "%g", "flag": "0", "ln_sigma": 0.0}, {"name": "pgv", "value": 21.4, "units": "cm/s", "flag": "0", "ln_sigma": 0.0}, {"name": "pga", "value": 34.4898, "units": "%g", "flag": "0", "ln_sigma": 0.0}]}], "station_type": "seismic", "nresp": "null", "predictions": [{"name": "pgv", "value": 21.2156, "value_rock": 16.064, "value_soil": 35.0454, "units": "cm/s", "ln_tau": 0.3939, "ln_phi": 0.6043, "ln_sigma": 0.7214, "ln_sigma_rock": 0.7274, "ln_sigma_soil": 0.7147, "ln_bias": 0.2415, "ln_bias_sigma": 0.1843}, {"name": "sa(0.3)", "value": 76.2198, "value_rock": 57.8873, "value_soil": 91.4007, "units": "%g", "ln_tau": 0.3895, "ln_phi": 0.6654, "ln_sigma": 0.771, "ln_sigma_rock": 0.7759, "ln_sigma_soil": 0.7392, "ln_bias": -0.0557, "ln_bias_sigma": 0.1924}, {"name": "sa(1.0)", "value": 19.7865, "value_rock": 13.4814, "value_soil": 39.9418, "units": "%g", "ln_tau": 0.4333, "ln_phi": 0.6776, "ln_sigma": 0.8043, "ln_sigma_rock": 0.8096, "ln_sigma_soil": 0.796, "ln_bias": 0.1854, "ln_bias_sigma": 0.2059}, {"name": "sa(3.0)", "value": 2.5041, "value_rock": 1.8083, "value_soil": 5.2638, "units": "%g", "ln_tau": 0.4415, "ln_phi": 0.6606, "ln_sigma": 0.7945, "ln_sigma_rock": 0.8005, "ln_sigma_soil": 0.8001, "ln_bias": 0.2103, "ln_bias_sigma": 0.214}, {"name": "pga", "value": 42.5342, "value_rock": 37.3703, "value_soil": 43.2886, "units": "%g", "ln_tau": 0.403, "ln_phi": 0.594, "ln_sigma": 0.7178, "ln_sigma_rock": 0.7252, "ln_sigma_soil": 0.6967, "ln_bias": -0.0891, "ln_bias_sigma": 0.1787}, {"name": "mmi", "value": 6.9562, "value_rock": 6.5745, "value_soil": 7.645, "units": "intensity", "tau": 0.5406, "phi": 1.0415, "sigma": 1.1734, "sigma_rock": 1.1804, "sigma_soil": 1.1657, "bias": 0.1825, "bias_sigma": 0.2733}], "mmi_from_pgm": [{"name": "pgv", "value": 7.08, "sigma": 0.63, "flag": "0"}, {"name": "sa(0.3)", "value": 7.43, "sigma": 0.82, "flag": "0"}, {"name": "sa(1.0)", "value": 7.86, "sigma": 0.75, "flag": "0"}, {"name": "sa(3.0)", "value": 5.81, "sigma": 0.89, "flag": "0"}, {"name": "pga", "value": 6.9, "sigma": 0.66, "flag": "0"}], "distance_stddev": 0.0, "distances": {"repi": 3.626, "rhypo": 10.637, "rjb": 0.0, "rjb_var": 0.0, "rrup": 1.614, "rrup_var": 0.0, "rx": 0.595, "ry0": 0.0, "rvolc": 0.0}}, "geometry": {"type": "Point", "coordinates": [12.921, 43.037]}}, {"type": "Feature", "id": "G.NRI", "properties": {"code": "NRI", "name": "Norcia-Zona Industriale", "instrumentType": "UNK", "source": "G", "network": "G", "commType": "UNK", "location": "", "intensity": 4.5, "intensity_flag": "", "intensity_stddev": 0.63, "pga": 4.2857, "pgv": 3.47, "distance": 26.044, "elev": null, "vs30": 423.94, "channels": [{"name": "N", "amplitudes": [{"name": "sa(1.0)", "value": 5.1531, "units": "%g", "flag": "0", "ln_sigma": 0.0}, {"name": "sa(3.0)", "value": 0.9316, "units": "%g", "flag": "0", "ln_sigma": 0.0}, {"name": "sa(0.3)", "value": 10.9184, "units": "%g", "flag": "0", "ln_sigma": 0.0}, {"name": "pgv", "value": 3.47, "units": "cm/s", "flag": "0", "ln_sigma": 0.0}, {"name": "pga", "value": 4.2857, "units": "%g", "flag": "0", "ln_sigma": 0.0}]}, {"name": "Z", "amplitudes": [{"name": "sa(1.0)", "value": 4.949, "units": "%g", "flag": "0", "ln_sigma": 0.0}, {"name": "sa(3.0)", "value": 0.4714, "units": "%g", "flag": "0", "ln_sigma": 0.0}, {"name": "sa(0.3)", "value": 6.9898, "units": "%g", "flag": "0", "ln_sigma": 0.0}, {"name": "pgv", "value": 2.44, "units": "cm/s", "flag": "0", "ln_sigma": 0.0}, {"name": "pga", "value": 3.0714, "units": "%g", "flag": "0", "ln_sigma": 0.0}]}, {"name": "E", "amplitudes": [{"name": "sa(1.0)", "value": 3.2551, "units": "%g", "flag": "0", "ln_sigma": 0.0}, {"name": "sa(3.0)", "value": 0.5898, "units": "%g", "flag": "0", "ln_sigma": 0.0}, {"name": "sa(0.3)", "value": 6.5102, "units": "%g", "flag": "0", "ln_sigma": 0.0}, {"name": "pgv", "value": 3.42, "units": "cm/s", "flag": "0", "ln_sigma": 0.0}, {"name": "pga", "value": 3.7755, "units": "%g", "flag": "0", "ln_sigma": 0.0}]}], "station_type": "seismic", "nresp": "null", "predictions": [{"name": "pgv", "value": 3.1501, "value_rock": 2.1209, "value_soil": 5.4849, "units": "cm/s", "ln_tau": 0.394, "ln_phi": 0.6044, "ln_sigma": 0.7215, "ln_sigma_rock": 0.7274, "ln_sigma_soil": 0.721, "ln_bias": 0.2415, "ln_bias_sigma": 0.1843}, {"name": "sa(0.3)", "value": 11.8902, "value_rock": 7.6595, "value_soil": 18.5337, "units": "%g", "ln_tau": 0.3906, "ln_phi": 0.6665, "ln_sigma": 0.7725, "ln_sigma_rock": 0.7761, "ln_sigma_soil": 0.7633, "ln_bias": -0.0558, "ln_bias_sigma": 0.1925}, {"name": "sa(1.0)", "value": 3.2941, "value_rock": 1.9038, "value_soil": 7.0015, "units": "%g", "ln_tau": 0.4335, "ln_phi": 0.6777, "ln_sigma": 0.8045, "ln_sigma_rock": 0.8097, "ln_sigma_soil": 0.8048, "ln_bias": 0.1855, "ln_bias_sigma": 0.2059}, {"name": "sa(3.0)", "value": 0.5624, "value_rock": 0.3566, "value_soil": 1.1079, "units": "%g", "ln_tau": 0.4416, "ln_phi": 0.6606, "ln_sigma": 0.7946, "ln_sigma_rock": 0.8005, "ln_sigma_soil": 0.8002, "ln_bias": 0.2104, "ln_bias_sigma": 0.214}, {"name": "pga", "value": 6.5587, "value_rock": 5.257, "value_soil": 7.9654, "units": "%g", "ln_tau": 0.4056, "ln_phi": 0.5961, "ln_sigma": 0.721, "ln_sigma_rock": 0.7257, "ln_sigma_soil": 0.7152, "ln_bias": -0.0893, "ln_bias_sigma": 0.1789}, {"name": "mmi", "value": 4.3865, "value_rock": 4.134, "value_soil": 5.0998, "units": "intensity", "tau": 0.2516, "phi": 0.7388, "sigma": 0.7804, "sigma_rock": 0.7827, "sigma_soil": 1.1731, "bias": 0.0948, "bias_sigma": 0.197}], "mmi_from_pgm": [{"name": "pgv", "value": 4.47, "sigma": 0.63, "flag": "0"}, {"name": "sa(0.3)", "value": 4.49, "sigma": 0.82, "flag": "0"}, {"name": "sa(1.0)", "value": 5.06, "sigma": 0.75, "flag": "0"}, {"name": "sa(3.0)", "value": 4.84, "sigma": 0.89, "flag": "0"}, {"name": "pga", "value": 3.97, "sigma": 0.66, "flag": "0"}], "distance_stddev": 0.0, "distances": {"repi": 35.167, "rhypo": 36.561, "rjb": 25.953, "rjb_var": 0.0, "rrup": 26.044, "rrup_var": 0.0, "rx": 1.619, "ry0": 25.964, "rvolc": 0.0}}, "geometry": {"type": "Point", "coordinates": [13.097, 42.775]}}, {"type": "Feature", "id": "G.AS010", "properties": {"code": "AS010", "name": "Assisi-Stallone", "instrumentType": "UNK", "source": "G", "network": "G", "commType": "UNK", "location": "", "intensity": 5.2, "intensity_flag": "", "intensity_stddev": 0.63, "pga": 15.4082, "pgv": 5.84, "distance": 22.87, "elev": null, "vs30": 583.73, "channels": [{"name": "N", "amplitudes": [{"name": "sa(1.0)", "value": 1.5306, "units": "%g", "flag": "0", "ln_sigma": 0.0}, {"name": "sa(3.0)", "value": 0.1418, "units": "%g", "flag": "0", "ln_sigma": 0.0}, {"name": "sa(0.3)", "value": 34.6939, "units": "%g", "flag": "0", "ln_sigma": 0.0}, {"name": "pgv", "value": 5.84, "units": "cm/s", "flag": "0", "ln_sigma": 0.0}, {"name": "pga", "value": 15.4082, "units": "%g", "flag": "0", "ln_sigma": 0.0}]}, {"name": "Z", "amplitudes": [{"name": "sa(1.0)", "value": 1.1939, "units": "%g", "flag": "0", "ln_sigma": 0.0}, {"name": "sa(3.0)", "value": 0.1041, "units": "%g", "flag": "0", "ln_sigma": 0.0}, {"name": "sa(0.3)", "value": 5.949, "units": "%g", "flag": "0", "ln_sigma": 0.0}, {"name": "pgv", "value": 1.56, "units": "cm/s", "flag": "0", "ln_sigma": 0.0}, {"name": "pga", "value": 3.9898, "units": "%g", "flag": "0", "ln_sigma": 0.0}]}, {"name": "E", "amplitudes": [{"name": "sa(1.0)", "value": 3.1735, "units": "%g", "flag": "0", "ln_sigma": 0.0}, {"name": "sa(3.0)", "value": 0.2143, "units": "%g", "flag": "0", "ln_sigma": 0.0}, {"name": "sa(0.3)", "value": 28.1633, "units": "%g", "flag": "0", "ln_sigma": 0.0}, {"name": "pgv", "value": 4.61, "units": "cm/s", "flag": "0", "ln_sigma": 0.0}, {"name": "pga", "value": 11.2245, "units": "%g", "flag": "0", "ln_sigma": 0.0}]}], "station_type": "seismic", "nresp": "null", "predictions": [{"name": "pgv", "value": 3.0832, "value_rock": 2.5379, "value_soil": 6.4829, "units": "cm/s", "ln_tau": 0.3942, "ln_phi": 0.6045, "ln_sigma": 0.7217, "ln_sigma_rock": 0.7274, "ln_sigma_soil": 0.7206, "ln_bias": 0.2415, "ln_bias_sigma": 0.1843}, {"name": "sa(0.3)", "value": 11.6838, "value_rock": 9.2649, "value_soil": 21.784, "units": "%g", "ln_tau": 0.3913, "ln_phi": 0.6672, "ln_sigma": 0.7735, "ln_sigma_rock": 0.776, "ln_sigma_soil": 0.7618, "ln_bias": -0.0558, "ln_bias_sigma": 0.1926}, {"name": "sa(1.0)", "value": 2.9347, "value_rock": 2.2533, "value_soil": 8.1504, "units": "%g", "ln_tau": 0.4336, "ln_phi": 0.6778, "ln_sigma": 0.8046, "ln_sigma_rock": 0.8097, "ln_sigma_soil": 0.8044, "ln_bias": 0.1855, "ln_bias_sigma": 0.2059}, {"name": "sa(3.0)", "value": 0.5138, "value_rock": 0.4139, "value_soil": 1.2778, "units": "%g", "ln_tau": 0.4416, "ln_phi": 0.6606, "ln_sigma": 0.7946, "ln_sigma_rock": 0.8005, "ln_sigma_soil": 0.8002, "ln_bias": 0.2104, "ln_bias_sigma": 0.214}, {"name": "pga", "value": 7.1672, "value_rock": 6.3746, "value_soil": 9.4773, "units": "%g", "ln_tau": 0.4064, "ln_phi": 0.5967, "ln_sigma": 0.722, "ln_sigma_rock": 0.7257, "ln_sigma_soil": 0.714, "ln_bias": -0.0894, "ln_bias_sigma": 0.179}, {"name": "mmi", "value": 4.3728, "value_rock": 4.2486, "value_soil": 5.3292, "units": "intensity", "tau": 0.2516, "phi": 0.7388, "sigma": 0.7805, "sigma_rock": 0.7827, "sigma_soil": 1.1726, "bias": 0.0948, "bias_sigma": 0.197}], "mmi_from_pgm": [{"name": "pgv", "value": 5.19, "sigma": 0.63, "flag": "0"}, {"name": "sa(0.3)", "value": 6.1, "sigma": 0.82, "flag": "0"}, {"name": "sa(1.0)", "value": 4.71, "sigma": 0.75, "flag": "0"}, {"name": "sa(3.0)", "value": 4.13, "sigma": 0.89, "flag": "0"}, {"name": "pga", "value": 5.97, "sigma": 0.66, "flag": "0"}], "distance_stddev": 0.0, "distances": {"repi": 22.301, "rhypo": 24.44, "rjb": 21.818, "rjb_var": 0.0, "rrup": 22.87, "rrup_var": 0.0, "rx": 21.089, "ry0": 14.827, "rvolc": 0.0}}, "geometry": {"type": "Point", "coordinates": [12.607, 43.075]}}, {"type": "Feature", "id": "G.PK010", "properties": {"code": "PK010", "name": "Aquilpark-Parcheggio", "instrumentType": "UNK", "source": "G", "network": "G", "commType": "UNK", "location": "", "intensity": 3.7, "intensity_flag": "", "intensity_stddev": 0.63, "pga": 0.5816, "pgv": 1.01, "distance": 79.775, "elev": null, "vs30": 470.18, "channels": [{"name": "N", "amplitudes": [{"name": "sa(1.0)", "value": 1.1633, "units": "%g", "flag": "0", "ln_sigma": 0.0}, {"name": "sa(3.0)", "value": 0.1776, "units": "%g", "flag": "0", "ln_sigma": 0.0}, {"name": "sa(0.3)", "value": 1.0204, "units": "%g", "flag": "0", "ln_sigma": 0.0}, {"name": "pgv", "value": 1.01, "units": "cm/s", "flag": "0", "ln_sigma": 0.0}, {"name": "pga", "value": 0.5582, "units": "%g", "flag": "0", "ln_sigma": 0.0}]}, {"name": "Z", "amplitudes": [{"name": "sa(1.0)", "value": 1.7041, "units": "%g", "flag": "0", "ln_sigma": 0.0}, {"name": "sa(3.0)", "value": 0.1286, "units": "%g", "flag": "0", "ln_sigma": 0.0}, {"name": "sa(0.3)", "value": 0.8225, "units": "%g", "flag": "0", "ln_sigma": 0.0}, {"name": "pgv", "value": 0.645, "units": "cm/s", "flag": "0", "ln_sigma": 0.0}, {"name": "pga", "value": 0.4398, "units": "%g", "flag": "0", "ln_sigma": 0.0}]}, {"name": "E", "amplitudes": [{"name": "sa(1.0)", "value": 1.1531, "units": "%g", "flag": "0", "ln_sigma": 0.0}, {"name": "sa(3.0)", "value": 0.352, "units": "%g", "flag": "0", "ln_sigma": 0.0}, {"name": "sa(0.3)", "value": 1.1735, "units": "%g", "flag": "0", "ln_sigma": 0.0}, {"name": "pgv", "value": 0.895, "units": "cm/s", "flag": "0", "ln_sigma": 0.0}, {"name": "pga", "value": 0.5816, "units": "%g", "flag": "0", "ln_sigma": 0.0}]}], "station_type": "seismic", "nresp": "null", "predictions": [{"name": "pgv", "value": 0.7208, "value_rock": 0.5158, "value_soil": 1.4069, "units": "cm/s", "ln_tau": 0.3942, "ln_phi": 0.6045, "ln_sigma": 0.7217, "ln_sigma_rock": 0.7274, "ln_sigma_soil": 0.723, "ln_bias": 0.2415, "ln_bias_sigma": 0.1843}, {"name": "sa(0.3)", "value": 2.5043, "value_rock": 1.7073, "value_soil": 4.6723, "units": "%g", "ln_tau": 0.3914, "ln_phi": 0.6672, "ln_sigma": 0.7736, "ln_sigma_rock": 0.7761, "ln_sigma_soil": 0.7707, "ln_bias": -0.0558, "ln_bias_sigma": 0.1926}, {"name": "sa(1.0)", "value": 0.8077, "value_rock": 0.5088, "value_soil": 2.0104, "units": "%g", "ln_tau": 0.4336, "ln_phi": 0.6778, "ln_sigma": 0.8046, "ln_sigma_rock": 0.8097, "ln_sigma_soil": 0.8068, "ln_bias": 0.1855, "ln_bias_sigma": 0.2059}, {"name": "sa(3.0)", "value": 0.1491, "value_rock": 0.1018, "value_soil": 0.3252, "units": "%g", "ln_tau": 0.4416, "ln_phi": 0.6607, "ln_sigma": 0.7946, "ln_sigma_rock": 0.8005, "ln_sigma_soil": 0.8003, "ln_bias": 0.2104, "ln_bias_sigma": 0.214}, {"name": "pga", "value": 1.3099, "value_rock": 1.0775, "value_soil": 1.7718, "units": "%g", "ln_tau": 0.4067, "ln_phi": 0.597, "ln_sigma": 0.7224, "ln_sigma_rock": 0.7258, "ln_sigma_soil": 0.721, "ln_bias": -0.0894, "ln_bias_sigma": 0.179}, {"name": "mmi", "value": 3.445, "value_rock": 3.2313, "value_soil": 3.872, "units": "intensity", "tau": 0.2516, "phi": 0.7388, "sigma": 0.7805, "sigma_rock": 0.7827, "sigma_soil": 0.781, "bias": 0.0948, "bias_sigma": 0.1971}], "mmi_from_pgm": [{"name": "pgv", "value": 3.66, "sigma": 0.63, "flag": "0"}, {"name": "sa(0.3)", "value": 3.14, "sigma": 0.82, "flag": "0"}, {"name": "sa(1.0)", "value": 3.78, "sigma": 0.75, "flag": "0"}, {"name": "sa(3.0)", "value": 4.07, "sigma": 0.89, "flag": "0"}, {"name": "pga", "value": 3.01, "sigma": 0.66, "flag": "0"}], "distance_stddev": 0.0, "distances": {"repi": 88.955, "rhypo": 89.515, "rjb": 79.75, "rjb_var": 0.0, "rrup": 79.775, "rrup_var": 0.0, "rx": 1.885, "ry0": 79.772, "rvolc": 0.0}}, "geometry": {"type": "Point", "coordinates": [13.401, 42.346]}}, {"type": "Feature", "id": "G.SPM", "properties": {"code": "SPM", "name": "Spoleto Monteluco", "instrumentType": "UNK", "source": "G", "network": "G", "commType": "UNK", "location": "", "intensity": 4.0, "intensity_flag": "", "intensity_stddev": 0.63, "pga": 4.9898, "pgv": 1.81, "distance": 30.757, "elev": null, "vs30": 900.0, "channels": [{"name": "N", "amplitudes": [{"name": "sa(1.0)", "value": 1.9082, "units": "%g", "flag": "0", "ln_sigma": 0.0}, {"name": "sa(3.0)", "value": 0.3571, "units": "%g", "flag": "0", "ln_sigma": 0.0}, {"name": "sa(0.3)", "value": 4.1122, "units": "%g", "flag": "0", "ln_sigma": 0.0}, {"name": "pgv", "value": 1.81, "units": "cm/s", "flag": "0", "ln_sigma": 0.0}, {"name": "pga", "value": 4.9898, "units": "%g", "flag": "0", "ln_sigma": 0.0}]}, {"name": "Z", "amplitudes": [{"name": "sa(1.0)", "value": 0.7459, "units": "%g", "flag": "0", "ln_sigma": 0.0}, {"name": "sa(3.0)", "value": 0.3071, "units": "%g", "flag": "0", "ln_sigma": 0.0}, {"name": "sa(0.3)", "value": 1.7551, "units": "%g", "flag": "0", "ln_sigma": 0.0}, {"name": "pgv", "value": 0.699, "units": "cm/s", "flag": "0", "ln_sigma": 0.0}, {"name": "pga", "value": 1.6633, "units": "%g", "flag": "0", "ln_sigma": 0.0}]}, {"name": "E", "amplitudes": [{"name": "sa(1.0)", "value": 1.5102, "units": "%g", "flag": "0", "ln_sigma": 0.0}, {"name": "sa(3.0)", "value": 0.7653, "units": "%g", "flag": "0", "ln_sigma": 0.0}, {"name": "sa(0.3)", "value": 6.3469, "units": "%g", "flag": "0", "ln_sigma": 0.0}, {"name": "pgv", "value": 1.61, "units": "cm/s", "flag": "0", "ln_sigma": 0.0}, {"name": "pga", "value": 3.6122, "units": "%g", "flag": "0", "ln_sigma": 0.0}]}], "station_type": "seismic", "nresp": "null", "predictions": [{"name": "pgv", "value": 1.563, "value_rock": 1.7423, "value_soil": 4.5508, "units": "cm/s", "ln_tau": 0.3942, "ln_phi": 0.6045, "ln_sigma": 0.7217, "ln_sigma_rock": 0.7274, "ln_sigma_soil": 0.7215, "ln_bias": 0.2415, "ln_bias_sigma": 0.1843}, {"name": "sa(0.3)", "value": 5.5614, "value_rock": 6.2447, "value_soil": 15.4649, "units": "%g", "ln_tau": 0.3916, "ln_phi": 0.6674, "ln_sigma": 0.7738, "ln_sigma_rock": 0.7761, "ln_sigma_soil": 0.7649, "ln_bias": -0.0558, "ln_bias_sigma": 0.1927}, {"name": "sa(1.0)", "value": 1.3577, "value_rock": 1.5827, "value_soil": 5.8981, "units": "%g", "ln_tau": 0.4336, "ln_phi": 0.6778, "ln_sigma": 0.8046, "ln_sigma_rock": 0.8097, "ln_sigma_soil": 0.8052, "ln_bias": 0.1855, "ln_bias_sigma": 0.2059}, {"name": "sa(3.0)", "value": 0.2669, "value_rock": 0.3016, "value_soil": 0.9418, "units": "%g", "ln_tau": 0.4416, "ln_phi": 0.6607, "ln_sigma": 0.7946, "ln_sigma_rock": 0.8005, "ln_sigma_soil": 0.8002, "ln_bias": 0.2104, "ln_bias_sigma": 0.214}, {"name": "pga", "value": 4.0271, "value_rock": 4.2717, "value_soil": 6.5734, "units": "%g", "ln_tau": 0.4069, "ln_phi": 0.5972, "ln_sigma": 0.7227, "ln_sigma_rock": 0.7257, "ln_sigma_soil": 0.7165, "ln_bias": -0.0894, "ln_bias_sigma": 0.179}, {"name": "mmi", "value": 3.9391, "value_rock": 4.0084, "value_soil": 4.8436, "units": "intensity", "tau": 0.2517, "phi": 0.7388, "sigma": 0.7805, "sigma_rock": 0.7827, "sigma_soil": 1.1736, "bias": 0.0948, "bias_sigma": 0.1971}], "mmi_from_pgm": [{"name": "pgv", "value": 4.03, "sigma": 0.63, "flag": "0"}, {"name": "sa(0.3)", "value": 4.14, "sigma": 0.82, "flag": "0"}, {"name": "sa(1.0)", "value": 4.31, "sigma": 0.75, "flag": "0"}, {"name": "sa(3.0)", "value": 4.7, "sigma": 0.89, "flag": "0"}, {"name": "pga", "value": 4.29, "sigma": 0.66, "flag": "0"}], "distance_stddev": 0.0, "distances": {"repi": 37.697, "rhypo": 39.001, "rjb": 29.991, "rjb_var": 0.0, "rrup": 30.757, "rrup_var": 0.0, "rx": 29.25, "ry0": 17.911, "rvolc": 0.0}}, "geometry": {"type": "Point", "coordinates": [12.752, 42.722]}}, {"type": "Feature", "id": "G.LNS", "properties": {"code": "LNS", "name": "Leonessa", "instrumentType": "UNK", "source": "G", "network": "G", "commType": "UNK", "location": "", "intensity": 3.8, "intensity_flag": "", "intensity_stddev": 0.63, "pga": 2.7449, "pgv": 1.35, "distance": 45.469, "elev": null, "vs30": 379.55, "channels": [{"name": "N", "amplitudes": [{"name": "sa(1.0)", "value": 0.8296, "units": "%g", "flag": "0", "ln_sigma": 0.0}, {"name": "sa(3.0)", "value": 0.448, "units": "%g", "flag": "0", "ln_sigma": 0.0}, {"name": "sa(0.3)", "value": 6.0816, "units": "%g", "flag": "0", "ln_sigma": 0.0}, {"name": "pgv", "value": 1.35, "units": "cm/s", "flag": "0", "ln_sigma": 0.0}, {"name": "pga", "value": 2.4184, "units": "%g", "flag": "0", "ln_sigma": 0.0}]}, {"name": "Z", "amplitudes": [{"name": "sa(1.0)", "value": 0.9296, "units": "%g", "flag": "0", "ln_sigma": 0.0}, {"name": "sa(3.0)", "value": 0.3184, "units": "%g", "flag": "0", "ln_sigma": 0.0}, {"name": "sa(0.3)", "value": 2.2857, "units": "%g", "flag": "0", "ln_sigma": 0.0}, {"name": "pgv", "value": 1.04, "units": "cm/s", "flag": "0", "ln_sigma": 0.0}, {"name": "pga", "value": 1.5, "units": "%g", "flag": "0", "ln_sigma": 0.0}]},