{"type": "FeatureCollection", "features": [{"type": "Feature", "id": "G.TER", "properties": {"code": "TER", "name": "Tercan-Meteoroji Mudurlugu", "instrumentType": "UNK", "source": "G", "network": "G", "commType": "UNK", "location": "", "intensity": 4.6, "intensity_flag": "", "intensity_stddev": 0.63, "pga": 3.0306, "pgv": 4.26, "distance": 57.78, "elev": null, "vs30": 428.0, "channels": [{"name": "E", "amplitudes": [{"name": "sa(3.0)", "value": 1.2857, "units": "%g", "flag": "0", "ln_sigma": 0.0}, {"name": "sa(0.3)", "value": 6.1735, "units": "%g", "flag": "0", "ln_sigma": 0.0}, {"name": "sa(1.0)", "value": 4.0816, "units": "%g", "flag": "0", "ln_sigma": 0.0}, {"name": "pga", "value": 2.9184, "units": "%g", "flag": "0", "ln_sigma": 0.0}, {"name": "pgv", "value": 4.18, "units": "cm/s", "flag": "0", "ln_sigma": 0.0}]}, {"name": "N", "amplitudes": [{"name": "sa(3.0)", "value": 1.2755, "units": "%g", "flag": "0", "ln_sigma": 0.0}, {"name": "sa(0.3)", "value": 9.1122, "units": "%g", "flag": "0", "ln_sigma": 0.0}, {"name": "sa(1.0)", "value": 7.4388, "units": "%g", "flag": "0", "ln_sigma": 0.0}, {"name": "pga", "value": 3.0306, "units": "%g", "flag": "0", "ln_sigma": 0.0}, {"name": "pgv", "value": 4.26, "units": "cm/s", "flag": "0", "ln_sigma": 0.0}]}, {"name": "Z", "amplitudes": [{"name": "sa(3.0)", "value": 0.8551, "units": "%g", "flag": "0", "ln_sigma": 0.0}, {"name": "sa(0.3)", "value": 4.6837, "units": "%g", "flag": "0", "ln_sigma": 0.0}, {"name": "sa(1.0)", "value": 4.0714, "units": "%g", "flag": "0", "ln_sigma": 0.0}, {"name": "pga", "value": 1.7143, "units": "%g", "flag": "0", "ln_sigma": 0.0}, {"name": "pgv", "value": 2.4, "units": "cm/s", "flag": "0", "ln_sigma": 0.0}]}], "station_type": "seismic", "nresp": "null", "predictions": [{"name": "sa(0.3)", "value": 12.9459, "value_rock": 8.4012, "value_soil": 20.0406, "units": "%g", "ln_tau": 0.3791, "ln_phi": 0.6521, "ln_sigma": 0.7543, "ln_sigma_rock": 0.7565, "ln_sigma_soil": 0.7439, "ln_bias": -0.0159, "ln_bias_sigma": 0.2171}, {"name": "sa(3.0)", "value": 1.5629, "value_rock": 0.9983, "value_soil": 3.092, "units": "%g", "ln_tau": 0.4306, "ln_phi": 0.6535, "ln_sigma": 0.7826, "ln_sigma_rock": 0.7849, "ln_sigma_soil": 0.7848, "ln_bias": -0.0311, "ln_bias_sigma": 0.2503}, {"name": "pga", "value": 6.1699, "value_rock": 4.9662, "value_soil": 7.4572, "units": "%g", "ln_tau": 0.3927, "ln_phi": 0.5807, "ln_sigma": 0.701, "ln_sigma_rock": 0.7049, "ln_sigma_soil": 0.6944, "ln_bias": -0.0393, "ln_bias_sigma": 0.2022}, {"name": "pgv", "value": 5.5783, "value_rock": 3.7797, "value_soil": 9.7171, "units": "cm/s", "ln_tau": 0.3851, "ln_phi": 0.591, "ln_sigma": 0.7054, "ln_sigma_rock": 0.7101, "ln_sigma_soil": 0.7039, "ln_bias": -0.0907, "ln_bias_sigma": 0.2129}, {"name": "sa(1.0)", "value": 5.718, "value_rock": 3.3345, "value_soil": 12.1579, "units": "%g", "ln_tau": 0.4227, "ln_phi": 0.6683, "ln_sigma": 0.7908, "ln_sigma_rock": 0.7929, "ln_sigma_soil": 0.7884, "ln_bias": 0.1193, "ln_bias_sigma": 0.24}, {"name": "mmi", "value": 4.9429, "value_rock": 4.4088, "value_soil": 5.7046, "units": "intensity", "tau": 0.5284, "phi": 1.027, "sigma": 1.155, "sigma_rock": 1.1604, "sigma_soil": 1.1533, "bias": -0.1448, "bias_sigma": 0.3339}], "mmi_from_pgm": [{"name": "sa(0.3)", "value": 4.56, "sigma": 0.82, "flag": "0"}, {"name": "sa(3.0)", "value": 4.8, "sigma": 0.89, "flag": "0"}, {"name": "pga", "value": 3.81, "sigma": 0.66, "flag": "0"}, {"name": "pgv", "value": 4.57, "sigma": 0.63, "flag": "0"}, {"name": "sa(1.0)", "value": 5.07, "sigma": 0.75, "flag": "0"}], "distance_stddev": 0.0, "distances": {"repi": 67.128, "rhypo": 72.43, "rjb": 57.754, "rjb_var": 0.0, "rrup": 57.78, "rrup_var": 0.0, "rx": -45.195, "ry0": 35.732, "rvolc": 0.0}}, "geometry": {"type": "Point", "coordinates": [40.385, 39.779]}}, {"type": "Feature", "id": "G.REF", "properties": {"code": "REF", "name": "Refahiye-Kaymakamlik Binasi", "instrumentType": "UNK", "source": "G", "network": "G", "commType": "UNK", "location": "", "intensity": 4.9, "intensity_flag": "", "intensity_stddev": 0.63, "pga": 7.051, "pgv": 5.34, "distance": 62.269, "elev": null, "vs30": 531.62, "channels": [{"name": "E", "amplitudes": [{"name": "sa(3.0)", "value": 1.4898, "units": "%g", "flag": "0", "ln_sigma": 0.0}, {"name": "sa(0.3)", "value": 13.8776, "units": "%g", "flag": "0", "ln_sigma": 0.0}, {"name": "sa(1.0)", "value": 4.7143, "units": "%g", "flag": "0", "ln_sigma": 0.0}, {"name": "pga", "value": 7.051, "units": "%g", "flag": "0", "ln_sigma": 0.0}, {"name": "pgv", "value": 3.6, "units": "cm/s", "flag": "0", "ln_sigma": 0.0}]}, {"name": "N", "amplitudes": [{"name": "sa(3.0)", "value": 1.7959, "units": "%g", "flag": "0", "ln_sigma": 0.0}, {"name": "sa(0.3)", "value": 18.3673, "units": "%g", "flag": "0", "ln_sigma": 0.0}, {"name": "sa(1.0)", "value": 8.2653, "units": "%g", "flag": "0", "ln_sigma": 0.0}, {"name": "pga", "value": 6.9286, "units": "%g", "flag": "0", "ln_sigma": 0.0}, {"name": "pgv", "value": 5.34, "units": "cm/s", "flag": "0", "ln_sigma": 0.0}]}, {"name": "Z", "amplitudes": [{"name": "sa(3.0)", "value": 0.9388, "units": "%g", "flag": "0", "ln_sigma": 0.0}, {"name": "sa(0.3)", "value": 9.4796, "units": "%g", "flag": "0", "ln_sigma": 0.0}, {"name": "sa(1.0)", "value": 2.4898, "units": "%g", "flag": "0", "ln_sigma": 0.0}, {"name": "pga", "value": 3.6122, "units": "%g", "flag": "0", "ln_sigma": 0.0}, {"name": "pgv", "value": 2.26, "units": "cm/s", "flag": "0", "ln_sigma": 0.0}]}], "station_type": "seismic", "nresp": "null", "predictions": [{"name": "sa(0.3)", "value": 10.3497, "value_rock": 7.7073, "value_soil": 18.6002, "units": "%g", "ln_tau": 0.3797, "ln_phi": 0.6528, "ln_sigma": 0.7552, "ln_sigma_rock": 0.7565, "ln_sigma_soil": 0.7446, "ln_bias": -0.0159, "ln_bias_sigma": 0.2172}, {"name": "sa(3.0)", "value": 1.2407, "value_rock": 0.9309, "value_soil": 2.8904, "units": "%g", "ln_tau": 0.4306, "ln_phi": 0.6535, "ln_sigma": 0.7826, "ln_sigma_rock": 0.7849, "ln_sigma_soil": 0.7848, "ln_bias": -0.0311, "ln_bias_sigma": 0.2503}, {"name": "pga", "value": 5.2618, "value_rock": 4.5344, "value_soil": 6.8614, "units": "%g", "ln_tau": 0.3934, "ln_phi": 0.5812, "ln_sigma": 0.7019, "ln_sigma_rock": 0.7049, "ln_sigma_soil": 0.6949, "ln_bias": -0.0393, "ln_bias_sigma": 0.2023}, {"name": "pgv", "value": 4.5047, "value_rock": 3.4933, "value_soil": 9.025, "units": "cm/s", "ln_tau": 0.3852, "ln_phi": 0.5911, "ln_sigma": 0.7055, "ln_sigma_rock": 0.7101, "ln_sigma_soil": 0.7041, "ln_bias": -0.0907, "ln_bias_sigma": 0.2129}, {"name": "sa(1.0)", "value": 4.3957, "value_rock": 3.1017, "value_soil": 11.3847, "units": "%g", "ln_tau": 0.4228, "ln_phi": 0.6684, "ln_sigma": 0.7909, "ln_sigma_rock": 0.7929, "ln_sigma_soil": 0.7887, "ln_bias": 0.1193, "ln_bias_sigma": 0.24}, {"name": "mmi", "value": 4.6496, "value_rock": 4.3006, "value_soil": 5.6032, "units": "intensity", "tau": 0.5286, "phi": 1.0271, "sigma": 1.1551, "sigma_rock": 1.1604, "sigma_soil": 1.1535, "bias": -0.1448, "bias_sigma": 0.3339}], "mmi_from_pgm": [{"name": "sa(0.3)", "value": 5.22, "sigma": 0.82, "flag": "0"}, {"name": "sa(3.0)", "value": 5.22, "sigma": 0.89, "flag": "0"}, {"name": "pga", "value": 4.99, "sigma": 0.66, "flag": "0"}, {"name": "pgv", "value": 4.88, "sigma": 0.63, "flag": "0"}, {"name": "sa(1.0)", "value": 5.18, "sigma": 0.75, "flag": "0"}], "distance_stddev": 0.0, "distances": {"repi": 74.391, "rhypo": 79.208, "rjb": 62.247, "rjb_var": 0.0, "rrup": 62.269, "rrup_var": 0.0, "rx": 22.584, "ry0": 57.851, "rvolc": 0.0}}, "geometry": {"type": "Point", "coordinates": [38.77, 39.9]}}, {"type": "Feature", "id": "G.ERC", "properties": {"code": "ERC", "name": "Erzincan-Meteorologij Mudurlugu", "instrumentType": "UNK", "source": "G", "network": "G", "commType": "UNK", "location": "", "intensity": 8.9, "intensity_flag": "", "intensity_stddev": 0.63, "pga": 51.3265, "pgv": 102.0, "distance": 2.289, "elev": null, "vs30": 351.92, "channels": [{"name": "E", "amplitudes": [{"name": "sa(3.0)", "value": 19.5918, "units": "%g", "flag": "0", "ln_sigma": 0.0}, {"name": "sa(0.3)", "value": 86.8367, "units": "%g", "flag": "0", "ln_sigma": 0.0}, {"name": "sa(1.0)", "value": 88.2653, "units": "%g", "flag": "0", "ln_sigma": 0.0}, {"name": "pga", "value": 38.8776, "units": "%g", "flag": "0", "ln_sigma": 0.0}, {"name": "pgv", "value": 102.0, "units": "cm/s", "flag": "0", "ln_sigma": 0.0}]}, {"name": "N", "amplitudes": [{"name": "sa(3.0)", "value": 17.1429, "units": "%g", "flag": "0", "ln_sigma": 0.0}, {"name": "sa(0.3)", "value": 156.1224, "units": "%g", "flag": "0", "ln_sigma": 0.0}, {"name": "sa(1.0)", "value": 63.5714, "units": "%g", "flag": "0", "ln_sigma": 0.0}, {"name": "pga", "value": 51.3265, "units": "%g", "flag": "0", "ln_sigma": 0.0}, {"name": "pgv", "value": 71.8, "units": "cm/s", "flag": "0", "ln_sigma": 0.0}]}, {"name": "Z", "amplitudes": [{"name": "sa(3.0)", "value": 5.5, "units": "%g", "flag": "0", "ln_sigma": 0.0}, {"name": "sa(0.3)", "value": 48.9796, "units": "%g", "flag": "0", "ln_sigma": 0.0}, {"name": "sa(1.0)", "value": 16.2245, "units": "%g", "flag": "0", "ln_sigma": 0.0}, {"name": "pga", "value": 24.7959, "units": "%g", "flag": "0", "ln_sigma": 0.0}, {"name": "pgv", "value": 14.1, "units": "cm/s", "flag": "0", "ln_sigma": 0.0}]}], "station_type": "seismic", "nresp": "null", "predictions": [{"name": "sa(0.3)", "value": 137.9398, "value_rock": 98.6718, "value_soil": 131.9828, "units": "%g", "ln_tau": 0.3707, "ln_phi": 0.6443, "ln_sigma": 0.7433, "ln_sigma_rock": 0.7564, "ln_sigma_soil": 0.7217, "ln_bias": -0.0157, "ln_bias_sigma": 0.2154}, {"name": "sa(3.0)", "value": 11.8699, "value_rock": 6.8371, "value_soil": 19.3437, "units": "%g", "ln_tau": 0.4305, "ln_phi": 0.6534, "ln_sigma": 0.7825, "ln_sigma_rock": 0.7849, "ln_sigma_soil": 0.7847, "ln_bias": -0.0311, "ln_bias_sigma": 0.2503}, {"name": "pga", "value": 64.409, "value_rock": 56.3558, "value_soil": 59.1943, "units": "%g", "ln_tau": 0.3839, "ln_phi": 0.5742, "ln_sigma": 0.6907, "ln_sigma_rock": 0.7042, "ln_sigma_soil": 0.6776, "ln_bias": -0.0388, "ln_bias_sigma": 0.2009}, {"name": "pgv", "value": 62.9381, "value_rock": 40.7919, "value_soil": 82.7898, "units": "cm/s", "ln_tau": 0.3838, "ln_phi": 0.5897, "ln_sigma": 0.7036, "ln_sigma_rock": 0.7101, "ln_sigma_soil": 0.6975, "ln_bias": -0.0905, "ln_bias_sigma": 0.2127}, {"name": "sa(1.0)", "value": 56.7894, "value_rock": 30.951, "value_soil": 82.9472, "units": "%g", "ln_tau": 0.4215, "ln_phi": 0.6671, "ln_sigma": 0.7891, "ln_sigma_rock": 0.7928, "ln_sigma_soil": 0.7769, "ln_bias": 0.119, "ln_bias_sigma": 0.2398}, {"name": "mmi", "value": 8.2686, "value_rock": 7.6734, "value_soil": 8.6448, "units": "intensity", "tau": 0.5267, "phi": 1.0256, "sigma": 1.153, "sigma_rock": 1.1604, "sigma_soil": 1.1459, "bias": -0.1444, "bias_sigma": 0.3334}], "mmi_from_pgm": [{"name": "sa(0.3)", "value": 8.59, "sigma": 0.82, "flag": "0"}, {"name": "sa(3.0)", "value": 8.8, "sigma": 0.89, "flag": "0"}, {"name": "pga", "value": 7.37, "sigma": 0.66, "flag": "0"}, {"name": "pgv", "value": 8.93, "sigma": 0.63, "flag": "0"}, {"name": "sa(1.0)", "value": 8.56, "sigma": 0.75, "flag": "0"}], "distance_stddev": 0.0, "distances": {"repi": 11.061, "rhypo": 29.363, "rjb": 1.107, "rjb_var": 0.0, "rrup": 2.289, "rrup_var": 0.0, "rx": 1.107, "ry0": 0.0, "rvolc": 0.0}}, "geometry": {"type": "Point", "coordinates": [39.489, 39.754]}}, {"type": "Feature", "id": "INTENSITY.OBS_15", "properties": {"code": "OBS_15", "name": "Cukurkuyu (Intensity VIII)", "instrumentType": "OBSERVED", "source": "INTENSITY", "network": "INTENSITY", "commType": "UNK", "location": "", "intensity": 8.0, "intensity_flag": "0", "intensity_stddev": 0.3, "pga": 76.0385, "pgv": 51.7516, "distance": 4.966, "elev": null, "vs30": 310.77, "channels": [], "nresp": -1, "station_type": "macroseismic", "predictions": [{"name": "mmi", "value": 7.9907, "value_rock": 7.3127, "value_soil": 8.3281, "units": "intensity", "tau": 0.5323, "phi": 1.0332, "sigma": 1.1623, "sigma_rock": 1.1745, "sigma_soil": 1.1601, "bias": -0.1456, "bias_sigma": 0.3348}, {"name": "pga", "value": 52.2317, "value_rock": 44.7583, "value_soil": 49.0466, "units": "%g", "ln_tau": 0.3802, "ln_phi": 0.5696, "ln_sigma": 0.6848, "ln_sigma_rock": 0.7164, "ln_sigma_soil": 0.69, "ln_bias": -0.0386, "ln_bias_sigma": 0.2004}, {"name": "sa(0.3)", "value": 112.5626, "value_rock": 76.5636, "value_soil": 110.5393, "units": "%g", "ln_tau": 0.3647, "ln_phi": 0.6366, "ln_sigma": 0.7337, "ln_sigma_rock": 0.7693, "ln_sigma_soil": 0.7341, "ln_bias": -0.0155, "ln_bias_sigma": 0.2143}, {"name": "sa(1.0)", "value": 47.8028, "value_rock": 23.8943, "value_soil": 66.6068, "units": "%g", "ln_tau": 0.4254, "ln_phi": 0.6741, "ln_sigma": 0.7971, "ln_sigma_rock": 0.8059, "ln_sigma_soil": 0.7911, "ln_bias": 0.1197, "ln_bias_sigma": 0.2405}, {"name": "sa(3.0)", "value": 10.6675, "value_rock": 5.6472, "value_soil": 16.0898, "units": "%g", "ln_tau": 0.4365, "ln_phi": 0.6627, "ln_sigma": 0.7935, "ln_sigma_rock": 0.7985, "ln_sigma_soil": 0.7984, "ln_bias": -0.0314, "ln_bias_sigma": 0.2515}, {"name": "pgv", "value": 51.4023, "value_rock": 31.3643, "value_soil": 65.7296, "units": "cm/s", "ln_tau": 0.3879, "ln_phi": 0.5968, "ln_sigma": 0.7117, "ln_sigma_rock": 0.7223, "ln_sigma_soil": 0.7098, "ln_bias": -0.0911, "ln_bias_sigma": 0.2134}], "pgm_from_mmi": [{"name": "sa(3.0)", "value": 10.648, "units": "%g", "ln_sigma": 1.4737, "flag": "0"}, {"name": "sa(0.3)", "value": 112.6702, "units": "%g", "ln_sigma": 1.0131, "flag": "0"}, {"name": "pga", "value": 76.0385, "units": "%g", "ln_sigma": 0.8059, "flag": "0"}, {"name": "pgv", "value": 51.7516, "units": "cm/s", "ln_sigma": 0.875, "flag": "0"}, {"name": "sa(1.0)", "value": 56.7797, "units": "%g", "ln_sigma": 1.0822, "flag": "0"}], "distance_stddev": 0.0, "distances": {"repi": 16.956, "rhypo": 32.052, "rjb": 4.546, "rjb_var": 0.0, "rrup": 4.966, "rrup_var": 0.0, "rx": 2.401, "ry0": 3.847, "rvolc": 0.0}}, "geometry": {"type": "Point", "coordinates": [39.425, 39.774]}}, {"type": "Feature", "id": "INTENSITY.OBS_40", "properties": {"code": "OBS_40", "name": "Yaylabasi (Intensity VI)", "instrumentType": "OBSERVED", "source": "INTENSITY", "network": "INTENSITY", "commType": "UNK", "location": "", "intensity": 6.0, "intensity_flag": "0", "intensity_stddev": 0.3, "pga": 21.9025, "pgv": 12.0507, "distance": 9.957, "elev": null, "vs30": 779.88, "channels": [], "nresp": -1, "station_type": "macroseismic", "predictions": [{"name": "mmi", "value": 6.7046, "value_rock": 6.7273, "value_soil": 7.8125, "units": "intensity", "tau": 0.5354, "phi": 1.0356, "sigma": 1.1659, "sigma_rock": 1.1745, "sigma_soil": 1.1613, "bias": -0.1463, "bias_sigma": 0.3356}, {"name": "pga", "value": 29.572, "value_rock": 29.8286, "value_soil": 35.2502, "units": "%g", "ln_tau": 0.3906, "ln_phi": 0.5774, "ln_sigma": 0.6971, "ln_sigma_rock": 0.7166, "ln_sigma_soil": 0.6925, "ln_bias": -0.0392, "ln_bias_sigma": 0.2019}, {"name": "sa(0.3)", "value": 49.0214, "value_rock": 49.893, "value_soil": 81.9391, "units": "%g", "ln_tau": 0.3762, "ln_phi": 0.647, "ln_sigma": 0.7484, "ln_sigma_rock": 0.7693, "ln_sigma_soil": 0.7373, "ln_bias": -0.0158, "ln_bias_sigma": 0.2165}, {"name": "sa(1.0)", "value": 15.5598, "value_rock": 15.9285, "value_soil": 47.3964, "units": "%g", "ln_tau": 0.4277, "ln_phi": 0.6765, "ln_sigma": 0.8004, "ln_sigma_rock": 0.8059, "ln_sigma_soil": 0.7937, "ln_bias": 0.1202, "ln_bias_sigma": 0.2409}, {"name": "sa(3.0)", "value": 3.9992, "value_rock": 4.0781, "value_soil": 11.811, "units": "%g", "ln_tau": 0.4367, "ln_phi": 0.6628, "ln_sigma": 0.7937, "ln_sigma_rock": 0.7985, "ln_sigma_soil": 0.7984, "ln_bias": -0.0314, "ln_bias_sigma": 0.2515}, {"name": "pgv", "value": 20.1365, "value_rock": 20.4729, "value_soil": 45.144, "units": "cm/s", "ln_tau": 0.3902, "ln_phi": 0.5989, "ln_sigma": 0.7148, "ln_sigma_rock": 0.7223, "ln_sigma_soil": 0.7109, "ln_bias": -0.0914, "ln_bias_sigma": 0.2137}], "pgm_from_mmi": [{"name": "sa(3.0)", "value": 2.3058, "units": "%g", "ln_sigma": 1.4737, "flag": "0"}, {"name": "sa(0.3)", "value": 37.044, "units": "%g", "ln_sigma": 1.0131, "flag": "0"}, {"name": "pga", "value": 21.9025, "units": "%g", "ln_sigma": 0.8059, "flag": "0"}, {"name": "pgv", "value": 12.0507, "units": "cm/s", "ln_sigma": 0.875, "flag": "0"}, {"name": "sa(1.0)", "value": 11.6021, "units": "%g", "ln_sigma": 1.0822, "flag": "0"}], "distance_stddev": 0.0, "distances": {"repi": 10.366, "rhypo": 29.108, "rjb": 9.753, "rjb_var": 0.0, "rrup": 9.957, "rrup_var": 0.0, "rx": 9.755, "ry0": 0.0, "rvolc": 0.0}}, "geometry": {"type": "Point", "coordinates": [39.525, 39.64]}}, {"type": "Feature", "id": "INTENSITY.OBS_35", "properties": {"code": "OBS_35", "name": "Cevizli (Intensity VI)", "instrumentType": "OBSERVED", "source": "INTENSITY", "network": "INTENSITY", "commType": "UNK", "location": "", "intensity": 6.0, "intensity_flag": "0", "intensity_stddev": 0.3, "pga": 20.9162, "pgv": 12.0507, "distance": 11.819, "elev": null, "vs30": 699.57, "channels": [], "nresp": -1, "station_type": "macroseismic", "predictions": [{"name": "mmi", "value": 6.6132, "value_rock": 6.5423, "value_soil": 7.6486, "units": "intensity", "tau": 0.5354, "phi": 1.0356, "sigma": 1.1658, "sigma_rock": 1.1745, "sigma_soil": 1.1618, "bias": -0.1463, "bias_sigma": 0.3356}, {"name": "pga", "value": 26.7809, "value_rock": 26.1073, "value_soil": 31.5878, "units": "%g", "ln_tau": 0.3903, "ln_phi": 0.5771, "ln_sigma": 0.6967, "ln_sigma_rock": 0.7167, "ln_sigma_soil": 0.6935, "ln_bias": -0.0392, "ln_bias_sigma": 0.2018}, {"name": "sa(0.3)", "value": 45.8179, "value_rock": 43.4558, "value_soil": 74.1899, "units": "%g", "ln_tau": 0.3761, "ln_phi": 0.6469, "ln_sigma": 0.7483, "ln_sigma_rock": 0.7693, "ln_sigma_soil": 0.7385, "ln_bias": -0.0158, "ln_bias_sigma": 0.2165}, {"name": "sa(1.0)", "value": 15.1002, "value_rock": 14.0367, "value_soil": 42.6097, "units": "%g", "ln_tau": 0.4277, "ln_phi": 0.6765, "ln_sigma": 0.8004, "ln_sigma_rock": 0.8059, "ln_sigma_soil": 0.7944, "ln_bias": 0.1202, "ln_bias_sigma": 0.2409}, {"name": "sa(3.0)", "value": 3.9035, "value_rock": 3.6695, "value_soil": 10.6886, "units": "%g", "ln_tau": 0.4366, "ln_phi": 0.6628, "ln_sigma": 0.7937, "ln_sigma_rock": 0.7985, "ln_sigma_soil": 0.7984, "ln_bias": -0.0314, "ln_bias_sigma": 0.2515}, {"name": "pgv", "value": 18.8398, "value_rock": 17.8911, "value_soil": 40.0606, "units": "cm/s", "ln_tau": 0.3901, "ln_phi": 0.5989, "ln_sigma": 0.7148, "ln_sigma_rock": 0.7223, "ln_sigma_soil": 0.7113, "ln_bias": -0.0914, "ln_bias_sigma": 0.2137}], "pgm_from_mmi": [{"name": "sa(3.0)", "value": 2.3799, "units": "%g", "ln_sigma": 1.4737, "flag": "0"}, {"name": "sa(0.3)", "value": 36.1575, "units": "%g", "ln_sigma": 1.0131, "flag": "0"}, {"name": "pga", "value": 20.9162, "units": "%g", "ln_sigma": 0.8059, "flag": "0"}, {"name": "pgv", "value": 12.0507, "units": "cm/s", "ln_sigma": 0.875, "flag": "0"}, {"name": "sa(1.0)", "value": 11.9344, "units": "%g", "ln_sigma": 1.0822, "flag": "0"}], "distance_stddev": 0.0, "distances": {"repi": 21.572, "rhypo": 34.716, "rjb": 11.65, "rjb_var": 0.0, "rrup": 11.819, "rrup_var": 0.0, "rx": 9.972, "ry0": 5.983, "rvolc": 0.0}}, "geometry": {"type": "Point", "coordinates": [39.354, 39.729]}}, {"type": "Feature", "id": "INTENSITY.OBS_30", "properties": {"code": "OBS_30", "name": "Cardakli (Intensity VII)", "instrumentType": "OBSERVED", "source": "INTENSITY", "network": "INTENSITY", "commType": "UNK", "location": "", "intensity": 7.0, "intensity_flag": "0", "intensity_stddev": 0.3, "pga": 40.8097, "pgv": 24.9729, "distance": 6.811, "elev": null, "vs30": 630.65, "channels": [], "nresp": -1, "station_type": "macroseismic", "predictions": [{"name": "mmi", "value": 7.2364, "value_rock": 7.0808, "value_soil": 8.1243, "units": "intensity", "tau": 0.5354, "phi": 1.0356, "sigma": 1.1658, "sigma_rock": 1.1745, "sigma_soil": 1.1605, "bias": -0.1463, "bias_sigma": 0.3356}, {"name": "pga", "value": 40.2586, "value_rock": 38.243, "value_soil": 43.1721, "units": "%g", "ln_tau": 0.3895, "ln_phi": 0.5764, "ln_si