{
    "type": "FeatureCollection",
    "features": [
        {
            "type": "Feature",
            "id": "G.DEB",
            "properties": {
                "code": "DEB",
                "name": "Dar El Beida",
                "instrumentType": "UNK",
                "source": "G",
                "network": "G",
                "commType": "UNK",
                "location": "",
                "intensity": 7.6,
                "intensity_flag": "",
                "intensity_stddev": 0.63,
                "pga": 52.0,
                "pgv": 40.6,
                "distance": 19.892,
                "elev": null,
                "vs30": 231.85,
                "channels": [
                    {
                        "name": "UNK",
                        "amplitudes": [
                            {
                                "name": "pga",
                                "value": 52.0,
                                "units": "%g",
                                "flag": "0",
                                "ln_sigma": 0.0
                            },
                            {
                                "name": "pgv",
                                "value": 40.6,
                                "units": "cm/s",
                                "flag": "0",
                                "ln_sigma": 0.0
                            }
                        ]
                    }
                ],
                "station_type": "seismic",
                "nresp": "null",
                "predictions": [
                    {
                        "name": "pga",
                        "value": 22.052,
                        "value_rock": 16.4629,
                        "value_soil": 22.0993,
                        "units": "%g",
                        "ln_tau": 0.2744,
                        "ln_phi": 0.4561,
                        "ln_sigma": 0.5322,
                        "ln_sigma_rock": 0.605,
                        "ln_sigma_soil": 0.5112,
                        "ln_bias": 0.3064,
                        "ln_bias_sigma": 0.1162
                    },
                    {
                        "name": "pgv",
                        "value": 27.4389,
                        "value_rock": 13.2744,
                        "value_soil": 30.4112,
                        "units": "cm/s",
                        "ln_tau": 0.3052,
                        "ln_phi": 0.4858,
                        "ln_sigma": 0.5737,
                        "ln_sigma_rock": 0.6094,
                        "ln_sigma_soil": 0.5626,
                        "ln_bias": 0.1228,
                        "ln_bias_sigma": 0.1273
                    },
                    {
                        "name": "mmi",
                        "value": 7.1112,
                        "value_rock": 6.1147,
                        "value_soil": 7.2524,
                        "units": "intensity",
                        "tau": 0.4188,
                        "phi": 0.9173,
                        "sigma": 1.0084,
                        "sigma_rock": 1.0471,
                        "sigma_soil": 0.9966,
                        "bias": 0.2236,
                        "bias_sigma": 0.1795
                    }
                ],
                "mmi_from_pgm": [
                    {
                        "name": "pga",
                        "value": 7.68,
                        "sigma": 0.66,
                        "flag": "0"
                    },
                    {
                        "name": "pgv",
                        "value": 7.65,
                        "sigma": 0.63,
                        "flag": "0"
                    }
                ],
                "distance_stddev": 0.0,
                "distances": {
                    "repi": 46.423,
                    "rhypo": 47.949,
                    "rjb": 19.892,
                    "rjb_var": 0.0,
                    "rrup": 19.892,
                    "rrup_var": 0.0,
                    "rx": -4.238,
                    "ry0": 19.403
                }
            },
            "geometry": {
                "type": "Point",
                "coordinates": [
                    3.22,
                    36.71
                ]
            }
        },
        {
            "type": "Feature",
            "id": "G.KOUB",
            "properties": {
                "code": "KOUB",
                "name": "Kouba",
                "instrumentType": "UNK",
                "source": "G",
                "network": "G",
                "commType": "UNK",
                "location": "",
                "intensity": 6.2,
                "intensity_flag": "",
                "intensity_stddev": 0.63,
                "pga": 31.0,
                "pgv": 13.7,
                "distance": 32.294,
                "elev": null,
                "vs30": 392.41,
                "channels": [
                    {
                        "name": "UNK",
                        "amplitudes": [
                            {
                                "name": "pga",
                                "value": 31.0,
                                "units": "%g",
                                "flag": "0",
                                "ln_sigma": 0.0
                            },
                            {
                                "name": "pgv",
                                "value": 13.7,
                                "units": "cm/s",
                                "flag": "0",
                                "ln_sigma": 0.0
                            }
                        ]
                    }
                ],
                "station_type": "seismic",
                "nresp": "null",
                "predictions": [
                    {
                        "name": "pga",
                        "value": 13.2087,
                        "value_rock": 10.2825,
                        "value_soil": 15.5522,
                        "units": "%g",
                        "ln_tau": 0.3112,
                        "ln_phi": 0.4997,
                        "ln_sigma": 0.5887,
                        "ln_sigma_rock": 0.6056,
                        "ln_sigma_soil": 0.5317,
                        "ln_bias": 0.3191,
                        "ln_bias_sigma": 0.1185
                    },
                    {
                        "name": "pgv",
                        "value": 13.1635,
                        "value_rock": 8.2351,
                        "value_soil": 20.1946,
                        "units": "cm/s",
                        "ln_tau": 0.3182,
                        "ln_phi": 0.5159,
                        "ln_sigma": 0.6061,
                        "ln_sigma_rock": 0.6094,
                        "ln_sigma_soil": 0.5701,
                        "ln_bias": 0.1246,
                        "ln_bias_sigma": 0.1282
                    },
                    {
                        "name": "mmi",
                        "value": 6.1032,
                        "value_rock": 5.4595,
                        "value_soil": 6.6905,
                        "units": "intensity",
                        "tau": 0.4367,
                        "phi": 0.9477,
                        "sigma": 1.0434,
                        "sigma_rock": 1.0471,
                        "sigma_soil": 1.0045,
                        "bias": 0.2269,
                        "bias_sigma": 0.1809
                    }
                ],
                "mmi_from_pgm": [
                    {
                        "name": "pga",
                        "value": 7.06,
                        "sigma": 0.66,
                        "flag": "0"
                    },
                    {
                        "name": "pgv",
                        "value": 6.16,
                        "sigma": 0.63,
                        "flag": "0"
                    }
                ],
                "distance_stddev": 0.0,
                "distances": {
                    "repi": 57.053,
                    "rhypo": 58.302,
                    "rjb": 32.294,
                    "rjb_var": 0.0,
                    "rrup": 32.294,
                    "rrup_var": 0.0,
                    "rx": -13.174,
                    "ry0": 29.411
                }
            },
            "geometry": {
                "type": "Point",
                "coordinates": [
                    3.07,
                    36.72
                ]
            }
        },
        {
            "type": "Feature",
            "id": "G.KED1",
            "properties": {
                "code": "KED1",
                "name": "Keddara 1",
                "instrumentType": "UNK",
                "source": "G",
                "network": "G",
                "commType": "UNK",
                "location": "",
                "intensity": 6.6,
                "intensity_flag": "",
                "intensity_stddev": 0.63,
                "pga": 34.0,
                "pgv": 18.9,
                "distance": 13.603,
                "elev": null,
                "vs30": 420.75,
                "channels": [
                    {
                        "name": "UNK",
                        "amplitudes": [
                            {
                                "name": "pga",
                                "value": 34.0,
                                "units": "%g",
                                "flag": "0",
                                "ln_sigma": 0.0
                            },
                            {
                                "name": "pgv",
                                "value": 18.9,
                                "units": "cm/s",
                                "flag": "0",
                                "ln_sigma": 0.0
                            }
                        ]
                    }
                ],
                "station_type": "seismic",
                "nresp": "null",
                "predictions": [
                    {
                        "name": "pga",
                        "value": 29.9006,
                        "value_rock": 25.1205,
                        "value_soil": 29.4218,
                        "units": "%g",
                        "ln_tau": 0.3025,
                        "ln_phi": 0.4927,
                        "ln_sigma": 0.5781,
                        "ln_sigma_rock": 0.6042,
                        "ln_sigma_soil": 0.4937,
                        "ln_bias": 0.3164,
                        "ln_bias_sigma": 0.118
                    },
                    {
                        "name": "pgv",
                        "value": 30.2077,
                        "value_rock": 20.0212,
                        "value_soil": 42.3457,
                        "units": "cm/s",
                        "ln_tau": 0.3181,
                        "ln_phi": 0.5157,
                        "ln_sigma": 0.6059,
                        "ln_sigma_rock": 0.6094,
                        "ln_sigma_soil": 0.556,
                        "ln_bias": 0.1245,
                        "ln_bias_sigma": 0.1282
                    },
                    {
                        "name": "mmi",
                        "value": 7.2432,
                        "value_rock": 6.6787,
                        "value_soil": 7.7067,
                        "units": "intensity",
                        "tau": 0.4365,
                        "phi": 0.9475,
                        "sigma": 1.0432,
                        "sigma_rock": 1.047,
                        "sigma_soil": 0.9895,
                        "bias": 0.2269,
                        "bias_sigma": 0.1808
                    }
                ],
                "mmi_from_pgm": [
                    {
                        "name": "pga",
                        "value": 6.83,
                        "sigma": 0.66,
                        "flag": "0"
                    },
                    {
                        "name": "pgv",
                        "value": 6.6,
                        "sigma": 0.63,
                        "flag": "0"
                    }
                ],
                "distance_stddev": 0.0,
                "distances": {
                    "repi": 41.121,
                    "rhypo": 42.836,
                    "rjb": 11.278,
                    "rjb_var": 0.0,
                    "rrup": 13.603,
                    "rrup_var": 0.0,
                    "rx": 10.202,
                    "ry0": 11.29
                }
            },
            "geometry": {
                "type": "Point",
                "coordinates": [
                    3.39,
                    36.65
                ]
            }
        },
        {
            "type": "Feature",
            "id": "G.BLID",
            "properties": {
                "code": "BLID",
                "name": "Blida",
                "instrumentType": "UNK",
                "source": "G",
                "network": "G",
                "commType": "UNK",
                "location": "",
                "intensity": 4.3,
                "intensity_flag": "",
                "intensity_stddev": 0.63,
                "pga": 5.0,
                "pgv": 3.5,
                "distance": 66.476,
                "elev": null,
                "vs30": 363.8,
                "channels": [
                    {
                        "name": "UNK",
                        "amplitudes": [
                            {
                                "name": "pga",
                                "value": 5.0,
                                "units": "%g",
                                "flag": "0",
                                "ln_sigma": 0.0
                            },
                            {
                                "name": "pgv",
                                "value": 3.5,
                                "units": "cm/s",
                                "flag": "0",
                                "ln_sigma": 0.0
                            }
                        ]
                    }
                ],
                "station_type": "seismic",
                "nresp": "null",
                "predictions": [
                    {
                        "name": "pga",
                        "value": 6.3787,
                        "value_rock": 4.6746,
                        "value_soil": 8.0747,
                        "units": "%g",
                        "ln_tau": 0.3166,
                        "ln_phi": 0.5041,
                        "ln_sigma": 0.5953,
                        "ln_sigma_rock": 0.6062,
                        "ln_sigma_soil": 0.5588,
                        "ln_bias": 0.3207,
                        "ln_bias_sigma": 0.1188
                    },
                    {
                        "name": "pgv",
                        "value": 6.7394,
                        "value_rock": 3.9722,
                        "value_soil": 10.4946,
                        "units": "cm/s",
                        "ln_tau": 0.3183,
                        "ln_phi": 0.516,
                        "ln_sigma": 0.6062,
                        "ln_sigma_rock": 0.6095,
                        "ln_sigma_soil": 0.5792,
                        "ln_bias": 0.1246,
                        "ln_bias_sigma": 0.1282
                    },
                    {
                        "name": "mmi",
                        "value": 5.1844,
                        "value_rock": 4.4589,
                        "value_soil": 5.7922,
                        "units": "intensity",
                        "tau": 0.4368,
                        "phi": 0.9478,
                        "sigma": 1.0436,
                        "sigma_rock": 1.0471,
                        "sigma_soil": 1.0142,
                        "bias": 0.2269,
                        "bias_sigma": 0.1809
                    }
                ],
                "mmi_from_pgm": [
                    {
                        "name": "pga",
                        "value": 4.45,
                        "sigma": 0.66,
                        "flag": "0"
                    },
                    {
                        "name": "pgv",
                        "value": 4.29,
                        "sigma": 0.63,
                        "flag": "0"
                    }
                ],
                "distance_stddev": 0.0,
                "distances": {
                    "repi": 93.148,
                    "rhypo": 93.918,
                    "rjb": 66.476,
                    "rjb_var": 0.0,
                    "rrup": 66.476,
                    "rrup_var": 0.0,
                    "rx": -6.106,
                    "ry0": 66.121
                }
            },
            "geometry": {
                "type": "Point",
                "coordinates": [
                    2.79,
                    36.47
                ]
            }
        },
        {
            "type": "Feature",
            "id": "G.MILI",
            "properties": {
                "code": "MILI",
                "name": "Miliana",
                "instrumentType": "UNK",
                "source": "G",
                "network": "G",
                "commType": "UNK",
                "location": "",
                "intensity": 4.0,
                "intensity_flag": "",
                "intensity_stddev": 0.63,
                "pga": 3.0,
                "pgv": 2.3,
                "distance": 121.96,
                "elev": null,
                "vs30": 750.4,
                "channels": [
                    {
                        "name": "UNK",
                        "amplitudes": [
                            {
                                "name": "pga",
                                "value": 3.0,
                                "units": "%g",
                                "flag": "0",
                                "ln_sigma": 0.0
                            },
                            {
                                "name": "pgv",
                                "value": 2.3,
                                "units": "cm/s",
                                "flag": "0",
                                "ln_sigma": 0.0
                            }
                        ]
                    }
                ],
                "station_type": "seismic",
                "nresp": "null",
                "predictions": [
                    {
                        "name": "pga",
                        "value": 2.0108,
                        "value_rock": 1.9989,
                        "value_soil": 3.7251,
                        "units": "%g",
                        "ln_tau": 0.3248,
                        "ln_phi": 0.5138,
                        "ln_sigma": 0.6079,
                        "ln_sigma_rock": 0.6089,
                        "ln_sigma_soil": 0.5787,
                        "ln_bias": 0.3229,
                        "ln_bias_sigma": 0.1193
                    },
                    {
                        "name": "pgv",
                        "value": 2.1051,
                        "value_rock": 2.0853,
                        "value_soil": 5.7479,
                        "units": "cm/s",
                        "ln_tau": 0.3199,
                        "ln_phi": 0.5208,
                        "ln_sigma": 0.6112,
                        "ln_sigma_rock": 0.6122,
                        "ln_sigma_soil": 0.5874,
                        "ln_bias": 0.1248,
                        "ln_bias_sigma": 0.1283
                    },
                    {
                        "name": "mmi",
                        "value": 3.9312,
                        "value_rock": 3.9252,
                        "value_soil": 4.966,
                        "units": "intensity",
                        "tau": 0.2042,
