{"type": "FeatureCollection", "features": [{"type": "Feature", "id": "GE.KARP", "properties": {"code": "KARP", "name": "NOA/RUB/GEOFON Station Karpathos, Greece", "instrumentType": "UNK", "source": "GE", "network": "GE", "commType": "UNK", "location": "", "intensity": 1.0, "intensity_flag": "", "intensity_stddev": 0.63, "pga": 0.0047, "pgv": 0.0274, "distance": 667.354, "elev": null, "vs30": 760.0, "channels": [{"name": "BHZ", "amplitudes": [{"name": "pga", "value": 0.0038, "units": "%g", "flag": "0", "ln_sigma": 0.0}, {"name": "pgv", "value": 0.025, "units": "cm/s", "flag": "0", "ln_sigma": 0.0}, {"name": "sa(0.3)", "value": 0.0058, "units": "%g", "flag": "0", "ln_sigma": 0.0}, {"name": "sa(1.0)", "value": 0.0058, "units": "%g", "flag": "0", "ln_sigma": 0.0}, {"name": "sa(3.0)", "value": 0.0088, "units": "%g", "flag": "0", "ln_sigma": 0.0}]}, {"name": "BHN", "amplitudes": [{"name": "pga", "value": 0.0047, "units": "%g", "flag": "0", "ln_sigma": 0.0}, {"name": "pgv", "value": 0.0263, "units": "cm/s", "flag": "0", "ln_sigma": 0.0}, {"name": "sa(0.3)", "value": 0.0084, "units": "%g", "flag": "0", "ln_sigma": 0.0}, {"name": "sa(1.0)", "value": 0.0072, "units": "%g", "flag": "0", "ln_sigma": 0.0}, {"name": "sa(3.0)", "value": 0.0103, "units": "%g", "flag": "0", "ln_sigma": 0.0}]}, {"name": "BHE", "amplitudes": [{"name": "pga", "value": 0.0046, "units": "%g", "flag": "0", "ln_sigma": 0.0}, {"name": "pgv", "value": 0.0274, "units": "cm/s", "flag": "0", "ln_sigma": 0.0}, {"name": "sa(0.3)", "value": 0.0071, "units": "%g", "flag": "0", "ln_sigma": 0.0}, {"name": "sa(1.0)", "value": 0.0142, "units": "%g", "flag": "0", "ln_sigma": 0.0}, {"name": "sa(3.0)", "value": 0.0128, "units": "%g", "flag": "0", "ln_sigma": 0.0}]}], "station_type": "seismic", "nresp": "null", "predictions": [{"name": "sa(3.0)", "value": 0.0162, "value_rock": 0.0162, "value_soil": 0.0517, "units": "%g", "ln_tau": 0.0, "ln_phi": 0.6715, "ln_sigma": 0.6715, "ln_sigma_rock": 0.8041, "ln_sigma_soil": 0.8032, "ln_bias": 0.0, "ln_bias_sigma": 0.4422}, {"name": "pgv", "value": 0.0531, "value_rock": 0.0531, "value_soil": 0.1469, "units": "cm/s", "ln_tau": 0.0, "ln_phi": 0.6154, "ln_sigma": 0.6154, "ln_sigma_rock": 0.7368, "ln_sigma_soil": 0.7331, "ln_bias": 0.0, "ln_bias_sigma": 0.4053}, {"name": "pga", "value": 0.0232, "value_rock": 0.0232, "value_soil": 0.0389, "units": "%g", "ln_tau": 0.0, "ln_phi": 0.6034, "ln_sigma": 0.6034, "ln_sigma_rock": 0.7225, "ln_sigma_soil": 0.7194, "ln_bias": 0.0, "ln_bias_sigma": 0.3974}, {"name": "sa(1.0)", "value": 0.0511, "value_rock": 0.0511, "value_soil": 0.2035, "units": "%g", "ln_tau": 0.0, "ln_phi": 0.6789, "ln_sigma": 0.6789, "ln_sigma_rock": 0.8129, "ln_sigma_soil": 0.8114, "ln_bias": 0.0, "ln_bias_sigma": 0.4471}, {"name": "sa(0.3)", "value": 0.0502, "value_rock": 0.0502, "value_soil": 0.1405, "units": "%g", "ln_tau": 0.0, "ln_phi": 0.6493, "ln_sigma": 0.6493, "ln_sigma_rock": 0.7775, "ln_sigma_soil": 0.7751, "ln_bias": 0.0, "ln_bias_sigma": 0.4276}, {"name": "mmi", "value": 1.0, "value_rock": 1.0, "value_soil": 1.4364, "units": "intensity", "tau": 0.0, "phi": 0.7752, "sigma": 0.7752, "sigma_rock": 0.9282, "sigma_soil": 0.9262, "bias": 0.0, "bias_sigma": 0.5105}], "mmi_from_pgm": [{"name": "sa(3.0)", "value": 1.99, "sigma": 0.89, "flag": "0"}, {"name": "pgv", "value": 1.05, "sigma": 0.63, "flag": "0"}, {"name": "pga", "value": 1.0, "sigma": 0.66, "flag": "0"}, {"name": "sa(1.0)", "value": 1.0, "sigma": 0.75, "flag": "0"}, {"name": "sa(0.3)", "value": 1.0, "sigma": 0.82, "flag": "0"}], "distance_stddev": 4.463, "distances": {"repi": 673.359, "rhypo": 673.377, "rjb": 667.89, "rjb_var": 19.247, "rrup": 667.354, "rrup_var": 19.914, "rx": 0.0, "ry0": 0.0, "rvolc": 0.0}}, "geometry": {"type": "Point", "coordinates": [27.1612, 35.5472]}}, {"type": "Feature", "id": "GE.SANT", "properties": {"code": "SANT", "name": "Santorini, Notion Aiyaion, Greece", "instrumentType": "UNK", "source": "GE", "network": "GE", "commType": "UNK", "location": "", "intensity": 1.6, "intensity_flag": "", "intensity_stddev": 0.63, "pga": 0.0086, "pgv": 0.049, "distance": 489.197, "elev": null, "vs30": 760.0, "channels": [{"name": "BHZ", "amplitudes": [{"name": "pga", "value": 0.005, "units": "%g", "flag": "0", "ln_sigma": 0.0}, {"name": "pgv", "value": 0.0282, "units": "cm/s", "flag": "0", "ln_sigma": 0.0}, {"name": "sa(0.3)", "value": 0.0051, "units": "%g", "flag": "0", "ln_sigma": 0.0}, {"name": "sa(1.0)", "value": 0.0086, "units": "%g", "flag": "0", "ln_sigma": 0.0}, {"name": "sa(3.0)", "value": 0.0112, "units": "%g", "flag": "0", "ln_sigma": 0.0}]}, {"name": "BHN", "amplitudes": [{"name": "pga", "value": 0.0034, "units": "%g", "flag": "0", "ln_sigma": 0.0}, {"name": "pgv", "value": 0.0248, "units": "cm/s", "flag": "0", "ln_sigma": 0.0}, {"name": "sa(0.3)", "value": 0.0055, "units": "%g", "flag": "0", "ln_sigma": 0.0}, {"name": "sa(1.0)", "value": 0.0058, "units": "%g", "flag": "0", "ln_sigma": 0.0}, {"name": "sa(3.0)", "value": 0.0102, "units": "%g", "flag": "0", "ln_sigma": 0.0}]}, {"name": "BHE", "amplitudes": [{"name": "pga", "value": 0.0086, "units": "%g", "flag": "0", "ln_sigma": 0.0}, {"name": "pgv", "value": 0.049, "units": "cm/s", "flag": "0", "ln_sigma": 0.0}, {"name": "sa(0.3)", "value": 0.0149, "units": "%g", "flag": "0", "ln_sigma": 0.0}, {"name": "sa(1.0)", "value": 0.0159, "units": "%g", "flag": "0", "ln_sigma": 0.0}, {"name": "sa(3.0)", "value": 0.0235, "units": "%g", "flag": "0", "ln_sigma": 0.0}]}], "station_type": "seismic", "nresp": "null", "predictions": [{"name": "sa(3.0)", "value": 0.024, "value_rock": 0.024, "value_soil": 0.0765, "units": "%g", "ln_tau": 0.0, "ln_phi": 0.6716, "ln_sigma": 0.6716, "ln_sigma_rock": 0.8041, "ln_sigma_soil": 0.8032, "ln_bias": 0.0, "ln_bias_sigma": 0.4423}, {"name": "pgv", "value": 0.0866, "value_rock": 0.0866, "value_soil": 0.2394, "units": "cm/s", "ln_tau": 0.0, "ln_phi": 0.6154, "ln_sigma": 0.6154, "ln_sigma_rock": 0.7369, "ln_sigma_soil": 0.7331, "ln_bias": 0.0, "ln_bias_sigma": 0.4053}, {"name": "pga", "value": 0.0554, "value_rock": 0.0554, "value_soil": 0.0928, "units": "%g", "ln_tau": 0.0, "ln_phi": 0.6035, "ln_sigma": 0.6035, "ln_sigma_rock": 0.7226, "ln_sigma_soil": 0.7195, "ln_bias": 0.0, "ln_bias_sigma": 0.3974}, {"name": "sa(1.0)", "value": 0.083, "value_rock": 0.083, "value_soil": 0.3296, "units": "%g", "ln_tau": 0.0, "ln_phi": 0.6789, "ln_sigma": 0.6789, "ln_sigma_rock": 0.8129, "ln_sigma_soil": 0.8114, "ln_bias": 0.0, "ln_bias_sigma": 0.4471}, {"name": "sa(0.3)", "value": 0.1122, "value_rock": 0.1122, "value_soil": 0.3139, "units": "%g", "ln_tau": 0.0, "ln_phi": 0.6494, "ln_sigma": 0.6494, "ln_sigma_rock": 0.7775, "ln_sigma_soil": 0.7752, "ln_bias": 0.0, "ln_bias_sigma": 0.4276}, {"name": "mmi", "value": 1.7563, "value_rock": 1.7563, "value_soil": 2.2218, "units": "intensity", "tau": 0.0, "phi": 0.7752, "sigma": 0.7752, "sigma_rock": 0.9282, "sigma_soil": 0.9263, "bias": 0.0, "bias_sigma": 0.5105}], "mmi_from_pgm": [{"name": "sa(3.0)", "value": 2.3, "sigma": 0.89, "flag": "0"}, {"name": "pgv", "value": 1.6, "sigma": 0.63, "flag": "0"}, {"name": "pga", "value": 1.0, "sigma": 0.66, "flag": "0"}, {"name": "sa(1.0)", "value": 1.0, "sigma": 0.75, "flag": "0"}, {"name": "sa(0.3)", "value": 1.0, "sigma": 0.82, "flag": "0"}], "distance_stddev": 4.484, "distances": {"repi": 495.134, "rhypo": 495.159, "rjb": 489.674, "rjb_var": 19.222, "rrup": 489.197, "rrup_var": 20.11, "rx": 0.0, "ry0": 0.0, "rvolc": 0.0}}, "geometry": {"type": "Point", "coordinates": [25.459, 36.371]}}, {"type": "Feature", "id": "HL.ITM", "properties": {"code": "ITM", "name": "Stasrv: unknown station", "instrumentType": "UNK", "source": "HL", "network": "HL", "commType": "UNK", "location": "", "intensity": 2.7, "intensity_flag": "", "intensity_stddev": 0.63, "pga": 0.1137, "pgv": 0.2491, "distance": 175.583, "elev": null, "vs30": 760.0, "channels": [{"name": "HHE", "amplitudes": [{"name": "pga", "value": 0.096, "units": "%g", "flag": "0", "ln_sigma": 0.0}, {"name": "pgv", "value": 0.2491, "units": "cm/s", "flag": "0", "ln_sigma": 0.0}, {"name": "sa(0.3)", "value": 0.2431, "units": "%g", "flag": "0", "ln_sigma": 0.0}, {"name": "sa(1.0)", "value": 0.1576, "units": "%g", "flag": "0", "ln_sigma": 0.0}, {"name": "sa(3.0)", "value": 0.1051, "units": "%g", "flag": "0", "ln_sigma": 0.0}]}, {"name": "HHZ", "amplitudes": [{"name": "pga", "value": 0.0845, "units": "%g", "flag": "0", "ln_sigma": 0.0}, {"name": "pgv", "value": 0.1915, "units": "cm/s", "flag": "0", "ln_sigma": 0.0}, {"name": "sa(0.3)", "value": 0.1421, "units": "%g", "flag": "0", "ln_sigma": 0.0}, {"name": "sa(1.0)", "value": 0.1428, "units": "%g", "flag": "0", "ln_sigma": 0.0}, {"name": "sa(3.0)", "value": 0.1058, "units": "%g", "flag": "0", "ln_sigma": 0.0}]}, {"name": "HHN", "amplitudes": [{"name": "pga", "value": 0.1137, "units": "%g", "flag": "0", "ln_sigma": 0.0}, {"name": "pgv", "value": 0.1958, "units": "cm/s", "flag": "0", "ln_sigma": 0.0}, {"name": "sa(0.3)", "value": 0.2946, "units": "%g", "flag": "0", "ln_sigma": 0.0}, {"name": "sa(1.0)", "value": 0.2577, "units": "%g", "flag": "0", "ln_sigma": 0.0}, {"name": "sa(3.0)", "value": 0.0862, "units": "%g", "flag": "0", "ln_sigma": 0.0}]}], "station_type": "seismic", "nresp": "null", "predictions": [{"name": "sa(3.0)", "value": 0.0802, "value_rock": 0.0802, "value_soil": 0.2538, "units": "%g", "ln_tau": 0.0, "ln_phi": 0.6711, "ln_sigma": 0.6711, "ln_sigma_rock": 0.8036, "ln_sigma_soil": 0.8026, "ln_bias": 0.0, "ln_bias_sigma": 0.442}, {"name": "pgv", "value": 0.3581, "value_rock": 0.3581, "value_soil": 0.9801, "units": "cm/s", "ln_tau": 0.0, "ln_phi": 0.6146, "ln_sigma": 0.6146, "ln_sigma_rock": 0.736, "ln_sigma_soil": 0.7319, "ln_bias": 0.0, "ln_bias_sigma": 0.4048}, {"name": "pga", "value": 0.4823, "value_rock": 0.4823, "value_soil": 0.7979, "units": "%g", "ln_tau": 0.0, "ln_phi": 0.6027, "ln_sigma": 0.6027, "ln_sigma_rock": 0.7216, "ln_sigma_soil": 0.718, "ln_bias": 0.0, "ln_bias_sigma": 0.3969}, {"name": "sa(1.0)", "value": 0.3238, "value_rock": 0.3238, "value_soil": 1.2699, "units": "%g", "ln_tau": 0.0, "ln_phi": 0.6775, "ln_sigma": 0.6775, "ln_sigma_rock": 0.8112, "ln_sigma_soil": 0.8094, "ln_bias": 0.0, "ln_bias_sigma": 0.4462}, {"name": "sa(0.3)", "value": 0.8224, "value_rock": 0.8224, "value_soil": 2.2608, "units": "%g", "ln_tau": 0.0, "ln_phi": 0.6477, "ln_sigma": 0.6477, "ln_sigma_rock": 0.7756, "ln_sigma_soil": 0.7725, "ln_bias": 0.0, "ln_bias_sigma": 0.4266}, {"name": "mmi", "value": 3.1856, "value_rock": 3.1856, "value_soil": 3.5245, "units": "intensity", "tau": 0.0, "phi": 0.6844, "sigma": 0.6844, "sigma_rock": 0.8195, "sigma_soil": 0.8181, "bias": 0.0, "bias_sigma": 0.4507}], "mmi_from_pgm": [{"name": "sa(3.0)", "value": 3.2, "sigma": 0.89, "flag": "0"}, {"name": "pgv", "value": 2.71, "sigma": 0.63, "flag": "0"}, {"name": "pga", "value": 2.17, "sigma": 0.66, "flag": "0"}, {"name": "sa(1.0)", "value": 2.54, "sigma": 0.75, "flag": "0"}, {"name": "sa(0.3)", "value": 2.34, "sigma": 0.82, "flag": "0"}], "distance_stddev": 4.634, "distances": {"repi": 181.097, "rhypo": 181.166, "rjb": 175.692, "rjb_var": 19.059, "rrup": 175.583, "rrup_var": 21.47, "rx": 0.0, "ry0": 0.0, "rvolc": 0.0}}, "geometry": {"type": "Point", "coordinates": [21.9252, 37.1786]}}, {"type": "Feature", "id": "HT.AGG", "properties": {"code": "AGG", "name": "Station Agios Georgios, Greece", "instrumentType": "UNK", "source": "HT", "network": "HT", "commType": "UNK", "location": "", "intensity": 2.8, "intensity_flag": "", "intensity_stddev": 0.63, "pga": 0.1392, "pgv": 0.2671, "distance": 183.309, "elev": null, "vs30": 760.0, "channels": [{"name": "HHE", "amplitudes": [{"name": "pga", "value": 0.1392, "units": "%g", "flag": "0", "ln_sigma": 0.0}, {"name": "pgv", "value": 0.2671, "units": "cm/s", "flag": "0", "ln_sigma": 0.0}, {"name": "sa(0.3)", "value": 0.3435, "units": "%g", "flag": "0", "ln_sigma": 0.0}, {"name": "sa(1.0)", "value": 0.2547, "units": "%g", "flag": "0", "ln_sigma": 0.0}, {"name": "sa(3.0)", "value": 0.1035, "units": "%g", "flag": "0", "ln_sigma": 0.0}]}, {"name": "HHZ", "amplitudes": [{"name": "pga", "value": 0.0528, "units": "%g", "flag": "0", "ln_sigma": 0.0}, {"name": "pgv", "value": 0.1497, "units": "cm/s", "flag": "0", "ln_sigma": 0.0}, {"name": "sa(0.3)", "value": 0.1469, "units": "%g", "flag": "0", "ln_sigma": 0.0}, {"name": "sa(1.0)", "value": 0.1149, "units": "%g", "flag": "0", "ln_sigma": 0.0}, {"name": "sa(3.0)", "value": 0.0646, "units": "%g", "flag": "0", "ln_sigma": 0.0}]}, {"name": "HHN", "amplitudes": [{"name": "pga", "value": 0.1372, "units": "%g", "flag": "0", "ln_sigma": 0.0}, {"name": "pgv", "value": 0.1932, "units": "cm/s", "flag": "0", "ln_sigma": 0.0}, {"name": "sa(0.3)", "value": 0.3366, "units": "%g", "flag": "0", "ln_sigma": 0.0}, {"name": "sa(1.0)", "value": 0.1446, "units": "%g", "flag": "0", "ln_sigma": 0.0}, {"name": "sa(3.0)", "value": 0.0927, "units": "%g", "flag": "0", "ln_sigma": 0.0}]}], "station_type": "seismic", "nresp": "null", "predictions": [{"name": "sa(3.0)", "value": 0.0764, "value_rock": 0.0764, "value_soil": 0.2417, "units": "%g", "ln_tau": 0.0, "ln_phi": 0.6714, "ln_sigma": 0.6714, "ln_sigma_rock": 0.8039, "ln_sigma_soil": 0.803, "ln_bias": 0.0, "ln_bias_sigma": 0.4422}, {"name": "pgv", "value": 0.3386, "value_rock": 0.3386, "value_soil": 0.9274, "units": "cm/s", "ln_tau": 0.0, "ln_phi": 0.6147, "ln_sigma": 0.6147, "ln_sigma_rock": 0.736, "ln_sigma_soil": 0.732, "ln_bias": 0.0, "ln_bias_sigma": 0.4048}, {"name": "pga", "value": 0.4467, "value_rock": 0.4467, "value_soil": 0.7397, "units": "%g", "ln_tau": 0.0, "ln_phi": 0.6028, "ln_sigma": 0.6028, "ln_sigma_rock": 0.7217, "ln_sigma_soil": 0.7182, "ln_bias": 0.0, "ln_bias_sigma": 0.3969}, {"name": "sa(1.0)", "value": 0.3071, "value_rock": 0.3071, "value_soil": 1.2056, "units": "%g", "ln_tau": 0.0, "ln_phi": 0.6776, "ln_sigma": 0.6776, "ln_sigma_rock": 0.8114, "ln_sigma_soil": 0.8096, "ln_bias": 0.0, "ln_bias_sigma": 0.4463}, {"name": "sa(0.3)", "value": 0.7663, "value_rock": 0.7663, "value_soil": 2.1095, "units": "%g", "ln_tau": 0.0, "ln_phi": 0.6479, "ln_sigma": 0.6479, "ln_sigma_rock": 0.7758, "ln_sigma_soil": 0.7728, "ln_bias": 0.0, "ln_bias_sigma": 0.4267}, {"name": "mmi", "value": 3.1531, "value_rock": 3.1531, "value_soil": 3.4926, "units": "intensity", "tau": 0.0, "phi": 0.6844, "sigma": 0.6844, "sigma_rock": 0.8195, "sigma_soil": 0.8181, "bias": 0.0, "bias_sigma": 0.4507}], "mmi_from_pgm": [{"name": "sa(3.0)", "value": 3.18, "sigma": 0.89, "flag": "0"}, {"name": "pgv", "value": 2.76, "sigma": 0.63, "flag": "0"}, {"name": "pga", "value": 2.37, "sigma": 0.66, "flag": "0"}, {"name": "sa(1.0)", "value": 2.52, "sigma": 0.75, "flag": "0"}, {"name": "sa(0.3)", "value": 2.46, "sigma": 0.82, "flag": "0"}], "distance_stddev": 4.625, "distances": {"repi": 188.848, "rhypo": 188.914, "rjb": 183.44, "rjb_var": 19.069, "rrup": 183.309, "rrup_var": 21.389, "rx": 0.0, "ry0": 0.0, "rvolc": 0.0}}, "geometry": {"type": "Point", "coordinates": [22.336, 39.0211]}}, {"type": "Feature", "id": "HT.ALN", "properties": {"code": "ALN", "name": "Station Alexandroupolis, Greece", "instrumentType": "UNK", "source": "HT", "network": "HT", "commType": "UNK", "location": "", "intensity": 1.0, "intensity_flag": "", "intensity_stddev": 0.63, "pga": "null", "pgv": "null", "distance": 560.375, "elev": null, "vs30": 760.0, "channels": [{"name": "HHE", "amplitudes": [{"name": "pga", "value": 0.0008, "units": "%g", "flag": "Outlier", "ln_sigma": 0.0}, {"name": "pgv", "value": 0.0055, "units": "cm/s", "flag": "Outlier", "ln_sigma": 0.0}, {"name": "sa(0.3)", "value": 0.0009, "units": "%g", "flag": "Outlier,0,Outlier", "ln_sigma": 0.0}, {"name": "sa(1.0)", "value": 0.0011, "units": "%g", "flag": "Outlier,0,Outlier", "ln_sigma": 0.0}, {"name": "sa(3.0)", "value": 0.0017, "units": "%g", "flag": "Outlier", "ln_sigma": 0.0}]}, {"name": "HHZ", "amplitudes": [{"name": "pga", "value": 0.0008, "units": "%g", "flag": "Outlier", "ln_sigma": 0.0}, {"name": "pgv", "value": 0.0063, "units": "cm/s", "flag": "Outlier", "ln_sigma": 0.0}, {"name": "sa(0.3)", "value": 0.0015, "units": "%g", "flag": "Outlier,0,Outlier", "ln_sigma": 0.0}, {"name": "sa(1.0)", "value": 0.0012, "units": "%g", "flag": "Outlier,0,Outlier", "ln_sigma": 0.0}, {"name": "sa(3.0)", "value": 0.0023, "units": "%g", "flag": "Outlier", "ln_sigma": 0.0}]}, {"name": "HHN", "amplitudes": [{"name": "pga", "value": 0.0007, "units": "%g", "flag": "Outlier", "ln_sigma": 0.0}, {"name": "pgv", "value": 0.0046, "units": "cm/s", "flag": "Outlier", "ln_sigma": 0.0}, {"name": "sa(0.3)", "value": 0.0008, "units": "%g", "flag": "Outlier,0,Outlier", "ln_sigma": 0.0}, {"name": "sa(1.0)", "value": 0.0014, "units": "%g", "flag": "Outlier,0,Outlier", "ln_sigma": 0.0}, {"name": "sa(3.0)", "value": 0.0018, "units": "%g", "flag": "Outlier", "ln_sigma": 0.0}]}], "station_type": "seismic", "nresp": "null", "predictions": [{"name": "sa(3.0)", "value": 0.0203, "value_rock": 0.0203, "value_soil": 0.0646, "units": "%g", "ln_tau": 0.0, "ln_phi": 0.6715, "ln_sigma": 0.6715, "ln_sigma_rock": 0.8041, "ln_sigma_soil": 0.8032, "ln_bias": 0.0, "ln_bias_sigma": 0.4422}, {"name": "pgv", "value": 0.0703, "value_rock": 0.0703, "value_soil": 0.1944, "units": "cm/s", "ln_tau": 0.0, "ln_phi": 0.6154, "ln_sigma": 0.6154, "ln_sigma_rock": 0.7369, "ln_sigma_soil": 0.7331, "ln_bias": 0.0, "ln_bias_sigma": 0.4053}, {"name": "pga", "value": 0.0386, "value_rock": 0.0386, "value_soil": 0.0646, "units": "%g", "ln_tau": 0.0, "ln_phi": 0.6034, "ln_sigma": 0.6034, "ln_sigma_rock": 0.7225, "ln_sigma_soil": 0.7195, "ln_bias": 0.0, "ln_bias_sigma": 0.3974}, {"name": "sa(1.0)", "value": 0.0676, "value_rock": 0.0676, "value_soil": 0.2687, "units": "%g", "ln_tau": 0.0, "ln_phi": 0.6789, "ln_sigma": 0.6789, "ln_sigma_rock": 0.8129, "ln_sigma_soil": 0.8114, "ln_bias": 0.0, "ln_bias_sigma": 0.4471}, {"name": "sa(0.3)", "value": 0.0803, "value_rock": 0.0803, "value_soil": 0.2246, "units": "%g", "ln_tau": 0.0, "ln_phi": 0.6493, "ln_sigma": 0.6493, "ln_sigma_rock": 0.7775, "ln_sigma_soil": 0.7752, "ln_bias": 0.0, "ln_bias_sigma": 0.4276}, {"name": "mmi", "value": 1.4284, "value_rock": 1.4284, "value_soil": 1.8944, "units": "intensity", "tau": 0.0, "phi": 0.7752, "sigma": 0.7752, "sigma_rock": 0.9282, "sigma_soil": 0.9263, "bias": 0.0, "bias_sigma": 0.5105}], "mmi_from_pgm": [{"name": "sa(3.0)", "value": 1.0, "sigma": 0.89, "flag": "Outlier"}, {"name": "pgv", "value": 1.0, "sigma": 0.63, "flag": "Outlier"}, {"name": "pga", "value": 1.0, "sigma": 0.66, "flag": "Outlier"}, {"name": "sa(1.0)", "value": null, "sigma": null, "flag": "0"}, {"name": "sa(0.3)", "value": null, "sigma": null, "flag": "0"}], "distance_stddev": 4.474, "distances": {"repi": 566.345, "rhypo": 566.367, "rjb": 560.88, "rjb_var": 19.234, "rrup": 560.375, "rrup_var": 20.014, "rx": 0.0, "ry0": 0.0, "rvolc": 0.0}}, "geometry": {"type": "Point", "coordinates": [26.0497, 40.8957]}}, {"type": "Feature", "id": "HT.FNA", "properties": {"code": "FNA", "name": "Station Florina, Greece", "instrumentType": "UNK", "source": "HT", "network": "HT", "commType": "UNK", "location": "", "intensity": 1.8, "intensity_flag": "", "intensity_stddev": 0.63, "pga": 0.0273, "pgv": 0.0584, "distance": 286.919, "elev": null, "vs30": 760.0, "channels": [{"name": "HHE", "amplitudes": [{"name": "pga", "value": 0.0273, "units": "%g", "flag": "0", "ln_sigma": 0.0}, {"name": "pgv", "value": 0.0584, "units": "cm/s", "flag": "0", "ln_sigma": 0.0}, {"name": "sa(0.3)", "value": 0.0945, "units": "%g", "flag": "0", "ln_sigma": 0.0}, {"name": "sa(1.0)", "value": 0.043, "units": "%g", "flag": "0", "ln_sigma": 0.0}, {"name": "sa(3.0)", "value": 0.0235, "units": "%g", "flag": "0", "ln_sigma": 0.0}]}, {"name": "HHZ", "amplitudes": [{"name": "pga", "value": 0.0181, "units": "%g", "flag": "0", "ln_sigma": 0.0}, {"name": "pgv", "value": 0.0334, "units": "cm/s", "flag": "0", "ln_sigma": 0.0}, {"name": "sa(0.3)", "value": 0.0352, "units": "%g", "flag": "0", "ln_