{"type": "FeatureCollection", "features": [{"type": "Feature", "id": "DYFI.UTM:(16P 064 116 10000)", "properties": {"code": "UTM:(16P 064 116 10000)", "name": null, "instrumentType": "OBSERVED", "source": "DYFI", "network": "DYFI", "commType": "UNK", "location": "", "intensity": 2.0, "intensity_flag": "0", "intensity_stddev": 0.3, "pga": "null", "pgv": "null", "distance": 160.468, "elev": null, "vs30": 459.09, "channels": [], "nresp": -1, "station_type": "macroseismic", "predictions": [{"name": "mmi", "value": 3.4181, "value_rock": 3.2598, "value_soil": 3.7015, "units": "intensity", "tau": 0.2315, "phi": 0.7533, "sigma": 0.7881, "sigma_rock": 0.7891, "sigma_soil": 0.7822, "bias": -0.1567, "bias_sigma": 0.1872}, {"name": "pga", "value": 0.7413, "value_rock": 0.586, "value_soil": 1.1293, "units": "%g", "ln_tau": 0.3439, "ln_phi": 0.5394, "ln_sigma": 0.6397, "ln_sigma_rock": 0.6425, "ln_sigma_soil": 0.6236, "ln_bias": 0.0267, "ln_bias_sigma": 0.2424}, {"name": "sa(0.3)", "value": 1.8262, "value_rock": 1.1998, "value_soil": 3.776, "units": "%g", "ln_tau": 0.3216, "ln_phi": 0.6106, "ln_sigma": 0.6901, "ln_sigma_rock": 0.6946, "ln_sigma_soil": 0.6769, "ln_bias": -0.0124, "ln_bias_sigma": 0.2506}, {"name": "sa(1.0)", "value": 0.886, "value_rock": 0.5289, "value_soil": 2.1982, "units": "%g", "ln_tau": 0.3562, "ln_phi": 0.6438, "ln_sigma": 0.7358, "ln_sigma_rock": 0.7389, "ln_sigma_soil": 0.7318, "ln_bias": 0.0032, "ln_bias_sigma": 0.276}, {"name": "sa(3.0)", "value": 0.1947, "value_rock": 0.116, "value_soil": 0.4847, "units": "%g", "ln_tau": 0.3835, "ln_phi": 0.6266, "ln_sigma": 0.7347, "ln_sigma_rock": 0.7396, "ln_sigma_soil": 0.7395, "ln_bias": 0.037, "ln_bias_sigma": 0.3103}, {"name": "pgv", "value": 0.8391, "value_rock": 0.5782, "value_soil": 1.6359, "units": "cm/s", "ln_tau": 0.3311, "ln_phi": 0.5481, "ln_sigma": 0.6403, "ln_sigma_rock": 0.6424, "ln_sigma_soil": 0.6234, "ln_bias": -0.0229, "ln_bias_sigma": 0.2465}], "pgm_from_mmi": [{"name": "sa(3.0)", "value": null, "units": "%g", "ln_sigma": null, "flag": "0"}, {"name": "pga", "value": null, "units": "%g", "ln_sigma": null, "flag": "0"}, {"name": "sa(1.0)", "value": null, "units": "%g", "ln_sigma": null, "flag": "0"}, {"name": "sa(0.3)", "value": null, "units": "%g", "ln_sigma": null, "flag": "0"}, {"name": "pgv", "value": null, "units": "cm/s", "ln_sigma": null, "flag": "0"}], "distance_stddev": 7.332, "distances": {"repi": 166.833, "rhypo": 167.419, "rjb": 159.827, "rjb_var": 39.954, "rrup": 160.468, "rrup_var": 53.764, "rx": 0.0, "ry0": 0.0, "rvolc": 0.0}}, "geometry": {"type": "Point", "coordinates": [-85.6748, 10.5361]}}, {"type": "Feature", "id": "DYFI.UTM:(16P 065 113 10000)", "properties": {"code": "UTM:(16P 065 113 10000)", "name": null, "instrumentType": "OBSERVED", "source": "DYFI", "network": "DYFI", "commType": "UNK", "location": "", "intensity": 2.0, "intensity_flag": "0", "intensity_stddev": 0.3, "pga": "null", "pgv": "null", "distance": 146.08, "elev": null, "vs30": 275.03, "channels": [], "nresp": -1, "station_type": "macroseismic", "predictions": [{"name": "mmi", "value": 3.6575, "value_rock": 3.3474, "value_soil": 3.7863, "units": "intensity", "tau": 0.2302, "phi": 0.7506, "sigma": 0.7851, "sigma_rock": 0.7886, "sigma_soil": 0.7813, "bias": -0.1556, "bias_sigma": 0.1866}, {"name": "pga", "value": 1.1255, "value_rock": 0.71, "value_soil": 1.3627, "units": "%g", "ln_tau": 0.342, "ln_phi": 0.5311, "ln_sigma": 0.6317, "ln_sigma_rock": 0.6411, "ln_sigma_soil": 0.6212, "ln_bias": 0.0266, "ln_bias_sigma": 0.2418}, {"name": "sa(0.3)", "value": 3.2454, "value_rock": 1.4352, "value_soil": 4.4926, "units": "%g", "ln_tau": 0.3193, "ln_phi": 0.6022, "ln_sigma": 0.6816, "ln_sigma_rock": 0.6921, "ln_sigma_soil": 0.6731, "ln_bias": -0.0123, "ln_bias_sigma": 0.2495}, {"name": "sa(1.0)", "value": 1.6414, "value_rock": 0.5964, "value_soil": 2.4721, "units": "%g", "ln_tau": 0.3554, "ln_phi": 0.6394, "ln_sigma": 0.7315, "ln_sigma_rock": 0.7368, "ln_sigma_soil": 0.7294, "ln_bias": 0.0032, "ln_bias_sigma": 0.2756}, {"name": "sa(3.0)", "value": 0.3536, "value_rock": 0.1284, "value_soil": 0.5366, "units": "%g", "ln_tau": 0.3835, "ln_phi": 0.622, "ln_sigma": 0.7307, "ln_sigma_rock": 0.7355, "ln_sigma_soil": 0.7354, "ln_bias": 0.037, "ln_bias_sigma": 0.3103}, {"name": "pgv", "value": 1.3749, "value_rock": 0.6575, "value_soil": 1.8556, "units": "cm/s", "ln_tau": 0.3302, "ln_phi": 0.5401, "ln_sigma": 0.633, "ln_sigma_rock": 0.6412, "ln_sigma_soil": 0.6219, "ln_bias": -0.0228, "ln_bias_sigma": 0.2461}], "pgm_from_mmi": [{"name": "sa(3.0)", "value": null, "units": "%g", "ln_sigma": null, "flag": "0"}, {"name": "pga", "value": null, "units": "%g", "ln_sigma": null, "flag": "0"}, {"name": "sa(1.0)", "value": null, "units": "%g", "ln_sigma": null, "flag": "0"}, {"name": "sa(0.3)", "value": null, "units": "%g", "ln_sigma": null, "flag": "0"}, {"name": "pgv", "value": null, "units": "cm/s", "ln_sigma": null, "flag": "0"}], "distance_stddev": 7.412, "distances": {"repi": 152.251, "rhypo": 152.893, "rjb": 145.27, "rjb_var": 39.845, "rrup": 146.08, "rrup_var": 54.936, "rx": 0.0, "ry0": 0.0, "rvolc": 0.0}}, "geometry": {"type": "Point", "coordinates": [-85.5846, 10.2645]}}, {"type": "Feature", "id": "DYFI.UTM:(16P 070 121 10000)", "properties": {"code": "UTM:(16P 070 121 10000)", "name": null, "instrumentType": "OBSERVED", "source": "DYFI", "network": "DYFI", "commType": "UNK", "location": "", "intensity": 5.8, "intensity_flag": "0", "intensity_stddev": 0.3, "pga": 8.9421, "pgv": 9.6282, "distance": 130.373, "elev": null, "vs30": 216.76, "channels": [], "nresp": -1, "station_type": "macroseismic", "predictions": [{"name": "mmi", "value": 3.8227, "value_rock": 3.4452, "value_soil": 3.8802, "units": "intensity", "tau": 0.2288, "phi": 0.7458, "sigma": 0.7801, "sigma_rock": 0.788, "sigma_soil": 0.7803, "bias": -0.1543, "bias_sigma": 0.1858}, {"name": "pga", "value": 1.5503, "value_rock": 0.8849, "value_soil": 1.6884, "units": "%g", "ln_tau": 0.3399, "ln_phi": 0.516, "ln_sigma": 0.6179, "ln_sigma_rock": 0.6396, "ln_sigma_soil": 0.6183, "ln_bias": 0.0264, "ln_bias_sigma": 0.241}, {"name": "sa(0.3)", "value": 4.7503, "value_rock": 1.7636, "value_soil": 5.4794, "units": "%g", "ln_tau": 0.3166, "ln_phi": 0.5884, "ln_sigma": 0.6681, "ln_sigma_rock": 0.6893, "ln_sigma_soil": 0.6684, "ln_bias": -0.0121, "ln_bias_sigma": 0.2482}, {"name": "sa(1.0)", "value": 2.3632, "value_rock": 0.6873, "value_soil": 2.8387, "units": "%g", "ln_tau": 0.3543, "ln_phi": 0.6324, "ln_sigma": 0.7249, "ln_sigma_rock": 0.7345, "ln_sigma_soil": 0.7264, "ln_bias": 0.0032, "ln_bias_sigma": 0.2751}, {"name": "sa(3.0)", "value": 0.5015, "value_rock": 0.1451, "value_soil": 0.6061, "units": "%g", "ln_tau": 0.3835, "ln_phi": 0.6169, "ln_sigma": 0.7264, "ln_sigma_rock": 0.731, "ln_sigma_soil": 0.7309, "ln_bias": 0.037, "ln_bias_sigma": 0.3103}, {"name": "pgv", "value": 1.8813, "value_rock": 0.7653, "value_soil": 2.1521, "units": "cm/s", "ln_tau": 0.3292, "ln_phi": 0.5243, "ln_sigma": 0.6191, "ln_sigma_rock": 0.6399, "ln_sigma_soil": 0.6201, "ln_bias": -0.0227, "ln_bias_sigma": 0.2457}], "pgm_from_mmi": [{"name": "sa(3.0)", "value": 2.9221, "units": "%g", "ln_sigma": 1.4737, "flag": "0"}, {"name": "pga", "value": 8.9421, "units": "%g", "ln_sigma": 0.8059, "flag": "0"}, {"name": "sa(1.0)", "value": 13.3046, "units": "%g", "ln_sigma": 1.0822, "flag": "0"}, {"name": "sa(0.3)", "value": 22.8448, "units": "%g", "ln_sigma": 1.0131, "flag": "0"}, {"name": "pgv", "value": 9.6282, "units": "cm/s", "ln_sigma": 0.875, "flag": "0"}], "distance_stddev": 7.498, "distances": {"repi": 136.333, "rhypo": 137.05, "rjb": 129.379, "rjb_var": 39.726, "rrup": 130.373, "rrup_var": 56.215, "rx": 0.0, "ry0": 0.0, "rvolc": 0.0}}, "geometry": {"type": "Point", "coordinates": [-85.1239, 10.9854]}}, {"type": "Feature", "id": "DYFI.UTM:(16P 072 115 10000)", "properties": {"code": "UTM:(16P 072 115 10000)", "name": null, "instrumentType": "OBSERVED", "source": "DYFI", "network": "DYFI", "commType": "UNK", "location": "", "intensity": 3.7, "intensity_flag": "0", "intensity_stddev": 0.3, "pga": "null", "pgv": "null", "distance": 82.481, "elev": null, "vs30": 560.39, "channels": [], "nresp": -1, "station_type": "macroseismic", "predictions": [{"name": "mmi", "value": 3.8628, "value_rock": 3.7678, "value_soil": 4.1801, "units": "intensity", "tau": 0.2311, "phi": 0.7535, "sigma": 0.7881, "sigma_rock": 0.7894, "sigma_soil": 0.7784, "bias": -0.1564, "bias_sigma": 0.1871}, {"name": "pga", "value": 2.224, "value_rock": 1.9312, "value_soil": 3.5633, "units": "%g", "ln_tau": 0.3434, "ln_phi": 0.5399, "ln_sigma": 0.6399, "ln_sigma_rock": 0.6432, "ln_sigma_soil": 0.613, "ln_bias": 0.0267, "ln_bias_sigma": 0.2422}, {"name": "sa(0.3)", "value": 4.7637, "value_rock": 3.6872, "value_soil": 10.9659, "units": "%g", "ln_tau": 0.3216, "ln_phi": 0.6046, "ln_sigma": 0.6848, "ln_sigma_rock": 0.6884, "ln_sigma_soil": 0.6561, "ln_bias": -0.0124, "ln_bias_sigma": 0.2506}, {"name": "sa(1.0)", "value": 1.6225, "value_rock": 1.1849, "value_soil": 4.7947, "units": "%g", "ln_tau": 0.3562, "ln_phi": 0.6411, "ln_sigma": 0.7334, "ln_sigma_rock": 0.7361, "ln_sigma_soil": 0.7248, "ln_bias": 0.0032, "ln_bias_sigma": 0.276}, {"name": "sa(3.0)", "value": 0.3231, "value_rock": 0.2357, "value_soil": 0.9844, "units": "%g", "ln_tau": 0.3835, "ln_phi": 0.6215, "ln_sigma": 0.7303, "ln_sigma_rock": 0.7349, "ln_sigma_soil": 0.7348, "ln_bias": 0.037, "ln_bias_sigma": 0.3103}, {"name": "pgv", "value": 1.7162, "value_rock": 1.3677, "value_soil": 3.7699, "units": "cm/s", "ln_tau": 0.3311, "ln_phi": 0.5475, "ln_sigma": 0.6399, "ln_sigma_rock": 0.6419, "ln_sigma_soil": 0.619, "ln_bias": -0.0229, "ln_bias_sigma": 0.2465}], "pgm_from_mmi": [{"name": "sa(3.0)", "value": null, "units": "%g", "ln_sigma": null, "flag": "0"}, {"name": "pga", "value": null, "units": "%g", "ln_sigma": null, "flag": "0"}, {"name": "sa(1.0)", "value": null, "units": "%g", "ln_sigma": null, "flag": "0"}, {"name": "sa(0.3)", "value": null, "units": "%g", "ln_sigma": null, "flag": "0"}, {"name": "pgv", "value": null, "units": "cm/s", "ln_sigma": null, "flag": "0"}], "distance_stddev": 7.927, "distances": {"repi": 87.382, "rhypo": 88.496, "rjb": 80.582, "rjb_var": 38.94, "rrup": 82.481, "rrup_var": 62.83, "rx": 0.0, "ry0": 0.0, "rvolc": 0.0}}, "geometry": {"type": "Point", "coordinates": [-84.9445, 10.4419]}}, {"type": "Feature", "id": "DYFI.UTM:(16P 073 110 10000)", "properties": {"code": "UTM:(16P 073 110 10000)", "name": null, "instrumentType": "OBSERVED", "source": "DYFI", "network": "DYFI", "commType": "UNK", "location": "", "intensity": 2.7, "intensity_flag": "0", "intensity_stddev": 0.3, "pga": "null", "pgv": "null", "distance": 70.297, "elev": null, "vs30": 600.0, "channels": [], "nresp": -1, "station_type": "macroseismic", "predictions": [{"name": "mmi", "value": 3.926, "value_rock": 3.8519, "value_soil": 4.3935, "units": "intensity", "tau": 0.2312, "phi": 0.7541, "sigma": 0.7887, "sigma_rock": 0.7899, "sigma_soil": 1.1824, "bias": -0.1564, "bias_sigma": 0.1871}, {"name": "pga", "value": 2.7139, "value_rock": 2.431, "value_soil": 4.4184, "units": "%g", "ln_tau": 0.3434, "ln_phi": 0.5419, "ln_sigma": 0.6415, "ln_sigma_rock": 0.6447, "ln_sigma_soil": 0.6106, "ln_bias": 0.0267, "ln_bias_sigma": 0.2423}, {"name": "sa(0.3)", "value": 5.6173, "value_rock": 4.5975, "value_soil": 13.4052, "units": "%g", "ln_tau": 0.3217, "ln_phi": 0.6067, "ln_sigma": 0.6867, "ln_sigma_rock": 0.6901, "ln_sigma_soil": 0.6528, "ln_bias": -0.0124, "ln_bias_sigma": 0.2507}, {"name": "sa(1.0)", "value": 1.8168, "value_rock": 1.423, "value_soil": 5.7047, "units": "%g", "ln_tau": 0.3562, "ln_phi": 0.6441, "ln_sigma": 0.7361, "ln_sigma_rock": 0.7388, "ln_sigma_soil": 0.726, "ln_bias": 0.0032, "ln_bias_sigma": 0.276}, {"name": "sa(3.0)", "value": 0.3568, "value_rock": 0.2794, "value_soil": 1.1666, "units": "%g", "ln_tau": 0.3835, "ln_phi": 0.6246, "ln_sigma": 0.7329, "ln_sigma_rock": 0.7375, "ln_sigma_soil": 0.7374, "ln_bias": 0.037, "ln_bias_sigma": 0.3103}, {"name": "pgv", "value": 1.9777, "value_rock": 1.6571, "value_soil": 4.5265, "units": "cm/s", "ln_tau": 0.3312, "ln_phi": 0.5509, "ln_sigma": 0.6428, "ln_sigma_rock": 0.6447, "ln_sigma_soil": 0.6204, "ln_bias": -0.0229, "ln_bias_sigma": 0.2465}], "pgm_from_mmi": [{"name": "sa(3.0)", "value": null, "units": "%g", "ln_sigma": null, "flag": "0"}, {"name": "pga", "value": null, "units": "%g", "ln_sigma": null, "flag": "0"}, {"name": "sa(1.0)", "value": null, "units": "%g", "ln_sigma": null, "flag": "0"}, {"name": "sa(0.3)", "value": null, "units": "%g", "ln_sigma": null, "flag": "0"}, {"name": "pgv", "value": null, "units": "cm/s", "ln_sigma": null, "flag": "0"}], "distance_stddev": 8.059, "distances": {"repi": 74.774, "rhypo": 76.074, "rjb": 68.048, "rjb_var": 38.471, "rrup": 70.297, "rrup_var": 64.942, "rx": 0.0, "ry0": 0.0, "rvolc": 0.0}}, "geometry": {"type": "Point", "coordinates": [-84.8563, 9.9894]}}, {"type": "Feature", "id": "DYFI.UTM:(16P 077 111 10000)", "properties": {"code": "UTM:(16P 077 111 10000)", "name": null, "instrumentType": "OBSERVED", "source": "DYFI", "network": "DYFI", "commType": "UNK", "location": "", "intensity": 4.9, "intensity_flag": "0", "intensity_stddev": 0.3, "pga": 7.5399, "pgv": 4.9973, "distance": 31.736, "elev": null, "vs30": 398.51, "channels": [], "nresp": -1, "station_type": "macroseismic", "predictions": [{"name": "mmi", "value": 5.166, "value_rock": 4.7481, "value_soil": 5.519, "units": "intensity", "tau": 0.5381, "phi": 1.1509, "sigma": 1.2705, "sigma_rock": 1.2937, "sigma_soil": 1.1962, "bias": -0.3357, "bias_sigma": 0.2741}, {"name": "pga", "value": 8.897, "value_rock": 6.8598, "value_soil": 11.0831, "units": "%g", "ln_tau": 0.3349, "ln_phi": 0.5868, "ln_sigma": 0.6756, "ln_sigma_rock": 0.6924, "ln_sigma_soil": 0.6209, "ln_bias": 0.026, "ln_bias_sigma": 0.2392}, {"name": "sa(0.3)", "value": 20.5317, "value_rock": 12.6161, "value_soil": 31.457, "units": "%g", "ln_tau": 0.3143, "ln_phi": 0.6451, "ln_sigma": 0.7176, "ln_sigma_rock": 0.7338, "ln_sigma_soil": 0.6476, "ln_bias": -0.012, "ln_bias_sigma": 0.2471}, {"name": "sa(1.0)", "value": 6.7171, "value_rock": 3.5386, "value_soil": 13.1973, "units": "%g", "ln_tau": 0.3553, "ln_phi": 0.6868, "ln_sigma": 0.7733, "ln_sigma_rock": 0.7778, "ln_sigma_soil": 0.7487, "ln_bias": 0.0032, "ln_bias_sigma": 0.2756}, {"name": "sa(3.0)", "value": 1.2833, "value_rock": 0.6686, "value_soil": 2.788, "units": "%g", "ln_tau": 0.3834, "ln_phi": 0.6681, "ln_sigma": 0.7703, "ln_sigma_rock": 0.7752, "ln_sigma_soil": 0.7747, "ln_bias": 0.037, "ln_bias_sigma": 0.3102}, {"name": "pgv", "value": 6.8036, "value_rock": 4.2922, "value_soil": 10.9292, "units": "cm/s", "ln_tau": 0.3302, "ln_phi": 0.6052, "ln_sigma": 0.6894, "ln_sigma_rock": 0.6937, "ln_sigma_soil": 0.6533, "ln_bias": -0.0228, "ln_bias_sigma": 0.2461}], "pgm_from_mmi": [{"name": "sa(3.0)", "value": 1.1233, "units": "%g", "ln_sigma": 1.4737, "flag": "0"}, {"name": "pga", "value": 7.5399, "units": "%g", "ln_sigma": 0.8059, "flag": "0"}, {"name": "sa(1.0)", "value": 5.1283, "units": "%g", "ln_sigma": 1.0822, "flag": "0"}, {"name": "sa(0.3)", "value": 16.9953, "units": "%g", "ln_sigma": 1.0131, "flag": "0"}, {"name": "pgv", "value": 4.9973, "units": "cm/s", "ln_sigma": 0.875, "flag": "0"}], "distance_stddev": 8.264, "distances": {"repi": 33.624, "rhypo": 36.422, "rjb": 27.509, "rjb_var": 32.919, "rrup": 31.736, "rrup_var": 68.292, "rx": 0.0, "ry0": 0.0, "rvolc": 0.0}}, "geometry": {"type": "Point", "coordinates": [-84.4909, 10.0771]}}, {"type": "Feature", "id": "DYFI.UTM:(16P 078 110 10000)", "properties": {"code": "UTM:(16P 078 110 10000)", "name": null, "instrumentType": "OBSERVED", "source": "DYFI", "network": "DYFI", "commType": "UNK", "location": "", "intensity": 4.7, "intensity_flag": "0", "intensity_stddev": 0.3, "pga": 6.8624, "pgv": 4.3196, "distance": 28.431, "elev": null, "vs30": 476.4, "channels": [], "nresp": -1, "station_type": "macroseismic", "predictions": [{"name": "mmi", "value": 5.2264, "value_rock": 4.918, "value_soil": 5.6511, "units": "intensity", "tau": 0.5426, "phi": 1.1731, "sigma": 1.2925, "sigma_rock": 1.31, "sigma_soil": 1.2004, "bias": -0.3371, "bias_sigma": 0.2746}, {"name": "pga", "value": 9.5226, "value_rock": 7.8594, "value_soil": 12.4029, "units": "%g", "ln_tau": 0.3377, "ln_phi": 0.6035, "ln_sigma": 0.6916, "ln_sigma_rock": 0.7042, "ln_sigma_soil": 0.624, "ln_bias": 0.0262, "ln_bias_sigma": 0.2402}, {"name": "sa(0.3)", "value": 20.7928, "value_rock": 14.4241, "value_soil": 34.8395, "units": "%g", "ln_tau": 0.3178, "ln_phi": 0.662, "ln_sigma": 0.7343, "ln_sigma_rock": 0.7448, "ln_sigma_soil": 0.647, "ln_bias": -0.0122, "ln_bias_sigma": 0.2488}, {"name": "sa(1.0)", "value": 6.4589, "value_rock": 4.0205, "value_soil": 14.7766, "units": "%g", "ln_tau": 0.3557, "ln_phi": 0.6992, "ln_sigma": 0.7845, "ln_sigma_rock": 0.7882, "ln_sigma_soil": 0.7549, "ln_bias": 0.0032, "ln_bias_sigma": 0.2758}, {"name": "sa(3.0)", "value": 1.2254, "value_rock": 0.7571, "value_soil": 3.1561, "units": "%g", "ln_tau": 0.3834, "ln_phi": 0.6798, "ln_sigma": 0.7804, "ln_sigma_rock": 0.7853, "ln_sigma_soil": 0.7848, "ln_bias": 0.037, "ln_bias_sigma": 0.3102}, {"name": "pgv", "value": 6.8885, "value_rock": 4.9044, "value_soil": 12.3115, "units": "cm/s", "ln_tau": 0.3307, "ln_phi": 0.6206, "ln_sigma": 0.7032, "ln_sigma_rock": 0.7066, "ln_sigma_soil": 0.662, "ln_bias": -0.0228, "ln_bias_sigma": 0.2463}], "pgm_from_mmi": [{"name": "sa(3.0)", "value": 0.8703, "units": "%g", "ln_sigma": 1.4737, "flag": "0"}, {"name": "pga", "value": 6.8624, "units": "%g", "ln_sigma": 0.8059, "flag": "0"}, {"name": "sa(1.0)", "value": 4.0295, "units": "%g", "ln_sigma": 1.0822, "flag": "0"}, {"name": "sa(0.3)", "value": 14.0928, "units": "%g", "ln_sigma": 1.0131, "flag": "0"}, {"name": "pgv", "value": 4.3196, "units": "cm/s", "ln_sigma": 0.875, "flag": "0"}], "distance_stddev": 8.222, "distances": {"repi": 29.868, "rhypo": 32.986, "rjb": 23.886, "rjb_var": 31.423, "rrup": 28.431, "rrup_var": 67.599, "rx": 0.0, "ry0": 0.0, "rvolc": 0.0}}, "geometry": {"type": "Point", "coordinates": [-84.4005, 9.9861]}}, {"type": "Feature", "id": "DYFI.UTM:(16P 079 115 10000)", "properties": {"code": "UTM:(16P 079 115 10000)", "name": null, "instrumentType": "OBSERVED", "source": "DYFI", "network": "DYFI", "commType": "UNK", "location": "", "intensity": 4.1, "intensity_flag": "0", "intensity_stddev": 0.3, "pga": 4.623, "pgv": 2.251, "distance": 30.749, "elev": null, "vs30": 341.02, "channels": [], "nresp": -1, "station_type": "macroseismic", "predictions": [{"name": "mmi", "value": 5.2962, "value_rock": 4.7971, "value_soil": 5.5575, "units": "intensity", "tau": 0.5313, "phi": 1.1482, "sigma": 1.2652, "sigma_rock": 1.2982, "sigma_soil": 1.1974, "bias": -0.3335, "bias_sigma": 0.2731}, {"name": "pga", "value": 9.7326, "value_rock": 7.1342, "value_soil": 11.4512, "units": "%g", "ln_tau": 0.3306, "ln_phi": 0.5847, "ln_sigma": 0.6717, "ln_sigma_rock": 0.6957, "ln_sigma_soil": 0.6217, "ln_bias": 0.0257, "ln_bias_sigma": 0.2376}, {"name": "sa(0.3)", "value": 23.4728, "value_rock": 13.1124, "value_soil": 32.4068, "units": "%g", "ln_tau": 0.3087, "ln_phi": 0.6404, "ln_sigma": 0.7109, "ln_sigma_rock": 0.7368, "ln_sigma_soil": 0.6475, "ln_bias": -0.0118, "ln_bias_sigma": 0.2444}, {"name": "sa(1.0)", "value": 8.0182, "value_rock": 3.6707, "value_soil": 13.6343, "units": "%g", "ln_tau": 0.3541, "ln_phi": 0.6877, "ln_sigma": 0.7735, "ln_sigma_rock": 0.7806, "ln_sigma_soil": 0.7504, "ln_bias": 0.0032, "ln_bias_sigma": 0.275}, {"name": "sa(3.0)", "value": 1.5465, "value_rock": 0.6929, "value_soil": 2.8889, "units": "%g", "ln_tau": 0.3834, "ln_phi": 0.6712, "ln_sigma": 0.773, "ln_sigma_rock": 0.7779, "ln_sigma_soil": 0.7775, "ln_bias": 0.0369, "ln_bias_sigma": 0.3102}, {"name": "pgv", "value": 7.8132, "value_rock": 4.4596, "value_soil": 11.3108, "units": "cm/s", "ln_tau": 0.3286, "ln_phi": 0.6064, "ln_sigma": 0.6897, "ln_sigma_rock": 0.6972, "ln_sigma_soil"