{
    "type": "FeatureCollection",
    "features": [
        {
            "type": "Feature",
            "id": "DYFI.UTM:(35J 060 712 10000)",
            "properties": {
                "code": "UTM:(35J 060 712 10000)",
                "name": null,
                "instrumentType": "OBSERVED",
                "source": "DYFI",
                "network": "DYFI",
                "commType": "UNK",
                "location": "",
                "intensity": 2.8,
                "intensity_flag": "0",
                "intensity_stddev": 0.3,
                "pga": "null",
                "pgv": "null",
                "distance": 459.528,
                "elev": null,
                "vs30": 852.28,
                "channels": [],
                "nresp": -1,
                "station_type": "macroseismic",
                "predictions": [
                    {
                        "name": "mmi",
                        "value": 3.9969,
                        "value_rock": 4.0409,
                        "value_soil": 4.7283,
                        "units": "intensity",
                        "tau": 0.0,
                        "phi": 0.7399,
                        "sigma": 0.7399,
                        "sigma_rock": 0.8806,
                        "sigma_soil": 0.8806,
                        "bias": 0.0,
                        "bias_sigma": 0.4873
                    },
                    {
                        "name": "pga",
                        "value": 0.4608,
                        "value_rock": 0.4802,
                        "value_soil": 1.1184,
                        "units": "%g",
                        "ln_tau": 0.0,
                        "ln_phi": 0.5289,
                        "ln_sigma": 0.5289,
                        "ln_sigma_rock": 0.6345,
                        "ln_sigma_soil": 0.6345,
                        "ln_bias": 0.0,
                        "ln_bias_sigma": 0.3483
                    },
                    {
                        "name": "sa(0.3)",
                        "value": 1.2732,
                        "value_rock": 1.339,
                        "value_soil": 3.2915,
                        "units": "%g",
                        "ln_tau": 0.0,
                        "ln_phi": 0.5552,
                        "ln_sigma": 0.5552,
                        "ln_sigma_rock": 0.6654,
                        "ln_sigma_soil": 0.6654,
                        "ln_bias": 0.0,
                        "ln_bias_sigma": 0.3656
                    },
                    {
                        "name": "sa(1.0)",
                        "value": 0.6127,
                        "value_rock": 0.6639,
                        "value_soil": 2.2782,
                        "units": "%g",
                        "ln_tau": 0.0,
                        "ln_phi": 0.5841,
                        "ln_sigma": 0.5841,
                        "ln_sigma_rock": 0.7039,
                        "ln_sigma_soil": 0.7039,
                        "ln_bias": 0.0,
                        "ln_bias_sigma": 0.3846
                    },
                    {
                        "name": "sa(3.0)",
                        "value": 0.1511,
                        "value_rock": 0.1644,
                        "value_soil": 0.5679,
                        "units": "%g",
                        "ln_tau": 0.0,
                        "ln_phi": 0.611,
                        "ln_sigma": 0.611,
                        "ln_sigma_rock": 0.7335,
                        "ln_sigma_soil": 0.7335,
                        "ln_bias": 0.0,
                        "ln_bias_sigma": 0.4024
                    },
                    {
                        "name": "pgv",
                        "value": 0.6441,
                        "value_rock": 0.6955,
                        "value_soil": 2.307,
                        "units": "cm/s",
                        "ln_tau": 0.0,
                        "ln_phi": 0.6632,
                        "ln_sigma": 0.6632,
                        "ln_sigma_rock": 0.7759,
                        "ln_sigma_soil": 0.7759,
                        "ln_bias": 0.0,
                        "ln_bias_sigma": 0.4368
                    }
                ],
                "pgm_from_mmi": [
                    {
                        "name": "sa(3.0)",
                        "value": null,
                        "units": "%g",
                        "ln_sigma": null,
                        "flag": "0"
                    },
                    {
                        "name": "sa(1.0)",
                        "value": null,
                        "units": "%g",
                        "ln_sigma": null,
                        "flag": "0"
                    },
                    {
                        "name": "sa(0.3)",
                        "value": null,
                        "units": "%g",
                        "ln_sigma": null,
                        "flag": "0"
                    },
                    {
                        "name": "pga",
                        "value": null,
                        "units": "%g",
                        "ln_sigma": null,
                        "flag": "0"
                    },
                    {
                        "name": "pgv",
                        "value": null,
                        "units": "cm/s",
                        "ln_sigma": null,
                        "flag": "0"
                    }
                ],
                "distance_stddev": 11.391,
                "distances": {
                    "repi": 470.621,
                    "rhypo": 471.513,
                    "rjb": 459.457,
                    "rjb_var": 101.64,
                    "rrup": 459.528,
                    "rrup_var": 129.75
                }
            },
            "geometry": {
                "type": "Point",
                "coordinates": [
                    28.0491,
                    -25.99
                ]
            }
        },
        {
            "type": "Feature",
            "id": "DYFI.UTM:(35J 038 726 10000)",
            "properties": {
                "code": "UTM:(35J 038 726 10000)",
                "name": null,
                "instrumentType": "OBSERVED",
                "source": "DYFI",
                "network": "DYFI",
                "commType": "UNK",
                "location": "",
                "intensity": 4.7,
                "intensity_flag": "0",
                "intensity_stddev": 0.3,
                "pga": 1.365,
                "pgv": 2.3148,
                "distance": 229.587,
                "elev": null,
                "vs30": 419.78,
                "channels": [],
                "nresp": -1,
                "station_type": "macroseismic",
                "predictions": [
                    {
                        "name": "mmi",
                        "value": 4.6895,
                        "value_rock": 4.4582,
                        "value_soil": 5.5159,
                        "units": "intensity",
                        "tau": 0.0,
                        "phi": 0.7401,
                        "sigma": 0.7401,
                        "sigma_rock": 0.8808,
                        "sigma_soil": 1.2737,
                        "bias": 0.0,
                        "bias_sigma": 0.4874
                    },
                    {
                        "name": "pga",
                        "value": 2.3835,
                        "value_rock": 1.839,
                        "value_soil": 4.283,
                        "units": "%g",
                        "ln_tau": 0.0,
                        "ln_phi": 0.5313,
                        "ln_sigma": 0.5313,
                        "ln_sigma_rock": 0.6374,
                        "ln_sigma_soil": 0.6374,
                        "ln_bias": 0.0,
                        "ln_bias_sigma": 0.3499
                    },
                    {
                        "name": "sa(0.3)",
                        "value": 5.5272,
                        "value_rock": 4.0667,
                        "value_soil": 9.9964,
                        "units": "%g",
                        "ln_tau": 0.0,
                        "ln_phi": 0.5565,
                        "ln_sigma": 0.5565,
                        "ln_sigma_rock": 0.6669,
                        "ln_sigma_soil": 0.6669,
                        "ln_bias": 0.0,
                        "ln_bias_sigma": 0.3665
                    },
                    {
                        "name": "sa(1.0)",
                        "value": 2.2051,
                        "value_rock": 1.4554,
                        "value_soil": 4.9943,
                        "units": "%g",
                        "ln_tau": 0.0,
                        "ln_phi": 0.5848,
                        "ln_sigma": 0.5848,
                        "ln_sigma_rock": 0.7048,
                        "ln_sigma_soil": 0.7048,
                        "ln_bias": 0.0,
                        "ln_bias_sigma": 0.3851
                    },
                    {
                        "name": "sa(3.0)",
                        "value": 0.4409,
                        "value_rock": 0.2842,
                        "value_soil": 0.9816,
                        "units": "%g",
                        "ln_tau": 0.0,
                        "ln_phi": 0.6116,
                        "ln_sigma": 0.6116,
                        "ln_sigma_rock": 0.7341,
                        "ln_sigma_soil": 0.7341,
                        "ln_bias": 0.0,
                        "ln_bias_sigma": 0.4027
                    },
                    {
                        "name": "pgv",
                        "value": 2.2728,
                        "value_rock": 1.5181,
                        "value_soil": 5.0351,
                        "units": "cm/s",
                        "ln_tau": 0.0,
                        "ln_phi": 0.6639,
                        "ln_sigma": 0.6639,
                        "ln_sigma_rock": 0.7767,
                        "ln_sigma_soil": 0.7767,
                        "ln_bias": 0.0,
                        "ln_bias_sigma": 0.4372
                    }
                ],
                "pgm_from_mmi": [
                    {
                        "name": "sa(3.0)",
                        "value": 1.3303,
                        "units": "%g",
                        "ln_sigma": 1.8651,
                        "flag": "0"
                    },
                    {
                        "name": "sa(1.0)",
                        "value": 3.8441,
                        "units": "%g",
                        "ln_sigma": 1.3125,
                        "flag": "0"
                    },
                    {
                        "name": "sa(0.3)",
                        "value": 4.2193,
                        "units": "%g",
                        "ln_sigma": 1.4506,
                        "flag": "0"
                    },
                    {
                        "name": "pga",
                        "value": 1.365,
                        "units": "%g",
                        "ln_sigma": 1.3125,
                        "flag": "0"
                    },
                    {
                        "name": "pgv",
                        "value": 2.3148,
                        "units": "cm/s",
                        "ln_sigma": 1.1973,
                        "flag": "0"
                    }
                ],
                "distance_stddev": 12.089,
                "distances": {
                    "repi": 238.707,
                    "rhypo": 240.462,
                    "rjb": 227.744,
                    "rjb_var": 100.307,
                    "rrup": 229.587,
                    "rrup_var": 146.143
                }
            },
            "geometry": {
                "type": "Point",
                "coordinates": [
                    25.8629,
                    -24.7252
                ]
            }
        },
        {
            "type": "Feature",
            "id": "DYFI.UTM:(35K 066 776 10000)",
            "properties": {
                "code": "UTM:(35K 066 776 10000)",
                "name": null,
                "instrumentType": "OBSERVED",
                "source": "DYFI",
                "network": "DYFI",
                "commType": "UNK",
                "location": "",
                "intensity": 2.8,
                "intensity_flag": "0",
                "intensity_stddev": 0.3,
                "pga": "null",
                "pgv": "null",
                "distance": 437.481,
                "elev": null,
                "vs30": 507.23,
                "channels": [],
                "nresp": -1,
                "station_type": "macroseismic",
                "predictions": [
                    {
                        "name": "mmi",
                        "value": 4.2341,
                        "value_rock": 4.0765,
                        "value_soil": 4.7639,
                        "units": "intensity",
                        "tau": 0.0,
                        "phi": 0.7399,
                        "sigma": 0.7399,
                        "sigma_rock": 0.8806,
                        "sigma_soil": 0.8806,
                        "bias": 0.0,
                        "bias_sigma": 0.4873
                    },
                    {
                        "name": "pga",
                        "value": 0.6386,
                        "value_rock": 0.5352,
                        "value_soil": 1.2465,
                        "units": "%g",
                        "ln_tau": 0.0,
                        "ln_phi": 0.5289,
                        "ln_sigma": 0.5289,
                        "ln_sigma_rock": 0.6346,
                        "ln_sigma_soil": 0.6346,
                        "ln_bias": 0.0,
                        "ln_bias_sigma": 0.3483
                    },
                    {
                        "name": "sa(0.3)",
                        "value": 1.8117,
                        "value_rock": 1.4699,
                        "value_soil": 3.6132,
                        "units": "%g",
                        "ln_tau": 0.0,
                        "ln_phi": 0.5553,
                        "ln_sigma": 0.5553,
                        "ln_sigma_rock": 0.6655,
                        "ln_sigma_soil": 0.6655,
                        "ln_bias": 0.0,
                        "ln_bias_sigma": 0.3657
                    },
                    {
                        "name": "sa(1.0)",
                        "value": 0.9386,
                        "value_rock": 0.7072,
                        "value_soil": 2.4269,
                        "units": "%g",
                        "ln_tau": 0.0,
                        "ln_phi": 0.5841,
                        "ln_sigma": 0.5841,
                        "ln_sigma_rock": 0.7039,
                        "ln_sigma_soil": 0.7039,
                        "ln_bias": 0.0,
                        "ln_bias_sigma": 0.3846
                    },
                    {
                        "name": "sa(3.0)",
                        "value": 0.2312,
                        "value_rock": 0.1714,
                        "value_soil": 0.592,
                        "units": "%g",
                        "ln_tau": 0.0,
                        "ln_phi": 0.6111,
                        "ln_sigma": 0.6111,
                        "ln_sigma_rock": 0.7335,
                        "ln_sigma_soil": 0.7335,
                        "ln_bias": 0.0,
                        "ln_bias_sigma": 0.4024
                    },
                    {
                        "name": "pgv",
                        "value": 0.9743,
                        "value_rock": 0.7401,
                        "value_soil": 2.4548,
                        "units": "cm/s",
                        "ln_tau": 0.0,
                        "ln_phi": 0.6633,
                        "ln_sigma": 0.6633,
                        "ln_sigma_rock": 0.7759,
                        "ln_sigma_soil": 0.7759,
                        "ln_bias": 0.0,
                        "ln_bias_sigma": 0.4368
                    }
                ],
                "pgm_from_mmi": [
                    {
                        "name": "sa(3.0)",
                        "value": null,
                        "units": "%g",
                        "ln_sigma": null,
                        "flag": "0"
                    },
                    {
                        "name": "sa(1.0)",
                        "value": null,
                        "units": "%g",
                        "ln_sigma": null,
                        "flag": "0"
                    },
                    {
                        "name": "sa(0.3)",
                        "value": null,
                        "units": "%g",
                        "ln_sigma": null,
                        "flag": "0"
                    },
                    {
                        "name": "pga",
                        "value": null,
                        "units": "%g",
                        "ln_sigma": null,
                        "flag": "0"
                    },
                    {
                        "name": "pgv",
                        "value": null,
                        "units": "cm/s",
                        "ln_sigma": null,
                        "flag": "0"
                    }
                ],
                "distance_stddev": 11.42,
                "distances": {
                    "repi": 448.478,
                    "rhypo": 449.414,
                    "rjb": 437.323,
                    "rjb_var": 101.578,
                    "rrup": 437.481,
                    "rrup_var": 130.423
                }
            },
            "geometry": {
                "type": "Point",
                "coordinates": [
                    28.5793,
                    -20.2054
                ]
            }
        },
        {
            "type": "Feature",
            "id": "DYFI.UTM:(35J 061 712 10000)",
            "properties": {
                "code": "UTM:(35J 061 712 10000)",
                "name": null,
                "instrumentType": "OBSERVED",
                "source": "DYFI",
                "network": "DYFI",
                "commType": "UNK",
                "location": "",
                "intensity": 3.1,
                "intensity_flag": "0",
                "intensity_stddev": 0.3,
                "pga": "null",
                "pgv": "null",
                "distance": 465.793,
                "elev": null,
                "vs30": 735.5,
                "channels": [],
                "nresp": -1,
                "station_type": "macroseismic",
                "predictions": [
                    {
                        "name": "mmi",
                        "value": 4.0437,
                        "value_rock": 4.031,
                        "value_soil": 4.7183,
                        "units": "intensity",
                        "tau": 0.0,
                        "phi": 0.7399,
                        "sigma": 0.7399,
                        "sigma_rock": 0.8806,
                        "sigma_soil": 0.8806,
                        "bias": 0.0,
                        "bias_sigma": 0.4873
                    },
                    {
                        "name": "pga",
                        "value": 0.4726,
                        "value_rock": 0.4659,
                        "value_soil": 1.085,
                        "units": "%g",
                        "ln_tau": 0.0,
                        "ln_phi": 0.5288,
                        "ln_sigma": 0.5288,
                        "ln_sigma_rock": 0.6344,
                        "ln_sigma_soil": 0.6344,
                        "ln_bias": 0.0,
                        "ln_bias_sigma": 0.3483
