{"type": "FeatureCollection", "features": [{"type": "Feature", "id": "DYFI.UTM:(45R 020 312 10000)", "properties": {"code": "UTM:(45R 020 312 10000)", "name": null, "instrumentType": "OBSERVED", "source": "DYFI", "network": "DYFI", "commType": "UNK", "location": "", "intensity": 4.3, "intensity_flag": "0", "intensity_stddev": 0.3, "pga": 2.2279, "pgv": 3.5845, "distance": 398.017, "elev": null, "vs30": 760.0, "channels": [], "nresp": -1, "station_type": "macroseismic", "predictions": [{"name": "mmi", "value": 2.7936, "value_rock": 2.7936, "value_soil": 3.0467, "units": "intensity", "tau": 0.2547, "phi": 0.7668, "sigma": 0.808, "sigma_rock": 0.8089, "sigma_soil": 0.8088, "bias": 0.202, "bias_sigma": 0.2395}, {"name": "sa(0.3)", "value": 0.4264, "value_rock": 0.4264, "value_soil": 0.9145, "units": "%g", "ln_tau": 0.3384, "ln_phi": 0.6397, "ln_sigma": 0.7237, "ln_sigma_rock": 0.7279, "ln_sigma_soil": 0.7273, "ln_bias": 0.2557, "ln_bias_sigma": 0.2988}, {"name": "sa(1.0)", "value": 0.2479, "value_rock": 0.2479, "value_soil": 0.6686, "units": "%g", "ln_tau": 0.366, "ln_phi": 0.637, "ln_sigma": 0.7347, "ln_sigma_rock": 0.7387, "ln_sigma_soil": 0.738, "ln_bias": 0.4542, "ln_bias_sigma": 0.3208}, {"name": "sa(3.0)", "value": 0.0949, "value_rock": 0.0949, "value_soil": 0.2345, "units": "%g", "ln_tau": 0.347, "ln_phi": 0.6233, "ln_sigma": 0.7133, "ln_sigma_rock": 0.7221, "ln_sigma_soil": 0.7221, "ln_bias": 0.2636, "ln_bias_sigma": 0.3201}, {"name": "pgv", "value": 0.2566, "value_rock": 0.2566, "value_soil": 0.6175, "units": "cm/s", "ln_tau": 0.3562, "ln_phi": 0.7344, "ln_sigma": 0.8162, "ln_sigma_rock": 0.821, "ln_sigma_soil": 0.8202, "ln_bias": 0.3957, "ln_bias_sigma": 0.3085}, {"name": "pga", "value": 0.2377, "value_rock": 0.2377, "value_soil": 0.3462, "units": "%g", "ln_tau": 0.3784, "ln_phi": 0.5799, "ln_sigma": 0.6925, "ln_sigma_rock": 0.6947, "ln_sigma_soil": 0.6944, "ln_bias": 0.3569, "ln_bias_sigma": 0.3103}], "pgm_from_mmi": [{"name": "pgv", "value": 3.5845, "units": "cm/s", "ln_sigma": 0.875, "flag": "0"}, {"name": "sa(1.0)", "value": 5.5965, "units": "%g", "ln_sigma": 1.0822, "flag": "0"}, {"name": "sa(3.0)", "value": 1.2351, "units": "%g", "ln_sigma": 1.4737, "flag": "0"}, {"name": "pga", "value": 2.2279, "units": "%g", "ln_sigma": 0.8059, "flag": "0"}, {"name": "sa(0.3)", "value": 3.54, "units": "%g", "ln_sigma": 1.0131, "flag": "0"}], "distance_stddev": 18.801, "distances": {"repi": 412.148, "rhypo": 415.17, "rjb": 395.179, "rjb_var": 241.696, "rrup": 398.017, "rrup_var": 353.479, "rx": 0.0, "ry0": 0.0, "rvolc": 0.0}}, "geometry": {"type": "Point", "coordinates": [83.9944, 28.2179]}}, {"type": "Feature", "id": "DYFI.UTM:(45R 062 299 10000)", "properties": {"code": "UTM:(45R 062 299 10000)", "name": null, "instrumentType": "OBSERVED", "source": "DYFI", "network": "DYFI", "commType": "UNK", "location": "", "intensity": 5.4, "intensity_flag": "0", "intensity_stddev": 0.3, "pga": 8.8226, "pgv": 7.9897, "distance": 75.434, "elev": null, "vs30": 900.0, "channels": [], "nresp": -1, "station_type": "macroseismic", "predictions": [{"name": "mmi", "value": 5.0044, "value_rock": 5.2288, "value_soil": 5.6896, "units": "intensity", "tau": 0.608, "phi": 1.277, "sigma": 1.4143, "sigma_rock": 1.4189, "sigma_soil": 1.3968, "bias": 0.7455, "bias_sigma": 0.4601}, {"name": "sa(0.3)", "value": 11.9304, "value_rock": 13.7235, "value_soil": 26.2036, "units": "%g", "ln_tau": 0.3384, "ln_phi": 0.7247, "ln_sigma": 0.7998, "ln_sigma_rock": 0.806, "ln_sigma_soil": 0.7853, "ln_bias": 0.2557, "ln_bias_sigma": 0.2988}, {"name": "sa(1.0)", "value": 3.897, "value_rock": 4.4655, "value_soil": 11.4982, "units": "%g", "ln_tau": 0.366, "ln_phi": 0.7169, "ln_sigma": 0.8049, "ln_sigma_rock": 0.811, "ln_sigma_soil": 0.8039, "ln_bias": 0.4542, "ln_bias_sigma": 0.3207}, {"name": "sa(3.0)", "value": 0.9691, "value_rock": 1.093, "value_soil": 2.7005, "units": "%g", "ln_tau": 0.347, "ln_phi": 0.6918, "ln_sigma": 0.7739, "ln_sigma_rock": 0.7843, "ln_sigma_soil": 0.7841, "ln_bias": 0.2636, "ln_bias_sigma": 0.3201}, {"name": "pgv", "value": 3.9473, "value_rock": 4.46, "value_soil": 10.2544, "units": "cm/s", "ln_tau": 0.3562, "ln_phi": 0.8048, "ln_sigma": 0.8801, "ln_sigma_rock": 0.8859, "ln_sigma_soil": 0.8794, "ln_bias": 0.3957, "ln_bias_sigma": 0.3085}, {"name": "pga", "value": 6.8975, "value_rock": 7.9311, "value_soil": 10.5649, "units": "%g", "ln_tau": 0.3784, "ln_phi": 0.6803, "ln_sigma": 0.7785, "ln_sigma_rock": 0.7816, "ln_sigma_soil": 0.7661, "ln_bias": 0.3569, "ln_bias_sigma": 0.3103}], "pgm_from_mmi": [{"name": "pgv", "value": 7.9897, "units": "cm/s", "ln_sigma": 0.875, "flag": "0"}, {"name": "sa(1.0)", "value": 10.615, "units": "%g", "ln_sigma": 1.0822, "flag": "0"}, {"name": "sa(3.0)", "value": 2.2061, "units": "%g", "ln_sigma": 1.4737, "flag": "0"}, {"name": "pga", "value": 8.8226, "units": "%g", "ln_sigma": 0.8059, "flag": "0"}, {"name": "sa(0.3)", "value": 19.7973, "units": "%g", "ln_sigma": 1.0131, "flag": "0"}], "distance_stddev": 21.192, "distances": {"repi": 73.949, "rhypo": 89.266, "rjb": 59.514, "rjb_var": 191.746, "rrup": 75.434, "rrup_var": 449.116, "rx": 0.0, "ry0": 0.0, "rvolc": 0.0}}, "geometry": {"type": "Point", "coordinates": [88.2606, 27.0716]}}, {"type": "Feature", "id": "DYFI.UTM:(45R 073 303 10000)", "properties": {"code": "UTM:(45R 073 303 10000)", "name": null, "instrumentType": "OBSERVED", "source": "DYFI", "network": "DYFI", "commType": "UNK", "location": "", "intensity": 5.6, "intensity_flag": "0", "intensity_stddev": 0.3, "pga": 8.7759, "pgv": 9.2432, "distance": 120.781, "elev": null, "vs30": 900.0, "channels": [], "nresp": -1, "station_type": "macroseismic", "predictions": [{"name": "mmi", "value": 4.1271, "value_rock": 4.222, "value_soil": 4.7051, "units": "intensity", "tau": 0.2547, "phi": 0.7852, "sigma": 0.8255, "sigma_rock": 0.8265, "sigma_soil": 1.3474, "bias": 0.202, "bias_sigma": 0.2395}, {"name": "sa(0.3)", "value": 5.5464, "value_rock": 6.3805, "value_soil": 12.9266, "units": "%g", "ln_tau": 0.3384, "ln_phi": 0.6825, "ln_sigma": 0.7618, "ln_sigma_rock": 0.7671, "ln_sigma_soil": 0.7563, "ln_bias": 0.2557, "ln_bias_sigma": 0.2988}, {"name": "sa(1.0)", "value": 1.9841, "value_rock": 2.2736, "value_soil": 5.9913, "units": "%g", "ln_tau": 0.366, "ln_phi": 0.672, "ln_sigma": 0.7653, "ln_sigma_rock": 0.7704, "ln_sigma_soil": 0.7662, "ln_bias": 0.4542, "ln_bias_sigma": 0.3208}, {"name": "sa(3.0)", "value": 0.5354, "value_rock": 0.6038, "value_soil": 1.492, "units": "%g", "ln_tau": 0.347, "ln_phi": 0.6512, "ln_sigma": 0.7379, "ln_sigma_rock": 0.7475, "ln_sigma_soil": 0.7474, "ln_bias": 0.2636, "ln_bias_sigma": 0.3201}, {"name": "pgv", "value": 2.0118, "value_rock": 2.2731, "value_soil": 5.3451, "units": "cm/s", "ln_tau": 0.3562, "ln_phi": 0.7652, "ln_sigma": 0.844, "ln_sigma_rock": 0.8493, "ln_sigma_soil": 0.8455, "ln_bias": 0.3957, "ln_bias_sigma": 0.3085}, {"name": "pga", "value": 3.1359, "value_rock": 3.6107, "value_soil": 5.0284, "units": "%g", "ln_tau": 0.3784, "ln_phi": 0.6318, "ln_sigma": 0.7365, "ln_sigma_rock": 0.7392, "ln_sigma_soil": 0.7311, "ln_bias": 0.3569, "ln_bias_sigma": 0.3103}], "pgm_from_mmi": [{"name": "pgv", "value": 9.2432, "units": "cm/s", "ln_sigma": 0.875, "flag": "0"}, {"name": "sa(1.0)", "value": 13.4718, "units": "%g", "ln_sigma": 1.0822, "flag": "0"}, {"name": "sa(3.0)", "value": 2.8104, "units": "%g", "ln_sigma": 1.4737, "flag": "0"}, {"name": "pga", "value": 8.7759, "units": "%g", "ln_sigma": 0.8059, "flag": "0"}, {"name": "sa(0.3)", "value": 20.6675, "units": "%g", "ln_sigma": 1.0131, "flag": "0"}], "distance_stddev": 21.273, "distances": {"repi": 125.349, "rhypo": 134.953, "rjb": 109.672, "rjb_var": 221.903, "rrup": 120.781, "rrup_var": 452.53, "rx": 0.0, "ry0": 0.0, "rvolc": 0.0}}, "geometry": {"type": "Point", "coordinates": [89.3771, 27.4181]}}, {"type": "Feature", "id": "DYFI.UTM:(45R 052 292 10000)", "properties": {"code": "UTM:(45R 052 292 10000)", "name": null, "instrumentType": "OBSERVED", "source": "DYFI", "network": "DYFI", "commType": "UNK", "location": "", "intensity": 4.9, "intensity_flag": "0", "intensity_stddev": 0.3, "pga": 5.243, "pgv": 5.5501, "distance": 161.157, "elev": null, "vs30": 224.17, "channels": [], "nresp": -1, "station_type": "macroseismic", "predictions": [{"name": "mmi", "value": 4.1888, "value_rock": 3.9831, "value_soil": 4.2184, "units": "intensity", "tau": 0.253, "phi": 0.7764, "sigma": 0.8166, "sigma_rock": 0.8191, "sigma_soil": 0.8172, "bias": 0.1997, "bias_sigma": 0.2381}, {"name": "sa(0.3)", "value": 7.2913, "value_rock": 3.7446, "value_soil": 7.7695, "units": "%g", "ln_tau": 0.3354, "ln_phi": 0.661, "ln_sigma": 0.7413, "ln_sigma_rock": 0.7506, "ln_sigma_soil": 0.7441, "ln_bias": 0.2522, "ln_bias_sigma": 0.2968}, {"name": "sa(1.0)", "value": 3.4003, "value_rock": 1.443, "value_soil": 3.8382, "units": "%g", "ln_tau": 0.3648, "ln_phi": 0.6548, "ln_sigma": 0.7495, "ln_sigma_rock": 0.756, "ln_sigma_soil": 0.7532, "ln_bias": 0.4519, "ln_bias_sigma": 0.3199}, {"name": "sa(3.0)", "value": 0.8562, "value_rock": 0.4084, "value_soil": 1.0091, "units": "%g", "ln_tau": 0.3469, "ln_phi": 0.6377, "ln_sigma": 0.726, "ln_sigma_rock": 0.7353, "ln_sigma_soil": 0.7352, "ln_bias": 0.2636, "ln_bias_sigma": 0.32}, {"name": "pgv", "value": 3.0937, "value_rock": 1.4469, "value_soil": 3.4334, "units": "cm/s", "ln_tau": 0.3549, "ln_phi": 0.7497, "ln_sigma": 0.8295, "ln_sigma_rock": 0.8364, "ln_sigma_soil": 0.8336, "ln_bias": 0.3937, "ln_bias_sigma": 0.3077}, {"name": "pga", "value": 2.8427, "value_rock": 2.0943, "value_soil": 2.9709, "units": "%g", "ln_tau": 0.3759, "ln_phi": 0.6075, "ln_sigma": 0.7144, "ln_sigma_rock": 0.7206, "ln_sigma_soil": 0.7158, "ln_bias": 0.3538, "ln_bias_sigma": 0.3089}], "pgm_from_mmi": [{"name": "pgv", "value": 5.5501, "units": "cm/s", "ln_sigma": 0.875, "flag": "0"}, {"name": "sa(1.0)", "value": 8.1135, "units": "%g", "ln_sigma": 1.0822, "flag": "0"}, {"name": "sa(3.0)", "value": 1.7375, "units": "%g", "ln_sigma": 1.4737, "flag": "0"}, {"name": "pga", "value": 5.243, "units": "%g", "ln_sigma": 0.8059, "flag": "0"}, {"name": "sa(0.3)", "value": 9.9963, "units": "%g", "ln_sigma": 1.0131, "flag": "0"}], "distance_stddev": 20.894, "distances": {"repi": 168.598, "rhypo": 175.856, "rjb": 152.454, "rjb_var": 230.674, "rrup": 161.157, "rrup_var": 436.571, "rx": 0.0, "ry0": 0.0, "rvolc": 0.0}}, "geometry": {"type": "Point", "coordinates": [87.2508, 26.4451]}}, {"type": "Feature", "id": "DYFI.UTM:(45R 106 292 10000)", "properties": {"code": "UTM:(45R 106 292 10000)", "name": null, "instrumentType": "OBSERVED", "source": "DYFI", "network": "DYFI", "commType": "UNK", "location": "", "intensity": 4.0, "intensity_flag": "0", "intensity_stddev": 0.3, "pga": 1.4268, "pgv": 2.4116, "distance": 457.166, "elev": null, "vs30": 760.0, "channels": [], "nresp": -1, "station_type": "macroseismic", "predictions": [{"name": "mmi", "value": 2.507, "value_rock": 2.507, "value_soil": 2.7609, "units": "intensity", "tau": 0.2547, "phi": 0.7662, "sigma": 0.8074, "sigma_rock": 0.8083, "sigma_soil": 0.8082, "bias": 0.202, "bias_sigma": 0.2395}, {"name": "sa(0.3)", "value": 0.2762, "value_rock": 0.2762, "value_soil": 0.5934, "units": "%g", "ln_tau": 0.3384, "ln_phi": 0.6382, "ln_sigma": 0.7224, "ln_sigma_rock": 0.7266, "ln_sigma_soil": 0.7262, "ln_bias": 0.2557, "ln_bias_sigma": 0.2988}, {"name": "sa(1.0)", "value": 0.1765, "value_rock": 0.1765, "value_soil": 0.4765, "units": "%g", "ln_tau": 0.366, "ln_phi": 0.636, "ln_sigma": 0.7338, "ln_sigma_rock": 0.7378, "ln_sigma_soil": 0.7373, "ln_bias": 0.4542, "ln_bias_sigma": 0.3208}, {"name": "sa(3.0)", "value": 0.0722, "value_rock": 0.0722, "value_soil": 0.1785, "units": "%g", "ln_tau": 0.347, "ln_phi": 0.6226, "ln_sigma": 0.7128, "ln_sigma_rock": 0.7216, "ln_sigma_soil": 0.7215, "ln_bias": 0.2636, "ln_bias_sigma": 0.3201}, {"name": "pgv", "value": 0.1845, "value_rock": 0.1845, "value_soil": 0.4444, "units": "cm/s", "ln_tau": 0.3562, "ln_phi": 0.7336, "ln_sigma": 0.8155, "ln_sigma_rock": 0.8203, "ln_sigma_soil": 0.8196, "ln_bias": 0.3957, "ln_bias_sigma": 0.3085}, {"name": "pga", "value": 0.1553, "value_rock": 0.1553, "value_soil": 0.2264, "units": "%g", "ln_tau": 0.3784, "ln_phi": 0.5781, "ln_sigma": 0.6909, "ln_sigma_rock": 0.6931, "ln_sigma_soil": 0.693, "ln_bias": 0.3569, "ln_bias_sigma": 0.3103}], "pgm_from_mmi": [{"name": "pgv", "value": 2.4116, "units": "cm/s", "ln_sigma": 0.875, "flag": "0"}, {"name": "sa(1.0)", "value": 4.2403, "units": "%g", "ln_sigma": 1.0822, "flag": "0"}, {"name": "sa(3.0)", "value": 0.9627, "units": "%g", "ln_sigma": 1.4737, "flag": "0"}, {"name": "pga", "value": 1.4268, "units": "%g", "ln_sigma": 0.8059, "flag": "0"}, {"name": "sa(0.3)", "value": 2.3522, "units": "%g", "ln_sigma": 1.0131, "flag": "0"}], "distance_stddev": 18.53, "distances": {"repi": 472.045, "rhypo": 474.686, "rjb": 455.002, "rjb_var": 242.466, "rrup": 457.166, "rrup_var": 343.379, "rx": 0.0, "ry0": 0.0, "rvolc": 0.0}}, "geometry": {"type": "Point", "coordinates": [92.656, 26.3334]}}, {"type": "Feature", "id": "DYFI.UTM:(45R 098 289 10000)", "properties": {"code": "UTM:(45R 098 289 10000)", "name": null, "instrumentType": "OBSERVED", "source": "DYFI", "network": "DYFI", "commType": "UNK", "location": "", "intensity": 5.0, "intensity_flag": "0", "intensity_stddev": 0.3, "pga": 4.7012, "pgv": 5.9697, "distance": 394.699, "elev": null, "vs30": 760.0, "channels": [], "nresp": -1, "station_type": "macroseismic", "predictions": [{"name": "mmi", "value": 2.8103, "value_rock": 2.8103, "value_soil": 3.0633, "units": "intensity", "tau": 0.2547, "phi": 0.7669, "sigma": 0.8081, "sigma_rock": 0.8089, "sigma_soil": 0.8088, "bias": 0.202, "bias_sigma": 0.2395}, {"name": "sa(0.3)", "value": 0.4373, "value_rock": 0.4373, "value_soil": 0.9378, "units": "%g", "ln_tau": 0.3384, "ln_phi": 0.6398, "ln_sigma": 0.7238, "ln_sigma_rock": 0.728, "ln_sigma_soil": 0.7274, "ln_bias": 0.2557, "ln_bias_sigma": 0.2988}, {"name": "sa(1.0)", "value": 0.2529, "value_rock": 0.2529, "value_soil": 0.682, "units": "%g", "ln_tau": 0.366, "ln_phi": 0.6371, "ln_sigma": 0.7347, "ln_sigma_rock": 0.7387, "ln_sigma_soil": 0.7381, "ln_bias": 0.4542, "ln_bias_sigma": 0.3208}, {"name": "sa(3.0)", "value": 0.0964, "value_rock": 0.0964, "value_soil": 0.2383, "units": "%g", "ln_tau": 0.347, "ln_phi": 0.6233, "ln_sigma": 0.7134, "ln_sigma_rock": 0.7222, "ln_sigma_soil": 0.7221, "ln_bias": 0.2636, "ln_bias_sigma": 0.3201}, {"name": "pgv", "value": 0.2616, "value_rock": 0.2616, "value_soil": 0.6295, "units": "cm/s", "ln_tau": 0.3562, "ln_phi": 0.7345, "ln_sigma": 0.8163, "ln_sigma_rock": 0.8211, "ln_sigma_soil": 0.8203, "ln_bias": 0.3957, "ln_bias_sigma": 0.3085}, {"name": "pga", "value": 0.2437, "value_rock": 0.2437, "value_soil": 0.3548, "units": "%g", "ln_tau": 0.3784, "ln_phi": 0.5801, "ln_sigma": 0.6926, "ln_sigma_rock": 0.6948, "ln_sigma_soil": 0.6945, "ln_bias": 0.3569, "ln_bias_sigma": 0.3103}], "pgm_from_mmi": [{"name": "pgv", "value": 5.9697, "units": "cm/s", "ln_sigma": 0.875, "flag": "0"}, {"name": "sa(1.0)", "value": 9.7565, "units": "%g", "ln_sigma": 1.0822, "flag": "0"}, {"name": "sa(3.0)", "value": 2.1099, "units": "%g", "ln_sigma": 1.4737, "flag": "0"}, {"name": "pga", "value": 4.7012, "units": "%g", "ln_sigma": 0.8059, "flag": "0"}, {"name": "sa(0.3)", "value": 9.1875, "units": "%g", "ln_sigma": 1.0131, "flag": "0"}], "distance_stddev": 18.825, "distances": {"repi": 408.766, "rhypo": 411.813, "rjb": 391.804, "rjb_var": 241.627, "rrup": 394.699, "rrup_var": 354.377, "rx": 0.0, "ry0": 0.0, "rvolc": 0.0}}, "geometry": {"type": "Point", "coordinates": [91.8465, 26.0928]}}, {"type": "Feature", "id": "DYFI.UTM:(45R 065 304 10000)", "properties": {"code": "UTM:(45R 065 304 10000)", "name": null, "instrumentType": "OBSERVED", "source": "DYFI", "network": "DYFI", "commType": "UNK", "location": "", "intensity": 8.3, "intensity_flag": "0", "intensity_stddev": 0.3, "pga": 58.309, "pgv": 66.1079, "distance": 55.679, "elev": null, "vs30": 900.0, "channels": [], "nresp": -1, "station_type": "macroseismic", "predictions": [{"name": "mmi", "value": 5.5926, "value_rock": 5.8079, "value_soil": 6.2049, "units": "intensity", "tau": 0.608, "phi": 1.3122, "sigma": 1.4462, "sigma_rock": 1.4417, "sigma_soil": 1.4078, "bias": 0.7455, "bias_sigma": 0.4601}, {"name": "sa(0.3)", "value": 18.4555, "value_rock": 21.1602, "value_soil": 38.1381, "units": "%g", "ln_tau": 0.3384, "ln_phi": 0.7472, "ln_sigma": 0.8202, "ln_sigma_rock": 0.8222, "ln_sigma_soil": 0.7865, "ln_bias": 0.2557, "ln_bias_sigma": 0.2988}, {"name": "sa(1.0)", "value": 5.8203, "value_rock": 6.6695, "value_soil": 16.8157, "units": "%g", "ln_tau": 0.366, "ln_phi": 0.7428, "ln_sigma": 0.8281, "ln_sigma_rock": 0.8345, "ln_sigma_soil": 0.8245, "ln_bias": 0.4542, "ln_bias_sigma": 0.3207}, {"name": "sa(3.0)", "value": 1.3891, "value_rock": 1.5668, "value_soil": 3.8707, "units": "%g", "ln_tau": 0.347, "ln_phi": 0.717, "ln_sigma": 0.7965, "ln_sigma_rock": 0.8071, "ln_sigma_soil": 0.8069, "ln_bias": 0.2636, "ln_bias_sigma": 0.3201}, {"name": "pgv", "value": 5.8934, "value_rock": 6.6588, "value_soil": 14.9997, "units": "cm/s", "ln_tau": 0.3562, "ln_phi": 0.8295, "ln_sigma": 0.9028, "ln_sigma_rock": 0.9086, "ln_sigma_soil": 0.8996, "ln_bias": 0.3957, "ln_bias_sigma": 0.3085}, {"name": "pga", "value": 10.8145, "value_rock": 12.365, "value_soil": 15.8308, "units": "%g", "ln_tau": 0.3784, "ln_phi": 0.7058, "ln_sigma": 0.8008, "ln_sigma_rock": 0.7977, "ln_sigma_soil": 0.7739, "ln_bias": 0.3569, "ln_bias_sigma": 0.3103}], "pgm_from_mmi": [{"name": "pgv", "value": 66.1079, "units": "cm/s", "ln_sigma": 0.875, "flag": "0"}, {"name": "sa(1.0)", "value": 100.8409, "units": "%g", "ln_sigma": 1.0822, "flag": "0"}, {"name": "sa(3.0)", "value": 19.1469, "units": "%g", "ln_sigma": 1.4737, "flag": "0"}, {"name": "pga", "value": 58.309, "units": "%g", "ln_sigma": 0.8059, "flag": "0"}, {"name": "sa(0.3)", "value": 103.8012, "units": "%g", "ln_sigma": 1.0131, "flag": "0"}], "distance_stddev": 19.014, "distances": {"repi": 47.043, "rhypo": 68.652, "rjb": 34.49, "rjb_var": 135.165, "rrup": 55.679, "rrup_var": 361.532, "rx": 0.0, "ry0": 0.0, "rvolc": 0.0}}, "geometry": {"type": "Point", "coordinates": [88.5694, 27.5198]}}, {"type": "Feature", "id": "DYFI.UTM:(45R 065 302 10000)", "properties": {"code": "UTM:(45R 065 302 10000)", "name": null, "instrumentType": "OBSERVED", "source": "DYFI", "network": "DYFI", "commType": "UNK", "location": "", "intensity": 7.2, "intensity_flag": "0", "intensity_stddev": 0.3, "pga": 28.2053, "pgv": 29.6587, "distance": 64.77, "elev": null, "vs30": 900.0, "channels": [], "nresp": -1, "station_type": "macroseismic", "predictions": [{"name": "mmi", "value": 5.3106, "value_rock": 5.5334, "value_soil": 5.9638, "units": "intensity", "tau": 0.608, "phi": 1.294, "sigma": 1.4297, "sigma_rock": 1.4276, "sigma_soil": 1.3995, "bias": 0.7455, "bias_sigma": 0.4601}, {"name": "sa(0.3)", "value": 14.9513, "value_rock": 17.1932, "value_soil": 31.9797, "units": "%g", "ln_tau": 0.3384, "ln_phi": 0.7355, "ln_sigma": 0.8096, "ln_sigma_rock": 0.8127, "ln_sigma_soil": 0.7835, "ln_bias": 0.2557, "ln_bias_sigma": 0.2988}, {"name": "sa(1.0)", "value": 4.7911, "value_rock": 5.4901, "value_soil": 13.993, "units": "%g", "ln_tau": 0.366, "ln_phi": 0.7294, "ln_sigma": 0.8161, "ln_sigma_rock": 0.8223, "ln_sigma_soil": 0.8139, "ln_bias": 0.4542, "ln_bias_sigma": 0.3207}, {"name": "sa(3.0)", "value": 1.1657, "value_rock": 1.3148, "value_soil": 3.2483, "units": "%g", "ln_tau": 0.347, "ln_phi": 0.7038, "ln_sigma": 0.7847, "ln_sigma_rock": 0.7952, "ln_sigma_soil": 0.7951, "ln_bias": 0.2636, "ln_bias_sigma": 0.3201}, {"name": "pgv", "value": 4.851, "value_rock": 5.4811, "value_soil": 12.4777, "units": "cm/s", "ln_tau": 0.3562, "ln_phi": 0.8166, "ln_sigma": 0.8909, "ln_sigma_rock": 0.8967, "ln_sigma_soil": 0.8891, "ln_bias": 0.3957, "ln_bias_sigma": 0.3085}, {"name": "pga", "value": 8.7034, "value_rock": 9.9977, "value_soil": 13.0684, "units": "%g", "ln_tau": 0.3784, "ln_p