{"type": "FeatureCollection", "features": [{"type": "Feature", "id": "unknown.Auletta", "properties": {"code": "Auletta", "name": "Auletta", "instrumentType": "UNK", "source": "unknown", "network": "unknown", "commType": "UNK", "location": "", "intensity": 5.0, "intensity_flag": "", "intensity_stddev": 0.63, "pga": "null", "pgv": 6.1, "distance": 6.549, "elev": null, "vs30": 900.0, "channels": [{"name": "UNK", "amplitudes": [{"name": "sa(0.3)", "value": 0.1384, "units": "%g", "flag": "Outlier,0,Outlier", "ln_sigma": 0.0}, {"name": "pgv", "value": 6.1, "units": "cm/s", "flag": "0", "ln_sigma": 0.0}, {"name": "sa(1.0)", "value": 0.0661, "units": "%g", "flag": "Outlier,0,Outlier", "ln_sigma": 0.0}, {"name": "pga", "value": 6.2, "units": "%g", "flag": "Outlier,0,Outlier", "ln_sigma": 0.0}, {"name": "sa(3.0)", "value": 0.0203, "units": "%g", "flag": "Outlier,0,Outlier", "ln_sigma": 0.0}]}], "station_type": "seismic", "nresp": "null", "predictions": [{"name": "pgv", "value": 23.0844, "value_rock": 25.7291, "value_soil": 55.5734, "units": "cm/s", "ln_tau": 0.3913, "ln_phi": 0.6007, "ln_sigma": 0.7169, "ln_sigma_rock": 0.7228, "ln_sigma_soil": 0.7113, "ln_bias": 0.6801, "ln_bias_sigma": 0.0969}, {"name": "sa(0.3)", "value": 62.482, "value_rock": 70.1279, "value_soil": 108.0021, "units": "%g", "ln_tau": 0.3854, "ln_phi": 0.6634, "ln_sigma": 0.7673, "ln_sigma_rock": 0.7693, "ln_sigma_soil": 0.7371, "ln_bias": 0.5605, "ln_bias_sigma": 0.099}, {"name": "pga", "value": 37.1601, "value_rock": 39.3631, "value_soil": 45.0389, "units": "%g", "ln_tau": 0.3999, "ln_phi": 0.5914, "ln_sigma": 0.7139, "ln_sigma_rock": 0.7166, "ln_sigma_soil": 0.6922, "ln_bias": 0.6371, "ln_bias_sigma": 0.0886}, {"name": "sa(3.0)", "value": 5.0762, "value_rock": 5.7361, "value_soil": 16.4717, "units": "%g", "ln_tau": 0.4316, "ln_phi": 0.6556, "ln_sigma": 0.7849, "ln_sigma_rock": 0.7985, "ln_sigma_soil": 0.7983, "ln_bias": 0.4438, "ln_bias_sigma": 0.1206}, {"name": "sa(1.0)", "value": 19.9956, "value_rock": 23.3063, "value_soil": 67.4712, "units": "%g", "ln_tau": 0.4265, "ln_phi": 0.675, "ln_sigma": 0.7984, "ln_sigma_rock": 0.8067, "ln_sigma_soil": 0.7931, "ln_bias": 0.7851, "ln_bias_sigma": 0.1105}, {"name": "mmi", "value": 6.8561, "value_rock": 7.0049, "value_soil": 8.0618, "units": "intensity", "tau": 0.537, "phi": 1.0375, "sigma": 1.1683, "sigma_rock": 1.1751, "sigma_soil": 1.1618, "bias": 0.9607, "bias_sigma": 0.123}], "mmi_from_pgm": [{"name": "pgv", "value": 5.03, "sigma": 0.63, "flag": "0"}, {"name": "sa(0.3)", "value": null, "sigma": null, "flag": "0"}, {"name": "pga", "value": null, "sigma": null, "flag": "0"}, {"name": "sa(3.0)", "value": null, "sigma": null, "flag": "0"}, {"name": "sa(1.0)", "value": null, "sigma": null, "flag": "0"}], "distance_stddev": 0.0, "distances": {"repi": 42.557, "rhypo": 43.716, "rjb": 6.473, "rjb_var": 0.0, "rrup": 6.549, "rrup_var": 0.0, "rx": -3.957, "ry0": 1.636, "rvolc": 0.0}}, "geometry": {"type": "Point", "coordinates": [15.558, 40.56]}}, {"type": "Feature", "id": "Itaca.VSS", "properties": {"code": "VSS", "name": "VSS", "instrumentType": "UNK", "source": "Itaca", "network": "Itaca", "commType": "UNK", "location": "", "intensity": 3.6, "intensity_flag": "", "intensity_stddev": 0.63, "pga": "null", "pgv": 1.3552, "distance": 127.936, "elev": null, "vs30": 439.41, "channels": [{"name": "N", "amplitudes": [{"name": "sa(0.3)", "value": 6.4935, "units": "%g", "flag": "0", "ln_sigma": 0.0}, {"name": "pgv", "value": "null", "units": "cm/s", "flag": "Glitch,0", "ln_sigma": "null"}, {"name": "sa(1.0)", "value": 1.3418, "units": "%g", "flag": "0", "ln_sigma": 0.0}, {"name": "pga", "value": "null", "units": "%g", "flag": "Glitch,0,Outlier", "ln_sigma": "null"}, {"name": "sa(3.0)", "value": 0.2344, "units": "%g", "flag": "0", "ln_sigma": 0.0}]}, {"name": "E", "amplitudes": [{"name": "sa(0.3)", "value": 6.0843, "units": "%g", "flag": "0", "ln_sigma": 0.0}, {"name": "pgv", "value": 1.3552, "units": "cm/s", "flag": "0", "ln_sigma": 0.0}, {"name": "sa(1.0)", "value": 1.1392, "units": "%g", "flag": "0", "ln_sigma": 0.0}, {"name": "pga", "value": "null", "units": "%g", "flag": "Glitch,0,Outlier", "ln_sigma": "null"}, {"name": "sa(3.0)", "value": 0.1737, "units": "%g", "flag": "0", "ln_sigma": 0.0}]}], "station_type": "seismic", "nresp": "null", "predictions": [{"name": "pgv", "value": 2.552, "value_rock": 1.7515, "value_soil": 4.6914, "units": "cm/s", "ln_tau": 0.3912, "ln_phi": 0.6014, "ln_sigma": 0.7175, "ln_sigma_rock": 0.7236, "ln_sigma_soil": 0.7188, "ln_bias": 0.6801, "ln_bias_sigma": 0.0969}, {"name": "sa(0.3)", "value": 5.8178, "value_rock": 3.8003, "value_soil": 9.9929, "units": "%g", "ln_tau": 0.3852, "ln_phi": 0.6648, "ln_sigma": 0.7683, "ln_sigma_rock": 0.7709, "ln_sigma_soil": 0.7646, "ln_bias": 0.5605, "ln_bias_sigma": 0.099}, {"name": "pga", "value": 2.5113, "value_rock": 2.0222, "value_soil": 3.2413, "units": "%g", "ln_tau": 0.3996, "ln_phi": 0.5919, "ln_sigma": 0.7142, "ln_sigma_rock": 0.7178, "ln_sigma_soil": 0.7122, "ln_bias": 0.637, "ln_bias_sigma": 0.0886}, {"name": "sa(3.0)", "value": 0.9299, "value_rock": 0.6044, "value_soil": 1.9095, "units": "%g", "ln_tau": 0.4316, "ln_phi": 0.6556, "ln_sigma": 0.7849, "ln_sigma_rock": 0.7986, "ln_sigma_soil": 0.7985, "ln_bias": 0.4438, "ln_bias_sigma": 0.1206}, {"name": "sa(1.0)", "value": 3.2842, "value_rock": 1.9506, "value_soil": 7.5161, "units": "%g", "ln_tau": 0.4264, "ln_phi": 0.6755, "ln_sigma": 0.7988, "ln_sigma_rock": 0.8072, "ln_sigma_soil": 0.8044, "ln_bias": 0.7851, "ln_bias_sigma": 0.1105}, {"name": "mmi", "value": 4.0361, "value_rock": 3.7958, "value_soil": 4.6693, "units": "intensity", "tau": 0.2498, "phi": 0.7378, "sigma": 0.7789, "sigma_rock": 0.7812, "sigma_soil": 1.1704, "bias": 0.8072, "bias_sigma": 0.1128}], "mmi_from_pgm": [{"name": "pgv", "value": 3.63, "sigma": 0.63, "flag": "0"}, {"name": "sa(0.3)", "value": 4.52, "sigma": 0.82, "flag": "0"}, {"name": "pga", "value": null, "sigma": null, "flag": "0"}, {"name": "sa(3.0)", "value": 3.49, "sigma": 0.89, "flag": "0"}, {"name": "sa(1.0)", "value": 3.43, "sigma": 0.75, "flag": "0"}], "distance_stddev": 0.0, "distances": {"repi": 126.198, "rhypo": 126.594, "rjb": 127.942, "rjb_var": 0.0, "rrup": 127.936, "rrup_var": 0.0, "rx": 106.43, "ry0": 32.711, "rvolc": 0.0}}, "geometry": {"type": "Point", "coordinates": [16.16556, 41.8775]}}, {"type": "Feature", "id": "unknown.Calitri", "properties": {"code": "Calitri", "name": "Calitri", "instrumentType": "UNK", "source": "unknown", "network": "unknown", "commType": "UNK", "location": "", "intensity": 6.6, "intensity_flag": "", "intensity_stddev": 0.63, "pga": 17.6, "pgv": 18.7, "distance": 9.01, "elev": null, "vs30": 435.36, "channels": [{"name": "UNK", "amplitudes": [{"name": "sa(0.3)", "value": 0.4861, "units": "%g", "flag": "Outlier,0,Outlier", "ln_sigma": 0.0}, {"name": "pgv", "value": 18.7, "units": "cm/s", "flag": "0", "ln_sigma": 0.0}, {"name": "sa(1.0)", "value": 0.3962, "units": "%g", "flag": "Outlier,0,Outlier", "ln_sigma": 0.0}, {"name": "pga", "value": 17.6, "units": "%g", "flag": "0", "ln_sigma": 0.0}, {"name": "sa(3.0)", "value": 0.0837, "units": "%g", "flag": "Outlier,0,Outlier", "ln_sigma": 0.0}]}], "station_type": "seismic", "nresp": "null", "predictions": [{"name": "pgv", "value": 30.1738, "value_rock": 21.1782, "value_soil": 46.8199, "units": "cm/s", "ln_tau": 0.3909, "ln_phi": 0.6003, "ln_sigma": 0.7164, "ln_sigma_rock": 0.7228, "ln_sigma_soil": 0.7119, "ln_bias": 0.6801, "ln_bias_sigma": 0.0969}, {"name": "sa(0.3)", "value": 81.4676, "value_rock": 57.6358, "value_soil": 94.2488, "units": "%g", "ln_tau": 0.3828, "ln_phi": 0.6608, "ln_sigma": 0.7636, "ln_sigma_rock": 0.7694, "ln_sigma_soil": 0.7388, "ln_bias": 0.56, "ln_bias_sigma": 0.0989}, {"name": "pga", "value": 38.4011, "value_rock": 32.6893, "value_soil": 38.7496, "units": "%g", "ln_tau": 0.3956, "ln_phi": 0.5879, "ln_sigma": 0.7086, "ln_sigma_rock": 0.7167, "ln_sigma_soil": 0.6937, "ln_bias": 0.6364, "ln_bias_sigma": 0.0886}, {"name": "sa(3.0)", "value": 7.539, "value_rock": 4.9471, "value_soil": 14.3151, "units": "%g", "ln_tau": 0.4315, "ln_phi": 0.6555, "ln_sigma": 0.7848, "ln_sigma_rock": 0.7985, "ln_sigma_soil": 0.7984, "ln_bias": 0.4438, "ln_bias_sigma": 0.1206}, {"name": "sa(1.0)", "value": 31.6861, "value_rock": 19.4022, "value_soil": 57.866, "units": "%g", "ln_tau": 0.4261, "ln_phi": 0.6746, "ln_sigma": 0.7979, "ln_sigma_rock": 0.8067, "ln_sigma_soil": 0.7943, "ln_bias": 0.785, "ln_bias_sigma": 0.1105}, {"name": "mmi", "value": 7.2236, "value_rock": 6.7378, "value_soil": 7.8266, "units": "intensity", "tau": 0.5365, "phi": 1.0371, "sigma": 1.1677, "sigma_rock": 1.1751, "sigma_soil": 1.1625, "bias": 0.9606, "bias_sigma": 0.123}], "mmi_from_pgm": [{"name": "pgv", "value": 6.57, "sigma": 0.63, "flag": "0"}, {"name": "sa(0.3)", "value": null, "sigma": null, "flag": "0"}, {"name": "pga", "value": 5.61, "sigma": 0.66, "flag": "0"}, {"name": "sa(3.0)", "value": null, "sigma": null, "flag": "0"}, {"name": "sa(1.0)", "value": null, "sigma": null, "flag": "0"}], "distance_stddev": 0.0, "distances": {"repi": 6.143, "rhypo": 11.736, "rjb": 8.955, "rjb_var": 0.0, "rrup": 9.01, "rrup_var": 0.0, "rx": 13.647, "ry0": 0.0, "rvolc": 0.0}}, "geometry": {"type": "Point", "coordinates": [15.439, 40.917]}}, {"type": "Feature", "id": "Itaca.STR", "properties": {"code": "STR", "name": "STR", "instrumentType": "UNK", "source": "Itaca", "network": "Itaca", "commType": "UNK", "location": "", "intensity": "null", "intensity_flag": "", "intensity_stddev": "null", "pga": 31.5717, "pgv": "null", "distance": 18.028, "elev": null, "vs30": 753.01, "channels": [{"name": "N", "amplitudes": [{"name": "sa(0.3)", "value": 63.6533, "units": "%g", "flag": "0", "ln_sigma": 0.0}, {"name": "pgv", "value": "null", "units": "cm/s", "flag": "Glitch,0,Outlier", "ln_sigma": "null"}, {"name": "sa(1.0)", "value": 24.9785, "units": "%g", "flag": "0", "ln_sigma": 0.0}, {"name": "pga", "value": "null", "units": "%g", "flag": "Glitch,0", "ln_sigma": "null"}, {"name": "sa(3.0)", "value": 18.4902, "units": "%g", "flag": "Outlier,0,Outlier", "ln_sigma": 0.0}]}, {"name": "E", "amplitudes": [{"name": "sa(0.3)", "value": 7.8961, "units": "%g", "flag": "0", "ln_sigma": 0.0}, {"name": "pgv", "value": 70.3185, "units": "cm/s", "flag": "Outlier,0,Outlier", "ln_sigma": 0.0}, {"name": "sa(1.0)", "value": 40.4773, "units": "%g", "flag": "0", "ln_sigma": 0.0}, {"name": "pga", "value": 31.5717, "units": "%g", "flag": "0", "ln_sigma": 0.0}, {"name": "sa(3.0)", "value": 30.6794, "units": "%g", "flag": "Outlier,0,Outlier", "ln_sigma": 0.0}]}], "station_type": "seismic", "nresp": "null", "predictions": [{"name": "pgv", "value": 13.1019, "value_rock": 13.0246, "value_soil": 30.1656, "units": "cm/s", "ln_tau": 0.3913, "ln_phi": 0.6007, "ln_sigma": 0.7169, "ln_sigma_rock": 0.7228, "ln_sigma_soil": 0.7136, "ln_bias": 0.6801, "ln_bias_sigma": 0.0969}, {"name": "sa(0.3)", "value": 35.3291, "value_rock": 35.1078, "value_soil": 65.1685, "units": "%g", "ln_tau": 0.3853, "ln_phi": 0.6634, "ln_sigma": 0.7672, "ln_sigma_rock": 0.7694, "ln_sigma_soil": 0.745, "ln_bias": 0.5605, "ln_bias_sigma": 0.099}, {"name": "pga", "value": 20.4111, "value_rock": 20.3469, "value_soil": 26.0136, "units": "%g", "ln_tau": 0.3997, "ln_phi": 0.5912, "ln_sigma": 0.7136, "ln_sigma_rock": 0.7169, "ln_sigma_soil": 0.6984, "ln_bias": 0.637, "ln_bias_sigma": 0.0886}, {"name": "sa(3.0)", "value": 3.3915, "value_rock": 3.3679, "value_soil": 9.9031, "units": "%g", "ln_tau": 0.4316, "ln_phi": 0.6556, "ln_sigma": 0.7849, "ln_sigma_rock": 0.7985, "ln_sigma_soil": 0.7984, "ln_bias": 0.4438, "ln_bias_sigma": 0.1206}, {"name": "sa(1.0)", "value": 12.3837, "value_rock": 12.2806, "value_soil": 38.8829, "units": "%g", "ln_tau": 0.4264, "ln_phi": 0.675, "ln_sigma": 0.7984, "ln_sigma_rock": 0.8067, "ln_sigma_soil": 0.7974, "ln_bias": 0.7851, "ln_bias_sigma": 0.1105}, {"name": "mmi", "value": 6.0788, "value_rock": 6.0707, "value_soil": 7.2233, "units": "intensity", "tau": 0.537, "phi": 1.0375, "sigma": 1.1682, "sigma_rock": 1.1751, "sigma_soil": 1.1645, "bias": 0.9607, "bias_sigma": 0.123}], "mmi_from_pgm": [{"name": "pgv", "value": null, "sigma": null, "flag": "0"}, {"name": "sa(0.3)", "value": 7.13, "sigma": 0.82, "flag": "0"}, {"name": "pga", "value": 6.81, "sigma": 0.66, "flag": "0"}, {"name": "sa(3.0)", "value": null, "sigma": null, "flag": "0"}, {"name": "sa(1.0)", "value": 7.39, "sigma": 0.75, "flag": "0"}], "distance_stddev": 0.0, "distances": {"repi": 24.192, "rhypo": 26.177, "rjb": 14.706, "rjb_var": 0.0, "rrup": 18.028, "rrup_var": 0.0, "rx": 0.053, "ry0": 8.239, "rvolc": 0.0}}, "geometry": {"type": "Point", "coordinates": [15.115, 41.02083]}}, {"type": "Feature", "id": "Itaca.BVN", "properties": {"code": "BVN", "name": "BVN", "instrumentType": "UNK", "source": "Itaca", "network": "Itaca", "commType": "UNK", "location": "", "intensity": 5.1, "intensity_flag": "", "intensity_stddev": 0.63, "pga": "null", "pgv": 6.344, "distance": 37.512, "elev": null, "vs30": 582.65, "channels": [{"name": "N", "amplitudes": [{"name": "sa(0.3)", "value": 9.5324, "units": "%g", "flag": "0", "ln_sigma": 0.0}, {"name": "pgv", "value": 6.344, "units": "cm/s", "flag": "0", "ln_sigma": 0.0}, {"name": "sa(1.0)", "value": 5.0544, "units": "%g", "flag": "0", "ln_sigma": 0.0}, {"name": "pga", "value": "null", "units": "%g", "flag": "Glitch,0,Outlier", "ln_sigma": "null"}, {"name": "sa(3.0)", "value": 1.1544, "units": "%g", "flag": "0", "ln_sigma": 0.0}]}, {"name": "E", "amplitudes": [{"name": "sa(0.3)", "value": 12.8835, "units": "%g", "flag": "0", "ln_sigma": 0.0}, {"name": "pgv", "value": 4.1684, "units": "cm/s", "flag": "0", "ln_sigma": 0.0}, {"name": "sa(1.0)", "value": 4.28, "units": "%g", "flag": "0", "ln_sigma": 0.0}, {"name": "pga", "value": "null", "units": "%g", "flag": "Glitch,0,Outlier", "ln_sigma": "null"}, {"name": "sa(3.0)", "value": 1.5246, "units": "%g", "flag": "0", "ln_sigma": 0.0}]}], "station_type": "seismic", "nresp": "null", "predictions": [{"name": "pgv", "value": 7.39, "value_rock": 6.0807, "value_soil": 15.1719, "units": "cm/s", "ln_tau": 0.3912, "ln_phi": 0.6006, "ln_sigma": 0.7168, "ln_sigma_rock": 0.7228, "ln_sigma_soil": 0.7157, "ln_bias": 0.6801, "ln_bias_sigma": 0.0969}, {"name": "sa(0.3)", "value": 19.5628, "value_rock": 15.5323, "value_soil": 34.5297, "units": "%g", "ln_tau": 0.3852, "ln_phi": 0.6632, "ln_sigma": 0.767, "ln_sigma_rock": 0.7695, "ln_sigma_soil": 0.7532, "ln_bias": 0.5605, "ln_bias_sigma": 0.099}, {"name": "pga", "value": 10.0675, "value_rock": 8.9638, "value_soil": 12.8643, "units": "%g", "ln_tau": 0.3993, "ln_phi": 0.5909, "ln_sigma": 0.7131, "ln_sigma_rock": 0.717, "ln_sigma_soil": 0.7042, "ln_bias": 0.637, "ln_bias_sigma": 0.0886}, {"name": "sa(3.0)", "value": 2.2444, "value_rock": 1.8063, "value_soil": 5.5054, "units": "%g", "ln_tau": 0.4316, "ln_phi": 0.6556, "ln_sigma": 0.7849, "ln_sigma_rock": 0.7985, "ln_sigma_soil": 0.7985, "ln_bias": 0.4438, "ln_bias_sigma": 0.1206}, {"name": "sa(1.0)", "value": 7.9726, "value_rock": 6.118, "value_soil": 21.4112, "units": "%g", "ln_tau": 0.4264, "ln_phi": 0.675, "ln_sigma": 0.7984, "ln_sigma_rock": 0.8067, "ln_sigma_soil": 0.8006, "ln_bias": 0.7851, "ln_bias_sigma": 0.1105}, {"name": "mmi", "value": 5.2929, "value_rock": 5.0253, "value_soil": 6.2801, "units": "intensity", "tau": 0.5369, "phi": 1.0375, "sigma": 1.1682, "sigma_rock": 1.1751, "sigma_soil": 1.1669, "bias": 0.9607, "bias_sigma": 0.123}], "mmi_from_pgm": [{"name": "pgv", "value": 5.08, "sigma": 0.63, "flag": "0"}, {"name": "sa(0.3)", "value": 4.71, "sigma": 0.82, "flag": "0"}, {"name": "pga", "value": null, "sigma": null, "flag": "0"}, {"name": "sa(3.0)", "value": 5.09, "sigma": 0.89, "flag": "0"}, {"name": "sa(1.0)", "value": 4.61, "sigma": 0.75, "flag": "0"}], "distance_stddev": 0.0, "distances": {"repi": 37.26, "rhypo": 38.579, "rjb": 37.501, "rjb_var": 0.0, "rrup": 37.512, "rrup_var": 0.0, "rx": 23.053, "ry0": 19.168, "rvolc": 0.0}}, "geometry": {"type": "Point", "coordinates": [15.34222, 41.24861]}}, {"type": "Feature", "id": "Itaca.LRG", "properties": {"code": "LRG", "name": "LRG", "instrumentType": "UNK", "source": "Itaca", "network": "Itaca", "commType": "UNK", "location": "", "intensity": 3.6, "intensity_flag": "", "intensity_stddev": 0.63, "pga": "null", "pgv": 1.2985, "distance": 71.412, "elev": null, "vs30": 617.47, "channels": [{"name": "N", "amplitudes": [{"name": "sa(0.3)", "value": 4.1093, "units": "%g", "flag": "0", "ln_sigma": 0.0}, {"name": "pgv", "value": 1.2985, "units": "cm/s", "flag": "0", "ln_sigma": 0.0}, {"name": "sa(1.0)", "value": 1.2861, "units": "%g", "flag": "0", "ln_sigma": 0.0}, {"name": "pga", "value": "null", "units": "%g", "flag": "Glitch,0,Outlier", "ln_sigma": "null"}, {"name": "sa(3.0)", "value": 0.384, "units": "%g", "flag": "0", "ln_sigma": 0.0}]}, {"name": "E", "amplitudes": [{"name": "sa(0.3)", "value": 2.8716, "units": "%g", "flag": "0", "ln_sigma": 0.0}, {"name": "pgv", "value": "null", "units": "cm/s", "flag": "Glitch,0", "ln_sigma": "null"}, {"name": "sa(1.0)", "value": 3.0366, "units": "%g", "flag": "0", "ln_sigma": 0.0}, {"name": "pga", "value": "null", "units": "%g", "flag": "Glitch,0,Outlier", "ln_sigma": "null"}, {"name": "sa(3.0)", "value": 0.4342, "units": "%g", "flag": "0", "ln_sigma": 0.0}]}], "station_type": "seismic", "nresp": "null", "predictions": [{"name": "pgv", "value": 3.6546, "value_rock": 3.2005, "value_soil": 8.3356, "units": "cm/s", "ln_tau": 0.3913, "ln_phi": 0.6007, "ln_sigma": 0.7169, "ln_sigma_rock": 0.7228, "ln_sigma_soil": 0.7171, "ln_bias": 0.6801, "ln_bias_sigma": 0.0969}, {"name": "sa(0.3)", "value": 8.8939, "value_rock": 7.7274, "value_soil": 19.0211, "units": "%g", "ln_tau": 0.3854, "ln_phi": 0.6634, "ln_sigma": 0.7672, "ln_sigma_rock": 0.7695, "ln_sigma_soil": 0.7591, "ln_bias": 0.5605, "ln_bias_sigma": 0.099}, {"name": "pga", "value": 4.6289, "value_rock": 4.3119, "value_soil": 6.6168, "units": "%g", "ln_tau": 0.3997, "ln_phi": 0.5912, "ln_sigma": 0.7136, "ln_sigma_rock": 0.7171, "ln_sigma_soil": 0.7085, "ln_bias": 0.637, "ln_bias_sigma": 0.0886}, {"name": "sa(3.0)", "value": 1.202, "value_rock": 1.0272, "value_soil": 3.1992, "units": "%g", "ln_tau": 0.4316, "ln_phi": 0.6556, "ln_sigma": 0.7849, "ln_sigma_rock": 0.7986, "ln_sigma_soil": 0.7985, "ln_bias": 0.4438, "ln_bias_sigma": 0.1206}, {"name": "sa(1.0)", "value": 4.1033, "value_rock": 3.4016, "value_soil": 12.6173, "units": "%g", "ln_tau": 0.4264, "ln_phi": 0.675, "ln_sigma": 0.7984, "ln_sigma_rock": 0.8067, "ln_sigma_soil": 0.8026, "ln_bias": 0.7851, "ln_bias_sigma": 0.1105}, {"name": "mmi", "value": 4.3266, "value_rock": 4.1807, "value_soil": 5.4582, "units": "intensity", "tau": 0.537, "phi": 1.0375, "sigma": 1.1682, "sigma_rock": 0.7809, "sigma_soil": 1.1685, "bias": 0.9607, "bias_sigma": 0.123}], "mmi_from_pgm": [{"name": "pgv", "value": 3.6, "sigma": 0.63, "flag": "0"}, {"name": "sa(0.3)", "value": 4.04, "sigma": 0.82, "flag": "0"}, {"name": "pga", "value": null, "sigma": null, "flag": "0"}, {"name": "sa(3.0)", "value": 3.95, "sigma": 0.89, "flag": "0"}, {"name": "sa(1.0)", "value": 4.09, "sigma": 0.75, "flag": "0"}], "distance_stddev": 0.0, "distances": {"repi": 108.73, "rhypo": 109.189, "rjb": 71.411, "rjb_var": 0.0, "rrup": 71.412, "rrup_var": 0.0, "rx": -14.3, "ry0": 53.385, "rvolc": 0.0}}, "geometry": {"type": "Point", "coordinates": [15.89, 40.02111]}}, {"type": "Feature", "id": "Itaca.BSC", "properties": {"code": "BSC", "name": "BSC", "instrumentType": "UNK", "source": "Itaca", "network": "Itaca", "commType": "UNK", "location": "", "intensity": 6.8, "intensity_flag": "", "intensity_stddev": 0.63, "pga": "null", "pgv": 21.4437, "distance": 11.591, "elev": null, "vs30": 713.97, "channels": [{"name": "N", "amplitudes": [{"name": "sa(0.3)", "value": 24.2115, "units": "%g", "flag": "0", "ln_sigma": 0.0}, {"name": "pgv", "value": 21.4437, "units": "cm/s", "flag": "0", "ln_sigma": 0.0}, {"name": "sa(1.0)", "value": 17.8649, "u