{"type": "FeatureCollection", "features": [{"type": "Feature", "id": "G.FLO", "properties": {"code": "FLO", "name": "Florina-Cultural Center", "instrumentType": "UNK", "source": "G", "network": "G", "commType": "UNK", "location": "", "intensity": 3.8, "intensity_flag": "", "intensity_stddev": 0.63, "pga": 2.6122, "pgv": 1.7, "distance": 74.953, "elev": null, "vs30": 543.27, "channels": [{"name": "E", "amplitudes": [{"name": "sa(1.0)", "value": 1.0306, "units": "%g", "flag": "0", "ln_sigma": 0.0}, {"name": "sa(3.0)", "value": 0.4112, "units": "%g", "flag": "0", "ln_sigma": 0.0}, {"name": "pga", "value": 2.3878, "units": "%g", "flag": "0", "ln_sigma": 0.0}, {"name": "pgv", "value": 1.7, "units": "cm/s", "flag": "0", "ln_sigma": 0.0}, {"name": "sa(0.3)", "value": 4.4694, "units": "%g", "flag": "0", "ln_sigma": 0.0}]}, {"name": "N", "amplitudes": [{"name": "sa(1.0)", "value": 1.1837, "units": "%g", "flag": "0", "ln_sigma": 0.0}, {"name": "sa(3.0)", "value": 0.1408, "units": "%g", "flag": "0", "ln_sigma": 0.0}, {"name": "pga", "value": 2.6122, "units": "%g", "flag": "0", "ln_sigma": 0.0}, {"name": "pgv", "value": 1.18, "units": "cm/s", "flag": "0", "ln_sigma": 0.0}, {"name": "sa(0.3)", "value": 8.1224, "units": "%g", "flag": "0", "ln_sigma": 0.0}]}, {"name": "Z", "amplitudes": [{"name": "sa(1.0)", "value": 0.7031, "units": "%g", "flag": "0", "ln_sigma": 0.0}, {"name": "sa(3.0)", "value": 0.3439, "units": "%g", "flag": "0", "ln_sigma": 0.0}, {"name": "pga", "value": 1.8878, "units": "%g", "flag": "0", "ln_sigma": 0.0}, {"name": "pgv", "value": 0.887, "units": "cm/s", "flag": "0", "ln_sigma": 0.0}, {"name": "sa(0.3)", "value": 2.8469, "units": "%g", "flag": "0", "ln_sigma": 0.0}]}], "station_type": "seismic", "nresp": "null", "predictions": [{"name": "sa(0.3)", "value": 7.6844, "value_rock": 5.7931, "value_soil": 14.0995, "units": "%g", "ln_tau": 0.0, "ln_phi": 0.6321, "ln_sigma": 0.6321, "ln_sigma_rock": 0.7618, "ln_sigma_soil": 0.7546, "ln_bias": -0.2254, "ln_bias_sigma": 0.1055}, {"name": "pgv", "value": 2.6937, "value_rock": 2.128, "value_soil": 5.5173, "units": "cm/s", "ln_tau": 0.0, "ln_phi": 0.6244, "ln_sigma": 0.6244, "ln_sigma_rock": 0.7488, "ln_sigma_soil": 0.7428, "ln_bias": 0.0624, "ln_bias_sigma": 0.1086}, {"name": "sa(3.0)", "value": 0.775, "value_rock": 0.6018, "value_soil": 1.7925, "units": "%g", "ln_tau": 0.0, "ln_phi": 0.6612, "ln_sigma": 0.6612, "ln_sigma_rock": 0.7954, "ln_sigma_soil": 0.7924, "ln_bias": -0.144, "ln_bias_sigma": 0.1324}, {"name": "pga", "value": 3.733, "value_rock": 3.2305, "value_soil": 4.9419, "units": "%g", "ln_tau": 0.0, "ln_phi": 0.5861, "ln_sigma": 0.5861, "ln_sigma_rock": 0.7057, "ln_sigma_soil": 0.6987, "ln_bias": 0.0592, "ln_bias_sigma": 0.0963}, {"name": "sa(1.0)", "value": 3.1143, "value_rock": 2.2775, "value_soil": 8.0615, "units": "%g", "ln_tau": 0.0, "ln_phi": 0.6667, "ln_sigma": 0.6667, "ln_sigma_rock": 0.8019, "ln_sigma_soil": 0.7977, "ln_bias": 0.0378, "ln_bias_sigma": 0.1191}, {"name": "mmi", "value": 4.0841, "value_rock": 3.9867, "value_soil": 4.5169, "units": "intensity", "tau": 0.0, "phi": 0.6779, "sigma": 0.6779, "sigma_rock": 0.8132, "sigma_soil": 1.3024, "bias": -0.055, "bias_sigma": 0.1162}], "mmi_from_pgm": [{"name": "sa(0.3)", "value": 4.55, "sigma": 0.82, "flag": "0"}, {"name": "pgv", "value": 3.83, "sigma": 0.63, "flag": "0"}, {"name": "sa(3.0)", "value": 3.97, "sigma": 0.89, "flag": "0"}, {"name": "pga", "value": 3.84, "sigma": 0.66, "flag": "0"}, {"name": "sa(1.0)", "value": 3.55, "sigma": 0.75, "flag": "0"}], "distance_stddev": 0.0, "distances": {"repi": 75.092, "rhypo": 76.386, "rjb": 73.6, "rjb_var": 0.0, "rrup": 74.953, "rrup_var": 0.0, "rx": 86.402, "ry0": 0.0, "rvolc": 0.0}}, "geometry": {"type": "Point", "coordinates": [21.404, 40.787]}}, {"type": "Feature", "id": "G.ABS", "properties": {"code": "ABS", "name": "Ag. Basilios-Elementary School", "instrumentType": "UNK", "source": "G", "network": "G", "commType": "UNK", "location": "", "intensity": 4.6, "intensity_flag": "", "intensity_stddev": 0.63, "pga": 4.2653, "pgv": 4.43, "distance": 112.339, "elev": null, "vs30": 650.52, "channels": [{"name": "E", "amplitudes": [{"name": "sa(1.0)", "value": 6.5102, "units": "%g", "flag": "0", "ln_sigma": 0.0}, {"name": "sa(3.0)", "value": 0.3908, "units": "%g", "flag": "0", "ln_sigma": 0.0}, {"name": "pga", "value": 4.2653, "units": "%g", "flag": "0", "ln_sigma": 0.0}, {"name": "pgv", "value": 4.19, "units": "cm/s", "flag": "0", "ln_sigma": 0.0}, {"name": "sa(0.3)", "value": 5.0918, "units": "%g", "flag": "0", "ln_sigma": 0.0}]}, {"name": "N", "amplitudes": [{"name": "sa(1.0)", "value": 7.4388, "units": "%g", "flag": "0", "ln_sigma": 0.0}, {"name": "sa(3.0)", "value": 0.4602, "units": "%g", "flag": "0", "ln_sigma": 0.0}, {"name": "pga", "value": 3.7551, "units": "%g", "flag": "0", "ln_sigma": 0.0}, {"name": "pgv", "value": 4.43, "units": "cm/s", "flag": "0", "ln_sigma": 0.0}, {"name": "sa(0.3)", "value": 5.4082, "units": "%g", "flag": "0", "ln_sigma": 0.0}]}, {"name": "Z", "amplitudes": [{"name": "sa(1.0)", "value": 2.2347, "units": "%g", "flag": "0", "ln_sigma": 0.0}, {"name": "sa(3.0)", "value": 0.1898, "units": "%g", "flag": "0", "ln_sigma": 0.0}, {"name": "pga", "value": 1.5408, "units": "%g", "flag": "0", "ln_sigma": 0.0}, {"name": "pgv", "value": 1.71, "units": "cm/s", "flag": "0", "ln_sigma": 0.0}, {"name": "sa(0.3)", "value": 3.2857, "units": "%g", "flag": "0", "ln_sigma": 0.0}]}], "station_type": "seismic", "nresp": "null", "predictions": [{"name": "sa(0.3)", "value": 3.7005, "value_rock": 3.3658, "value_soil": 8.5011, "units": "%g", "ln_tau": 0.0, "ln_phi": 0.6326, "ln_sigma": 0.6326, "ln_sigma_rock": 0.7623, "ln_sigma_soil": 0.7573, "ln_bias": -0.2254, "ln_bias_sigma": 0.1055}, {"name": "pgv", "value": 1.4591, "value_rock": 1.3334, "value_soil": 3.5222, "units": "cm/s", "ln_tau": 0.0, "ln_phi": 0.6246, "ln_sigma": 0.6246, "ln_sigma_rock": 0.749, "ln_sigma_soil": 0.7436, "ln_bias": 0.0624, "ln_bias_sigma": 0.1086}, {"name": "sa(3.0)", "value": 0.4439, "value_rock": 0.3996, "value_soil": 1.2038, "units": "%g", "ln_tau": 0.0, "ln_phi": 0.6613, "ln_sigma": 0.6613, "ln_sigma_rock": 0.7954, "ln_sigma_soil": 0.7924, "ln_bias": -0.144, "ln_bias_sigma": 0.1324}, {"name": "pga", "value": 1.9044, "value_rock": 1.8141, "value_soil": 2.8464, "units": "%g", "ln_tau": 0.0, "ln_phi": 0.5864, "ln_sigma": 0.5864, "ln_sigma_rock": 0.7058, "ln_sigma_soil": 0.7005, "ln_bias": 0.0592, "ln_bias_sigma": 0.0963}, {"name": "sa(1.0)", "value": 1.666, "value_rock": 1.469, "value_soil": 5.328, "units": "%g", "ln_tau": 0.0, "ln_phi": 0.6667, "ln_sigma": 0.6667, "ln_sigma_rock": 0.8019, "ln_sigma_soil": 0.7984, "ln_bias": 0.0378, "ln_bias_sigma": 0.1191}, {"name": "mmi", "value": 3.8102, "value_rock": 3.7776, "value_soil": 4.0808, "units": "intensity", "tau": 0.0, "phi": 0.678, "sigma": 0.678, "sigma_rock": 0.8132, "sigma_soil": 0.8111, "bias": -0.055, "bias_sigma": 0.1162}], "mmi_from_pgm": [{"name": "sa(0.3)", "value": 4.36, "sigma": 0.82, "flag": "0"}, {"name": "pgv", "value": 4.64, "sigma": 0.63, "flag": "0"}, {"name": "sa(3.0)", "value": 3.93, "sigma": 0.89, "flag": "0"}, {"name": "pga", "value": 4.46, "sigma": 0.66, "flag": "0"}, {"name": "sa(1.0)", "value": 4.95, "sigma": 0.75, "flag": "0"}], "distance_stddev": 0.0, "distances": {"repi": 131.37, "rhypo": 132.113, "rjb": 111.514, "rjb_var": 0.0, "rrup": 112.339, "rrup_var": 0.0, "rx": 61.601, "ry0": 100.551, "rvolc": 0.0}}, "geometry": {"type": "Point", "coordinates": [23.1, 40.65]}}, {"type": "Feature", "id": "G.KOZ", "properties": {"code": "KOZ", "name": "Kozani-Prefecture", "instrumentType": "UNK", "source": "G", "network": "G", "commType": "UNK", "location": "", "intensity": 5.5, "intensity_flag": "", "intensity_stddev": 0.63, "pga": 20.8163, "pgv": 8.54, "distance": 21.886, "elev": null, "vs30": 550.99, "channels": [{"name": "E", "amplitudes": [{"name": "sa(1.0)", "value": 11.5306, "units": "%g", "flag": "0", "ln_sigma": 0.0}, {"name": "sa(3.0)", "value": 1.4286, "units": "%g", "flag": "0", "ln_sigma": 0.0}, {"name": "pga", "value": 20.8163, "units": "%g", "flag": "0", "ln_sigma": 0.0}, {"name": "pgv", "value": 8.54, "units": "cm/s", "flag": "0", "ln_sigma": 0.0}, {"name": "sa(0.3)", "value": 39.7959, "units": "%g", "flag": "0", "ln_sigma": 0.0}]}, {"name": "N", "amplitudes": [{"name": "sa(1.0)", "value": 6.9184, "units": "%g", "flag": "0", "ln_sigma": 0.0}, {"name": "sa(3.0)", "value": 1.0071, "units": "%g", "flag": "0", "ln_sigma": 0.0}, {"name": "pga", "value": 14.2857, "units": "%g", "flag": "0", "ln_sigma": 0.0}, {"name": "pgv", "value": 6.56, "units": "cm/s", "flag": "0", "ln_sigma": 0.0}, {"name": "sa(0.3)", "value": 33.5714, "units": "%g", "flag": "0", "ln_sigma": 0.0}]}, {"name": "Z", "amplitudes": [{"name": "sa(1.0)", "value": 3.4082, "units": "%g", "flag": "0", "ln_sigma": 0.0}, {"name": "sa(3.0)", "value": 0.4561, "units": "%g", "flag": "0", "ln_sigma": 0.0}, {"name": "pga", "value": 8.3265, "units": "%g", "flag": "0", "ln_sigma": 0.0}, {"name": "pgv", "value": 4.52, "units": "cm/s", "flag": "0", "ln_sigma": 0.0}, {"name": "sa(0.3)", "value": 18.2653, "units": "%g", "flag": "0", "ln_sigma": 0.0}]}], "station_type": "seismic", "nresp": "null", "predictions": [{"name": "sa(0.3)", "value": 34.2784, "value_rock": 26.4817, "value_soil": 50.8473, "units": "%g", "ln_tau": 0.0, "ln_phi": 0.6317, "ln_sigma": 0.6317, "ln_sigma_rock": 0.7617, "ln_sigma_soil": 0.7422, "ln_bias": -0.2253, "ln_bias_sigma": 0.1055}, {"name": "pgv", "value": 10.6501, "value_rock": 8.5215, "value_soil": 19.9779, "units": "cm/s", "ln_tau": 0.0, "ln_phi": 0.6244, "ln_sigma": 0.6244, "ln_sigma_rock": 0.7488, "ln_sigma_soil": 0.7399, "ln_bias": 0.0624, "ln_bias_sigma": 0.1086}, {"name": "sa(3.0)", "value": 2.5197, "value_rock": 1.9811, "value_soil": 5.6004, "units": "%g", "ln_tau": 0.0, "ln_phi": 0.6612, "ln_sigma": 0.6612, "ln_sigma_rock": 0.7954, "ln_sigma_soil": 0.7923, "ln_bias": -0.144, "ln_bias_sigma": 0.1324}, {"name": "pga", "value": 17.78, "value_rock": 15.6304, "value_soil": 20.4938, "units": "%g", "ln_tau": 0.0, "ln_phi": 0.5852, "ln_sigma": 0.5852, "ln_sigma_rock": 0.7054, "ln_sigma_soil": 0.6897, "ln_bias": 0.0592, "ln_bias_sigma": 0.0963}, {"name": "sa(1.0)", "value": 11.2038, "value_rock": 8.3404, "value_soil": 25.81, "units": "%g", "ln_tau": 0.0, "ln_phi": 0.6666, "ln_sigma": 0.6666, "ln_sigma_rock": 0.8019, "ln_sigma_soil": 0.7936, "ln_bias": 0.0378, "ln_bias_sigma": 0.1191}, {"name": "mmi", "value": 6.0289, "value_rock": 5.8218, "value_soil": 6.2571, "units": "intensity", "tau": 0.0, "phi": 1.09, "sigma": 1.09, "sigma_rock": 1.3117, "sigma_soil": 1.2899, "bias": -0.0573, "bias_sigma": 0.1187}], "mmi_from_pgm": [{"name": "sa(0.3)", "value": 6.33, "sigma": 0.82, "flag": "0"}, {"name": "pgv", "value": 5.55, "sigma": 0.63, "flag": "0"}, {"name": "sa(3.0)", "value": 5.2, "sigma": 0.89, "flag": "0"}, {"name": "pga", "value": 6.28, "sigma": 0.66, "flag": "0"}, {"name": "sa(1.0)", "value": 5.85, "sigma": 0.75, "flag": "0"}], "distance_stddev": 0.0, "distances": {"repi": 18.615, "rhypo": 23.292, "rjb": 16.317, "rjb_var": 0.0, "rrup": 21.886, "rrup_var": 0.0, "rx": 30.185, "ry0": 0.0, "rvolc": 0.0}}, "geometry": {"type": "Point", "coordinates": [21.784, 40.302]}}, {"type": "Feature", "id": "G.KAT", "properties": {"code": "KAT", "name": "Katerini-Agriculture Institute", "instrumentType": "UNK", "source": "G", "network": "G", "commType": "UNK", "location": "", "intensity": 5.0, "intensity_flag": "", "intensity_stddev": 0.63, "pga": 4.1531, "pgv": 5.86, "distance": 49.974, "elev": null, "vs30": 269.05, "channels": [{"name": "E", "amplitudes": [{"name": "sa(1.0)", "value": 5.4286, "units": "%g", "flag": "0", "ln_sigma": 0.0}, {"name": "sa(3.0)", "value": 2.3776, "units": "%g", "flag": "0", "ln_sigma": 0.0}, {"name": "pga", "value": 4.1531, "units": "%g", "flag": "0", "ln_sigma": 0.0}, {"name": "pgv", "value": 5.86, "units": "cm/s", "flag": "0", "ln_sigma": 0.0}, {"name": "sa(0.3)", "value": 9.3265, "units": "%g", "flag": "0", "ln_sigma": 0.0}]}, {"name": "N", "amplitudes": [{"name": "sa(1.0)", "value": 8.2347, "units": "%g", "flag": "0", "ln_sigma": 0.0}, {"name": "sa(3.0)", "value": 3.0714, "units": "%g", "flag": "0", "ln_sigma": 0.0}, {"name": "pga", "value": 3.4592, "units": "%g", "flag": "0", "ln_sigma": 0.0}, {"name": "pgv", "value": 5.33, "units": "cm/s", "flag": "0", "ln_sigma": 0.0}, {"name": "sa(0.3)", "value": 7.551, "units": "%g", "flag": "0", "ln_sigma": 0.0}]}, {"name": "Z", "amplitudes": [{"name": "sa(1.0)", "value": 1.8673, "units": "%g", "flag": "0", "ln_sigma": 0.0}, {"name": "sa(3.0)", "value": 1.5816, "units": "%g", "flag": "0", "ln_sigma": 0.0}, {"name": "pga", "value": 1.7245, "units": "%g", "flag": "0", "ln_sigma": 0.0}, {"name": "pgv", "value": 3.35, "units": "cm/s", "flag": "0", "ln_sigma": 0.0}, {"name": "sa(0.3)", "value": 4.2041, "units": "%g", "flag": "0", "ln_sigma": 0.0}]}], "station_type": "seismic", "nresp": "null", "predictions": [{"name": "sa(0.3)", "value": 18.6373, "value_rock": 9.4695, "value_soil": 21.8559, "units": "%g", "ln_tau": 0.0, "ln_phi": 0.628, "ln_sigma": 0.628, "ln_sigma_rock": 0.7618, "ln_sigma_soil": 0.7518, "ln_bias": -0.2252, "ln_bias_sigma": 0.1055}, {"name": "pgv", "value": 6.6584, "value_rock": 3.3171, "value_soil": 8.4071, "units": "cm/s", "ln_tau": 0.0, "ln_phi": 0.6213, "ln_sigma": 0.6213, "ln_sigma_rock": 0.7488, "ln_sigma_soil": 0.7421, "ln_bias": 0.0624, "ln_bias_sigma": 0.1086}, {"name": "sa(3.0)", "value": 1.9311, "value_rock": 0.8892, "value_soil": 2.6177, "units": "%g", "ln_tau": 0.0, "ln_phi": 0.6585, "ln_sigma": 0.6585, "ln_sigma_rock": 0.7954, "ln_sigma_soil": 0.7924, "ln_bias": -0.1439, "ln_bias_sigma": 0.1324}, {"name": "pga", "value": 7.3468, "value_rock": 5.4159, "value_soil": 8.0015, "units": "%g", "ln_tau": 0.0, "ln_phi": 0.5821, "ln_sigma": 0.5821, "ln_sigma_rock": 0.7056, "ln_sigma_soil": 0.6966, "ln_bias": 0.0591, "ln_bias_sigma": 0.0962}, {"name": "sa(1.0)", "value": 8.6813, "value_rock": 3.4422, "value_soil": 11.8182, "units": "%g", "ln_tau": 0.0, "ln_phi": 0.664, "ln_sigma": 0.664, "ln_sigma_rock": 0.8019, "ln_sigma_soil": 0.7969, "ln_bias": 0.0378, "ln_bias_sigma": 0.119}, {"name": "mmi", "value": 4.9745, "value_rock": 4.4845, "value_soil": 5.1116, "units": "intensity", "tau": 0.0, "phi": 1.0857, "sigma": 1.0857, "sigma_rock": 1.3119, "sigma_soil": 1.2995, "bias": -0.0573, "bias_sigma": 0.1187}], "mmi_from_pgm": [{"name": "sa(0.3)", "value": 4.54, "sigma": 0.82, "flag": "0"}, {"name": "pgv", "value": 5.03, "sigma": 0.63, "flag": "0"}, {"name": "sa(3.0)", "value": 6.0, "sigma": 0.89, "flag": "0"}, {"name": "pga", "value": 4.06, "sigma": 0.66, "flag": "0"}, {"name": "sa(1.0)", "value": 5.25, "sigma": 0.75, "flag": "0"}], "distance_stddev": 0.0, "distances": {"repi": 69.608, "rhypo": 71.002, "rjb": 47.869, "rjb_var": 0.0, "rrup": 49.974, "rrup_var": 0.0, "rx": 23.014, "ry0": 47.291, "rvolc": 0.0}}, "geometry": {"type": "Point", "coordinates": [22.5, 40.267]}}, {"type": "Feature", "id": "G.LAR", "properties": {"code": "LAR", "name": "Larissa-Town Hall", "instrumentType": "UNK", "source": "G", "network": "G", "commType": "UNK", "location": "", "intensity": 5.7, "intensity_flag": "", "intensity_stddev": 0.63, "pga": 3.0102, "pgv": 9.69, "distance": 58.365, "elev": null, "vs30": 202.65, "channels": [{"name": "E", "amplitudes": [{"name": "sa(1.0)", "value": 9.051, "units": "%g", "flag": "0", "ln_sigma": 0.0}, {"name": "sa(3.0)", "value": 6.0918, "units": "%g", "flag": "0", "ln_sigma": 0.0}, {"name": "pga", "value": 2.8571, "units": "%g", "flag": "0", "ln_sigma": 0.0}, {"name": "pgv", "value": 9.69, "units": "cm/s", "flag": "0", "ln_sigma": 0.0}, {"name": "sa(0.3)", "value": 7.3163, "units": "%g", "flag": "0", "ln_sigma": 0.0}]}, {"name": "N", "amplitudes": [{"name": "sa(1.0)", "value": 9.8878, "units": "%g", "flag": "0", "ln_sigma": 0.0}, {"name": "sa(3.0)", "value": 4.7755, "units": "%g", "flag": "0", "ln_sigma": 0.0}, {"name": "pga", "value": 3.0102, "units": "%g", "flag": "0", "ln_sigma": 0.0}, {"name": "pgv", "value": 8.41, "units": "cm/s", "flag": "0", "ln_sigma": 0.0}, {"name": "sa(0.3)", "value": 4.6837, "units": "%g", "flag": "0", "ln_sigma": 0.0}]}, {"name": "Z", "amplitudes": [{"name": "sa(1.0)", "value": 3.8061, "units": "%g", "flag": "0", "ln_sigma": 0.0}, {"name": "sa(3.0)", "value": 1.0184, "units": "%g", "flag": "0", "ln_sigma": 0.0}, {"name": "pga", "value": 1.4184, "units": "%g", "flag": "0", "ln_sigma": 0.0}, {"name": "pgv", "value": 3.3, "units": "cm/s", "flag": "0", "ln_sigma": 0.0}, {"name": "sa(0.3)", "value": 3.2857, "units": "%g", "flag": "0", "ln_sigma": 0.0}]}], "station_type": "seismic", "nresp": "null", "predictions": [{"name": "sa(0.3)", "value": 17.3318, "value_rock": 7.714, "value_soil": 18.2607, "units": "%g", "ln_tau": 0.0, "ln_phi": 0.6256, "ln_sigma": 0.6256, "ln_sigma_rock": 0.7618, "ln_sigma_soil": 0.753, "ln_bias": -0.2251, "ln_bias_sigma": 0.1054}, {"name": "pgv", "value": 6.4036, "value_rock": 2.7565, "value_soil": 7.0676, "units": "cm/s", "ln_tau": 0.0, "ln_phi": 0.6193, "ln_sigma": 0.6193, "ln_sigma_rock": 0.7488, "ln_sigma_soil": 0.7424, "ln_bias": 0.0623, "ln_bias_sigma": 0.1086}, {"name": "sa(3.0)", "value": 1.9677, "value_rock": 0.7569, "value_soil": 2.2429, "units": "%g", "ln_tau": 0.0, "ln_phi": 0.6585, "ln_sigma": 0.6585, "ln_sigma_rock": 0.7954, "ln_sigma_soil": 0.7924, "ln_bias": -0.1439, "ln_bias_sigma": 0.1324}, {"name": "pga", "value": 6.3133, "value_rock": 4.3649, "value_soil": 6.5578, "units": "%g", "ln_tau": 0.0, "ln_phi": 0.5801, "ln_sigma": 0.5801, "ln_sigma_rock": 0.7056, "ln_sigma_soil": 0.6976, "ln_bias": 0.0591, "ln_bias_sigma": 0.0962}, {"name": "sa(1.0)", "value": 8.953, "value_rock": 2.8968, "value_soil": 10.0999, "units": "%g", "ln_tau": 0.0, "ln_phi": 0.6629, "ln_sigma": 0.6629, "ln_sigma_rock": 0.8019, "ln_sigma_soil": 0.7973, "ln_bias": 0.0378, "ln_bias_sigma": 0.119}, {"name": "mmi", "value": 4.7996, "value_rock": 4.2066, "value_soil": 4.8606, "units": "intensity", "tau": 0.0, "phi": 1.0829, "sigma": 1.0829, "sigma_rock": 1.312, "sigma_soil": 1.3008, "bias": -0.0573, "bias_sigma": 0.1187}], "mmi_from_pgm": [{"name": "sa(0.3)", "value": 4.41, "sigma": 0.82, "flag": "0"}, {"name": "pgv", "value": 5.72, "sigma": 0.63, "flag": "0"}, {"name": "sa(3.0)", "value": 6.85, "sigma": 0.89, "flag": "0"}, {"name": "pga", "value": 3.83, "sigma": 0.66, "flag": "0"}, {"name": "sa(1.0)", "value": 5.45, "sigma": 0.75, "flag": "0"}], "distance_stddev": 0.0, "distances": {"repi": 83.876, "rhypo": 85.037, "rjb": 58.365, "rjb_var": 0.0, "rrup": 58.365, "rrup_var": 0.0, "rx": -46.6, "ry0": 36.364, "rvolc": 0.0}}, "geometry": {"type": "Point", "coordinates": [22.417, 39.637]}}, {"type": "Feature", "id": "G.KRP", "properties": {"code": "KRP", "name": "Karpenisi-Prefecture", "instrumentType": "UNK", "source": "G", "network": "G", "commType": "UNK", "location": "", "intensity": 3.3, "intensity_flag": "", "intensity_stddev": 0.63, "pga": 1.1633, "pgv": 0.686, "distance": 122.537, "elev": null, "vs30": 900.0, "channels": [{"name": "E", "amplitudes": [{"name": "sa(1.0)", "value": 0.6133, "units": "%g", "flag": "0", "ln_sigma": 0.0}, {"name": "sa(3.0)", "value": 0.2235, "units": "%g", "flag": "0", "ln_sigma": 0.0}, {"name": "pga", "value": 1.1633, "units": "%g", "flag": "0", "ln_sigma": 0.0}, {"name": "pgv", "value": 0.686, "units": "cm/s", "flag": "0", "ln_sigma": 0.0}, {"name": "sa(0.3)", "value": 1.7653, "units": "%g", "flag": "0", "ln_sigma": 0.0}]}, {"name": "N", "amplitudes": [{"name": "sa(1.0)", "value": 0.4378, "units": "%g", "flag": "0", "ln_sigma": 0.0}, {"name": "sa(3.0)", "value": 0.1643, "units": "%g", "flag": "0", "ln_sigma": 0.0}, {"name": "pga", "value": 0.8204, "units": "%g", "flag": "0", "ln_sigma": 0.0}, {"name": "pgv", "value": 0.553, "units": "cm/s", "flag": "0", "ln_sigma": 0.0}, {"name": "sa(0.3)", "value": 1.2857, "units": "%g", "flag": "0", "ln_sigma": 0.0}]}, {"name": "Z", "amplitudes": [{"name": "sa(1.