{"type": "FeatureCollection", "features": [{"type": "Feature", "id": "CU.MTDJ", "properties": {"code": "MTDJ", "name": "MTDJ", "instrumentType": "UNK", "source": "CU", "network": "CU", "commType": "UNK", "location": "", "intensity": 3.0, "intensity_flag": "", "intensity_stddev": 0.66, "pga": 0.3103, "pgv": "null", "distance": 483.846, "elev": null, "vs30": 760.0, "channels": [{"name": "HLN", "amplitudes": [{"name": "pga", "value": 0.3103, "units": "%g", "flag": "0", "ln_sigma": 0.0}]}, {"name": "HLZ", "amplitudes": [{"name": "pga", "value": 0.0997, "units": "%g", "flag": "0", "ln_sigma": 0.0}]}, {"name": "HLE", "amplitudes": [{"name": "pga", "value": 0.1883, "units": "%g", "flag": "0", "ln_sigma": 0.0}]}], "station_type": "seismic", "nresp": "null", "predictions": [{"name": "pga", "value": 0.0664, "value_rock": 0.0664, "value_soil": 0.1316, "units": "%g", "ln_tau": 0.3164, "ln_phi": 0.5261, "ln_sigma": 0.6139, "ln_sigma_rock": 0.6146, "ln_sigma_soil": 0.5995, "ln_bias": 0.7488, "ln_bias_sigma": 0.1274}, {"name": "mmi", "value": 2.8245, "value_rock": 2.8245, "value_soil": 3.4968, "units": "intensity", "tau": 0.2006, "phi": 0.7146, "sigma": 0.7422, "sigma_rock": 0.7425, "sigma_soil": 0.7363, "bias": 0.5258, "bias_sigma": 0.1392}], "mmi_from_pgm": [{"name": "pga", "value": 2.96, "sigma": 0.66, "flag": "0"}], "distance_stddev": 0.0, "distances": {"repi": 523.426, "rhypo": 523.587, "rjb": 484.171, "rjb_var": 0.0, "rrup": 483.846, "rrup_var": 0.0, "rx": 35.652, "ry0": 482.531}}, "geometry": {"type": "Point", "coordinates": [-77.5249, 18.2259]}}, {"type": "Feature", "id": "CU.GRTK", "properties": {"code": "GRTK", "name": "GRTK", "instrumentType": "UNK", "source": "CU", "network": "CU", "commType": "UNK", "location": "", "intensity": 2.4, "intensity_flag": "", "intensity_stddev": 0.66, "pga": 0.1307, "pgv": "null", "distance": 355.602, "elev": null, "vs30": 600.0, "channels": [{"name": "HLN", "amplitudes": [{"name": "pga", "value": 0.1307, "units": "%g", "flag": "0", "ln_sigma": 0.0}]}, {"name": "HLZ", "amplitudes": [{"name": "pga", "value": 0.062, "units": "%g", "flag": "0", "ln_sigma": 0.0}]}, {"name": "HLE", "amplitudes": [{"name": "pga", "value": 0.1215, "units": "%g", "flag": "0", "ln_sigma": 0.0}]}], "station_type": "seismic", "nresp": "null", "predictions": [{"name": "pga", "value": 0.2329, "value_rock": 0.2082, "value_soil": 0.411, "units": "%g", "ln_tau": 0.3163, "ln_phi": 0.526, "ln_sigma": 0.6138, "ln_sigma_rock": 0.6146, "ln_sigma_soil": 0.5982, "ln_bias": 0.7487, "ln_bias_sigma": 0.1274}, {"name": "mmi", "value": 3.2697, "value_rock": 3.1574, "value_soil": 3.8267, "units": "intensity", "tau": 0.2005, "phi": 0.7145, "sigma": 0.7422, "sigma_rock": 0.7425, "sigma_soil": 0.736, "bias": 0.5258, "bias_sigma": 0.1392}], "mmi_from_pgm": [{"name": "pga", "value": 2.36, "sigma": 0.66, "flag": "0"}], "distance_stddev": 0.0, "distances": {"repi": 372.745, "rhypo": 372.971, "rjb": 355.495, "rjb_var": 0.0, "rrup": 355.602, "rrup_var": 0.0, "rx": 322.156, "ry0": 169.432}}, "geometry": {"type": "Point", "coordinates": [-71.1338, 21.5111]}}, {"type": "Feature", "id": "CU.GTBY", "properties": {"code": "GTBY", "name": "GTBY", "instrumentType": "UNK", "source": "CU", "network": "CU", "commType": "UNK", "location": "", "intensity": 3.2, "intensity_flag": "", "intensity_stddev": 0.66, "pga": 0.5003, "pgv": "null", "distance": 276.987, "elev": null, "vs30": 403.26, "channels": [{"name": "HLN", "amplitudes": [{"name": "pga", "value": 0.5003, "units": "%g", "flag": "0", "ln_sigma": 0.0}]}, {"name": "HLZ", "amplitudes": [{"name": "pga", "value": 0.2356, "units": "%g", "flag": "0", "ln_sigma": 0.0}]}, {"name": "HLE", "amplitudes": [{"name": "pga", "value": 0.4516, "units": "%g", "flag": "0", "ln_sigma": 0.0}]}], "station_type": "seismic", "nresp": "null", "predictions": [{"name": "pga", "value": 0.5906, "value_rock": 0.4387, "value_soil": 0.8591, "units": "%g", "ln_tau": 0.3157, "ln_phi": 0.5255, "ln_sigma": 0.613, "ln_sigma_rock": 0.6146, "ln_sigma_soil": 0.5962, "ln_bias": 0.7483, "ln_bias_sigma": 0.1274}, {"name": "mmi", "value": 3.692, "value_rock": 3.3936, "value_soil": 4.0592, "units": "intensity", "tau": 0.2003, "phi": 0.7144, "sigma": 0.742, "sigma_rock": 0.7425, "sigma_soil": 0.7356, "bias": 0.5252, "bias_sigma": 0.1391}], "mmi_from_pgm": [{"name": "pga", "value": 3.24, "sigma": 0.66, "flag": "0"}], "distance_stddev": 0.0, "distances": {"repi": 313.623, "rhypo": 313.892, "rjb": 276.519, "rjb_var": 0.0, "rrup": 276.987, "rrup_var": 0.0, "rx": 191.32, "ry0": 207.311}}, "geometry": {"type": "Point", "coordinates": [-75.1108, 19.9268]}}, {"type": "Feature", "id": "CU.SDDR", "properties": {"code": "SDDR", "name": "SDDR", "instrumentType": "UNK", "source": "CU", "network": "CU", "commType": "UNK", "location": "", "intensity": 3.5, "intensity_flag": "", "intensity_stddev": 0.66, "pga": 1.1532, "pgv": "null", "distance": 133.122, "elev": null, "vs30": 599.51, "channels": [{"name": "HLN", "amplitudes": [{"name": "pga", "value": 1.0322, "units": "%g", "flag": "0", "ln_sigma": 0.0}]}, {"name": "HLZ", "amplitudes": [{"name": "pga", "value": 0.5686, "units": "%g", "flag": "0", "ln_sigma": 0.0}]}, {"name": "HLE", "amplitudes": [{"name": "pga", "value": 1.1532, "units": "%g", "flag": "0", "ln_sigma": 0.0}]}], "station_type": "seismic", "nresp": "null", "predictions": [{"name": "pga", "value": 2.3291, "value_rock": 2.0875, "value_soil": 3.8794, "units": "%g", "ln_tau": 0.3156, "ln_phi": 0.506, "ln_sigma": 0.5963, "ln_sigma_rock": 0.5979, "ln_sigma_soil": 0.5677, "ln_bias": 0.7482, "ln_bias_sigma": 0.1274}, {"name": "mmi", "value": 4.082, "value_rock": 3.9697, "value_soil": 5.0995, "units": "intensity", "tau": 0.2005, "phi": 0.71, "sigma": 0.7378, "sigma_rock": 0.7381, "sigma_soil": 1.0125, "bias": 0.5256, "bias_sigma": 0.1392}], "mmi_from_pgm": [{"name": "pga", "value": 3.48, "sigma": 0.66, "flag": "0"}], "distance_stddev": 0.0, "distances": {"repi": 147.803, "rhypo": 148.374, "rjb": 131.609, "rjb_var": 0.0, "rrup": 133.122, "rrup_var": 0.0, "rx": 43.751, "ry0": 126.578}}, "geometry": {"type": "Point", "coordinates": [-71.288, 18.9817]}}, {"type": "Feature", "id": "INTENSITY.OBS_94", "properties": {"code": "OBS_94", "name": "Saniago de los Caballeros DR", "instrumentType": "OBSERVED", "source": "INTENSITY", "network": "INTENSITY", "commType": "UNK", "location": "", "intensity": 5.0, "intensity_flag": "0", "intensity_stddev": 0.3, "pga": 5.2296, "pgv": 6.0485, "distance": 211.827, "elev": null, "vs30": 295.84, "channels": [], "nresp": -1, "station_type": "macroseismic", "predictions": [{"name": "mmi", "value": 4.0583, "value_rock": 3.621, "value_soil": 4.3809, "units": "intensity", "tau": 0.1994, "phi": 0.7123, "sigma": 0.7396, "sigma_rock": 0.7407, "sigma_soil": 1.0208, "bias": 0.5229, "bias_sigma": 0.1388}, {"name": "pga", "value": 1.313, "value_rock": 0.8495, "value_soil": 1.6413, "units": "%g", "ln_tau": 0.3195, "ln_phi": 0.5256, "ln_sigma": 0.6151, "ln_sigma_rock": 0.6197, "ln_sigma_soil": 0.5979, "ln_bias": 0.7511, "ln_bias_sigma": 0.1276}, {"name": "sa(0.3)", "value": 3.7466, "value_rock": 1.7403, "value_soil": 5.5111, "units": "%g", "ln_tau": 0.2968, "ln_phi": 0.6016, "ln_sigma": 0.6709, "ln_sigma_rock": 0.6773, "ln_sigma_soil": 0.6562, "ln_bias": 0.5148, "ln_bias_sigma": 0.1445}, {"name": "sa(1.0)", "value": 2.9375, "value_rock": 1.1348, "value_soil": 4.7581, "units": "%g", "ln_tau": 0.3264, "ln_phi": 0.6317, "ln_sigma": 0.711, "ln_sigma_rock": 0.7114, "ln_sigma_soil": 0.7027, "ln_bias": 0.8222, "ln_bias_sigma": 0.1601}, {"name": "sa(3.0)", "value": 0.9922, "value_rock": 0.3808, "value_soil": 1.624, "units": "%g", "ln_tau": 0.3554, "ln_phi": 0.6223, "ln_sigma": 0.7166, "ln_sigma_rock": 0.7154, "ln_sigma_soil": 0.7151, "ln_bias": 0.5077, "ln_bias_sigma": 0.1879}, {"name": "pgv", "value": 2.7178, "value_rock": 1.37, "value_soil": 3.8524, "units": "cm/s", "ln_tau": 0.3123, "ln_phi": 0.5205, "ln_sigma": 0.607, "ln_sigma_rock": 0.61, "ln_sigma_soil": 0.5853, "ln_bias": 0.5889, "ln_bias_sigma": 0.1351}], "pgm_from_mmi": [{"name": "pga", "value": 5.2296, "units": "%g", "ln_sigma": 0.8059, "flag": "0"}, {"name": "sa(3.0)", "value": 2.0073, "units": "%g", "ln_sigma": 1.4737, "flag": "0"}, {"name": "sa(1.0)", "value": 9.4136, "units": "%g", "ln_sigma": 1.0822, "flag": "0"}, {"name": "sa(0.3)", "value": 10.3958, "units": "%g", "ln_sigma": 1.0131, "flag": "0"}, {"name": "pgv", "value": 6.0485, "units": "cm/s", "ln_sigma": 0.875, "flag": "0"}], "distance_stddev": 0.0, "distances": {"repi": 227.671, "rhypo": 228.042, "rjb": 210.939, "rjb_var": 0.0, "rrup": 211.827, "rrup_var": 0.0, "rx": 84.809, "ry0": 170.471}}, "geometry": {"type": "Point", "coordinates": [-70.667, 19.417]}}, {"type": "Feature", "id": "MMI.MMI_10", "properties": {"code": "MMI_10", "name": "Aquin (Intensity VI)", "instrumentType": "OBSERVED", "source": "MMI", "network": "MMI", "commType": "UNK", "location": "", "intensity": 6.0, "intensity_flag": "0", "intensity_stddev": 0.3, "pga": 14.4734, "pgv": 12.5343, "distance": 50.427, "elev": null, "vs30": 467.95, "channels": [], "nresp": -1, "station_type": "macroseismic", "predictions": [{"name": "mmi", "value": 5.5383, "value_rock": 5.0527, "value_soil": 6.3339, "units": "intensity", "tau": 0.4296, "phi": 0.9392, "sigma": 1.0328, "sigma_rock": 1.034, "sigma_soil": 0.9942, "bias": 0.8434, "bias_sigma": 0.1763}, {"name": "pga", "value": 8.9853, "value_rock": 7.3435, "value_soil": 11.8572, "units": "%g", "ln_tau": 0.3155, "ln_phi": 0.5052, "ln_sigma": 0.5956, "ln_sigma_rock": 0.6039, "ln_sigma_soil": 0.5431, "ln_bias": 0.7481, "ln_bias_sigma": 0.1274}, {"name": "sa(0.3)", "value": 20.269, "value_rock": 13.8213, "value_soil": 34.4149, "units": "%g", "ln_tau": 0.2955, "ln_phi": 0.5753, "ln_sigma": 0.6467, "ln_sigma_rock": 0.6531, "ln_sigma_soil": 0.5773, "ln_bias": 0.5137, "ln_bias_sigma": 0.1443}, {"name": "sa(1.0)", "value": 8.2976, "value_rock": 5.044, "value_soil": 18.9642, "units": "%g", "ln_tau": 0.3268, "ln_phi": 0.6154, "ln_sigma": 0.6968, "ln_sigma_rock": 0.6959, "ln_sigma_soil": 0.6699, "ln_bias": 0.8227, "ln_bias_sigma": 0.1602}, {"name": "sa(3.0)", "value": 2.3315, "value_rock": 1.403, "value_soil": 5.9692, "units": "%g", "ln_tau": 0.3554, "ln_phi": 0.601, "ln_sigma": 0.6982, "ln_sigma_rock": 0.6965, "ln_sigma_soil": 0.6959, "ln_bias": 0.5076, "ln_bias_sigma": 0.1879}, {"name": "pgv", "value": 8.9537, "value_rock": 6.2851, "value_soil": 15.9873, "units": "cm/s", "ln_tau": 0.3131, "ln_phi": 0.5075, "ln_sigma": 0.5963, "ln_sigma_rock": 0.5974, "ln_sigma_soil": 0.5604, "ln_bias": 0.5894, "ln_bias_sigma": 0.1351}], "pgm_from_mmi": [{"name": "pga", "value": 14.4734, "units": "%g", "ln_sigma": 0.8059, "flag": "0"}, {"name": "sa(3.0)", "value": 3.2871, "units": "%g", "ln_sigma": 1.4737, "flag": "0"}, {"name": "sa(1.0)", "value": 16.3404, "units": "%g", "ln_sigma": 1.0822, "flag": "0"}, {"name": "sa(0.3)", "value": 29.301, "units": "%g", "ln_sigma": 1.0131, "flag": "0"}, {"name": "pgv", "value": 12.5343, "units": "cm/s", "ln_sigma": 0.875, "flag": "0"}], "distance_stddev": 0.0, "distances": {"repi": 88.828, "rhypo": 89.775, "rjb": 50.427, "rjb_var": 0.0, "rrup": 50.427, "rrup_var": 0.0, "rx": -11.092, "ry0": 32.347}}, "geometry": {"type": "Point", "coordinates": [-73.395, 18.28]}}, {"type": "Feature", "id": "INTENSITY.11", "properties": {"code": "11", "name": "Hig\u00fcey, Dominican Republic (Intensity II, 3 responses)", "instrumentType": "OBSERVED", "source": "INTENSITY", "network": "INTENSITY", "commType": "UNK", "location": "", "intensity": 2.0, "intensity_flag": "0", "intensity_stddev": 0.3, "pga": "null", "pgv": "null", "distance": 394.332, "elev": null, "vs30": 301.46, "channels": [], "nresp": -1, "station_type": "macroseismic", "predictions": [{"name": "mmi", "value": 3.4835, "value_rock": 3.0511, "value_soil": 3.7216, "units": "intensity", "tau": 0.1999, "phi": 0.7144, "sigma": 0.7418, "sigma_rock": 0.7422, "sigma_soil": 0.7349, "bias": 0.5242, "bias_sigma": 0.139}, {"name": "pga", "value": 0.2263, "value_rock": 0.1463, "value_soil": 0.2893, "units": "%g", "ln_tau": 0.3216, "ln_phi": 0.5352, "ln_sigma": 0.6244, "ln_sigma_rock": 0.6256, "ln_sigma_soil": 0.6096, "ln_bias": 0.7527, "ln_bias_sigma": 0.1278}, {"name": "sa(0.3)", "value": 0.7336, "value_rock": 0.3418, "value_soil": 1.1155, "units": "%g", "ln_tau": 0.2992, "ln_phi": 0.6132, "ln_sigma": 0.6823, "ln_sigma_rock": 0.6856, "ln_sigma_soil": 0.6724, "ln_bias": 0.5168, "ln_bias_sigma": 0.1448}, {"name": "sa(1.0)", "value": 1.2017, "value_rock": 0.4704, "value_soil": 2.0051, "units": "%g", "ln_tau": 0.3271, "ln_phi": 0.6398, "ln_sigma": 0.7186, "ln_sigma_rock": 0.7179, "ln_sigma_soil": 0.7128, "ln_bias": 0.8231, "ln_bias_sigma": 0.1602}, {"name": "sa(3.0)", "value": 0.5145, "value_rock": 0.2011, "value_soil": 0.858, "units": "%g", "ln_tau": 0.3555, "ln_phi": 0.6224, "ln_sigma": 0.7167, "ln_sigma_rock": 0.7154, "ln_sigma_soil": 0.7152, "ln_bias": 0.5078, "ln_bias_sigma": 0.1879}, {"name": "pgv", "value": 1.1046, "value_rock": 0.5611, "value_soil": 1.604, "units": "cm/s", "ln_tau": 0.3131, "ln_phi": 0.5276, "ln_sigma": 0.6135, "ln_sigma_rock": 0.6147, "ln_sigma_soil": 0.5927, "ln_bias": 0.5895, "ln_bias_sigma": 0.1352}], "pgm_from_mmi": [{"name": "pga", "value": null, "units": "%g", "ln_sigma": null, "flag": "0"}, {"name": "sa(3.0)", "value": null, "units": "%g", "ln_sigma": null, "flag": "0"}, {"name": "sa(1.0)", "value": null, "units": "%g", "ln_sigma": null, "flag": "0"}, {"name": "sa(0.3)", "value": null, "units": "%g", "ln_sigma": null, "flag": "0"}, {"name": "pgv", "value": null, "units": "cm/s", "ln_sigma": null, "flag": "0"}], "distance_stddev": 0.0, "distances": {"repi": 407.53, "rhypo": 407.738, "rjb": 394.364, "rjb_var": 0.0, "rrup": 394.332, "rrup_var": 0.0, "rx": -21.964, "ry0": 333.599}}, "geometry": {"type": "Point", "coordinates": [-68.71, 18.62]}}, {"type": "Feature", "id": "INTENSITY.OBS_63", "properties": {"code": "OBS_63", "name": "San Pedro de Macoris DR", "instrumentType": "OBSERVED", "source": "INTENSITY", "network": "INTENSITY", "commType": "UNK", "location": "", "intensity": 4.0, "intensity_flag": "0", "intensity_stddev": 0.3, "pga": 1.4633, "pgv": 2.4806, "distance": 331.922, "elev": null, "vs30": 281.34, "channels": [], "nresp": -1, "station_type": "macroseismic", "predictions": [{"name": "mmi", "value": 3.6881, "value_rock": 3.225, "value_soil": 3.8934, "units": "intensity", "tau": 0.1997, "phi": 0.713, "sigma": 0.7404, "sigma_rock": 0.7422, "sigma_soil": 0.7347, "bias": 0.5236, "bias_sigma": 0.1389}, {"name": "pga", "value": 0.4137, "value_rock": 0.2593, "value_soil": 0.5108, "units": "%g", "ln_tau": 0.3212, "ln_phi": 0.5309, "ln_sigma": 0.6205, "ln_sigma_rock": 0.6256, "ln_sigma_soil": 0.6086, "ln_bias": 0.7524, "ln_bias_sigma": 0.1277}, {"name": "sa(0.3)", "value": 1.3103, "value_rock": 0.5786, "value_soil": 1.8794, "units": "%g", "ln_tau": 0.2987, "ln_phi": 0.6099, "ln_sigma": 0.6791, "ln_sigma_rock": 0.6856, "ln_sigma_soil": 0.671, "ln_bias": 0.5164, "ln_bias_sigma": 0.1447}, {"name": "sa(1.0)", "value": 1.6822, "value_rock": 0.616, "value_soil": 2.6177, "units": "%g", "ln_tau": 0.3268, "ln_phi": 0.6384, "ln_sigma": 0.7172, "ln_sigma_rock": 0.7179, "ln_sigma_soil": 0.7121, "ln_bias": 0.8227, "ln_bias_sigma": 0.1602}, {"name": "sa(3.0)", "value": 0.6631, "value_rock": 0.2423, "value_soil": 1.0334, "units": "%g", "ln_tau": 0.3555, "ln_phi": 0.6223, "ln_sigma": 0.7167, "ln_sigma_rock": 0.7154, "ln_sigma_soil": 0.7152, "ln_bias": 0.5077, "ln_bias_sigma": 0.1879}, {"name": "pgv", "value": 1.522, "value_rock": 0.7368, "value_soil": 2.0993, "units": "cm/s", "ln_tau": 0.3128, "ln_phi": 0.5229, "ln_sigma": 0.6093, "ln_sigma_rock": 0.6147, "ln_sigma_soil": 0.592, "ln_bias": 0.5893, "ln_bias_sigma": 0.1351}], "pgm_from_mmi": [{"name": "pga", "value": 1.4633, "units": "%g", "ln_sigma": 0.8059, "flag": "0"}, {"name": "sa(3.0)", "value": 0.9977, "units": "%g", "ln_sigma": 1.4737, "flag": "0"}, {"name": "sa(1.0)", "value": 4.432, "units": "%g", "ln_sigma": 1.0822, "flag": "0"}, {"name": "sa(0.3)", "value": 2.3522, "units": "%g", "ln_sigma": 1.0131, "flag": "0"}, {"name": "pgv", "value": 2.4806, "units": "cm/s", "ln_sigma": 0.875, "flag": "0"}], "distance_stddev": 0.0, "distances": {"repi": 345.019, "rhypo": 345.264, "rjb": 331.934, "rjb_var": 0.0, "rrup": 331.922, "rrup_var": 0.0, "rx": -33.239, "ry0": 278.154}}, "geometry": {"type": "Point", "coordinates": [-69.3, 18.467]}}, {"type": "Feature", "id": "INTENSITY.9", "properties": {"code": "9", "name": "Guant\u00e1namo, Cuba (Intensity II, 22 responses)", "instrumentType": "OBSERVED", "source": "INTENSITY", "network": "INTENSITY", "commType": "UNK", "location": "", "intensity": 2.5, "intensity_flag": "0", "intensity_stddev": 0.3, "pga": "null", "pgv": "null", "distance": 300.577, "elev": null, "vs30": 274.05, "channels": [], "nresp": -1, "station_type": "macroseismic", "predictions": [{"name": "mmi", "value": 3.7937, "value_rock": 3.3192, "value_soil": 3.9862, "units": "intensity", "tau": 0.1996, "phi": 0.7124, "sigma": 0.7398, "sigma_rock": 0.7422, "sigma_soil": 0.7345, "bias": 0.5233, "bias_sigma": 0.1388}, {"name": "pga", "value": 0.5631, "value_rock": 0.3491, "value_soil": 0.6857, "units": "%g", "ln_tau": 0.3208, "ln_phi": 0.529, "ln_sigma": 0.6187, "ln_sigma_rock": 0.6256, "ln_sigma_soil": 0.6078, "ln_bias": 0.7521, "ln_bias_sigma": 0.1277}, {"name": "sa(0.3)", "value": 1.7578, "value_rock": 0.7615, "value_soil": 2.4638, "units": "%g", "ln_tau": 0.2982, "ln_phi": 0.6084, "ln_sigma": 0.6775, "ln_sigma_rock": 0.6856, "ln_sigma_soil": 0.67, "ln_bias": 0.516, "ln_bias_sigma": 0.1446}, {"name": "sa(1.0)", "value": 1.9951, "value_rock": 0.7127, "value_soil": 3.0217, "units": "%g", "ln_tau": 0.3266, "ln_phi": 0.6377, "ln_sigma": 0.7165, "ln_sigma_rock": 0.7179, "ln_sigma_soil": 0.7115, "ln_bias": 0.8225, "ln_bias_sigma": 0.1602}, {"name": "sa(3.0)", "value": 0.7548, "value_rock": 0.2688, "value_soil": 1.1463, "units": "%g", "ln_tau": 0.3555, "ln_phi": 0.6223, "ln_sigma": 0.7167, "ln_sigma_rock": 0.7154, "ln_sigma_soil": 0.7152, "ln_bias": 0.5077, "ln_bias_sigma": 0.1879}, {"name": "pgv", "value": 1.7956, "value_rock": 0.854, "value_soil": 2.4276, "units": "cm/s", "ln_tau": 0.3126, "ln_phi": 0.5209, "ln_sigma": 0.6075, "ln_sigma_rock": 0.6147, "ln_sigma_soil": 0.5916, "ln_bias": 0.5891, "ln_bias_sigma": 0.1351}], "pgm_from_mmi": [{"name": "pga", "value": null, "units": "%g", "ln_sigma": null, "flag": "0"}, {"name": "sa(3.0)", "value": null, "units": "%g", "ln_sigma": null, "flag": "0"}, {"name": "sa(1.0)", "value": null, "units": "%g", "ln_sigma": null, "flag": "0"}, {"name": "sa(0.3)", "value": null, "units": "%g", "ln_sigma": null, "flag": "0"}, {"name": "pgv", "value": null, "units": "cm/s", "ln_sigma": null, "flag": "0"}], "distance_stddev": 0.0, "distances": {"repi": 336.61, "rhypo": 336.861, "rjb": 300.229, "rjb_var": 0.0, "rrup": 300.577, "rrup_var": 0.0, "rx": 215.231, "ry0": 153.94}}, "geometry": {"type": "Point", "coordinates": [-75.22, 20.15]}}, {"type": "Feature", "id": "INTENSITY.OBS_130", "properties": {"code": "OBS_130", "name": "Malpasse Haiti", "instrumentType": "OBSERVED", "source": "INTENSITY", "network": "INTENSITY", "commType": "UNK", "location": "", "intensity": 7.0, "intensity_flag": "0", "intensity_stddev": 0.3, "pga": 26.0197, "pgv": 25.9751, "distance": 57.415, "elev": null, "vs30": 734.62, "channels": [], "nresp": -1, "station_type": "macroseismic", "predictions": [{"name": "mmi", "value": 4.9146, "value_rock": 4.8801, "value_soil": 6.179, "units": "intensity", "tau": 0.4305, "phi": 0.9398, "sigma": 1.0337, "sigma_rock": 1.034, "sigma_soil": 0.9958, "bias": 0.844, "bias_sigma": 0.1763}, {"name": "pga", "value": 6.4872, "value_rock": 6.3887, "value_soil": 10.5573, "units": "%g", "ln_tau": 0.3213, "ln_phi": 0.5102, "ln_sigma": 0.6029, "ln_sigma_rock": 0.604, "ln_sigma_soil": 0.5478, "ln_bias": 0.7525, "ln_bias_sigma": 0.1277}, {"name": "sa(0.3)", "value": 12.3737, "value_rock": 12.0319, "va