{"type": "FeatureCollection", "features": [{"type": "Feature", "id": "G.Ravar", "properties": {"code": "Ravar", "name": "Ravar", "instrumentType": "UNK", "source": "G", "network": "G", "commType": "UNK", "location": "", "intensity": 5.6, "intensity_flag": "", "intensity_stddev": 0.63, "pga": 9.8161, "pgv": 8.6417, "distance": 43.016, "elev": null, "vs30": 285.82, "channels": [{"name": "UNK", "amplitudes": [{"name": "pga", "value": 9.8161, "units": "%g", "flag": "0", "ln_sigma": 0.0}, {"name": "pgv", "value": 8.6417, "units": "cm/s", "flag": "0", "ln_sigma": 0.0}]}], "station_type": "seismic", "nresp": "null", "predictions": [{"name": "pga", "value": 8.5234, "value_rock": 5.8815, "value_soil": 9.7298, "units": "%g", "ln_tau": 0.3187, "ln_phi": 0.5, "ln_sigma": 0.593, "ln_sigma_rock": 0.6162, "ln_sigma_soil": 0.5644, "ln_bias": -0.1519, "ln_bias_sigma": 0.1514}, {"name": "pgv", "value": 8.2236, "value_rock": 4.1715, "value_soil": 10.8075, "units": "cm/s", "ln_tau": 0.3227, "ln_phi": 0.5278, "ln_sigma": 0.6186, "ln_sigma_rock": 0.6286, "ln_sigma_soil": 0.5981, "ln_bias": -0.2463, "ln_bias_sigma": 0.1595}, {"name": "mmi", "value": 5.1807, "value_rock": 4.5846, "value_soil": 5.3935, "units": "intensity", "tau": 0.5122, "phi": 1.0398, "sigma": 1.1591, "sigma_rock": 1.1899, "sigma_soil": 1.1217, "bias": -0.0253, "bias_sigma": 0.3047}], "mmi_from_pgm": [{"name": "pga", "value": 5.41, "sigma": 0.66, "flag": "0"}, {"name": "pgv", "value": 5.6, "sigma": 0.63, "flag": "0"}], "distance_stddev": 0.0, "distances": {"repi": 56.319, "rhypo": 58.033, "rjb": 41.846, "rjb_var": 0.0, "rrup": 43.016, "rrup_var": 0.0, "rx": 52.981, "ry0": 0.0, "rvolc": 0.0}}, "geometry": {"type": "Point", "coordinates": [56.79, 31.26]}}, {"type": "Feature", "id": "G.Tarz", "properties": {"code": "Tarz", "name": "Tarz", "instrumentType": "UNK", "source": "G", "network": "G", "commType": "UNK", "location": "", "intensity": 4.4, "intensity_flag": "", "intensity_stddev": 0.63, "pga": 4.3326, "pgv": 3.6472, "distance": 60.958, "elev": null, "vs30": 594.9, "channels": [{"name": "UNK", "amplitudes": [{"name": "pga", "value": 4.3326, "units": "%g", "flag": "0", "ln_sigma": 0.0}, {"name": "pgv", "value": 3.6472, "units": "cm/s", "flag": "0", "ln_sigma": 0.0}]}], "station_type": "seismic", "nresp": "null", "predictions": [{"name": "pga", "value": 4.274, "value_rock": 3.8165, "value_soil": 6.6516, "units": "%g", "ln_tau": 0.3331, "ln_phi": 0.5146, "ln_sigma": 0.6129, "ln_sigma_rock": 0.6164, "ln_sigma_soil": 0.5759, "ln_bias": -0.1549, "ln_bias_sigma": 0.1529}, {"name": "pgv", "value": 3.398, "value_rock": 2.8279, "value_soil": 7.5485, "units": "cm/s", "ln_tau": 0.3267, "ln_phi": 0.5348, "ln_sigma": 0.6267, "ln_sigma_rock": 0.6286, "ln_sigma_soil": 0.602, "ln_bias": -0.2477, "ln_bias_sigma": 0.16}, {"name": "mmi", "value": 4.226, "value_rock": 4.0441, "value_soil": 4.9367, "units": "intensity", "tau": 0.5352, "phi": 1.0579, "sigma": 1.1856, "sigma_rock": 1.1903, "sigma_soil": 1.1367, "bias": -0.026, "bias_sigma": 0.3093}], "mmi_from_pgm": [{"name": "pga", "value": 4.25, "sigma": 0.66, "flag": "0"}, {"name": "pgv", "value": 4.41, "sigma": 0.63, "flag": "0"}], "distance_stddev": 0.0, "distances": {"repi": 77.235, "rhypo": 78.494, "rjb": 60.163, "rjb_var": 0.0, "rrup": 60.958, "rrup_var": 0.0, "rx": 66.294, "ry0": 23.93, "rvolc": 0.0}}, "geometry": {"type": "Point", "coordinates": [56.49, 31.39]}}, {"type": "Feature", "id": "G.Zarand", "properties": {"code": "Zarand", "name": "Zarand", "instrumentType": "UNK", "source": "G", "network": "G", "commType": "UNK", "location": "", "intensity": 7.1, "intensity_flag": "", "intensity_stddev": 0.63, "pga": 28.6035, "pgv": 26.7001, "distance": 14.242, "elev": null, "vs30": 269.84, "channels": [{"name": "UNK", "amplitudes": [{"name": "pga", "value": 28.6035, "units": "%g", "flag": "0", "ln_sigma": 0.0}, {"name": "pgv", "value": 26.7001, "units": "cm/s", "flag": "0", "ln_sigma": 0.0}]}], "station_type": "seismic", "nresp": "null", "predictions": [{"name": "pga", "value": 24.163, "value_rock": 18.7939, "value_soil": 24.195, "units": "%g", "ln_tau": 0.2919, "ln_phi": 0.4765, "ln_sigma": 0.5588, "ln_sigma_rock": 0.6148, "ln_sigma_soil": 0.5191, "ln_bias": -0.1456, "ln_bias_sigma": 0.1483}, {"name": "pgv", "value": 25.3417, "value_rock": 13.2361, "value_soil": 29.6823, "units": "cm/s", "ln_tau": 0.3159, "ln_phi": 0.5176, "ln_sigma": 0.6064, "ln_sigma_rock": 0.6285, "ln_sigma_soil": 0.5815, "ln_bias": -0.2437, "ln_bias_sigma": 0.1586}, {"name": "mmi", "value": 6.3655, "value_rock": 5.9617, "value_soil": 6.3676, "units": "intensity", "tau": 0.4691, "phi": 1.0108, "sigma": 1.1144, "sigma_rock": 1.1881, "sigma_soil": 1.0636, "bias": -0.0237, "bias_sigma": 0.2948}], "mmi_from_pgm": [{"name": "pga", "value": 6.64, "sigma": 0.66, "flag": "0"}, {"name": "pgv", "value": 7.15, "sigma": 0.63, "flag": "0"}], "distance_stddev": 0.0, "distances": {"repi": 24.311, "rhypo": 28.054, "rjb": 14.098, "rjb_var": 0.0, "rrup": 14.242, "rrup_var": 0.0, "rx": 2.331, "ry0": 11.86, "rvolc": 0.0}}, "geometry": {"type": "Point", "coordinates": [56.57, 30.81]}}, {"type": "Feature", "id": "G.Kerman_1", "properties": {"code": "Kerman_1", "name": "Kerman_1", "instrumentType": "UNK", "source": "G", "network": "G", "commType": "UNK", "location": "", "intensity": 4.4, "intensity_flag": "", "intensity_stddev": 0.63, "pga": 4.3326, "pgv": 3.6472, "distance": 56.339, "elev": null, "vs30": 225.59, "channels": [{"name": "UNK", "amplitudes": [{"name": "pga", "value": 4.3326, "units": "%g", "flag": "0", "ln_sigma": 0.0}, {"name": "pgv", "value": 3.6472, "units": "cm/s", "flag": "0", "ln_sigma": 0.0}]}], "station_type": "seismic", "nresp": "null", "predictions": [{"name": "pga", "value": 6.6803, "value_rock": 4.1761, "value_soil": 7.2107, "units": "%g", "ln_tau": 0.317, "ln_phi": 0.4853, "ln_sigma": 0.5796, "ln_sigma_rock": 0.6164, "ln_sigma_soil": 0.5737, "ln_bias": -0.1515, "ln_bias_sigma": 0.1513}, {"name": "pgv", "value": 7.0614, "value_rock": 3.0692, "value_soil": 8.1494, "units": "cm/s", "ln_tau": 0.3211, "ln_phi": 0.5109, "ln_sigma": 0.6034, "ln_sigma_rock": 0.6286, "ln_sigma_soil": 0.6012, "ln_bias": -0.2456, "ln_bias_sigma": 0.1593}, {"name": "mmi", "value": 4.9088, "value_rock": 4.1538, "value_soil": 5.0315, "units": "intensity", "tau": 0.5093, "phi": 1.0216, "sigma": 1.1415, "sigma_rock": 1.1902, "sigma_soil": 1.1338, "bias": -0.0252, "bias_sigma": 0.3041}], "mmi_from_pgm": [{"name": "pga", "value": 4.21, "sigma": 0.66, "flag": "0"}, {"name": "pgv", "value": 4.41, "sigma": 0.63, "flag": "0"}], "distance_stddev": 0.0, "distances": {"repi": 55.878, "rhypo": 57.605, "rjb": 56.34, "rjb_var": 0.0, "rrup": 56.339, "rrup_var": 0.0, "rx": -53.674, "ry0": 17.692, "rvolc": 0.0}}, "geometry": {"type": "Point", "coordinates": [57.04, 30.29]}}, {"type": "Feature", "id": "G.Bayaz", "properties": {"code": "Bayaz", "name": "Bayaz", "instrumentType": "UNK", "source": "G", "network": "G", "commType": "UNK", "location": "", "intensity": 3.9, "intensity_flag": "", "intensity_stddev": 0.63, "pga": 2.1687, "pgv": 1.7577, "distance": 122.667, "elev": null, "vs30": 330.5, "channels": [{"name": "UNK", "amplitudes": [{"name": "pga", "value": 2.1687, "units": "%g", "flag": "0", "ln_sigma": 0.0}, {"name": "pgv", "value": 1.7577, "units": "cm/s", "flag": "0", "ln_sigma": 0.0}]}], "station_type": "seismic", "nresp": "null", "predictions": [{"name": "pga", "value": 1.9562, "value_rock": 1.3452, "value_soil": 2.5158, "units": "%g", "ln_tau": 0.3315, "ln_phi": 0.5161, "ln_sigma": 0.6134, "ln_sigma_rock": 0.6191, "ln_sigma_soil": 0.5949, "ln_bias": -0.1546, "ln_bias_sigma": 0.1528}, {"name": "pgv", "value": 2.2818, "value_rock": 1.2512, "value_soil": 3.4783, "units": "cm/s", "ln_tau": 0.3259, "ln_phi": 0.5371, "ln_sigma": 0.6282, "ln_sigma_rock": 0.6313, "ln_sigma_soil": 0.6101, "ln_bias": -0.2474, "ln_bias_sigma": 0.1599}, {"name": "mmi", "value": 3.9013, "value_rock": 3.6492, "value_soil": 4.0706, "units": "intensity", "tau": 0.2232, "phi": 0.7459, "sigma": 0.7785, "sigma_rock": 0.7806, "sigma_soil": 0.772, "bias": -0.0101, "bias_sigma": 0.1923}], "mmi_from_pgm": [{"name": "pga", "value": 3.97, "sigma": 0.66, "flag": "0"}, {"name": "pgv", "value": 3.89, "sigma": 0.63, "flag": "0"}], "distance_stddev": 0.0, "distances": {"repi": 131.66, "rhypo": 132.403, "rjb": 122.668, "rjb_var": 0.0, "rrup": 122.667, "rrup_var": 0.0, "rx": -13.682, "ry0": 121.201, "rvolc": 0.0}}, "geometry": {"type": "Point", "coordinates": [55.44, 30.7]}}, {"type": "Feature", "id": "G.Sirch", "properties": {"code": "Sirch", "name": "Sirch", "instrumentType": "UNK", "source": "G", "network": "G", "commType": "UNK", "location": "", "intensity": 3.9, "intensity_flag": "", "intensity_stddev": 0.63, "pga": 2.3095, "pgv": 1.8783, "distance": 91.048, "elev": null, "vs30": 470.09, "channels": [{"name": "UNK", "amplitudes": [{"name": "pga", "value": 2.3095, "units": "%g", "flag": "0", "ln_sigma": 0.0}, {"name": "pgv", "value": 1.8783, "units": "cm/s", "flag": "0", "ln_sigma": 0.0}]}], "station_type": "seismic", "nresp": "null", "predictions": [{"name": "pga", "value": 2.7182, "value_rock": 2.1871, "value_soil": 3.9884, "units": "%g", "ln_tau": 0.3325, "ln_phi": 0.5141, "ln_sigma": 0.6122, "ln_sigma_rock": 0.6167, "ln_sigma_soil": 0.5864, "ln_bias": -0.1547, "ln_bias_sigma": 0.1528}, {"name": "pgv", "value": 2.5454, "value_rock": 1.7887, "value_soil": 4.9004, "units": "cm/s", "ln_tau": 0.3265, "ln_phi": 0.5347, "ln_sigma": 0.6265, "ln_sigma_rock": 0.6286, "ln_sigma_soil": 0.6054, "ln_bias": -0.2477, "ln_bias_sigma": 0.1599}, {"name": "mmi", "value": 3.9907, "value_rock": 3.8443, "value_soil": 4.2926, "units": "intensity", "tau": 0.2238, "phi": 0.7452, "sigma": 0.7781, "sigma_rock": 0.7797, "sigma_soil": 1.1505, "bias": -0.0101, "bias_sigma": 0.1927}], "mmi_from_pgm": [{"name": "pga", "value": 3.88, "sigma": 0.66, "flag": "0"}, {"name": "pgv", "value": 3.93, "sigma": 0.63, "flag": "0"}], "distance_stddev": 0.0, "distances": {"repi": 93.501, "rhypo": 94.543, "rjb": 91.049, "rjb_var": 0.0, "rrup": 91.048, "rrup_var": 0.0, "rx": -61.301, "ry0": 67.039, "rvolc": 0.0}}, "geometry": {"type": "Point", "coordinates": [57.55, 30.2]}}, {"type": "Feature", "id": "G.Anar", "properties": {"code": "Anar", "name": "Anar", "instrumentType": "UNK", "source": "G", "network": "G", "commType": "UNK", "location": "", "intensity": 4.1, "intensity_flag": "", "intensity_stddev": 0.63, "pga": 2.9704, "pgv": 2.4493, "distance": 138.527, "elev": null, "vs30": 267.17, "channels": [{"name": "UNK", "amplitudes": [{"name": "pga", "value": 2.9704, "units": "%g", "flag": "0", "ln_sigma": 0.0}, {"name": "pgv", "value": 2.4493, "units": "cm/s", "flag": "0", "ln_sigma": 0.0}]}], "station_type": "seismic", "nresp": "null", "predictions": [{"name": "pga", "value": 1.7174, "value_rock": 1.0825, "value_soil": 2.0411, "units": "%g", "ln_tau": 0.3308, "ln_phi": 0.5121, "ln_sigma": 0.6096, "ln_sigma_rock": 0.6218, "ln_sigma_soil": 0.5994, "ln_bias": -0.1544, "ln_bias_sigma": 0.1527}, {"name": "pgv", "value": 2.2838, "value_rock": 1.0756, "value_soil": 3.0045, "units": "cm/s", "ln_tau": 0.3253, "ln_phi": 0.5314, "ln_sigma": 0.6231, "ln_sigma_rock": 0.6334, "ln_sigma_soil": 0.6128, "ln_bias": -0.2472, "ln_bias_sigma": 0.1598}, {"name": "mmi", "value": 3.8675, "value_rock": 3.5568, "value_soil": 3.9837, "units": "intensity", "tau": 0.2227, "phi": 0.7446, "sigma": 0.7772, "sigma_rock": 0.7815, "sigma_soil": 0.7736, "bias": -0.01, "bias_sigma": 0.192}], "mmi_from_pgm": [{"name": "pga", "value": 4.24, "sigma": 0.66, "flag": "0"}, {"name": "pgv", "value": 4.1, "sigma": 0.63, "flag": "0"}], "distance_stddev": 0.0, "distances": {"repi": 148.204, "rhypo": 148.864, "rjb": 138.407, "rjb_var": 0.0, "rrup": 138.527, "rrup_var": 0.0, "rx": 4.732, "ry0": 137.998, "rvolc": 0.0}}, "geometry": {"type": "Point", "coordinates": [55.27, 30.87]}}, {"type": "Feature", "id": "G.Baghin", "properties": {"code": "Baghin", "name": "Baghin", "instrumentType": "UNK", "source": "G", "network": "G", "commType": "UNK", "location": "", "intensity": 4.3, "intensity_flag": "", "intensity_stddev": 0.63, "pga": 3.8203, "pgv": 3.1939, "distance": 65.486, "elev": null, "vs30": 302.43, "channels": [{"name": "UNK", "amplitudes": [{"name": "pga", "value": 3.8203, "units": "%g", "flag": "0", "ln_sigma": 0.0}, {"name": "pgv", "value": 3.1939, "units": "cm/s", "flag": "0", "ln_sigma": 0.0}]}], "station_type": "seismic", "nresp": "null", "predictions": [{"name": "pga", "value": 5.0835, "value_rock": 3.454, "value_soil": 6.0789, "units": "%g", "ln_tau": 0.3256, "ln_phi": 0.5083, "ln_sigma": 0.6036, "ln_sigma_rock": 0.6165, "ln_sigma_soil": 0.578, "ln_bias": -0.1534, "ln_bias_sigma": 0.1522}, {"name": "pgv", "value": 4.9761, "value_rock": 2.5986, "value_soil": 6.9756, "units": "cm/s", "ln_tau": 0.3244, "ln_phi": 0.5326, "ln_sigma": 0.6236, "ln_sigma_rock": 0.6286, "ln_sigma_soil": 0.6027, "ln_bias": -0.2469, "ln_bias_sigma": 0.1597}, {"name": "mmi", "value": 4.5365, "value_rock": 4.006, "value_soil": 4.8238, "units": "intensity", "tau": 0.5231, "phi": 1.0501, "sigma": 1.1732, "sigma_rock": 0.7796, "sigma_soil": 1.1395, "bias": -0.0256, "bias_sigma": 0.3069}], "mmi_from_pgm": [{"name": "pga", "value": 4.08, "sigma": 0.66, "flag": "0"}, {"name": "pgv", "value": 4.27, "sigma": 0.63, "flag": "0"}], "distance_stddev": 0.0, "distances": {"repi": 62.717, "rhypo": 64.26, "rjb": 65.487, "rjb_var": 0.0, "rrup": 65.486, "rrup_var": 0.0, "rx": -65.769, "ry0": 0.0, "rvolc": 0.0}}, "geometry": {"type": "Point", "coordinates": [56.81, 30.19]}}, {"type": "Feature", "id": "G.Koohbanan", "properties": {"code": "Koohbanan", "name": "Koohbanan", "instrumentType": "UNK", "source": "G", "network": "G", "commType": "UNK", "location": "", "intensity": 3.9, "intensity_flag": "", "intensity_stddev": 0.63, "pga": 2.3095, "pgv": 1.8783, "distance": 73.802, "elev": null, "vs30": 469.07, "channels": [{"name": "UNK", "amplitudes": [{"name": "pga", "value": 2.3095, "units": "%g", "flag": "0", "ln_sigma": 0.0}, {"name": "pgv", "value": 1.8783, "units": "cm/s", "flag": "0", "ln_sigma": 0.0}]}], "station_type": "seismic", "nresp": "null", "predictions": [{"name": "pga", "value": 3.6887, "value_rock": 2.9744, "value_soil": 5.3034, "units": "%g", "ln_tau": 0.3317, "ln_phi": 0.5134, "ln_sigma": 0.6113, "ln_sigma_rock": 0.6165, "ln_sigma_soil": 0.5811, "ln_bias": -0.1546, "ln_bias_sigma": 0.1528}, {"name": "pgv", "value": 3.2518, "value_rock": 2.2834, "value_soil": 6.1753, "units": "cm/s", "ln_tau": 0.3265, "ln_phi": 0.5346, "ln_sigma": 0.6264, "ln_sigma_rock": 0.6286, "ln_sigma_soil": 0.6037, "ln_bias": -0.2477, "ln_bias_sigma": 0.1599}, {"name": "mmi", "value": 4.1032, "value_rock": 3.9583, "value_soil": 4.6575, "units": "intensity", "tau": 0.2233, "phi": 0.745, "sigma": 0.7778, "sigma_rock": 0.7796, "sigma_soil": 1.1434, "bias": -0.0101, "bias_sigma": 0.1924}], "mmi_from_pgm": [{"name": "pga", "value": 3.79, "sigma": 0.66, "flag": "0"}, {"name": "pgv", "value": 3.93, "sigma": 0.63, "flag": "0"}], "distance_stddev": 0.0, "distances": {"repi": 90.485, "rhypo": 91.561, "rjb": 73.166, "rjb_var": 0.0, "rrup": 73.802, "rrup_var": 0.0, "rx": 68.858, "ry0": 44.84, "rvolc": 0.0}}, "geometry": {"type": "Point", "coordinates": [56.27, 31.42]}}, {"type": "Feature", "id": "G.Cheshmeh_sabz", "properties": {"code": "Cheshmeh_sabz", "name": "Cheshmeh_sabz", "instrumentType": "UNK", "source": "G", "network": "G", "commType": "UNK", "location": "", "intensity": 3.9, "intensity_flag": "", "intensity_stddev": 0.63, "pga": 2.3095, "pgv": 1.8783, "distance": 149.518, "elev": null, "vs30": 389.47, "channels": [{"name": "UNK", "amplitudes": [{"name": "pga", "value": 2.3095, "units": "%g", "flag": "0", "ln_sigma": 0.0}, {"name": "pgv", "value": 1.8783, "units": "cm/s", "flag": "0", "ln_sigma": 0.0}]}], "station_type": "seismic", "nresp": "null", "predictions": [{"name": "pga", "value": 1.2703, "value_rock": 0.9356, "value_soil": 1.7723, "units": "%g", "ln_tau": 0.3331, "ln_phi": 0.5226, "ln_sigma": 0.6198, "ln_sigma_rock": 0.6235, "ln_sigma_soil": 0.6022, "ln_bias": -0.1549, "ln_bias_sigma": 0.1529}, {"name": "pgv", "value": 1.5833, "value_rock": 0.975, "value_soil": 2.7309, "units": "cm/s", "ln_tau": 0.3264, "ln_phi": 0.5417, "ln_sigma": 0.6324, "ln_sigma_rock": 0.6347, "ln_sigma_soil": 0.6144, "ln_bias": -0.2476, "ln_bias_sigma": 0.1599}, {"name": "mmi", "value": 3.6983, "value_rock": 3.4925, "value_soil": 3.9225, "units": "intensity", "tau": 0.2242, "phi": 0.7479, "sigma": 0.7808, "sigma_rock": 0.7821, "sigma_soil": 0.7746, "bias": -0.0101, "bias_sigma": 0.193}], "mmi_from_pgm": [{"name": "pga", "value": 4.1, "sigma": 0.66, "flag": "0"}, {"name": "pgv", "value": 3.93, "sigma": 0.63, "flag": "0"}], "distance_stddev": 0.0, "distances": {"repi": 148.843, "rhypo": 149.5, "rjb": 149.519, "rjb_var": 0.0, "rrup": 149.518, "rrup_var": 0.0, "rx": -148.354, "ry0": 22.601, "rvolc": 0.0}}, "geometry": {"type": "Point", "coordinates": [56.42, 29.46]}}, {"type": "Feature", "id": "G.Chatrood", "properties": {"code": "Chatrood", "name": "Chatrood", "instrumentType": "UNK", "source": "G", "network": "G", "commType": "UNK", "location": "", "intensity": 5.3, "intensity_flag": "", "intensity_stddev": 0.63, "pga": 8.1278, "pgv": 7.0818, "distance": 20.001, "elev": null, "vs30": 442.01, "channels": [{"name": "UNK", "amplitudes": [{"name": "pga", "value": 8.1278, "units": "%g", "flag": "0", "ln_sigma": 0.0}, {"name": "pgv", "value": 7.0818, "units": "cm/s", "flag": "0", "ln_sigma": 0.0}]}], "station_type": "seismic", "nresp": "null", "predictions": [{"name": "pga", "value": 16.4025, "value_rock": 13.4403, "value_soil": 18.9739, "units": "%g", "ln_tau": 0.3219, "ln_phi": 0.5053, "ln_sigma": 0.5992, "ln_sigma_rock": 0.6153, "ln_sigma_soil": 0.5334, "ln_bias": -0.1526, "ln_bias_sigma": 0.1518}, {"name": "pgv", "value": 13.8196, "value_rock": 9.4035, "value_soil": 22.2415, "units": "cm/s", "ln_tau": 0.3257, "ln_phi": 0.5338, "ln_sigma": 0.6254, "ln_sigma_rock": 0.6286, "ln_sigma_soil": 0.5868, "ln_bias": -0.2474, "ln_bias_sigma": 0.1598}, {"name": "mmi", "value": 5.8934, "value_rock": 5.5734, "value_soil": 6.1274, "units": "intensity", "tau": 0.5173, "phi": 1.0464, "sigma": 1.1673, "sigma_rock": 1.1888, "sigma_soil": 1.0818, "bias": -0.0254, "bias_sigma": 0.3057}], "mmi_from_pgm": [{"name": "pga", "value": 4.77, "sigma": 0.66, "flag": "0"}, {"name": "pgv", "value": 5.32, "sigma": 0.63, "flag": "0"}], "distance_stddev": 0.0, "distances": {"repi": 19.34, "rhypo": 23.876, "rjb": 20.001, "rjb_var": 0.0, "rrup": 20.001, "rrup_var": 0.0, "rx": -19.787, "ry0": 2.994, "rvolc": 0.0}}, "geometry": {"type": "Point", "coordinates": [56.91, 30.6]}}, {"type": "Feature", "id": "G.Mehriz", "properties": {"code": "Mehriz", "name": "Mehriz", "instrumentType": "UNK", "source": "G", "network": "G", "commType": "UNK", "location": "", "intensity": 3.9, "intensity_flag": "", "intensity_stddev": 0.63, "pga": 2.1687, "pgv": 1.7577, "distance": 230.848, "elev": null, "vs30": 313.02, "channels": [{"name": "UNK", "amplitudes": [{"name": "pga", "value": 2.1687, "units": "%g", "flag": "0", "ln_sigma": 0.0}, {"name": "pgv", "value": 1.7577, "units": "cm/s", "flag": "0", "ln_sigma": 0.0}]}], "station_type": "seismic", "nresp": "null", "predictions": [{"name": "pga", "value": 0.5424, "value_rock": 0.3601, "value_soil": 0.6948, "units": "%g", "ln_tau": 0.3337, "ln_phi": 0.5344, "ln_sigma": 0.63, "ln_sigma_rock": 0.6331, "ln_sigma_soil": 0.6161, "ln_bias": -0.155, "ln_bias_sigma": 0.153}, {"name": "pgv", "value": 1.0188, "value_rock": 0.5355, "value_soil": 1.5173, "units": "cm/s", "ln_tau": 0.3263, "ln_phi": 0.5502, "ln_sigma": 0.6397, "ln_sigma_rock": 0.6423, "ln_sigma_soil": 0.6236, "ln_bias": -0.2476, "ln_bias_sigma": 0.1599}, {"name": "mmi", "value": 3.3179, "value_rock": 3.0421, "value_soil": 3.4846, "units": "intensity", "tau": 0.2246, "phi": 0.7517, "sigma": 0.7845, "sigma_rock": 0.7856, "sigma_soil": 0.7795, "bias": -0.0102, "bias_sigma": 