{"type": "FeatureCollection", "features": [{"type": "Feature", "id": "INTENSITY.OBS_22", "properties": {"code": "OBS_22", "name": "Chieuti", "instrumentType": "OBSERVED", "source": "INTENSITY", "network": "INTENSITY", "commType": "UNK", "location": "", "intensity": 5.5, "intensity_flag": "0", "intensity_stddev": 0.3, "pga": 11.0727, "pgv": 7.5373, "distance": 28.253, "elev": null, "vs30": 471.38, "channels": [], "nresp": -1, "station_type": "macroseismic", "predictions": [{"name": "mmi", "value": 4.707, "value_rock": 4.3287, "value_soil": 5.5389, "units": "intensity", "tau": 0.5397, "phi": 1.0399, "sigma": 1.1716, "sigma_rock": 0.7826, "sigma_soil": 1.1725, "bias": 0.1877, "bias_sigma": 0.3099}, {"name": "pga", "value": 7.2777, "value_rock": 6.0469, "value_soil": 8.9348, "units": "%g", "ln_tau": 0.4035, "ln_phi": 0.593, "ln_sigma": 0.7173, "ln_sigma_rock": 0.723, "ln_sigma_soil": 0.7104, "ln_bias": 0.0422, "ln_bias_sigma": 0.2162}, {"name": "sa(0.3)", "value": 12.7858, "value_rock": 8.8333, "value_soil": 20.6064, "units": "%g", "ln_tau": 0.3885, "ln_phi": 0.6634, "ln_sigma": 0.7688, "ln_sigma_rock": 0.7751, "ln_sigma_soil": 0.7598, "ln_bias": 0.1683, "ln_bias_sigma": 0.2328}, {"name": "sa(1.0)", "value": 3.7404, "value_rock": 2.375, "value_soil": 8.5611, "units": "%g", "ln_tau": 0.4314, "ln_phi": 0.6761, "ln_sigma": 0.802, "ln_sigma_rock": 0.8106, "ln_sigma_soil": 0.8061, "ln_bias": 0.1646, "ln_bias_sigma": 0.2574}, {"name": "sa(3.0)", "value": 0.7439, "value_rock": 0.5102, "value_soil": 1.5744, "units": "%g", "ln_tau": 0.439, "ln_phi": 0.659, "ln_sigma": 0.7918, "ln_sigma_rock": 0.8009, "ln_sigma_soil": 0.801, "ln_bias": 0.2134, "ln_bias_sigma": 0.2793}, {"name": "pgv", "value": 4.2293, "value_rock": 3.0443, "value_soil": 7.7541, "units": "cm/s", "ln_tau": 0.3933, "ln_phi": 0.6029, "ln_sigma": 0.7198, "ln_sigma_rock": 0.7272, "ln_sigma_soil": 0.7206, "ln_bias": 0.1005, "ln_bias_sigma": 0.2277}], "pgm_from_mmi": [{"name": "sa(0.3)", "value": 24.1309, "units": "%g", "ln_sigma": 1.0131, "flag": "0"}, {"name": "sa(1.0)", "value": 7.7328, "units": "%g", "ln_sigma": 1.0822, "flag": "0"}, {"name": "pga", "value": 11.0727, "units": "%g", "ln_sigma": 0.8059, "flag": "0"}, {"name": "pgv", "value": 7.5373, "units": "cm/s", "ln_sigma": 0.875, "flag": "0"}, {"name": "sa(3.0)", "value": 1.6839, "units": "%g", "ln_sigma": 1.4737, "flag": "0"}], "distance_stddev": 0.0, "distances": {"repi": 25.12, "rhypo": 27.037, "rjb": 26.994, "rjb_var": 0.0, "rrup": 28.253, "rrup_var": 0.0, "rx": 12.613, "ry0": 24.517, "rvolc": 0.0}}, "geometry": {"type": "Point", "coordinates": [15.166, 41.844]}}, {"type": "Feature", "id": "INTENSITY.OBS_26", "properties": {"code": "OBS_26", "name": "Macchia Valfortore", "instrumentType": "OBSERVED", "source": "INTENSITY", "network": "INTENSITY", "commType": "UNK", "location": "", "intensity": 5.5, "intensity_flag": "0", "intensity_stddev": 0.3, "pga": 12.7745, "pgv": 7.5373, "distance": 16.82, "elev": null, "vs30": 644.44, "channels": [], "nresp": -1, "station_type": "macroseismic", "predictions": [{"name": "mmi", "value": 5.2308, "value_rock": 5.0876, "value_soil": 6.3077, "units": "intensity", "tau": 0.5398, "phi": 1.04, "sigma": 1.1718, "sigma_rock": 1.1802, "sigma_soil": 1.1704, "bias": 0.1877, "bias_sigma": 0.3099}, {"name": "pga", "value": 12.0108, "value_rock": 11.3792, "value_soil": 15.6341, "units": "%g", "ln_tau": 0.4042, "ln_phi": 0.5936, "ln_sigma": 0.7181, "ln_sigma_rock": 0.7229, "ln_sigma_soil": 0.7052, "ln_bias": 0.0423, "ln_bias_sigma": 0.2163}, {"name": "sa(0.3)", "value": 18.5131, "value_rock": 16.6023, "value_soil": 34.7223, "units": "%g", "ln_tau": 0.3891, "ln_phi": 0.664, "ln_sigma": 0.7696, "ln_sigma_rock": 0.7751, "ln_sigma_soil": 0.7528, "ln_bias": 0.1685, "ln_bias_sigma": 0.2329}, {"name": "sa(1.0)", "value": 4.8635, "value_rock": 4.1964, "value_soil": 14.2348, "units": "%g", "ln_tau": 0.4315, "ln_phi": 0.6762, "ln_sigma": 0.8022, "ln_sigma_rock": 0.8106, "ln_sigma_soil": 0.8039, "ln_bias": 0.1646, "ln_bias_sigma": 0.2574}, {"name": "sa(3.0)", "value": 0.9555, "value_rock": 0.844, "value_soil": 2.5481, "units": "%g", "ln_tau": 0.439, "ln_phi": 0.659, "ln_sigma": 0.7918, "ln_sigma_rock": 0.8009, "ln_sigma_soil": 0.8009, "ln_bias": 0.2134, "ln_bias_sigma": 0.2793}, {"name": "pgv", "value": 6.1947, "value_rock": 5.5809, "value_soil": 13.5775, "units": "cm/s", "ln_tau": 0.3933, "ln_phi": 0.603, "ln_sigma": 0.7199, "ln_sigma_rock": 0.7272, "ln_sigma_soil": 0.7188, "ln_bias": 0.1005, "ln_bias_sigma": 0.2277}], "pgm_from_mmi": [{"name": "sa(0.3)", "value": 26.0144, "units": "%g", "ln_sigma": 1.0131, "flag": "0"}, {"name": "sa(1.0)", "value": 7.0841, "units": "%g", "ln_sigma": 1.0822, "flag": "0"}, {"name": "pga", "value": 12.7745, "units": "%g", "ln_sigma": 0.8059, "flag": "0"}, {"name": "pgv", "value": 7.5373, "units": "cm/s", "ln_sigma": 0.875, "flag": "0"}, {"name": "sa(3.0)", "value": 1.5264, "units": "%g", "ln_sigma": 1.4737, "flag": "0"}], "distance_stddev": 0.0, "distances": {"repi": 22.046, "rhypo": 24.208, "rjb": 15.721, "rjb_var": 0.0, "rrup": 16.82, "rrup_var": 0.0, "rx": -15.343, "ry0": 3.496, "rvolc": 0.0}}, "geometry": {"type": "Point", "coordinates": [14.912, 41.593]}}, {"type": "Feature", "id": "INTENSITY.OBS_31", "properties": {"code": "OBS_31", "name": "Campobasso", "instrumentType": "OBSERVED", "source": "INTENSITY", "network": "INTENSITY", "commType": "UNK", "location": "", "intensity": 5.0, "intensity_flag": "0", "intensity_stddev": 0.3, "pga": 8.4503, "pgv": 5.2359, "distance": 24.359, "elev": null, "vs30": 381.38, "channels": [], "nresp": -1, "station_type": "macroseismic", "predictions": [{"name": "mmi", "value": 5.1154, "value_rock": 4.4898, "value_soil": 5.7578, "units": "intensity", "tau": 0.5394, "phi": 1.0397, "sigma": 1.1713, "sigma_rock": 1.1802, "sigma_soil": 1.172, "bias": 0.1876, "bias_sigma": 0.3098}, {"name": "pga", "value": 9.2375, "value_rock": 7.2329, "value_soil": 10.5018, "units": "%g", "ln_tau": 0.4021, "ln_phi": 0.592, "ln_sigma": 0.7157, "ln_sigma_rock": 0.723, "ln_sigma_soil": 0.709, "ln_bias": 0.0421, "ln_bias_sigma": 0.216}, {"name": "sa(0.3)", "value": 17.2735, "value_rock": 10.5545, "value_soil": 23.9873, "units": "%g", "ln_tau": 0.3871, "ln_phi": 0.6621, "ln_sigma": 0.7669, "ln_sigma_rock": 0.7751, "ln_sigma_soil": 0.7579, "ln_bias": 0.1679, "ln_bias_sigma": 0.2325}, {"name": "sa(1.0)", "value": 5.2535, "value_rock": 2.7876, "value_soil": 9.9039, "units": "%g", "ln_tau": 0.4312, "ln_phi": 0.6759, "ln_sigma": 0.8018, "ln_sigma_rock": 0.8106, "ln_sigma_soil": 0.8055, "ln_bias": 0.1645, "ln_bias_sigma": 0.2574}, {"name": "sa(3.0)", "value": 1.0009, "value_rock": 0.5886, "value_soil": 1.8069, "units": "%g", "ln_tau": 0.439, "ln_phi": 0.659, "ln_sigma": 0.7918, "ln_sigma_rock": 0.8009, "ln_sigma_soil": 0.8009, "ln_bias": 0.2134, "ln_bias_sigma": 0.2793}, {"name": "pgv", "value": 5.6951, "value_rock": 3.6102, "value_soil": 9.0952, "units": "cm/s", "ln_tau": 0.393, "ln_phi": 0.6027, "ln_sigma": 0.7195, "ln_sigma_rock": 0.7272, "ln_sigma_soil": 0.7201, "ln_bias": 0.1004, "ln_bias_sigma": 0.2277}], "pgm_from_mmi": [{"name": "sa(0.3)", "value": 18.6696, "units": "%g", "ln_sigma": 1.0131, "flag": "0"}, {"name": "sa(1.0)", "value": 5.0704, "units": "%g", "ln_sigma": 1.0822, "flag": "0"}, {"name": "pga", "value": 8.4503, "units": "%g", "ln_sigma": 0.8059, "flag": "0"}, {"name": "pgv", "value": 5.2359, "units": "cm/s", "ln_sigma": 0.875, "flag": "0"}, {"name": "sa(3.0)", "value": 1.1169, "units": "%g", "ln_sigma": 1.4737, "flag": "0"}], "distance_stddev": 0.0, "distances": {"repi": 30.91, "rhypo": 32.487, "rjb": 23.62, "rjb_var": 0.0, "rrup": 24.359, "rrup_var": 0.0, "rx": -19.332, "ry0": 13.562, "rvolc": 0.0}}, "geometry": {"type": "Point", "coordinates": [14.667, 41.557]}}, {"type": "Feature", "id": "INTENSITY.OBS_5", "properties": {"code": "OBS_5", "name": "Ripabottoni", "instrumentType": "OBSERVED", "source": "INTENSITY", "network": "INTENSITY", "commType": "UNK", "location": "", "intensity": 7.0, "intensity_flag": "0", "intensity_stddev": 0.3, "pga": 37.4979, "pgv": 22.4853, "distance": 7.883, "elev": null, "vs30": 770.71, "channels": [], "nresp": -1, "station_type": "macroseismic", "predictions": [{"name": "mmi", "value": 6.1503, "value_rock": 6.1626, "value_soil": 7.2729, "units": "intensity", "tau": 0.5399, "phi": 1.0401, "sigma": 1.1718, "sigma_rock": 1.1802, "sigma_soil": 1.1675, "bias": 0.1877, "bias_sigma": 0.3099}, {"name": "pga", "value": 24.8931, "value_rock": 25.0114, "value_soil": 30.2903, "units": "%g", "ln_tau": 0.4045, "ln_phi": 0.5938, "ln_sigma": 0.7185, "ln_sigma_rock": 0.7227, "ln_sigma_soil": 0.6981, "ln_bias": 0.0423, "ln_bias_sigma": 0.2164}, {"name": "sa(0.3)", "value": 36.5897, "value_rock": 36.941, "value_soil": 63.6079, "units": "%g", "ln_tau": 0.3892, "ln_phi": 0.6641, "ln_sigma": 0.7697, "ln_sigma_rock": 0.775, "ln_sigma_soil": 0.7435, "ln_bias": 0.1686, "ln_bias_sigma": 0.2329}, {"name": "sa(1.0)", "value": 8.687, "value_rock": 8.798, "value_soil": 26.8685, "units": "%g", "ln_tau": 0.4315, "ln_phi": 0.6762, "ln_sigma": 0.8022, "ln_sigma_rock": 0.8106, "ln_sigma_soil": 0.8003, "ln_bias": 0.1646, "ln_bias_sigma": 0.2574}, {"name": "sa(3.0)", "value": 1.5684, "value_rock": 1.5851, "value_soil": 4.6212, "units": "%g", "ln_tau": 0.439, "ln_phi": 0.659, "ln_sigma": 0.7918, "ln_sigma_rock": 0.8009, "ln_sigma_soil": 0.8008, "ln_bias": 0.2134, "ln_bias_sigma": 0.2793}, {"name": "pgv", "value": 12.1063, "value_rock": 12.2156, "value_soil": 27.4313, "units": "cm/s", "ln_tau": 0.3934, "ln_phi": 0.603, "ln_sigma": 0.72, "ln_sigma_rock": 0.7272, "ln_sigma_soil": 0.7163, "ln_bias": 0.1005, "ln_bias_sigma": 0.2277}], "pgm_from_mmi": [{"name": "sa(0.3)", "value": 64.6046, "units": "%g", "ln_sigma": 1.0131, "flag": "0"}, {"name": "sa(1.0)", "value": 21.3484, "units": "%g", "ln_sigma": 1.0822, "flag": "0"}, {"name": "pga", "value": 37.4979, "units": "%g", "ln_sigma": 0.8059, "flag": "0"}, {"name": "pgv", "value": 22.4853, "units": "cm/s", "ln_sigma": 0.875, "flag": "0"}, {"name": "sa(3.0)", "value": 4.3574, "units": "%g", "ln_sigma": 1.4737, "flag": "0"}], "distance_stddev": 0.0, "distances": {"repi": 12.423, "rhypo": 15.948, "rjb": 5.115, "rjb_var": 0.0, "rrup": 7.883, "rrup_var": 0.0, "rx": -4.781, "ry0": 1.822, "rvolc": 0.0}}, "geometry": {"type": "Point", "coordinates": [14.808, 41.688]}}, {"type": "Feature", "id": "INTENSITY.OBS_37", "properties": {"code": "OBS_37", "name": "Motta Montecorvino", "instrumentType": "OBSERVED", "source": "INTENSITY", "network": "INTENSITY", "commType": "UNK", "location": "", "intensity": 5.0, "intensity_flag": "0", "intensity_stddev": 0.3, "pga": 7.7954, "pgv": 5.2359, "distance": 32.64, "elev": null, "vs30": 560.13, "channels": [], "nresp": -1, "station_type": "macroseismic", "predictions": [{"name": "mmi", "value": 4.3515, "value_rock": 4.2103, "value_soil": 5.3019, "units": "intensity", "tau": 0.2511, "phi": 0.7383, "sigma": 0.7798, "sigma_rock": 0.7826, "sigma_soil": 1.173, "bias": 0.0856, "bias_sigma": 0.2092}, {"name": "pga", "value": 5.6408, "value_rock": 4.9459, "value_soil": 7.454, "units": "%g", "ln_tau": 0.4042, "ln_phi": 0.5936, "ln_sigma": 0.7181, "ln_sigma_rock": 0.723, "ln_sigma_soil": 0.7118, "ln_bias": 0.0423, "ln_bias_sigma": 0.2163}, {"name": "sa(0.3)", "value": 9.4275, "value_rock": 7.2682, "value_soil": 17.4665, "units": "%g", "ln_tau": 0.3891, "ln_phi": 0.6639, "ln_sigma": 0.7695, "ln_sigma_rock": 0.7752, "ln_sigma_soil": 0.7616, "ln_bias": 0.1685, "ln_bias_sigma": 0.2329}, {"name": "sa(1.0)", "value": 2.7018, "value_rock": 1.9982, "value_soil": 7.3268, "units": "%g", "ln_tau": 0.4315, "ln_phi": 0.6762, "ln_sigma": 0.8021, "ln_sigma_rock": 0.8106, "ln_sigma_soil": 0.8066, "ln_bias": 0.1646, "ln_bias_sigma": 0.2574}, {"name": "sa(3.0)", "value": 0.5575, "value_rock": 0.4352, "value_soil": 1.3515, "units": "%g", "ln_tau": 0.439, "ln_phi": 0.659, "ln_sigma": 0.7918, "ln_sigma_rock": 0.8009, "ln_sigma_soil": 0.801, "ln_bias": 0.2134, "ln_bias_sigma": 0.2793}, {"name": "pgv", "value": 3.1549, "value_rock": 2.529, "value_soil": 6.5242, "units": "cm/s", "ln_tau": 0.3933, "ln_phi": 0.603, "ln_sigma": 0.7199, "ln_sigma_rock": 0.7272, "ln_sigma_soil": 0.721, "ln_bias": 0.1005, "ln_bias_sigma": 0.2277}], "pgm_from_mmi": [{"name": "sa(0.3)", "value": 17.8943, "units": "%g", "ln_sigma": 1.0131, "flag": "0"}, {"name": "sa(1.0)", "value": 5.3274, "units": "%g", "ln_sigma": 1.0822, "flag": "0"}, {"name": "pga", "value": 7.7954, "units": "%g", "ln_sigma": 0.8059, "flag": "0"}, {"name": "pgv", "value": 5.2359, "units": "cm/s", "ln_sigma": 0.875, "flag": "0"}, {"name": "sa(3.0)", "value": 1.1805, "units": "%g", "ln_sigma": 1.4737, "flag": "0"}], "distance_stddev": 0.0, "distances": {"repi": 37.202, "rhypo": 38.522, "rjb": 32.099, "rjb_var": 0.0, "rrup": 32.64, "rrup_var": 0.0, "rx": -24.763, "ry0": 20.407, "rvolc": 0.0}}, "geometry": {"type": "Point", "coordinates": [15.115, 41.508]}}, {"type": "Feature", "id": "INTENSITY.OBS_46", "properties": {"code": "OBS_46", "name": "Torremaggiore", "instrumentType": "OBSERVED", "source": "INTENSITY", "network": "INTENSITY", "commType": "UNK", "location": "", "intensity": 5.0, "intensity_flag": "0", "intensity_stddev": 0.3, "pga": 7.5924, "pgv": 5.2359, "distance": 35.918, "elev": null, "vs30": 301.44, "channels": [], "nresp": -1, "station_type": "macroseismic", "predictions": [{"name": "mmi", "value": 4.668, "value_rock": 4.1366, "value_soil": 5.1529, "units": "intensity", "tau": 0.539, "phi": 1.0394, "sigma": 1.1708, "sigma_rock": 0.7826, "sigma_soil": 1.1733, "bias": 0.1875, "bias_sigma": 0.3097}, {"name": "pga", "value": 6.0138, "value_rock": 4.36, "value_soil": 6.6423, "units": "%g", "ln_tau": 0.4019, "ln_phi": 0.5918, "ln_sigma": 0.7154, "ln_sigma_rock": 0.7231, "ln_sigma_soil": 0.7126, "ln_bias": 0.0421, "ln_bias_sigma": 0.216}, {"name": "sa(0.3)", "value": 12.2597, "value_rock": 6.4432, "value_soil": 15.7357, "units": "%g", "ln_tau": 0.3864, "ln_phi": 0.6615, "ln_sigma": 0.766, "ln_sigma_rock": 0.7752, "ln_sigma_soil": 0.7626, "ln_bias": 0.1677, "ln_bias_sigma": 0.2323}, {"name": "sa(1.0)", "value": 4.1514, "value_rock": 1.7942, "value_soil": 6.6397, "units": "%g", "ln_tau": 0.4309, "ln_phi": 0.6757, "ln_sigma": 0.8014, "ln_sigma_rock": 0.8106, "ln_sigma_soil": 0.8069, "ln_bias": 0.1645, "ln_bias_sigma": 0.2573}, {"name": "sa(3.0)", "value": 0.7949, "value_rock": 0.393, "value_soil": 1.2247, "units": "%g", "ln_tau": 0.439, "ln_phi": 0.659, "ln_sigma": 0.7918, "ln_sigma_rock": 0.801, "ln_sigma_soil": 0.801, "ln_bias": 0.2134, "ln_bias_sigma": 0.2793}, {"name": "pgv", "value": 4.1107, "value_rock": 2.2532, "value_soil": 5.8527, "units": "cm/s", "ln_tau": 0.3927, "ln_phi": 0.6024, "ln_sigma": 0.7191, "ln_sigma_rock": 0.7272, "ln_sigma_soil": 0.7213, "ln_bias": 0.1004, "ln_bias_sigma": 0.2276}], "pgm_from_mmi": [{"name": "sa(0.3)", "value": 17.6479, "units": "%g", "ln_sigma": 1.0131, "flag": "0"}, {"name": "sa(1.0)", "value": 5.4143, "units": "%g", "ln_sigma": 1.0822, "flag": "0"}, {"name": "pga", "value": 7.5924, "units": "%g", "ln_sigma": 0.8059, "flag": "0"}, {"name": "pgv", "value": 5.2359, "units": "cm/s", "ln_sigma": 0.875, "flag": "0"}, {"name": "sa(3.0)", "value": 1.2021, "units": "%g", "ln_sigma": 1.4737, "flag": "0"}], "distance_stddev": 0.0, "distances": {"repi": 36.579, "rhypo": 37.921, "rjb": 35.43, "rjb_var": 0.0, "rrup": 35.918, "rrup_var": 0.0, "rx": -4.576, "ry0": 35.042, "rvolc": 0.0}}, "geometry": {"type": "Point", "coordinates": [15.292, 41.689]}}, {"type": "Feature", "id": "INTENSITY.OBS_13", "properties": {"code": "OBS_13", "name": "Rotello", "instrumentType": "OBSERVED", "source": "INTENSITY", "network": "INTENSITY", "commType": "UNK", "location": "", "intensity": 6.0, "intensity_flag": "0", "intensity_stddev": 0.3, "pga": 18.7964, "pgv": 10.8503, "distance": 12.811, "elev": null, "vs30": 418.33, "channels": [], "nresp": -1, "station_type": "macroseismic", "predictions": [{"name": "mmi", "value": 6.0434, "value_rock": 5.5079, "value_soil": 6.688, "units": "intensity", "tau": 0.5394, "phi": 1.0397, "sigma": 1.1713, "sigma_rock": 1.1802, "sigma_soil": 1.1693, "bias": 0.1876, "bias_sigma": 0.3098}, {"name": "pga", "value": 18.9706, "value_rock": 15.5602, "value_soil": 20.4164, "units": "%g", "ln_tau": 0.401, "ln_phi": 0.5911, "ln_sigma": 0.7143, "ln_sigma_rock": 0.7228, "ln_sigma_soil": 0.7023, "ln_bias": 0.0421, "ln_bias_sigma": 0.2158}, {"name": "sa(0.3)", "value": 34.3324, "value_rock": 22.7626, "value_soil": 44.3849, "units": "%g", "ln_tau": 0.3867, "ln_phi": 0.6616, "ln_sigma": 0.7664, "ln_sigma_rock": 0.7751, "ln_sigma_soil": 0.7491, "ln_bias": 0.1678, "ln_bias_sigma": 0.2324}, {"name": "sa(1.0)", "value": 9.6218, "value_rock": 5.599, "value_soil": 18.2748, "units": "%g", "ln_tau": 0.4312, "ln_phi": 0.6759, "ln_sigma": 0.8017, "ln_sigma_rock": 0.8106, "ln_sigma_soil": 0.8026, "ln_bias": 0.1645, "ln_bias_sigma": 0.2574}, {"name": "sa(3.0)", "value": 1.712, "value_rock": 1.0831, "value_soil": 3.2266, "units": "%g", "ln_tau": 0.4389, "ln_phi": 0.6589, "ln_sigma": 0.7917, "ln_sigma_rock": 0.8009, "ln_sigma_soil": 0.8009, "ln_bias": 0.2134, "ln_bias_sigma": 0.2793}, {"name": "pgv", "value": 11.1993, "value_rock": 7.5806, "value_soil": 17.9124, "units": "cm/s", "ln_tau": 0.393, "ln_phi": 0.6027, "ln_sigma": 0.7195, "ln_sigma_rock": 0.7272, "ln_sigma_soil": 0.7178, "ln_bias": 0.1004, "ln_bias_sigma": 0.2277}], "pgm_from_mmi": [{"name": "sa(0.3)", "value": 35.7374, "units": "%g", "ln_sigma": 1.0131, "flag": "0"}, {"name": "sa(1.0)", "value": 10.0628, "units": "%g", "ln_sigma": 1.0822, "flag": "0"}, {"name": "pga", "value": 18.7964, "units": "%g", "ln_sigma": 0.8059, "flag": "0"}, {"name": "pgv", "value": 10.8503, "units": "cm/s", "ln_sigma": 0.875, "flag": "0"}, {"name": "sa(3.0)", "value": 2.1251, "units": "%g", "ln_sigma": 1.4737, "flag": "0"}], "distance_stddev": 0.0, "distances": {"repi": 11.816, "rhypo": 15.48, "rjb": 11.16, "rjb_var": 0.0, "rrup": 12.811, "rrup_var": 0.0, "rx": 2.013, "ry0": 11.116, "rvolc": 0.0}}, "geometry": {"type": "Point", "coordinates": [15.004, 41.749]}}, {"type": "Feature", "id": "INTENSITY.OBS_24", "properties": {"code": "OBS_24", "name": "Lucito", "instrumentType": "OBSERVED", "source": "INTENSITY", "network": "INTENSITY", "commType": "UNK", "location": "", "intensity": 5.5, "intensity_flag": "0", "intensity_stddev": 0.3, "pga": 13.6442, "pgv": 7.5373, "distance": 13.246, "elev": null, "vs30": 770.22, "channels": [], "nresp": -1, "station_type": "macroseismic", "predictions": [{"name": "mmi", "value": 5.4401, "value_rock": 5.4518, "value_soil": 6.6381, "units": "intensity", "tau": 0.5399, "phi": 1.0401, "sigma": 1.1718, "sigma_rock": 1.1802, "sigma_soil": 1.1694, "bias": 0.1877, "bias_sigma": 0.3099}, {"name": "pga", "value": 14.8488, "value_rock": 14.9169, "value_soil": 19.7095, "units": "%g", "ln_tau": 0.4046, "ln_phi": 0.5939, "ln_sigma": 0.7186, "ln_sigma_rock": 0.7228, "ln_sigma_soil": 0.7027, "ln_bias": 0.0423, "ln_bias_sigma": 0.2164}, {"name": "sa(0.3)", "value": 21.6179, "value_rock": 21.8162, "value_soil": 42.9977, "units": "%g", "ln_tau": 0.3893, "ln_phi": 0.6641, "ln_sigma": 0.7698, "ln_sigma_rock": 0.7751, "ln_sigma_soil": 0.7495, "ln_bias": 0.1686, "ln_bias_sigma": 0.2329}, {"name": "sa(1.0)", "value": 5.3239, "value_rock": 5.3888, "value_soil": 17.6945, "units": "%g", "ln_tau": 0.4315, "ln_phi": 0.6762, "ln_sigma": 0.8022, "ln_sigma_rock": 0.8106, "ln_sigma_soil": 0.8028, "ln_bias": 0.1646, "ln_bias_sigma": 0.2574}, {"name": "sa(3.0)", "value": 1.0375, "value_rock": 1.0481, "value_soil": 3.1288, "units": "%g", "ln_tau": 0.439, "ln_phi": 0.659, "ln_sigma": 0.7918, "ln_sigma_rock": 0.8009, "ln_sigma_soil": 0.8009, "ln_bias": 0.2134, "ln_bias_sigma": 0.2793}, {"name": "pgv", "value": 7.2153, "value_rock": 7.2774, "value_soil": 17.2737, "units": "cm/s", "ln_tau": 0.3934, "ln_phi": 0.603, "ln_sigma": 0.72, "ln_sigma_rock": 0.7272, "ln_sigma_soil": 0.7179, "ln_bias": 0.1005, "ln_bias_sigma": 0.2277