{"type": "FeatureCollection", "features": [{"type": "Feature", "id": "CH.FUORN", "properties": {"code": "FUORN", "name": "Ofenpass, Switzerland", "instrumentType": "UNK", "source": "CH", "network": "CH", "commType": "UNK", "location": "", "intensity": 1.0, "intensity_flag": "", "intensity_stddev": 0.63, "pga": 0.0082, "pgv": 0.0218, "distance": 484.208, "elev": null, "vs30": 760.0, "channels": [{"name": "BHZ", "amplitudes": [{"name": "pga", "value": 0.0086, "units": "%g", "flag": "0", "ln_sigma": 0.0}, {"name": "pgv", "value": 0.0211, "units": "cm/s", "flag": "0", "ln_sigma": 0.0}, {"name": "sa(0.3)", "value": 0.0172, "units": "%g", "flag": "Outlier", "ln_sigma": 0.0}, {"name": "sa(1.0)", "value": 0.0216, "units": "%g", "flag": "0", "ln_sigma": 0.0}, {"name": "sa(3.0)", "value": 0.0136, "units": "%g", "flag": "0", "ln_sigma": 0.0}]}, {"name": "BHN", "amplitudes": [{"name": "pga", "value": 0.0082, "units": "%g", "flag": "0", "ln_sigma": 0.0}, {"name": "pgv", "value": 0.0191, "units": "cm/s", "flag": "0", "ln_sigma": 0.0}, {"name": "sa(0.3)", "value": 0.0138, "units": "%g", "flag": "Outlier", "ln_sigma": 0.0}, {"name": "sa(1.0)", "value": 0.0272, "units": "%g", "flag": "0", "ln_sigma": 0.0}, {"name": "sa(3.0)", "value": 0.0124, "units": "%g", "flag": "0", "ln_sigma": 0.0}]}, {"name": "BHE", "amplitudes": [{"name": "pga", "value": 0.0066, "units": "%g", "flag": "0", "ln_sigma": 0.0}, {"name": "pgv", "value": 0.0218, "units": "cm/s", "flag": "0", "ln_sigma": 0.0}, {"name": "sa(0.3)", "value": 0.0126, "units": "%g", "flag": "Outlier", "ln_sigma": 0.0}, {"name": "sa(1.0)", "value": 0.0239, "units": "%g", "flag": "0", "ln_sigma": 0.0}, {"name": "sa(3.0)", "value": 0.0127, "units": "%g", "flag": "0", "ln_sigma": 0.0}]}], "station_type": "seismic", "nresp": "null", "predictions": [{"name": "sa(3.0)", "value": 0.04, "value_rock": 0.04, "value_soil": 0.1288, "units": "%g", "ln_tau": 0.44, "ln_phi": 0.6686, "ln_sigma": 0.8004, "ln_sigma_rock": 0.8038, "ln_sigma_soil": 0.8039, "ln_bias": 0.3788, "ln_bias_sigma": 0.123}, {"name": "pga", "value": 0.0694, "value_rock": 0.0694, "value_soil": 0.117, "units": "%g", "ln_tau": 0.402, "ln_phi": 0.5967, "ln_sigma": 0.7195, "ln_sigma_rock": 0.7218, "ln_sigma_soil": 0.7191, "ln_bias": -0.3255, "ln_bias_sigma": 0.0996}, {"name": "sa(0.3)", "value": 0.1542, "value_rock": 0.1542, "value_soil": 0.4383, "units": "%g", "ln_tau": 0.3878, "ln_phi": 0.6708, "ln_sigma": 0.7748, "ln_sigma_rock": 0.7761, "ln_sigma_soil": 0.7741, "ln_bias": -0.3119, "ln_bias_sigma": 0.1084}, {"name": "pgv", "value": 0.1141, "value_rock": 0.1141, "value_soil": 0.3165, "units": "cm/s", "ln_tau": 0.3928, "ln_phi": 0.6068, "ln_sigma": 0.7228, "ln_sigma_rock": 0.7276, "ln_sigma_soil": 0.724, "ln_bias": 0.0257, "ln_bias_sigma": 0.1062}, {"name": "sa(1.0)", "value": 0.1352, "value_rock": 0.1352, "value_soil": 0.5461, "units": "%g", "ln_tau": 0.4318, "ln_phi": 0.6846, "ln_sigma": 0.8095, "ln_sigma_rock": 0.8121, "ln_sigma_soil": 0.8111, "ln_bias": -0.0591, "ln_bias_sigma": 0.119}, {"name": "mmi", "value": 2.1784, "value_rock": 2.1784, "value_soil": 2.8296, "units": "intensity", "tau": 0.2508, "phi": 0.7396, "sigma": 0.7809, "sigma_rock": 0.7827, "sigma_soil": 0.7814, "bias": -0.0329, "bias_sigma": 0.119}], "mmi_from_pgm": [{"name": "sa(3.0)", "value": 1.95, "sigma": 0.89, "flag": "0"}, {"name": "pga", "value": 1.0, "sigma": 0.66, "flag": "0"}, {"name": "sa(0.3)", "value": 1.0, "sigma": 0.82, "flag": "Outlier"}, {"name": "pgv", "value": 1.0, "sigma": 0.63, "flag": "0"}, {"name": "sa(1.0)", "value": 1.0, "sigma": 0.75, "flag": "0"}], "distance_stddev": 5.049, "distances": {"repi": 491.096, "rhypo": 491.115, "rjb": 484.689, "rjb_var": 24.758, "rrup": 484.208, "rrup_var": 25.495, "rx": 0.0, "ry0": 0.0, "rvolc": 0.0}}, "geometry": {"type": "Point", "coordinates": [10.26352, 46.62022]}}, {"type": "Feature", "id": "IT.0CAN", "properties": {"code": "0CAN", "name": "Cantiano Temporanea", "instrumentType": "UNK", "source": "IT", "network": "IT", "commType": "UNK", "location": "", "intensity": 3.4, "intensity_flag": "", "intensity_stddev": 0.63, "pga": 1.1528, "pgv": 0.7425, "distance": 89.064, "elev": null, "vs30": 657.32, "channels": [{"name": "HGN", "amplitudes": [{"name": "pga", "value": 1.1148, "units": "%g", "flag": "0", "ln_sigma": 0.0}, {"name": "pgv", "value": 0.7425, "units": "cm/s", "flag": "0", "ln_sigma": 0.0}, {"name": "sa(0.3)", "value": 3.6692, "units": "%g", "flag": "0", "ln_sigma": 0.0}, {"name": "sa(1.0)", "value": 0.6804, "units": "%g", "flag": "0", "ln_sigma": 0.0}, {"name": "sa(3.0)", "value": 0.4094, "units": "%g", "flag": "0", "ln_sigma": 0.0}]}, {"name": "HGE", "amplitudes": [{"name": "pga", "value": 1.1528, "units": "%g", "flag": "0", "ln_sigma": 0.0}, {"name": "pgv", "value": 0.608, "units": "cm/s", "flag": "0", "ln_sigma": 0.0}, {"name": "sa(0.3)", "value": 3.3397, "units": "%g", "flag": "0", "ln_sigma": 0.0}, {"name": "sa(1.0)", "value": 0.6773, "units": "%g", "flag": "0", "ln_sigma": 0.0}, {"name": "sa(3.0)", "value": 0.2205, "units": "%g", "flag": "0", "ln_sigma": 0.0}]}, {"name": "HGZ", "amplitudes": [{"name": "pga", "value": 0.805, "units": "%g", "flag": "0", "ln_sigma": 0.0}, {"name": "pgv", "value": 0.7709, "units": "cm/s", "flag": "0", "ln_sigma": 0.0}, {"name": "sa(0.3)", "value": 2.1003, "units": "%g", "flag": "0", "ln_sigma": 0.0}, {"name": "sa(1.0)", "value": 0.7949, "units": "%g", "flag": "0", "ln_sigma": 0.0}, {"name": "sa(3.0)", "value": 0.5035, "units": "%g", "flag": "0", "ln_sigma": 0.0}]}], "station_type": "seismic", "nresp": "null", "predictions": [{"name": "sa(3.0)", "value": 0.2863, "value_rock": 0.2564, "value_soil": 0.8145, "units": "%g", "ln_tau": 0.44, "ln_phi": 0.6673, "ln_sigma": 0.7993, "ln_sigma_rock": 0.8023, "ln_sigma_soil": 0.8024, "ln_bias": 0.3788, "ln_bias_sigma": 0.123}, {"name": "pga", "value": 1.6766, "value_rock": 1.5941, "value_soil": 2.5867, "units": "%g", "ln_tau": 0.402, "ln_phi": 0.5974, "ln_sigma": 0.72, "ln_sigma_rock": 0.7222, "ln_sigma_soil": 0.7172, "ln_bias": -0.3255, "ln_bias_sigma": 0.0996}, {"name": "sa(0.3)", "value": 3.0276, "value_rock": 2.7416, "value_soil": 7.3501, "units": "%g", "ln_tau": 0.3878, "ln_phi": 0.6683, "ln_sigma": 0.7727, "ln_sigma_rock": 0.7734, "ln_sigma_soil": 0.7682, "ln_bias": -0.3119, "ln_bias_sigma": 0.1084}, {"name": "pgv", "value": 1.0683, "value_rock": 0.9733, "value_soil": 2.6304, "units": "cm/s", "ln_tau": 0.3928, "ln_phi": 0.6068, "ln_sigma": 0.7228, "ln_sigma_rock": 0.7274, "ln_sigma_soil": 0.7228, "ln_bias": 0.0257, "ln_bias_sigma": 0.1062}, {"name": "sa(1.0)", "value": 1.1811, "value_rock": 1.0355, "value_soil": 4.0395, "units": "%g", "ln_tau": 0.4318, "ln_phi": 0.6828, "ln_sigma": 0.8079, "ln_sigma_rock": 0.8102, "ln_sigma_soil": 0.808, "ln_bias": -0.0591, "ln_bias_sigma": 0.119}, {"name": "mmi", "value": 3.6062, "value_rock": 3.5467, "value_soil": 4.1814, "units": "intensity", "tau": 0.2508, "phi": 0.7396, "sigma": 0.7809, "sigma_rock": 0.7826, "sigma_soil": 0.7809, "bias": -0.0329, "bias_sigma": 0.119}], "mmi_from_pgm": [{"name": "sa(3.0)", "value": 4.01, "sigma": 0.89, "flag": "0"}, {"name": "pga", "value": 3.44, "sigma": 0.66, "flag": "0"}, {"name": "sa(0.3)", "value": 4.01, "sigma": 0.82, "flag": "0"}, {"name": "pgv", "value": 3.37, "sigma": 0.63, "flag": "0"}, {"name": "sa(1.0)", "value": 3.26, "sigma": 0.75, "flag": "0"}], "distance_stddev": 5.476, "distances": {"repi": 94.797, "rhypo": 94.899, "rjb": 88.566, "rjb_var": 24.157, "rrup": 89.064, "rrup_var": 29.985, "rx": 0.0, "ry0": 0.0, "rvolc": 0.0}}, "geometry": {"type": "Point", "coordinates": [12.6308, 43.4723]}}, {"type": "Feature", "id": "IT.ANB", "properties": {"code": "ANB", "name": "Ancona2", "instrumentType": "UNK", "source": "IT", "network": "IT", "commType": "UNK", "location": "", "intensity": 4.1, "intensity_flag": "", "intensity_stddev": 0.63, "pga": 2.7469, "pgv": 2.4464, "distance": 94.265, "elev": null, "vs30": 486.01, "channels": [{"name": "HGN", "amplitudes": [{"name": "pga", "value": 2.3572, "units": "%g", "flag": "0", "ln_sigma": 0.0}, {"name": "pgv", "value": 2.1657, "units": "cm/s", "flag": "0", "ln_sigma": 0.0}, {"name": "sa(0.3)", "value": 8.6298, "units": "%g", "flag": "0", "ln_sigma": 0.0}, {"name": "sa(1.0)", "value": 2.345, "units": "%g", "flag": "0", "ln_sigma": 0.0}, {"name": "sa(3.0)", "value": 0.5656, "units": "%g", "flag": "0", "ln_sigma": 0.0}]}, {"name": "HGE", "amplitudes": [{"name": "pga", "value": 2.7469, "units": "%g", "flag": "0", "ln_sigma": 0.0}, {"name": "pgv", "value": 2.4464, "units": "cm/s", "flag": "0", "ln_sigma": 0.0}, {"name": "sa(0.3)", "value": 6.2556, "units": "%g", "flag": "0", "ln_sigma": 0.0}, {"name": "sa(1.0)", "value": 2.2494, "units": "%g", "flag": "0", "ln_sigma": 0.0}, {"name": "sa(3.0)", "value": 0.7687, "units": "%g", "flag": "0", "ln_sigma": 0.0}]}, {"name": "HGZ", "amplitudes": [{"name": "pga", "value": 1.1735, "units": "%g", "flag": "0", "ln_sigma": 0.0}, {"name": "pgv", "value": 0.8503, "units": "cm/s", "flag": "0", "ln_sigma": 0.0}, {"name": "sa(0.3)", "value": 2.947, "units": "%g", "flag": "0", "ln_sigma": 0.0}, {"name": "sa(1.0)", "value": 0.9661, "units": "%g", "flag": "0", "ln_sigma": 0.0}, {"name": "sa(3.0)", "value": 0.2948, "units": "%g", "flag": "0", "ln_sigma": 0.0}]}], "station_type": "seismic", "nresp": "null", "predictions": [{"name": "sa(3.0)", "value": 0.3447, "value_rock": 0.2414, "value_soil": 0.7675, "units": "%g", "ln_tau": 0.44, "ln_phi": 0.6669, "ln_sigma": 0.799, "ln_sigma_rock": 0.802, "ln_sigma_soil": 0.8021, "ln_bias": 0.3788, "ln_bias_sigma": 0.123}, {"name": "pga", "value": 1.7606, "value_rock": 1.4655, "value_soil": 2.3851, "units": "%g", "ln_tau": 0.4018, "ln_phi": 0.5966, "ln_sigma": 0.7193, "ln_sigma_rock": 0.7217, "ln_sigma_soil": 0.717, "ln_bias": -0.3255, "ln_bias_sigma": 0.0996}, {"name": "sa(0.3)", "value": 3.6344, "value_rock": 2.5352, "value_soil": 6.827, "units": "%g", "ln_tau": 0.3877, "ln_phi": 0.6677, "ln_sigma": 0.7721, "ln_sigma_rock": 0.773, "ln_sigma_soil": 0.7682, "ln_bias": -0.3119, "ln_bias_sigma": 0.1084}, {"name": "pgv", "value": 1.2438, "value_rock": 0.9092, "value_soil": 2.4619, "units": "cm/s", "ln_tau": 0.3928, "ln_phi": 0.6063, "ln_sigma": 0.7224, "ln_sigma_rock": 0.727, "ln_sigma_soil": 0.7225, "ln_bias": 0.0257, "ln_bias_sigma": 0.1062}, {"name": "sa(1.0)", "value": 1.4972, "value_rock": 0.9719, "value_soil": 3.8012, "units": "%g", "ln_tau": 0.4318, "ln_phi": 0.6824, "ln_sigma": 0.8076, "ln_sigma_rock": 0.8099, "ln_sigma_soil": 0.8078, "ln_bias": -0.0591, "ln_bias_sigma": 0.119}, {"name": "mmi", "value": 3.7033, "value_rock": 3.5032, "value_soil": 4.1392, "units": "intensity", "tau": 0.2507, "phi": 0.7394, "sigma": 0.7808, "sigma_rock": 0.7825, "sigma_soil": 0.7808, "bias": -0.0329, "bias_sigma": 0.119}], "mmi_from_pgm": [{"name": "sa(3.0)", "value": 4.32, "sigma": 0.89, "flag": "0"}, {"name": "pga", "value": 4.05, "sigma": 0.66, "flag": "0"}, {"name": "sa(0.3)", "value": 4.65, "sigma": 0.82, "flag": "0"}, {"name": "pgv", "value": 4.14, "sigma": 0.63, "flag": "0"}, {"name": "sa(1.0)", "value": 4.06, "sigma": 0.75, "flag": "0"}], "distance_stddev": 5.447, "distances": {"repi": 100.069, "rhypo": 100.166, "rjb": 93.826, "rjb_var": 24.199, "rrup": 94.265, "rrup_var": 29.665, "rx": 0.0, "ry0": 0.0, "rvolc": 0.0}}, "geometry": {"type": "Point", "coordinates": [13.5074, 43.5922]}}, {"type": "Feature", "id": "IT.ATN", "properties": {"code": "ATN", "name": "Atina_cab_ENEL", "instrumentType": "UNK", "source": "IT", "network": "IT", "commType": "UNK", "location": "", "intensity": 3.2, "intensity_flag": "", "intensity_stddev": 0.63, "pga": 0.3761, "pgv": 0.603, "distance": 126.511, "elev": null, "vs30": 586.8, "channels": [{"name": "HGN", "amplitudes": [{"name": "pga", "value": 0.3761, "units": "%g", "flag": "0", "ln_sigma": 0.0}, {"name": "pgv", "value": 0.603, "units": "cm/s", "flag": "0", "ln_sigma": 0.0}, {"name": "sa(0.3)", "value": 0.6182, "units": "%g", "flag": "0", "ln_sigma": 0.0}, {"name": "sa(1.0)", "value": 0.5653, "units": "%g", "flag": "0", "ln_sigma": 0.0}, {"name": "sa(3.0)", "value": 0.2159, "units": "%g", "flag": "0", "ln_sigma": 0.0}]}, {"name": "HGE", "amplitudes": [{"name": "pga", "value": 0.3422, "units": "%g", "flag": "0", "ln_sigma": 0.0}, {"name": "pgv", "value": 0.4879, "units": "cm/s", "flag": "0", "ln_sigma": 0.0}, {"name": "sa(0.3)", "value": 0.6605, "units": "%g", "flag": "0", "ln_sigma": 0.0}, {"name": "sa(1.0)", "value": 0.4507, "units": "%g", "flag": "0", "ln_sigma": 0.0}, {"name": "sa(3.0)", "value": 0.3016, "units": "%g", "flag": "0", "ln_sigma": 0.0}]}, {"name": "HGZ", "amplitudes": [{"name": "pga", "value": 0.2377, "units": "%g", "flag": "0", "ln_sigma": 0.0}, {"name": "pgv", "value": 0.5086, "units": "cm/s", "flag": "0", "ln_sigma": 0.0}, {"name": "sa(0.3)", "value": 0.3933, "units": "%g", "flag": "0", "ln_sigma": 0.0}, {"name": "sa(1.0)", "value": 0.5396, "units": "%g", "flag": "0", "ln_sigma": 0.0}, {"name": "sa(3.0)", "value": 0.3679, "units": "%g", "flag": "0", "ln_sigma": 0.0}]}], "station_type": "seismic", "nresp": "null", "predictions": [{"name": "sa(3.0)", "value": 0.218, "value_rock": 0.1761, "value_soil": 0.5625, "units": "%g", "ln_tau": 0.44, "ln_phi": 0.6657, "ln_sigma": 0.7979, "ln_sigma_rock": 0.801, "ln_sigma_soil": 0.8011, "ln_bias": 0.3788, "ln_bias_sigma": 0.123}, {"name": "pga", "value": 1.0521, "value_rock": 0.9341, "value_soil": 1.5396, "units": "%g", "ln_tau": 0.402, "ln_phi": 0.5953, "ln_sigma": 0.7183, "ln_sigma_rock": 0.7205, "ln_sigma_soil": 0.7168, "ln_bias": -0.3255, "ln_bias_sigma": 0.0996}, {"name": "sa(0.3)", "value": 2.1069, "value_rock": 1.6699, "value_soil": 4.5842, "units": "%g", "ln_tau": 0.3878, "ln_phi": 0.6675, "ln_sigma": 0.772, "ln_sigma_rock": 0.7729, "ln_sigma_soil": 0.7692, "ln_bias": -0.3119, "ln_bias_sigma": 0.1084}, {"name": "pgv", "value": 0.773, "value_rock": 0.6375, "value_soil": 1.7406, "units": "cm/s", "ln_tau": 0.3928, "ln_phi": 0.6054, "ln_sigma": 0.7217, "ln_sigma_rock": 0.7263, "ln_sigma_soil": 0.7222, "ln_bias": 0.0257, "ln_bias_sigma": 0.1062}, {"name": "sa(1.0)", "value": 0.9064, "value_rock": 0.6979, "value_soil": 2.7607, "units": "%g", "ln_tau": 0.4318, "ln_phi": 0.6817, "ln_sigma": 0.807, "ln_sigma_rock": 0.8093, "ln_sigma_soil": 0.8076, "ln_bias": -0.0591, "ln_bias_sigma": 0.119}, {"name": "mmi", "value": 3.3996, "value_rock": 3.2765, "value_soil": 3.9178, "units": "intensity", "tau": 0.2508, "phi": 0.7391, "sigma": 0.7805, "sigma_rock": 0.7822, "sigma_soil": 0.7807, "bias": -0.0329, "bias_sigma": 0.119}], "mmi_from_pgm": [{"name": "sa(3.0)", "value": 3.77, "sigma": 0.89, "flag": "0"}, {"name": "pga", "value": 2.84, "sigma": 0.66, "flag": "0"}, {"name": "sa(0.3)", "value": 2.84, "sigma": 0.82, "flag": "0"}, {"name": "pgv", "value": 3.24, "sigma": 0.63, "flag": "0"}, {"name": "sa(1.0)", "value": 3.07, "sigma": 0.75, "flag": "0"}], "distance_stddev": 5.321, "distances": {"repi": 132.628, "rhypo": 132.701, "rjb": 126.334, "rjb_var": 24.373, "rrup": 126.511, "rrup_var": 28.317, "rx": 0.0, "ry0": 0.0, "rvolc": 0.0}}, "geometry": {"type": "Point", "coordinates": [13.8012, 41.6203]}}, {"type": "Feature", "id": "IT.AVL", "properties": {"code": "AVL", "name": "Avellino", "instrumentType": "UNK", "source": "IT", "network": "IT", "commType": "UNK", "location": "", "intensity": 2.5, "intensity_flag": "", "intensity_stddev": 0.63, "pga": 0.0641, "pgv": 0.1949, "distance": 233.473, "elev": null, "vs30": 760.0, "channels": [{"name": "HGN", "amplitudes": [{"name": "pga", "value": 0.0641, "units": "%g", "flag": "0", "ln_sigma": 0.0}, {"name": "pgv", "value": 0.1949, "units": "cm/s", "flag": "0", "ln_sigma": 0.0}, {"name": "sa(0.3)", "value": 0.0679, "units": "%g", "flag": "0", "ln_sigma": 0.0}, {"name": "sa(1.0)", "value": 0.2062, "units": "%g", "flag": "0", "ln_sigma": 0.0}, {"name": "sa(3.0)", "value": 0.0993, "units": "%g", "flag": "0", "ln_sigma": 0.0}]}, {"name": "HGE", "amplitudes": [{"name": "pga", "value": 0.0609, "units": "%g", "flag": "0", "ln_sigma": 0.0}, {"name": "pgv", "value": 0.1675, "units": "cm/s", "flag": "0", "ln_sigma": 0.0}, {"name": "sa(0.3)", "value": 0.0747, "units": "%g", "flag": "0", "ln_sigma": 0.0}, {"name": "sa(1.0)", "value": 0.1251, "units": "%g", "flag": "0", "ln_sigma": 0.0}, {"name": "sa(3.0)", "value": 0.1004, "units": "%g", "flag": "0", "ln_sigma": 0.0}]}, {"name": "HGZ", "amplitudes": [{"name": "pga", "value": 0.0406, "units": "%g", "flag": "0", "ln_sigma": 0.0}, {"name": "pgv", "value": 0.2159, "units": "cm/s", "flag": "0", "ln_sigma": 0.0}, {"name": "sa(0.3)", "value": 0.0434, "units": "%g", "flag": "0", "ln_sigma": 0.0}, {"name": "sa(1.0)", "value": 0.0922, "units": "%g", "flag": "0", "ln_sigma": 0.0}, {"name": "sa(3.0)", "value": 0.1432, "units": "%g", "flag": "0", "ln_sigma": 0.0}]}], "station_type": "seismic", "nresp": "null", "predictions": [{"name": "sa(3.0)", "value": 0.0906, "value_rock": 0.0906, "value_soil": 0.291, "units": "%g", "ln_tau": 0.44, "ln_phi": 0.669, "ln_sigma": 0.8007, "ln_sigma_rock": 0.804, "ln_sigma_soil": 0.8041, "ln_bias": 0.3788, "ln_bias_sigma": 0.123}, {"name": "pga", "value": 0.3292, "value_rock": 0.3292, "value_soil": 0.551, "units": "%g", "ln_tau": 0.402, "ln_phi": 0.5967, "ln_sigma": 0.7195, "ln_sigma_rock": 0.7217, "ln_sigma_soil": 0.7188, "ln_bias": -0.3255, "ln_bias_sigma": 0.0996}, {"name": "sa(0.3)", "value": 0.6402, "value_rock": 0.6402, "value_soil": 1.7992, "units": "%g", "ln_tau": 0.3878, "ln_phi": 0.6703, "ln_sigma": 0.7744, "ln_sigma_rock": 0.7756, "ln_sigma_soil": 0.7732, "ln_bias": -0.3119, "ln_bias_sigma": 0.1084}, {"name": "pgv", "value": 0.2992, "value_rock": 0.2992, "value_soil": 0.8256, "units": "cm/s", "ln_tau": 0.3928, "ln_phi": 0.6066, "ln_sigma": 0.7227, "ln_sigma_rock": 0.7274, "ln_sigma_soil": 0.7236, "ln_bias": 0.0257, "ln_bias_sigma": 0.1062}, {"name": "sa(1.0)", "value": 0.3426, "value_rock": 0.3426, "value_soil": 1.3743, "units": "%g", "ln_tau": 0.4318, "ln_phi": 0.6841, "ln_sigma": 0.809, "ln_sigma_rock": 0.8116, "ln_sigma_soil": 0.8103, "ln_bias": -0.0591, "ln_bias_sigma": 0.119}, {"name": "mmi", "value": 2.7938, "value_rock": 2.7938, "value_soil": 3.4417, "units": "intensity", "tau": 0.2508, "phi": 0.7395, "sigma": 0.7809, "sigma_rock": 0.7827, "sigma_soil": 0.7812, "bias": -0.0329, "bias_sigma": 0.119}], "mmi_from_pgm": [{"name": "sa(3.0)", "value": 3.06, "sigma": 0.89, "flag": "0"}, {"name": "pga", "value": 1.74, "sigma": 0.66, "flag": "0"}, {"name": "sa(0.3)", "value": 1.26, "sigma": 0.82, "flag": "0"}, {"name": "pgv", "value": 2.52, "sigma": 0.63, "flag": "0"}, {"name": "sa(1.0)", "value": 2.27, "sigma": 0.75, "flag": "0"}], "distance_stddev": 5.152, "distances": {"repi": 240.055, "rhypo": 240.095, "rjb": 233.69, "rjb_var": 24.61, "rrup": 233.473, "rrup_var": 26.547, "rx": 0.0, "ry0": 0.0, "rvolc": 0.0}}, "geometry": {"type": "Point", "coordinates": [14.787, 40.9228]}}, {"type": "Feature", "id": "IT.BCN", "properties": {"code": "BCN", "name": "Buccino", "instrumentType": "UNK", "source": "IT", "network": "IT", "commType": "UNK", "location": "", "intensity": 1.9, "intensity_flag": "", "intensity_stddev": 0.63, "pga": 0.0265, "pgv": 0.0778, "distance": 288.509, "elev": null, "vs30": 760.0, "channels": [{"name": "HGN", "amplitudes": [{"name": "pga", "value": 0.0265, "units": "%g", "flag": "0", "ln_sigma": 0.0}, {"name": "pgv", "value": 0.0778, "units": "cm/s", "flag": "0", "ln_sigma": 0.0}, {"name": "sa(0.3)", "value": 0.0321, "units": "%g", "flag": "Outlier", "ln_sigma": 0.0}, {"name": "sa(1.0)", "value": 0.0545, "units": "%g", "flag": "0", "ln_sigma": 0.0}, {"name": "sa(3.0)", "value": 0.0425, "units": "%g", "flag": "0", "ln_sigma": 0.0}]}, {"name": "HGE", "amplitudes": [{"name": "pga", "value": 0.0155, "units": "%g", "flag": "0", "ln_sigma": 0.0}, {"name": "pgv", "value": 0.0572, "units": "cm/s", "flag": "0", "ln_sigma": 0.0}, {"name": "sa(0.3)", "value": 0.0184, "units": "%g", "flag": "Outlier", "ln_sigma": 0.0}, {"name": "sa(1.0)", "value": 0.0385, "units": "%g