{"type": "FeatureCollection", "features": [{"type": "Feature", "id": "MMI.OBS_151", "properties": {"code": "OBS_151", "name": "Unknown", "instrumentType": "OBSERVED", "source": "MMI", "network": "MMI", "commType": "UNK", "location": "", "intensity": 4.4, "intensity_flag": "0", "intensity_stddev": 0.3, "pga": 1.5327, "pgv": 1.119, "distance": 101.368, "elev": null, "vs30": 760.0, "channels": [], "nresp": -1, "station_type": "macroseismic", "predictions": [{"name": "mmi", "value": 4.0745, "value_rock": 4.0745, "value_soil": 4.2259, "units": "intensity", "tau": 0.213, "phi": 0.8334, "sigma": 0.8602, "sigma_rock": 0.8604, "sigma_soil": 0.8604, "bias": 0.2162, "bias_sigma": 0.1541}, {"name": "pgv", "value": 0.6343, "value_rock": 0.6343, "value_soil": 0.826, "units": "cm/s", "ln_tau": 0.3716, "ln_phi": 0.5966, "ln_sigma": 0.7029, "ln_sigma_rock": 0.7038, "ln_sigma_soil": 0.7037, "ln_bias": 0.434, "ln_bias_sigma": 0.2074}, {"name": "pga", "value": 1.8251, "value_rock": 1.8251, "value_soil": 2.1221, "units": "%g", "ln_tau": 0.4047, "ln_phi": 0.6197, "ln_sigma": 0.7401, "ln_sigma_rock": 0.7412, "ln_sigma_soil": 0.7411, "ln_bias": -0.0869, "ln_bias_sigma": 0.2167}, {"name": "sa(0.3)", "value": 2.1603, "value_rock": 2.1603, "value_soil": 3.9543, "units": "%g", "ln_tau": 0.3869, "ln_phi": 0.6542, "ln_sigma": 0.76, "ln_sigma_rock": 0.7602, "ln_sigma_soil": 0.7601, "ln_bias": 0.2421, "ln_bias_sigma": 0.2223}, {"name": "sa(1.0)", "value": 0.4172, "value_rock": 0.4172, "value_soil": 0.8966, "units": "%g", "ln_tau": 0.4226, "ln_phi": 0.6305, "ln_sigma": 0.759, "ln_sigma_rock": 0.7592, "ln_sigma_soil": 0.7592, "ln_bias": 0.7839, "ln_bias_sigma": 0.2254}, {"name": "sa(3.0)", "value": 0.0524, "value_rock": 0.0524, "value_soil": 0.0962, "units": "%g", "ln_tau": 0.4438, "ln_phi": 0.5946, "ln_sigma": 0.742, "ln_sigma_rock": 0.7422, "ln_sigma_soil": 0.7421, "ln_bias": 1.3178, "ln_bias_sigma": 0.2598}], "pgm_from_mmi": [{"name": "pga", "value": 1.5327, "units": "%g", "ln_sigma": 1.3125, "flag": "0"}, {"name": "sa(0.3)", "value": 2.5702, "units": "%g", "ln_sigma": 1.4506, "flag": "0"}, {"name": "sa(3.0)", "value": 0.4597, "units": "%g", "ln_sigma": 1.8651, "flag": "0"}, {"name": "sa(1.0)", "value": 1.2288, "units": "%g", "ln_sigma": 1.3125, "flag": "0"}, {"name": "pgv", "value": 1.119, "units": "cm/s", "ln_sigma": 1.1973, "flag": "0"}], "distance_stddev": 3.786, "distances": {"repi": 104.539, "rhypo": 105.017, "rjb": 101.009, "rjb_var": 10.348, "rrup": 101.368, "rrup_var": 14.335}}, "geometry": {"type": "Point", "coordinates": [151.741089, -32.032511]}}, {"type": "Feature", "id": "MMI.OBS_52", "properties": {"code": "OBS_52", "name": "Unknown", "instrumentType": "OBSERVED", "source": "MMI", "network": "MMI", "commType": "UNK", "location": "", "intensity": 7.0, "intensity_flag": "0", "intensity_stddev": 0.3, "pga": 24.1448, "pgv": 17.1177, "distance": 11.797, "elev": null, "vs30": 311.14, "channels": [], "nresp": -1, "station_type": "macroseismic", "predictions": [{"name": "mmi", "value": 6.3315, "value_rock": 6.1512, "value_soil": 5.9923, "units": "intensity", "tau": 0.4889, "phi": 1.2006, "sigma": 1.2964, "sigma_rock": 1.3153, "sigma_soil": 1.2713, "bias": 0.3755, "bias_sigma": 0.2031}, {"name": "pgv", "value": 10.2996, "value_rock": 8.981, "value_soil": 7.959, "units": "cm/s", "ln_tau": 0.3716, "ln_phi": 0.7063, "ln_sigma": 0.7981, "ln_sigma_rock": 0.8158, "ln_sigma_soil": 0.7745, "ln_bias": 0.434, "ln_bias_sigma": 0.2074}, {"name": "pga", "value": 30.9582, "value_rock": 34.3598, "value_soil": 27.4306, "units": "%g", "ln_tau": 0.4047, "ln_phi": 0.71, "ln_sigma": 0.8173, "ln_sigma_rock": 0.8471, "ln_sigma_soil": 0.8069, "ln_bias": -0.0869, "ln_bias_sigma": 0.2167}, {"name": "sa(0.3)", "value": 30.0819, "value_rock": 24.28, "value_soil": 21.9982, "units": "%g", "ln_tau": 0.3869, "ln_phi": 0.7169, "ln_sigma": 0.8146, "ln_sigma_rock": 0.8464, "ln_sigma_soil": 0.7804, "ln_bias": 0.2421, "ln_bias_sigma": 0.2223}, {"name": "sa(1.0)", "value": 7.8289, "value_rock": 4.1178, "value_soil": 7.2144, "units": "%g", "ln_tau": 0.4226, "ln_phi": 0.7257, "ln_sigma": 0.8398, "ln_sigma_rock": 0.8413, "ln_sigma_soil": 0.8235, "ln_bias": 0.7839, "ln_bias_sigma": 0.2254}, {"name": "sa(3.0)", "value": 0.8446, "value_rock": 0.465, "value_soil": 0.7741, "units": "%g", "ln_tau": 0.4438, "ln_phi": 0.6894, "ln_sigma": 0.8199, "ln_sigma_rock": 0.8215, "ln_sigma_soil": 0.815, "ln_bias": 1.3178, "ln_bias_sigma": 0.2598}], "pgm_from_mmi": [{"name": "pga", "value": 24.1448, "units": "%g", "ln_sigma": 1.3125, "flag": "0"}, {"name": "sa(0.3)", "value": 42.6836, "units": "%g", "ln_sigma": 1.4506, "flag": "0"}, {"name": "sa(3.0)", "value": 4.3293, "units": "%g", "ln_sigma": 1.8651, "flag": "0"}, {"name": "sa(1.0)", "value": 17.2389, "units": "%g", "ln_sigma": 1.3125, "flag": "0"}, {"name": "pgv", "value": 17.1177, "units": "cm/s", "ln_sigma": 1.1973, "flag": "0"}], "distance_stddev": 3.948, "distances": {"repi": 10.3, "rhypo": 14.356, "rjb": 7.665, "rjb_var": 5.985, "rrup": 11.797, "rrup_var": 15.583}}, "geometry": {"type": "Point", "coordinates": [151.707528, -32.911682]}}, {"type": "Feature", "id": "MMI.OBS_87", "properties": {"code": "OBS_87", "name": "Unknown", "instrumentType": "OBSERVED", "source": "MMI", "network": "MMI", "commType": "UNK", "location": "", "intensity": 1.0, "intensity_flag": "0", "intensity_stddev": 0.3, "pga": "null", "pgv": "null", "distance": 421.742, "elev": null, "vs30": 760.0, "channels": [], "nresp": -1, "station_type": "macroseismic", "predictions": [{"name": "mmi", "value": 3.1381, "value_rock": 3.1381, "value_soil": 3.3184, "units": "intensity", "tau": 0.213, "phi": 0.8333, "sigma": 0.8601, "sigma_rock": 0.8603, "sigma_soil": 0.8603, "bias": 0.2162, "bias_sigma": 0.1541}, {"name": "pgv", "value": 0.1, "value_rock": 0.1, "value_soil": 0.137, "units": "cm/s", "ln_tau": 0.3716, "ln_phi": 0.596, "ln_sigma": 0.7023, "ln_sigma_rock": 0.7032, "ln_sigma_soil": 0.7032, "ln_bias": 0.434, "ln_bias_sigma": 0.2074}, {"name": "pga", "value": 0.1458, "value_rock": 0.1458, "value_soil": 0.1775, "units": "%g", "ln_tau": 0.4047, "ln_phi": 0.6185, "ln_sigma": 0.7392, "ln_sigma_rock": 0.7402, "ln_sigma_soil": 0.7402, "ln_bias": -0.0869, "ln_bias_sigma": 0.2167}, {"name": "sa(0.3)", "value": 0.3644, "value_rock": 0.3644, "value_soil": 0.714, "units": "%g", "ln_tau": 0.3869, "ln_phi": 0.6538, "ln_sigma": 0.7597, "ln_sigma_rock": 0.7599, "ln_sigma_soil": 0.7599, "ln_bias": 0.2421, "ln_bias_sigma": 0.2223}, {"name": "sa(1.0)", "value": 0.1111, "value_rock": 0.1111, "value_soil": 0.2465, "units": "%g", "ln_tau": 0.4226, "ln_phi": 0.6302, "ln_sigma": 0.7588, "ln_sigma_rock": 0.7589, "ln_sigma_soil": 0.7589, "ln_bias": 0.7839, "ln_bias_sigma": 0.2254}, {"name": "sa(3.0)", "value": 0.0161, "value_rock": 0.0161, "value_soil": 0.0307, "units": "%g", "ln_tau": 0.4438, "ln_phi": 0.5943, "ln_sigma": 0.7417, "ln_sigma_rock": 0.7419, "ln_sigma_soil": 0.7419, "ln_bias": 1.3178, "ln_bias_sigma": 0.2598}], "pgm_from_mmi": [{"name": "pga", "value": null, "units": "%g", "ln_sigma": null, "flag": "0"}, {"name": "sa(0.3)", "value": null, "units": "%g", "ln_sigma": null, "flag": "0"}, {"name": "sa(3.0)", "value": null, "units": "%g", "ln_sigma": null, "flag": "0"}, {"name": "sa(1.0)", "value": null, "units": "%g", "ln_sigma": null, "flag": "0"}, {"name": "pgv", "value": null, "units": "cm/s", "ln_sigma": null, "flag": "0"}], "distance_stddev": 3.539, "distances": {"repi": 425.719, "rhypo": 425.837, "rjb": 422.118, "rjb_var": 10.502, "rrup": 421.742, "rrup_var": 12.527}}, "geometry": {"type": "Point", "coordinates": [147.174328, -33.918709]}}, {"type": "Feature", "id": "MMI.OBS_44", "properties": {"code": "OBS_44", "name": "Unknown", "instrumentType": "OBSERVED", "source": "MMI", "network": "MMI", "commType": "UNK", "location": "", "intensity": 7.0, "intensity_flag": "0", "intensity_stddev": 0.3, "pga": 23.1671, "pgv": 16.8662, "distance": 14.018, "elev": null, "vs30": 386.12, "channels": [], "nresp": -1, "station_type": "macroseismic", "predictions": [{"name": "mmi", "value": 6.0857, "value_rock": 5.8876, "value_soil": 5.7877, "units": "intensity", "tau": 0.4889, "phi": 1.1841, "sigma": 1.281, "sigma_rock": 1.29, "sigma_soil": 1.2565, "bias": 0.3755, "bias_sigma": 0.2031}, {"name": "pgv", "value": 8.4191, "value_rock": 7.2424, "value_soil": 6.7133, "units": "cm/s", "ln_tau": 0.3716, "ln_phi": 0.69, "ln_sigma": 0.7837, "ln_sigma_rock": 0.7922, "ln_sigma_soil": 0.7604, "ln_bias": 0.434, "ln_bias_sigma": 0.2074}, {"name": "pga", "value": 25.7893, "value_rock": 27.7291, "value_soil": 23.1722, "units": "%g", "ln_tau": 0.4047, "ln_phi": 0.6968, "ln_sigma": 0.8059, "ln_sigma_rock": 0.8245, "ln_sigma_soil": 0.7939, "ln_bias": -0.0869, "ln_bias_sigma": 0.2167}, {"name": "sa(0.3)", "value": 26.3347, "value_rock": 19.997, "value_soil": 19.9601, "units": "%g", "ln_tau": 0.3869, "ln_phi": 0.7155, "ln_sigma": 0.8134, "ln_sigma_rock": 0.8279, "ln_sigma_soil": 0.7785, "ln_bias": 0.2421, "ln_bias_sigma": 0.2223}, {"name": "sa(1.0)", "value": 5.8413, "value_rock": 3.4101, "value_soil": 6.1079, "units": "%g", "ln_tau": 0.4226, "ln_phi": 0.7067, "ln_sigma": 0.8234, "ln_sigma_rock": 0.8237, "ln_sigma_soil": 0.81, "ln_bias": 0.7839, "ln_bias_sigma": 0.2254}, {"name": "sa(3.0)", "value": 0.6326, "value_rock": 0.3872, "value_soil": 0.6497, "units": "%g", "ln_tau": 0.4438, "ln_phi": 0.6702, "ln_sigma": 0.8039, "ln_sigma_rock": 0.8045, "ln_sigma_soil": 0.7993, "ln_bias": 1.3178, "ln_bias_sigma": 0.2598}], "pgm_from_mmi": [{"name": "pga", "value": 23.1671, "units": "%g", "ln_sigma": 1.3125, "flag": "0"}, {"name": "sa(0.3)", "value": 41.3802, "units": "%g", "ln_sigma": 1.4506, "flag": "0"}, {"name": "sa(3.0)", "value": 4.4071, "units": "%g", "ln_sigma": 1.8651, "flag": "0"}, {"name": "sa(1.0)", "value": 17.1987, "units": "%g", "ln_sigma": 1.3125, "flag": "0"}, {"name": "pgv", "value": 16.8662, "units": "cm/s", "ln_sigma": 1.1973, "flag": "0"}], "distance_stddev": 4.137, "distances": {"repi": 13.204, "rhypo": 16.563, "rjb": 10.39, "rjb_var": 7.081, "rrup": 14.018, "rrup_var": 17.119}}, "geometry": {"type": "Point", "coordinates": [151.720048, -32.883894]}}, {"type": "Feature", "id": "MMI.OBS_45", "properties": {"code": "OBS_45", "name": "Unknown", "instrumentType": "OBSERVED", "source": "MMI", "network": "MMI", "commType": "UNK", "location": "", "intensity": 7.0, "intensity_flag": "0", "intensity_stddev": 0.3, "pga": 22.9982, "pgv": 16.8221, "distance": 14.453, "elev": null, "vs30": 600.0, "channels": [], "nresp": -1, "station_type": "macroseismic", "predictions": [{"name": "mmi", "value": 5.9605, "value_rock": 5.8409, "value_soil": 5.7513, "units": "intensity", "tau": 0.4889, "phi": 1.1873, "sigma": 1.2841, "sigma_rock": 1.2862, "sigma_soil": 1.2543, "bias": 0.3755, "bias_sigma": 0.2031}, {"name": "pgv", "value": 7.635, "value_rock": 6.9716, "value_soil": 6.5126, "units": "cm/s", "ln_tau": 0.3716, "ln_phi": 0.6932, "ln_sigma": 0.7865, "ln_sigma_rock": 0.7886, "ln_sigma_soil": 0.7583, "ln_bias": 0.434, "ln_bias_sigma": 0.2074}, {"name": "pga", "value": 26.4794, "value_rock": 26.6961, "value_soil": 22.4848, "units": "%g", "ln_tau": 0.4047, "ln_phi": 0.7059, "ln_sigma": 0.8137, "ln_sigma_rock": 0.8211, "ln_sigma_soil": 0.7919, "ln_bias": -0.0869, "ln_bias_sigma": 0.2167}, {"name": "sa(0.3)", "value": 20.7814, "value_rock": 19.3215, "value_soil": 19.6046, "units": "%g", "ln_tau": 0.3869, "ln_phi": 0.7258, "ln_sigma": 0.8225, "ln_sigma_rock": 0.8251, "ln_sigma_soil": 0.7781, "ln_bias": 0.2421, "ln_bias_sigma": 0.2223}, {"name": "sa(1.0)", "value": 3.7628, "value_rock": 3.2981, "value_soil": 5.93, "units": "%g", "ln_tau": 0.4226, "ln_phi": 0.7038, "ln_sigma": 0.8209, "ln_sigma_rock": 0.8211, "ln_sigma_soil": 0.8079, "ln_bias": 0.7839, "ln_bias_sigma": 0.2254}, {"name": "sa(3.0)", "value": 0.4303, "value_rock": 0.3748, "value_soil": 0.6299, "units": "%g", "ln_tau": 0.4438, "ln_phi": 0.6677, "ln_sigma": 0.8017, "ln_sigma_rock": 0.8019, "ln_sigma_soil": 0.797, "ln_bias": 1.3178, "ln_bias_sigma": 0.2598}], "pgm_from_mmi": [{"name": "pga", "value": 22.9982, "units": "%g", "ln_sigma": 1.3125, "flag": "0"}, {"name": "sa(0.3)", "value": 41.1536, "units": "%g", "ln_sigma": 1.4506, "flag": "0"}, {"name": "sa(3.0)", "value": 4.4211, "units": "%g", "ln_sigma": 1.8651, "flag": "0"}, {"name": "sa(1.0)", "value": 17.1915, "units": "%g", "ln_sigma": 1.3125, "flag": "0"}, {"name": "pgv", "value": 16.8221, "units": "cm/s", "ln_sigma": 1.1973, "flag": "0"}], "distance_stddev": 4.174, "distances": {"repi": 13.772, "rhypo": 17.02, "rjb": 10.923, "rjb_var": 7.296, "rrup": 14.453, "rrup_var": 17.419}}, "geometry": {"type": "Point", "coordinates": [151.728986, -32.884428]}}, {"type": "Feature", "id": "MMI.OBS_27", "properties": {"code": "OBS_27", "name": "Unknown", "instrumentType": "OBSERVED", "source": "MMI", "network": "MMI", "commType": "UNK", "location": "", "intensity": 7.0, "intensity_flag": "0", "intensity_stddev": 0.3, "pga": 25.1199, "pgv": 17.3622, "distance": 8.063, "elev": null, "vs30": 896.38, "channels": [], "nresp": -1, "station_type": "macroseismic", "predictions": [{"name": "mmi", "value": 6.672, "value_rock": 6.6635, "value_soil": 6.3908, "units": "intensity", "tau": 0.4889, "phi": 1.1858, "sigma": 1.2826, "sigma_rock": 1.283, "sigma_soil": 1.2506, "bias": 0.3755, "bias_sigma": 0.2031}, {"name": "pgv", "value": 13.532, "value_rock": 13.4449, "value_soil": 10.9279, "units": "cm/s", "ln_tau": 0.3716, "ln_phi": 0.6917, "ln_sigma": 0.7852, "ln_sigma_rock": 0.7856, "ln_sigma_soil": 0.7547, "ln_bias": 0.434, "ln_bias_sigma": 0.2074}, {"name": "pga", "value": 50.8241, "value_rock": 50.8314, "value_soil": 37.1544, "units": "%g", "ln_tau": 0.4047, "ln_phi": 0.701, "ln_sigma": 0.8095, "ln_sigma_rock": 0.8104, "ln_sigma_soil": 0.782, "ln_bias": -0.0869, "ln_bias_sigma": 0.2167}, {"name": "sa(0.3)", "value": 33.1565, "value_rock": 35.0823, "value_soil": 26.2143, "units": "%g", "ln_tau": 0.3869, "ln_phi": 0.7291, "ln_sigma": 0.8254, "ln_sigma_rock": 0.8256, "ln_sigma_soil": 0.7747, "ln_bias": 0.2421, "ln_bias_sigma": 0.2223}, {"name": "sa(1.0)", "value": 5.7925, "value_rock": 5.9191, "value_soil": 9.9454, "units": "%g", "ln_tau": 0.4226, "ln_phi": 0.7086, "ln_sigma": 0.8251, "ln_sigma_rock": 0.8252, "ln_sigma_soil": 0.8116, "ln_bias": 0.7839, "ln_bias_sigma": 0.2254}, {"name": "sa(3.0)", "value": 0.6332, "value_rock": 0.6619, "value_soil": 1.086, "units": "%g", "ln_tau": 0.4438, "ln_phi": 0.6732, "ln_sigma": 0.8063, "ln_sigma_rock": 0.8065, "ln_sigma_soil": 0.8017, "ln_bias": 1.3178, "ln_bias_sigma": 0.2598}], "pgm_from_mmi": [{"name": "pga", "value": 25.1199, "units": "%g", "ln_sigma": 1.3125, "flag": "0"}, {"name": "sa(0.3)", "value": 43.9706, "units": "%g", "ln_sigma": 1.4506, "flag": "0"}, {"name": "sa(3.0)", "value": 4.256, "units": "%g", "ln_sigma": 1.8651, "flag": "0"}, {"name": "sa(1.0)", "value": 17.2776, "units": "%g", "ln_sigma": 1.3125, "flag": "0"}, {"name": "pgv", "value": 17.3622, "units": "cm/s", "ln_sigma": 1.1973, "flag": "0"}], "distance_stddev": 3.118, "distances": {"repi": 1.043, "rhypo": 10.054, "rjb": 0.353, "rjb_var": 0.152, "rrup": 8.063, "rrup_var": 9.721}}, "geometry": {"type": "Point", "coordinates": [151.630164, -32.966548]}}, {"type": "Feature", "id": "MMI.OBS_15", "properties": {"code": "OBS_15", "name": "Unknown", "instrumentType": "OBSERVED", "source": "MMI", "network": "MMI", "commType": "UNK", "location": "", "intensity": 6.0, "intensity_flag": "0", "intensity_stddev": 0.3, "pga": 14.306, "pgv": 8.1203, "distance": 8.854, "elev": null, "vs30": 600.0, "channels": [], "nresp": -1, "station_type": "macroseismic", "predictions": [{"name": "mmi", "value": 6.6643, "value_rock": 6.5507, "value_soil": 6.302, "units": "intensity", "tau": 0.4889, "phi": 1.1758, "sigma": 1.2734, "sigma_rock": 1.2754, "sigma_soil": 1.2461, "bias": 0.3755, "bias_sigma": 0.2031}, {"name": "pgv", "value": 13.4528, "value_rock": 12.3397, "value_soil": 10.2148, "units": "cm/s", "ln_tau": 0.3716, "ln_phi": 0.6818, "ln_sigma": 0.7764, "ln_sigma_rock": 0.7784, "ln_sigma_soil": 0.7504, "ln_bias": 0.434, "ln_bias_sigma": 0.2074}, {"name": "pga", "value": 45.3301, "value_rock": 46.88, "value_soil": 34.9103, "units": "%g", "ln_tau": 0.4047, "ln_phi": 0.6872, "ln_sigma": 0.7975, "ln_sigma_rock": 0.8042, "ln_sigma_soil": 0.7786, "ln_bias": -0.0869, "ln_bias_sigma": 0.2167}, {"name": "sa(0.3)", "value": 34.484, "value_rock": 32.413, "value_soil": 25.2388, "units": "%g", "ln_tau": 0.3869, "ln_phi": 0.7198, "ln_sigma": 0.8172, "ln_sigma_rock": 0.8198, "ln_sigma_soil": 0.7739, "ln_bias": 0.2421, "ln_bias_sigma": 0.2223}, {"name": "sa(1.0)", "value": 6.24, "value_rock": 5.4686, "value_soil": 9.2692, "units": "%g", "ln_tau": 0.4226, "ln_phi": 0.7019, "ln_sigma": 0.8193, "ln_sigma_rock": 0.8194, "ln_sigma_soil": 0.8071, "ln_bias": 0.7839, "ln_bias_sigma": 0.2254}, {"name": "sa(3.0)", "value": 0.7034, "value_rock": 0.6127, "value_soil": 1.0083, "units": "%g", "ln_tau": 0.4438, "ln_phi": 0.6663, "ln_sigma": 0.8006, "ln_sigma_rock": 0.8008, "ln_sigma_soil": 0.7964, "ln_bias": 1.3178, "ln_bias_sigma": 0.2598}], "pgm_from_mmi": [{"name": "pga", "value": 14.306, "units": "%g", "ln_sigma": 1.3125, "flag": "0"}, {"name": "sa(0.3)", "value": 23.0284, "units": "%g", "ln_sigma": 1.4506, "flag": "0"}, {"name": "sa(3.0)", "value": 1.9754, "units": "%g", "ln_sigma": 1.8651, "flag": "0"}, {"name": "sa(1.0)", "value": 7.9159, "units": "%g", "ln_sigma": 1.3125, "flag": "0"}, {"name": "pgv", "value": 8.1203, "units": "cm/s", "ln_sigma": 1.1973, "flag": "0"}], "distance_stddev": 3.263, "distances": {"repi": 4.626, "rhypo": 11.018, "rjb": 2.838, "rjb_var": 2.129, "rrup": 8.854, "rrup_var": 10.648}}, "geometry": {"type": "Point", "coordinates": [151.604806, -33.006861]}}, {"type": "Feature", "id": "MMI.OBS_175", "properties": {"code": "OBS_175", "name": "Unknown", "instrumentType": "OBSERVED", "source": "MMI", "network": "MMI", "commType": "UNK", "location": "", "intensity": "null", "intensity_flag": "0", "intensity_stddev": "null", "pga": "null", "pgv": "null", "distance": 205.722, "elev": null, "vs30": 760.0, "channels": [], "nresp": "null", "station_type": "macroseismic", "predictions": [{"name": "mmi", "value": 3.7112, "value_rock": 3.7112, "value_soil": 3.8819, "units": "intensity", "tau": 0.213, "phi": 0.8333, "sigma": 0.8601, "sigma_rock": 0.8604, "sigma_soil": 0.8604, "bias": 0.2162, "bias_sigma": 0.1541}, {"name": "pgv", "value": 0.2927, "value_rock": 0.2927, "value_soil": 0.3943, "units": "cm/s", "ln_tau": 0.3716, "ln_phi": 0.5963, "ln_sigma": 0.7026, "ln_sigma_rock": 0.7035, "ln_sigma_soil": 0.7034, "ln_bias": 0.434, "ln_bias_sigma": 0.2074}, {"name": "pga", "value": 0.6501, "value_rock": 0.6501, "value_soil": 0.7796, "units": "%g", "ln_tau": 0.4047, "ln_phi": 0.6191, "ln_sigma": 0.7396, "ln_sigma_rock": 0.7406, "ln_sigma_soil": 0.7406, "ln_bias": -0.0869, "ln_bias_sigma": 0.2167}, {"name": "sa(0.3)", "value": 1.0629, "value_rock": 1.0629, "value_soil": 2.0381, "units": "%g", "ln_tau": 0.3869, "ln_phi": 0.654, "ln_sigma": 0.7599, "ln_sigma_rock": 0.7601, "ln_sigma_soil": 0.7601, "ln_bias": 0.2421, "ln_bias_sigma": 0.2223}, {"name": "sa(1.0)", "value": 0.2386, "value_rock": 0.2386, "value_soil": 0.5238, "units": "%g", "ln_tau": 0.4226, "ln_phi": 0.6304, "ln_sigma": 0.7589, "ln_sigma_rock": 0.7591, "ln_sigma_soil": 0.7591, "ln_bias": 0.7839, "ln_bias_sigma": 0.2254}, {"name": "sa(3.0)", "value": 0.0314, "value_rock": 0.0314, "value_soil": 0.0589, "units": "%g", "ln_tau": 0.4438, "ln_phi": 0.5945, "ln_sigma": 0.7418, "ln_sigma_rock": 0.742, "ln_sigma_soil": 0.742, "ln_bias": 1.3178, "ln_bias_sigma": 0.2598}], "pgm_from_mmi": [{"name": "pga", "value": null, "units": "%g", "ln_sigma": null, "flag": "0"}, {"name": "sa(0.3)", "value": null, "units": "%g", "ln_sigma": null, "flag": "0"}, {"name": "sa(3.0)", "value": null, "units": "%g", "ln_sigma": null, "flag": "0"}, {"name": "sa(1.0)", "value": null, "units": "%g", "ln_sigma": null, "flag": "0"}, {"name": "pgv", "